[
{"REGION":"KATAVI","POSTCODE":"50101","DISTRICT":"MPANDA -CBD","WARD":"KAWAJENSE","STREET":"KAWAJENSE","PLACES":""},
{"REGION":"KATAVI","POSTCODE":"50101","DISTRICT":"MPANDA -CBD","WARD":"KAWAJENSE","STREET":"MAJENGO MAPYA","PLACES":""},
{"REGION":"KATAVI","POSTCODE":"50101","DISTRICT":"MPANDA -CBD","WARD":"KAWAJENSE","STREET":"IKULU","PLACES":""},
{"REGION":"KATAVI","POSTCODE":"50102","DISTRICT":"MPANDA -CBD","WARD":"ILEMBO","STREET":"ILEMBO","PLACES":""},
{"REGION":"KATAVI","POSTCODE":"50102","DISTRICT":"MPANDA -CBD","WARD":"ILEMBO","STREET":"KASIMBA","PLACES":""},
{"REGION":"KATAVI","POSTCODE":"50102","DISTRICT":"MPANDA -CBD","WARD":"ILEMBO","STREET":"MAPINDUZI","PLACES":""},
{"REGION":"KATAVI","POSTCODE":"50103","DISTRICT":"MPANDA -CBD","WARD":"MISUNKUMILO","STREET":"MISUNKUMILO","PLACES":""},
{"REGION":"KATAVI","POSTCODE":"50103","DISTRICT":"MPANDA -CBD","WARD":"MISUNKUMILO","STREET":"KAMPUNI","PLACES":""},
{"REGION":"KATAVI","POSTCODE":"50103","DISTRICT":"MPANDA -CBD","WARD":"MISUNKUMILO","STREET":"MTEMI BEDA","PLACES":""},
{"REGION":"KATAVI","POSTCODE":"50103","DISTRICT":"MPANDA -CBD","WARD":"MISUNKUMILO","STREET":"MILALA","PLACES":"JERAMANGA A"},
{"REGION":"KATAVI","POSTCODE":"50103","DISTRICT":"MPANDA -CBD","WARD":"MISUNKUMILO","STREET":"MILALA","PLACES":"JERAMANGA B"},
{"REGION":"KATAVI","POSTCODE":"50103","DISTRICT":"MPANDA -CBD","WARD":"MISUNKUMILO","STREET":"MILALA","PLACES":"JERAMANGA C"},
{"REGION":"KATAVI","POSTCODE":"50103","DISTRICT":"MPANDA -CBD","WARD":"MISUNKUMILO","STREET":"MILALA","PLACES":"JERAMANGA D"},
{"REGION":"KATAVI","POSTCODE":"50103","DISTRICT":"MPANDA -CBD","WARD":"MISUNKUMILO","STREET":"MILALA","PLACES":"JERAMANGA E"},
{"REGION":"KATAVI","POSTCODE":"50103","DISTRICT":"MPANDA -CBD","WARD":"MISUNKUMILO","STREET":"MILALA","PLACES":"KATYASHO A"},
{"REGION":"KATAVI","POSTCODE":"50103","DISTRICT":"MPANDA -CBD","WARD":"MISUNKUMILO","STREET":"MILALA","PLACES":"KATYASHO B"},
{"REGION":"KATAVI","POSTCODE":"50103","DISTRICT":"MPANDA -CBD","WARD":"MISUNKUMILO","STREET":"MILALA","PLACES":"KATYASHO C"},
{"REGION":"KATAVI","POSTCODE":"50103","DISTRICT":"MPANDA -CBD","WARD":"MISUNKUMILO","STREET":"MILALA","PLACES":"KIGWA"},
{"REGION":"KATAVI","POSTCODE":"50103","DISTRICT":"MPANDA -CBD","WARD":"MISUNKUMILO","STREET":"MILALA","PLACES":"SHONGOMABANINI"},
{"REGION":"KATAVI","POSTCODE":"50104","DISTRICT":"MPANDA -CBD","WARD":"NSEMULWA","STREET":"NSEMULWA","PLACES":""},
{"REGION":"KATAVI","POSTCODE":"50104","DISTRICT":"MPANDA -CBD","WARD":"NSEMULWA","STREET":"MIGAZINI","PLACES":""},
{"REGION":"KATAVI","POSTCODE":"50104","DISTRICT":"MPANDA -CBD","WARD":"NSEMULWA","STREET":"KILIMANI","PLACES":""},
{"REGION":"KATAVI","POSTCODE":"50104","DISTRICT":"MPANDA -CBD","WARD":"NSEMULWA","STREET":"KICHANGANI","PLACES":""},
{"REGION":"KATAVI","POSTCODE":"50104","DISTRICT":"MPANDA -CBD","WARD":"NSEMULWA","STREET":"TULIENI","PLACES":""},
{"REGION":"KATAVI","POSTCODE":"50104","DISTRICT":"MPANDA -CBD","WARD":"NSEMULWA","STREET":"SHANKALA","PLACES":"WACHAWASEME"},
{"REGION":"KATAVI","POSTCODE":"50104","DISTRICT":"MPANDA -CBD","WARD":"NSEMULWA","STREET":"SHANKALA","PLACES":"MLIMANI A"},
{"REGION":"KATAVI","POSTCODE":"50104","DISTRICT":"MPANDA -CBD","WARD":"NSEMULWA","STREET":"SHANKALA","PLACES":"RELINI"},
{"REGION":"KATAVI","POSTCODE":"50104","DISTRICT":"MPANDA -CBD","WARD":"NSEMULWA","STREET":"SHANKALA","PLACES":"SHANKALA WAFUGAJI"},
{"REGION":"KATAVI","POSTCODE":"50104","DISTRICT":"MPANDA -CBD","WARD":"NSEMULWA","STREET":"SHANKALA","PLACES":"MLIMANI B"},
{"REGION":"KATAVI","POSTCODE":"50104","DISTRICT":"MPANDA -CBD","WARD":"NSEMULWA","STREET":"SHANKALA","PLACES":"KABATINI"},
{"REGION":"KATAVI","POSTCODE":"50105","DISTRICT":"MPANDA -CBD","WARD":"SHANWE","STREET":"SHANWE","PLACES":""},
{"REGION":"KATAVI","POSTCODE":"50105","DISTRICT":"MPANDA -CBD","WARD":"SHANWE","STREET":"KIGAMBONI","PLACES":""},
{"REGION":"KATAVI","POSTCODE":"50105","DISTRICT":"MPANDA -CBD","WARD":"SHANWE","STREET":"KIVUKONI","PLACES":""},
{"REGION":"KATAVI","POSTCODE":"50105","DISTRICT":"MPANDA -CBD","WARD":"SHANWE","STREET":"KILIMAHEWA","PLACES":""},
{"REGION":"KATAVI","POSTCODE":"50106","DISTRICT":"MPANDA -CBD","WARD":"KASHAULILI","STREET":"KASHAULILI","PLACES":""},
{"REGION":"KATAVI","POSTCODE":"50106","DISTRICT":"MPANDA -CBD","WARD":"KASHAULILI","STREET":"BUZOGWE","PLACES":""},
{"REGION":"KATAVI","POSTCODE":"50106","DISTRICT":"MPANDA -CBD","WARD":"KASHAULILI","STREET":"KOTAZI","PLACES":""},
{"REGION":"KATAVI","POSTCODE":"50107","DISTRICT":"MPANDA -CBD","WARD":"MPANDA HOTEL","STREET":"TAMBUKARELI","PLACES":""},
{"REGION":"KATAVI","POSTCODE":"50107","DISTRICT":"MPANDA -CBD","WARD":"MPANDA HOTEL","STREET":"MPANDA HOTEL","PLACES":""},
{"REGION":"KATAVI","POSTCODE":"50107","DISTRICT":"MPANDA -CBD","WARD":"MPANDA HOTEL","STREET":"MSASANI","PLACES":""},
{"REGION":"KATAVI","POSTCODE":"50108","DISTRICT":"MPANDA -CBD","WARD":"MAKANYAGIO","STREET":"MAKANYAGIO","PLACES":""},
{"REGION":"KATAVI","POSTCODE":"50108","DISTRICT":"MPANDA -CBD","WARD":"MAKANYAGIO","STREET":"KACHOMA","PLACES":""},
{"REGION":"KATAVI","POSTCODE":"50108","DISTRICT":"MPANDA -CBD","WARD":"MAKANYAGIO","STREET":"KIGOMA","PLACES":""},
{"REGION":"KATAVI","POSTCODE":"50108","DISTRICT":"MPANDA -CBD","WARD":"MAKANYAGIO","STREET":"MPADECO","PLACES":""},
{"REGION":"KATAVI","POSTCODE":"50108","DISTRICT":"MPANDA -CBD","WARD":"MAKANYAGIO","STREET":"MWANGAZA","PLACES":""},
{"REGION":"KATAVI","POSTCODE":"50109","DISTRICT":"MPANDA -CBD","WARD":"KAKESE","STREET":"KAKESE","PLACES":"MKWAJUNI"},
{"REGION":"KATAVI","POSTCODE":"50109","DISTRICT":"MPANDA -CBD","WARD":"KAKESE","STREET":"KAKESE","PLACES":"MAKANISANI"},
{"REGION":"KATAVI","POSTCODE":"50109","DISTRICT":"MPANDA -CBD","WARD":"KAKESE","STREET":"KAKESE","PLACES":"KAFULESI \"A\""},
{"REGION":"KATAVI","POSTCODE":"50109","DISTRICT":"MPANDA -CBD","WARD":"KAKESE","STREET":"KAKESE","PLACES":"KAFULESI \"B\""},
{"REGION":"KATAVI","POSTCODE":"50109","DISTRICT":"MPANDA -CBD","WARD":"KAKESE","STREET":"MBUGANI","PLACES":"MBUGANI \"A\" MASHARIKI"},
{"REGION":"KATAVI","POSTCODE":"50109","DISTRICT":"MPANDA -CBD","WARD":"KAKESE","STREET":"MBUGANI","PLACES":"MBUGANI ‘B’ MASHARIKI"}
,
{"REGION":"KATAVI","POSTCODE":"50109","DISTRICT":"MPANDA -CBD","WARD":"KAKESE","STREET":"MBUGANI","PLACES":"MALUJA"},
{"REGION":"KATAVI","POSTCODE":"50109","DISTRICT":"MPANDA -CBD","WARD":"KAKESE","STREET":"MBUGANI","PLACES":"MWANGOYE"},
{"REGION":"KATAVI","POSTCODE":"50109","DISTRICT":"MPANDA -CBD","WARD":"KAKESE","STREET":"MBUGANI","PLACES":"MBUGANI ‘B’ MAGHARIBI"}
,
{"REGION":"KATAVI","POSTCODE":"50109","DISTRICT":"MPANDA -CBD","WARD":"KAKESE","STREET":"KAMAKUKA","PLACES":"ISENGULE"},
{"REGION":"KATAVI","POSTCODE":"50109","DISTRICT":"MPANDA -CBD","WARD":"KAKESE","STREET":"KAMAKUKA","PLACES":"IPWAGA"},
{"REGION":"KATAVI","POSTCODE":"50109","DISTRICT":"MPANDA -CBD","WARD":"KAKESE","STREET":"KAMAKUKA","PLACES":"KAMAKUKA \"A\""},
{"REGION":"KATAVI","POSTCODE":"50109","DISTRICT":"MPANDA -CBD","WARD":"KAKESE","STREET":"KAMAKUKA","PLACES":"KAMAKUKA \"B\""},
{"REGION":"KATAVI","POSTCODE":"50109","DISTRICT":"MPANDA -CBD","WARD":"KAKESE","STREET":"KAWAZINGE","PLACES":"MABANINI MASHARIKI"},
{"REGION":"KATAVI","POSTCODE":"50109","DISTRICT":"MPANDA -CBD","WARD":"KAKESE","STREET":"KAWAZINGE","PLACES":"BULIMA"},
{"REGION":"KATAVI","POSTCODE":"50109","DISTRICT":"MPANDA -CBD","WARD":"KAKESE","STREET":"KAWAZINGE","PLACES":"KAWANZIGE A"},
{"REGION":"KATAVI","POSTCODE":"50109","DISTRICT":"MPANDA -CBD","WARD":"KAKESE","STREET":"KAWAZINGE","PLACES":"JITEGEMEE"},
{"REGION":"KATAVI","POSTCODE":"50109","DISTRICT":"MPANDA -CBD","WARD":"KAKESE","STREET":"KAWAZINGE","PLACES":"MWEMBENI"},
{"REGION":"KATAVI","POSTCODE":"50110","DISTRICT":"MPANDA -CBD","WARD":"MAJENGO","STREET":"MJI MWEMA","PLACES":""},
{"REGION":"KATAVI","POSTCODE":"50110","DISTRICT":"MPANDA -CBD","WARD":"MAJENGO","STREET":"PARADIZE","PLACES":""},
{"REGION":"KATAVI","POSTCODE":"50110","DISTRICT":"MPANDA -CBD","WARD":"MAJENGO","STREET":"MALIDADI","PLACES":""},
{"REGION":"KATAVI","POSTCODE":"50111","DISTRICT":"MPANDA -CBD","WARD":"UWANJA WA\nNDEGE","STREET":"MNAZI MMOJA","PLACES":""},
{"REGION":"KATAVI","POSTCODE":"50111","DISTRICT":"MPANDA -CBD","WARD":"UWANJA WA\nNDEGE","STREET":"AIRTEL","PLACES":""},
{"REGION":"KATAVI","POSTCODE":"50111","DISTRICT":"MPANDA -CBD","WARD":"UWANJA WA\nNDEGE","STREET":"MSUFINI","PLACES":""},
{"REGION":"KATAVI","POSTCODE":"50112","DISTRICT":"MPANDA -CBD","WARD":"KAZIMA","STREET":"KAPALANGAO","PLACES":""},
{"REGION":"KATAVI","POSTCODE":"50112","DISTRICT":"MPANDA -CBD","WARD":"KAZIMA","STREET":"RUNGWA","PLACES":""},
{"REGION":"KATAVI","POSTCODE":"50112","DISTRICT":"MPANDA -CBD","WARD":"KAZIMA","STREET":"KAZIMA","PLACES":""},
{"REGION":"KATAVI","POSTCODE":"50113","DISTRICT":"MPANDA -CBD","WARD":"MWAMKULU","STREET":"NSESO","PLACES":""},
{"REGION":"KATAVI","POSTCODE":"50113","DISTRICT":"MPANDA -CBD","WARD":"MWAMKULU","STREET":"SENTA MARIA","PLACES":""},
{"REGION":"KATAVI","POSTCODE":"50113","DISTRICT":"MPANDA -CBD","WARD":"MWAMKULU","STREET":"MKOKWA","PLACES":""},
{"REGION":"KATAVI","POSTCODE":"50113","DISTRICT":"MPANDA -CBD","WARD":"MWAMKULU","STREET":"MKWAJUNI","PLACES":""},
{"REGION":"KATAVI","POSTCODE":"50113","DISTRICT":"MPANDA -CBD","WARD":"MWAMKULU","STREET":"NGUVUMALI","PLACES":""},
{"REGION":"KATAVI","POSTCODE":"50114","DISTRICT":"MPANDA -CBD","WARD":"MAGAMBA","STREET":"MAGAMBA","PLACES":"IKULU"},
{"REGION":"KATAVI","POSTCODE":"50114","DISTRICT":"MPANDA -CBD","WARD":"MAGAMBA","STREET":"MAGAMBA","PLACES":"BURUNGA"},
{"REGION":"KATAVI","POSTCODE":"50114","DISTRICT":"MPANDA -CBD","WARD":"MAGAMBA","STREET":"MAGAMBA","PLACES":"NEW CAMP"},
{"REGION":"KATAVI","POSTCODE":"50114","DISTRICT":"MPANDA -CBD","WARD":"MAGAMBA","STREET":"MAGAMBA","PLACES":"MIGAZINI"},
{"REGION":"KATAVI","POSTCODE":"50114","DISTRICT":"MPANDA -CBD","WARD":"MAGAMBA","STREET":"MAGAMBA","PLACES":"MTAKATA"},
{"REGION":"KATAVI","POSTCODE":"50114","DISTRICT":"MPANDA -CBD","WARD":"MAGAMBA","STREET":"MAGAMBA","PLACES":"BERINGI"},
{"REGION":"KATAVI","POSTCODE":"50114","DISTRICT":"MPANDA -CBD","WARD":"MAGAMBA","STREET":"MAKONGOLO","PLACES":"MAKONGOLO"},
{"REGION":"KATAVI","POSTCODE":"50114","DISTRICT":"MPANDA -CBD","WARD":"MAGAMBA","STREET":"MAKONGOLO","PLACES":"IGALUKILO"},
{"REGION":"KATAVI","POSTCODE":"50114","DISTRICT":"MPANDA -CBD","WARD":"MAGAMBA","STREET":"MAKONGOLO","PLACES":"MLIMANI"},
{"REGION":"KATAVI","POSTCODE":"50114","DISTRICT":"MPANDA -CBD","WARD":"MAGAMBA","STREET":"MAKONGOLO","PLACES":"MAILIKUMI"},
{"REGION":"KATAVI","POSTCODE":"50114","DISTRICT":"MPANDA -CBD","WARD":"MAGAMBA","STREET":"MAKONGOLO","PLACES":"KANONDO"},
{"REGION":"KATAVI","POSTCODE":"50114","DISTRICT":"MPANDA -CBD","WARD":"MAGAMBA","STREET":"DIRIFU","PLACES":"MSANGAMA"},
{"REGION":"KATAVI","POSTCODE":"50114","DISTRICT":"MPANDA -CBD","WARD":"MAGAMBA","STREET":"DIRIFU","PLACES":"KAGERA"},
{"REGION":"KATAVI","POSTCODE":"50114","DISTRICT":"MPANDA -CBD","WARD":"MAGAMBA","STREET":"DIRIFU","PLACES":"MKUYUNI"},
{"REGION":"KATAVI","POSTCODE":"50114","DISTRICT":"MPANDA -CBD","WARD":"MAGAMBA","STREET":"DIRIFU","PLACES":"LUMUKA B"},
{"REGION":"KATAVI","POSTCODE":"50114","DISTRICT":"MPANDA -CBD","WARD":"MAGAMBA","STREET":"DIRIFU","PLACES":"KAMSOFU"},
{"REGION":"KATAVI","POSTCODE":"50114","DISTRICT":"MPANDA -CBD","WARD":"MAGAMBA","STREET":"DIRIFU","PLACES":"IKULO"},
{"REGION":"KATAVI","POSTCODE":"50114","DISTRICT":"MPANDA -CBD","WARD":"MAGAMBA","STREET":"SOCIETY","PLACES":"MWENGE"},
{"REGION":"KATAVI","POSTCODE":"50114","DISTRICT":"MPANDA -CBD","WARD":"MAGAMBA","STREET":"SOCIETY","PLACES":"NJIA PANDA"},
{"REGION":"KATAVI","POSTCODE":"50114","DISTRICT":"MPANDA -CBD","WARD":"MAGAMBA","STREET":"SOCIETY","PLACES":"IKULU"},
{"REGION":"KATAVI","POSTCODE":"50114","DISTRICT":"MPANDA -CBD","WARD":"MAGAMBA","STREET":"SOCIETY","PLACES":"MAFUANGUO"},
{"REGION":"KATAVI","POSTCODE":"50114","DISTRICT":"MPANDA -CBD","WARD":"MAGAMBA","STREET":"MTAKUMBUKA","PLACES":"MTAKUMBUKA KATI"},
{"REGION":"KATAVI","POSTCODE":"50114","DISTRICT":"MPANDA -CBD","WARD":"MAGAMBA","STREET":"MTAKUMBUKA","PLACES":"KABATINI"},
{"REGION":"KATAVI","POSTCODE":"50114","DISTRICT":"MPANDA -CBD","WARD":"MAGAMBA","STREET":"MTAKUMBUKA","PLACES":"MTAKUMBUKA KUSINI"},
{"REGION":"KATAVI","POSTCODE":"50114","DISTRICT":"MPANDA -CBD","WARD":"MAGAMBA","STREET":"MTAKUMBUKA","PLACES":"MTAKUMBUKA KASKAZINI"},
{"REGION":"KATAVI","POSTCODE":"50114","DISTRICT":"MPANDA -CBD","WARD":"MAGAMBA","STREET":"MTAKUMBUKA","PLACES":"MTAKUMBUKA MASHARIKI"},
{"REGION":"KATAVI","POSTCODE":"50114","DISTRICT":"MPANDA -CBD","WARD":"MAGAMBA","STREET":"MTAKUMBUKA","PLACES":"MTAMBUKA IGONDA"},
{"REGION":"KATAVI","POSTCODE":"50115","DISTRICT":"MPANDA -CBD","WARD":"KASOKOLA","STREET":"KASOKOLA","PLACES":"KASOKOLA MASHARIKI A"},
{"REGION":"KATAVI","POSTCODE":"50115","DISTRICT":"MPANDA -CBD","WARD":"KASOKOLA","STREET":"KASOKOLA","PLACES":"KASOKOLA MAGHARIBI A"},
{"REGION":"KATAVI","POSTCODE":"50115","DISTRICT":"MPANDA -CBD","WARD":"KASOKOLA","STREET":"KASOKOLA","PLACES":"KASOKOLA MASHARIKI B"},
{"REGION":"KATAVI","POSTCODE":"50115","DISTRICT":"MPANDA -CBD","WARD":"KASOKOLA","STREET":"KASOKOLA","PLACES":"KASOKOLA MAGHARIBI B"},
{"REGION":"KATAVI","POSTCODE":"50115","DISTRICT":"MPANDA -CBD","WARD":"KASOKOLA","STREET":"KASOKOLA","PLACES":"KASOKOLA KATI"},
{"REGION":"KATAVI","POSTCODE":"50115","DISTRICT":"MPANDA -CBD","WARD":"KASOKOLA","STREET":"KASOKOLA","PLACES":"MAWEMALE."},
{"REGION":"KATAVI","POSTCODE":"50115","DISTRICT":"MPANDA -CBD","WARD":"KASOKOLA","STREET":"KASOKOLA","PLACES":"IVUNGWE A"},
{"REGION":"KATAVI","POSTCODE":"50115","DISTRICT":"MPANDA -CBD","WARD":"KASOKOLA","STREET":"KASOKOLA","PLACES":"IVUNGWE B"},
{"REGION":"KATAVI","POSTCODE":"50115","DISTRICT":"MPANDA -CBD","WARD":"KASOKOLA","STREET":"MANGA","PLACES":"MANGA KATI"},
{"REGION":"KATAVI","POSTCODE":"50115","DISTRICT":"MPANDA -CBD","WARD":"KASOKOLA","STREET":"MANGA","PLACES":"MANGA MASHARIKI"},
{"REGION":"KATAVI","POSTCODE":"50115","DISTRICT":"MPANDA -CBD","WARD":"KASOKOLA","STREET":"MANGA","PLACES":"MANGA MAGHARIBI"},
{"REGION":"KATAVI","POSTCODE":"50115","DISTRICT":"MPANDA -CBD","WARD":"KASOKOLA","STREET":"MANGA","PLACES":"MANGA BARABARANI"},
{"REGION":"KATAVI","POSTCODE":"50115","DISTRICT":"MPANDA -CBD","WARD":"KASOKOLA","STREET":"MANGA","PLACES":"KASOLWA A"},
{"REGION":"KATAVI","POSTCODE":"50115","DISTRICT":"MPANDA -CBD","WARD":"KASOKOLA","STREET":"MANGA","PLACES":"KASOLWA B"},
{"REGION":"KATAVI","POSTCODE":"50115","DISTRICT":"MPANDA -CBD","WARD":"KASOKOLA","STREET":"MANGA","PLACES":"IVUNGWE"},
{"REGION":"KATAVI","POSTCODE":"50115","DISTRICT":"MPANDA -CBD","WARD":"KASOKOLA","STREET":"MANGA","PLACES":"KASENGA"},
{"REGION":"KATAVI","POSTCODE":"50115","DISTRICT":"MPANDA -CBD","WARD":"KASOKOLA","STREET":"SUNGAMILA","PLACES":"SUNGAMILA KATI"},
{"REGION":"KATAVI","POSTCODE":"50115","DISTRICT":"MPANDA -CBD","WARD":"KASOKOLA","STREET":"SUNGAMILA","PLACES":"SUNGAMILA MAGHARIBI"},
{"REGION":"KATAVI","POSTCODE":"50115","DISTRICT":"MPANDA -CBD","WARD":"KASOKOLA","STREET":"SUNGAMILA","PLACES":"SUNGAMILA MASHARIKI"},
{"REGION":"KATAVI","POSTCODE":"50115","DISTRICT":"MPANDA -CBD","WARD":"KASOKOLA","STREET":"SUNGAMILA","PLACES":"SUNGAMILA NG'AMBO"},
{"REGION":"KATAVI","POSTCODE":"50116","DISTRICT":"MPANDA -CBD","WARD":"NSIMBO","STREET":"ISANJANDUGU","PLACES":"MAPINDUZI"},
{"REGION":"KATAVI","POSTCODE":"50116","DISTRICT":"MPANDA -CBD","WARD":"NSIMBO","STREET":"ISANJANDUGU","PLACES":"ISANJANDUGU"},
{"REGION":"KATAVI","POSTCODE":"50116","DISTRICT":"MPANDA -CBD","WARD":"NSIMBO","STREET":"ISANJANDUGU","PLACES":"MUUNGANO"},
{"REGION":"KATAVI","POSTCODE":"50116","DISTRICT":"MPANDA -CBD","WARD":"NSIMBO","STREET":"KANOGE","PLACES":"KANOGE A"},
{"REGION":"KATAVI","POSTCODE":"50116","DISTRICT":"MPANDA -CBD","WARD":"NSIMBO","STREET":"KANOGE","PLACES":"KANOGE B"},
{"REGION":"KATAVI","POSTCODE":"50116","DISTRICT":"MPANDA -CBD","WARD":"NSIMBO","STREET":"KANOGE","PLACES":"TUPINDO"},
{"REGION":"KATAVI","POSTCODE":"50116","DISTRICT":"MPANDA -CBD","WARD":"NSIMBO","STREET":"KANOGE","PLACES":"KAVIKONGE A"},
{"REGION":"KATAVI","POSTCODE":"50116","DISTRICT":"MPANDA -CBD","WARD":"NSIMBO","STREET":"KANOGE","PLACES":"KAVIKONGE B"},
{"REGION":"KATAVI","POSTCODE":"50116","DISTRICT":"MPANDA -CBD","WARD":"NSIMBO","STREET":"MWENGE","PLACES":"FILIMULE"},
{"REGION":"KATAVI","POSTCODE":"50116","DISTRICT":"MPANDA -CBD","WARD":"NSIMBO","STREET":"MWENGE","PLACES":"MWENGE"},
{"REGION":"KATAVI","POSTCODE":"50116","DISTRICT":"MPANDA -CBD","WARD":"NSIMBO","STREET":"MWENGE","PLACES":"LEGEZAMWENDO"},
{"REGION":"KATAVI","POSTCODE":"50117","DISTRICT":"MPANDA -CBD","WARD":"KAPALALA","STREET":"KAPALALA","PLACES":"IKULU"},
{"REGION":"KATAVI","POSTCODE":"50117","DISTRICT":"MPANDA -CBD","WARD":"KAPALALA","STREET":"KAPALALA","PLACES":"KAPALALA A"},
{"REGION":"KATAVI","POSTCODE":"50117","DISTRICT":"MPANDA -CBD","WARD":"KAPALALA","STREET":"KAPALALA","PLACES":"KAPALALA B"},
{"REGION":"KATAVI","POSTCODE":"50117","DISTRICT":"MPANDA -CBD","WARD":"KAPALALA","STREET":"KAPALALA","PLACES":"KAPALALA C"},
{"REGION":"KATAVI","POSTCODE":"50117","DISTRICT":"MPANDA -CBD","WARD":"KAPALALA","STREET":"MTAKUJA","PLACES":"BOMBANI"},
{"REGION":"KATAVI","POSTCODE":"50117","DISTRICT":"MPANDA -CBD","WARD":"KAPALALA","STREET":"MTAKUJA","PLACES":"MLIMANI"},
{"REGION":"KATAVI","POSTCODE":"50117","DISTRICT":"MPANDA -CBD","WARD":"KAPALALA","STREET":"MTAKUJA","PLACES":"MBUGANI"},
{"REGION":"KATAVI","POSTCODE":"50117","DISTRICT":"MPANDA -CBD","WARD":"KAPALALA","STREET":"MTAKUJA","PLACES":"IGONDA"},
{"REGION":"KATAVI","POSTCODE":"50117","DISTRICT":"MPANDA -CBD","WARD":"KAPALALA","STREET":"MTAKUJA","PLACES":"TANKINI"},
{"REGION":"KATAVI","POSTCODE":"50117","DISTRICT":"MPANDA -CBD","WARD":"KAPALALA","STREET":"SONGAMBELE","PLACES":"SONGAMBELE KASKAZINI."},
{"REGION":"KATAVI","POSTCODE":"50117","DISTRICT":"MPANDA -CBD","WARD":"KAPALALA","STREET":"SONGAMBELE","PLACES":"SONGAMBELE MASHARIKI."},
{"REGION":"KATAVI","POSTCODE":"50117","DISTRICT":"MPANDA -CBD","WARD":"KAPALALA","STREET":"SONGAMBELE","PLACES":"SONGAMBELE MAGHARIBI."},
{"REGION":"KATAVI","POSTCODE":"50117","DISTRICT":"MPANDA -CBD","WARD":"KAPALALA","STREET":"SONGAMBELE","PLACES":"SONGAMBELE KATI"},
{"REGION":"KATAVI","POSTCODE":"50117","DISTRICT":"MPANDA -CBD","WARD":"KAPALALA","STREET":"SONGAMBELE","PLACES":"MKUMBI"},
{"REGION":"KATAVI","POSTCODE":"50118","DISTRICT":"MPANDA -CBD","WARD":"MTAPENDA","STREET":"ISINDE","PLACES":"IKULU"},
{"REGION":"KATAVI","POSTCODE":"50118","DISTRICT":"MPANDA -CBD","WARD":"MTAPENDA","STREET":"ISINDE","PLACES":"KABATINI"},
{"REGION":"KATAVI","POSTCODE":"50118","DISTRICT":"MPANDA -CBD","WARD":"MTAPENDA","STREET":"ISINDE","PLACES":"KAWE"},
{"REGION":"KATAVI","POSTCODE":"50118","DISTRICT":"MPANDA -CBD","WARD":"MTAPENDA","STREET":"ISINDE","PLACES":"WACHAWASEME"},
{"REGION":"KATAVI","POSTCODE":"50118","DISTRICT":"MPANDA -CBD","WARD":"MTAPENDA","STREET":"ISINDE","PLACES":"IGULUNGU"},
{"REGION":"KATAVI","POSTCODE":"50118","DISTRICT":"MPANDA -CBD","WARD":"MTAPENDA","STREET":"ISINDE","PLACES":"KAMTAMBIKE"},
{"REGION":"KATAVI","POSTCODE":"50118","DISTRICT":"MPANDA -CBD","WARD":"MTAPENDA","STREET":"MTAPENDA","PLACES":"SHELESI"},
{"REGION":"KATAVI","POSTCODE":"50118","DISTRICT":"MPANDA -CBD","WARD":"MTAPENDA","STREET":"MTAPENDA","PLACES":"TANKINI"},
{"REGION":"KATAVI","POSTCODE":"50118","DISTRICT":"MPANDA -CBD","WARD":"MTAPENDA","STREET":"MTAPENDA","PLACES":"MTAPENDA A"},
{"REGION":"KATAVI","POSTCODE":"50118","DISTRICT":"MPANDA -CBD","WARD":"MTAPENDA","STREET":"MTAPENDA","PLACES":"MTAPENDA B"},
{"REGION":"KATAVI","POSTCODE":"50118","DISTRICT":"MPANDA -CBD","WARD":"MTAPENDA","STREET":"MTAPENDA","PLACES":"MTAPENDA C"},
{"REGION":"KATAVI","POSTCODE":"50118","DISTRICT":"MPANDA -CBD","WARD":"MTAPENDA","STREET":"MTAPENDA","PLACES":"MTAPENDA KATI A"},
{"REGION":"KATAVI","POSTCODE":"50118","DISTRICT":"MPANDA -CBD","WARD":"MTAPENDA","STREET":"MTAPENDA","PLACES":"MAJENGO"},
{"REGION":"KATAVI","POSTCODE":"50118","DISTRICT":"MPANDA -CBD","WARD":"MTAPENDA","STREET":"MTAPENDA","PLACES":"NDURUMO"},
{"REGION":"KATAVI","POSTCODE":"50118","DISTRICT":"MPANDA -CBD","WARD":"MTAPENDA","STREET":"MTAPENDA","PLACES":"KENSWA MTONI"},
{"REGION":"KATAVI","POSTCODE":"50118","DISTRICT":"MPANDA -CBD","WARD":"MTAPENDA","STREET":"IKOLONGO 'A'","PLACES":"BARABARA YA 4"},
{"REGION":"KATAVI","POSTCODE":"50118","DISTRICT":"MPANDA -CBD","WARD":"MTAPENDA","STREET":"IKOLONGO 'A'","PLACES":"BARABARA YA 5"},
{"REGION":"KATAVI","POSTCODE":"50118","DISTRICT":"MPANDA -CBD","WARD":"MTAPENDA","STREET":"IKOLONGO 'A'","PLACES":"BARABARA YA 6"},
{"REGION":"KATAVI","POSTCODE":"50118","DISTRICT":"MPANDA -CBD","WARD":"MTAPENDA","STREET":"NDURUMO `A‘","PLACES":"BARABARA YA 4"}
,
{"REGION":"KATAVI","POSTCODE":"50118","DISTRICT":"MPANDA -CBD","WARD":"MTAPENDA","STREET":"NDURUMO `A‘","PLACES":"BARABARA YA 5"}
,
{"REGION":"KATAVI","POSTCODE":"50118","DISTRICT":"MPANDA -CBD","WARD":"MTAPENDA","STREET":"NDURUMO `A‘","PLACES":"BARABARA YA 6"}
,
{"REGION":"KATAVI","POSTCODE":"50118","DISTRICT":"MPANDA -CBD","WARD":"MTAPENDA","STREET":"IKOLONGO `B‘","PLACES":"BARABARA YA 1"}
,
{"REGION":"KATAVI","POSTCODE":"50118","DISTRICT":"MPANDA -CBD","WARD":"MTAPENDA","STREET":"IKOLONGO `B‘","PLACES":"BARABARA YA 2"}
,
{"REGION":"KATAVI","POSTCODE":"50118","DISTRICT":"MPANDA -CBD","WARD":"MTAPENDA","STREET":"IKOLONGO `B‘","PLACES":"BARABARA YA 3"}
,
{"REGION":"KATAVI","POSTCODE":"50119","DISTRICT":"MPANDA -CBD","WARD":"MACHIMBONI","STREET":"KATISUNGA","PLACES":"MLIMANI"},
{"REGION":"KATAVI","POSTCODE":"50119","DISTRICT":"MPANDA -CBD","WARD":"MACHIMBONI","STREET":"KATISUNGA","PLACES":"MASONGWA"},
{"REGION":"KATAVI","POSTCODE":"50119","DISTRICT":"MPANDA -CBD","WARD":"MACHIMBONI","STREET":"KATISUNGA","PLACES":"KATISUNGA A"},
{"REGION":"KATAVI","POSTCODE":"50119","DISTRICT":"MPANDA -CBD","WARD":"MACHIMBONI","STREET":"KATISUNGA","PLACES":"KATISUNGA B"},
{"REGION":"KATAVI","POSTCODE":"50119","DISTRICT":"MPANDA -CBD","WARD":"MACHIMBONI","STREET":"KAPANDA","PLACES":"SIKITIKO A"},
{"REGION":"KATAVI","POSTCODE":"50119","DISTRICT":"MPANDA -CBD","WARD":"MACHIMBONI","STREET":"KAPANDA","PLACES":"SIKITIKO B"},
{"REGION":"KATAVI","POSTCODE":"50119","DISTRICT":"MPANDA -CBD","WARD":"MACHIMBONI","STREET":"KAPANDA","PLACES":"MAGOMAMOTO"},
{"REGION":"KATAVI","POSTCODE":"50119","DISTRICT":"MPANDA -CBD","WARD":"MACHIMBONI","STREET":"KAPANDA","PLACES":"KAPANDA MAWENI"},
{"REGION":"KATAVI","POSTCODE":"50119","DISTRICT":"MPANDA -CBD","WARD":"MACHIMBONI","STREET":"KAPANDA","PLACES":"STAMIKO"},
{"REGION":"KATAVI","POSTCODE":"50119","DISTRICT":"MPANDA -CBD","WARD":"MACHIMBONI","STREET":"KAPANDA","PLACES":"KAYAWE"},
{"REGION":"KATAVI","POSTCODE":"50119","DISTRICT":"MPANDA -CBD","WARD":"MACHIMBONI","STREET":"KAPANDA","PLACES":"KAPANDA CHINI"},
{"REGION":"KATAVI","POSTCODE":"50120","DISTRICT":"MPANDA -CBD","WARD":"IBINDI","STREET":"MUUNGANO","PLACES":"MBUGANI"},
{"REGION":"KATAVI","POSTCODE":"50120","DISTRICT":"MPANDA -CBD","WARD":"IBINDI","STREET":"MUUNGANO","PLACES":"KASHELAMI A."},
{"REGION":"KATAVI","POSTCODE":"50120","DISTRICT":"MPANDA -CBD","WARD":"IBINDI","STREET":"MUUNGANO","PLACES":"KASHELAMI B."},
{"REGION":"KATAVI","POSTCODE":"50120","DISTRICT":"MPANDA -CBD","WARD":"IBINDI","STREET":"MUUNGANO","PLACES":"KASISIWE"},
{"REGION":"KATAVI","POSTCODE":"50120","DISTRICT":"MPANDA -CBD","WARD":"IBINDI","STREET":"MASEWELA","PLACES":"KAMBANGA"},
{"REGION":"KATAVI","POSTCODE":"50120","DISTRICT":"MPANDA -CBD","WARD":"IBINDI","STREET":"MASEWELA","PLACES":"ISENGULE"},
{"REGION":"KATAVI","POSTCODE":"50120","DISTRICT":"MPANDA -CBD","WARD":"IBINDI","STREET":"MASEWELA","PLACES":"MANEMBA A"},
{"REGION":"KATAVI","POSTCODE":"50120","DISTRICT":"MPANDA -CBD","WARD":"IBINDI","STREET":"MASEWELA","PLACES":"MANEMBA B"},
{"REGION":"KATAVI","POSTCODE":"50120","DISTRICT":"MPANDA -CBD","WARD":"IBINDI","STREET":"MASEWELA","PLACES":"MBAGALA"},
{"REGION":"KATAVI","POSTCODE":"50120","DISTRICT":"MPANDA -CBD","WARD":"IBINDI","STREET":"IBINDI KUSINI","PLACES":"IBINDI A"},
{"REGION":"KATAVI","POSTCODE":"50120","DISTRICT":"MPANDA -CBD","WARD":"IBINDI","STREET":"IBINDI KUSINI","PLACES":"IBINDI B"},
{"REGION":"KATAVI","POSTCODE":"50120","DISTRICT":"MPANDA -CBD","WARD":"IBINDI","STREET":"IBINDI KUSINI","PLACES":"IPILILO"},
{"REGION":"KATAVI","POSTCODE":"50120","DISTRICT":"MPANDA -CBD","WARD":"IBINDI","STREET":"IBINDI KUSINI","PLACES":"MGUU WA TEMBO"},
{"REGION":"KATAVI","POSTCODE":"50120","DISTRICT":"MPANDA -CBD","WARD":"IBINDI","STREET":"IBINDI KUSINI","PLACES":"KAPANDA WENYEJI"},
{"REGION":"KATAVI","POSTCODE":"50121","DISTRICT":"MPANDA -CBD","WARD":"ITENKA","STREET":"TUMAINI","PLACES":"IMILAMATE A"},
{"REGION":"KATAVI","POSTCODE":"50121","DISTRICT":"MPANDA -CBD","WARD":"ITENKA","STREET":"TUMAINI","PLACES":"IMILAMATE B"},
{"REGION":"KATAVI","POSTCODE":"50121","DISTRICT":"MPANDA -CBD","WARD":"ITENKA","STREET":"TUMAINI","PLACES":"SONGAMBELE A"},
{"REGION":"KATAVI","POSTCODE":"50121","DISTRICT":"MPANDA -CBD","WARD":"ITENKA","STREET":"TUMAINI","PLACES":"SONGAMBELE B"},
{"REGION":"KATAVI","POSTCODE":"50121","DISTRICT":"MPANDA -CBD","WARD":"ITENKA","STREET":"TUMAINI","PLACES":"TULIENI"},
{"REGION":"KATAVI","POSTCODE":"50121","DISTRICT":"MPANDA -CBD","WARD":"ITENKA","STREET":"ITENKA ‘A’","PLACES":"MPALANG’OMBE A"}
,
{"REGION":"KATAVI","POSTCODE":"50121","DISTRICT":"MPANDA -CBD","WARD":"ITENKA","STREET":"ITENKA ‘A’","PLACES":"ITENKA KATI"}
,
{"REGION":"KATAVI","POSTCODE":"50121","DISTRICT":"MPANDA -CBD","WARD":"ITENKA","STREET":"ITENKA ‘A’","PLACES":"MBUGANI"}
,
{"REGION":"KATAVI","POSTCODE":"50121","DISTRICT":"MPANDA -CBD","WARD":"ITENKA","STREET":"ITENKA ‘A’","PLACES":"MPALANG'OMBE B"}
,
{"REGION":"KATAVI","POSTCODE":"50121","DISTRICT":"MPANDA -CBD","WARD":"ITENKA","STREET":"ITENKA ‘A’","PLACES":"MPALANG'OMBE C"}
,
{"REGION":"KATAVI","POSTCODE":"50121","DISTRICT":"MPANDA -CBD","WARD":"ITENKA","STREET":"ITENKA ‘B’","PLACES":"MAENDELEO"}
,
{"REGION":"KATAVI","POSTCODE":"50121","DISTRICT":"MPANDA -CBD","WARD":"ITENKA","STREET":"ITENKA ‘B’","PLACES":"MUUNGANO"}
,
{"REGION":"KATAVI","POSTCODE":"50121","DISTRICT":"MPANDA -CBD","WARD":"ITENKA","STREET":"ITENKA ‘B’","PLACES":"NSIMBO"}
,
{"REGION":"KATAVI","POSTCODE":"50121","DISTRICT":"MPANDA -CBD","WARD":"ITENKA","STREET":"ITENKA ‘B’","PLACES":"KASANGA"}
,
{"REGION":"KATAVI","POSTCODE":"50121","DISTRICT":"MPANDA -CBD","WARD":"ITENKA","STREET":"ITENKA ‘B’","PLACES":"KANTONGA"}
,
{"REGION":"KATAVI","POSTCODE":"50121","DISTRICT":"MPANDA -CBD","WARD":"ITENKA","STREET":"JILABELA","PLACES":"JILABELA A"},
{"REGION":"KATAVI","POSTCODE":"50121","DISTRICT":"MPANDA -CBD","WARD":"ITENKA","STREET":"JILABELA","PLACES":"JILABELA B"},
{"REGION":"KATAVI","POSTCODE":"50121","DISTRICT":"MPANDA -CBD","WARD":"ITENKA","STREET":"JILABELA","PLACES":"JILABELA KATI"},
{"REGION":"KATAVI","POSTCODE":"50121","DISTRICT":"MPANDA -CBD","WARD":"ITENKA","STREET":"JILABELA","PLACES":"IMALAUPINA A"},
{"REGION":"KATAVI","POSTCODE":"50121","DISTRICT":"MPANDA -CBD","WARD":"ITENKA","STREET":"JILABELA","PLACES":"IMALAUPINA B"},
{"REGION":"KATAVI","POSTCODE":"50121","DISTRICT":"MPANDA -CBD","WARD":"ITENKA","STREET":"TUKOMA","PLACES":"MAKAMBU"},
{"REGION":"KATAVI","POSTCODE":"50121","DISTRICT":"MPANDA -CBD","WARD":"ITENKA","STREET":"TUKOMA","PLACES":"MJIMWEMA"},
{"REGION":"KATAVI","POSTCODE":"50121","DISTRICT":"MPANDA -CBD","WARD":"ITENKA","STREET":"TUKOMA","PLACES":"MILANGALE"},
{"REGION":"KATAVI","POSTCODE":"50121","DISTRICT":"MPANDA -CBD","WARD":"ITENKA","STREET":"TUKOMA","PLACES":"KADELEMA"},
{"REGION":"KATAVI","POSTCODE":"50121","DISTRICT":"MPANDA -CBD","WARD":"ITENKA","STREET":"TUKOMA","PLACES":"TUKOMA"},
{"REGION":"KATAVI","POSTCODE":"50122","DISTRICT":"MPANDA -CBD","WARD":"SITALIKE","STREET":"MTISI","PLACES":"MTISI A"},
{"REGION":"KATAVI","POSTCODE":"50122","DISTRICT":"MPANDA -CBD","WARD":"SITALIKE","STREET":"MTISI","PLACES":"MTISI B"},
{"REGION":"KATAVI","POSTCODE":"50122","DISTRICT":"MPANDA -CBD","WARD":"SITALIKE","STREET":"MTISI","PLACES":"MWENGE"},
{"REGION":"KATAVI","POSTCODE":"50122","DISTRICT":"MPANDA -CBD","WARD":"SITALIKE","STREET":"MTISI","PLACES":"MWONGOZO"},
{"REGION":"KATAVI","POSTCODE":"50122","DISTRICT":"MPANDA -CBD","WARD":"SITALIKE","STREET":"MTISI","PLACES":"MSASANI"},
{"REGION":"KATAVI","POSTCODE":"50122","DISTRICT":"MPANDA -CBD","WARD":"SITALIKE","STREET":"MTISI","PLACES":"MAKUTANIO"},
{"REGION":"KATAVI","POSTCODE":"50122","DISTRICT":"MPANDA -CBD","WARD":"SITALIKE","STREET":"MTISI","PLACES":"MUUNGANO"},
{"REGION":"KATAVI","POSTCODE":"50122","DISTRICT":"MPANDA -CBD","WARD":"SITALIKE","STREET":"MTISI","PLACES":"MAGULA"},
{"REGION":"KATAVI","POSTCODE":"50122","DISTRICT":"MPANDA -CBD","WARD":"SITALIKE","STREET":"MTISI","PLACES":"MJIMWEMA"},
{"REGION":"KATAVI","POSTCODE":"50122","DISTRICT":"MPANDA -CBD","WARD":"SITALIKE","STREET":"SITALIKE","PLACES":"SITUBWIKE"},
{"REGION":"KATAVI","POSTCODE":"50122","DISTRICT":"MPANDA -CBD","WARD":"SITALIKE","STREET":"SITALIKE","PLACES":"IGALUKILO"},
{"REGION":"KATAVI","POSTCODE":"50122","DISTRICT":"MPANDA -CBD","WARD":"SITALIKE","STREET":"SITALIKE","PLACES":"ILANGASIKA"},
{"REGION":"KATAVI","POSTCODE":"50122","DISTRICT":"MPANDA -CBD","WARD":"SITALIKE","STREET":"SITALIKE","PLACES":"KABENGA"},
{"REGION":"KATAVI","POSTCODE":"50122","DISTRICT":"MPANDA -CBD","WARD":"SITALIKE","STREET":"SITALIKE","PLACES":"KILOLENI"},
{"REGION":"KATAVI","POSTCODE":"50122","DISTRICT":"MPANDA -CBD","WARD":"SITALIKE","STREET":"IGONGWE","PLACES":"KASONGWA"},
{"REGION":"KATAVI","POSTCODE":"50122","DISTRICT":"MPANDA -CBD","WARD":"SITALIKE","STREET":"IGONGWE","PLACES":"KASHELAMI"},
{"REGION":"KATAVI","POSTCODE":"50122","DISTRICT":"MPANDA -CBD","WARD":"SITALIKE","STREET":"IGONGWE","PLACES":"KAZIMA"},
{"REGION":"KATAVI","POSTCODE":"50122","DISTRICT":"MPANDA -CBD","WARD":"SITALIKE","STREET":"IGONGWE","PLACES":"KAMBULA"},
{"REGION":"KATAVI","POSTCODE":"50122","DISTRICT":"MPANDA -CBD","WARD":"SITALIKE","STREET":"IGONGWE","PLACES":"IGONGWE"},
{"REGION":"KATAVI","POSTCODE":"50122","DISTRICT":"MPANDA -CBD","WARD":"SITALIKE","STREET":"MATANDALANI","PLACES":"MGOLOKANI"},
{"REGION":"KATAVI","POSTCODE":"50122","DISTRICT":"MPANDA -CBD","WARD":"SITALIKE","STREET":"MATANDALANI","PLACES":"MTAKUJA"},
{"REGION":"KATAVI","POSTCODE":"50122","DISTRICT":"MPANDA -CBD","WARD":"SITALIKE","STREET":"MATANDALANI","PLACES":"MAJENGO"},
{"REGION":"KATAVI","POSTCODE":"50122","DISTRICT":"MPANDA -CBD","WARD":"SITALIKE","STREET":"MATANDALANI","PLACES":"MATANDALANI"},
{"REGION":"KATAVI","POSTCODE":"50122","DISTRICT":"MPANDA -CBD","WARD":"SITALIKE","STREET":"MATANDALANI","PLACES":"KASHELAMI"},
{"REGION":"KATAVI","POSTCODE":"50123","DISTRICT":"MPANDA -CBD","WARD":"URWILA","STREET":"URWIRA","PLACES":"ISAGALA"},
{"REGION":"KATAVI","POSTCODE":"50123","DISTRICT":"MPANDA -CBD","WARD":"URWILA","STREET":"URWIRA","PLACES":"MISHENI A"},
{"REGION":"KATAVI","POSTCODE":"50123","DISTRICT":"MPANDA -CBD","WARD":"URWILA","STREET":"URWIRA","PLACES":"MISHENI B"},
{"REGION":"KATAVI","POSTCODE":"50123","DISTRICT":"MPANDA -CBD","WARD":"URWILA","STREET":"URWIRA","PLACES":"MAJENGO"},
{"REGION":"KATAVI","POSTCODE":"50123","DISTRICT":"MPANDA -CBD","WARD":"URWILA","STREET":"URWIRA","PLACES":"NGULU"},
{"REGION":"KATAVI","POSTCODE":"50123","DISTRICT":"MPANDA -CBD","WARD":"URWILA","STREET":"IKONDAMOYO","PLACES":"SIKOLOMO"},
{"REGION":"KATAVI","POSTCODE":"50123","DISTRICT":"MPANDA -CBD","WARD":"URWILA","STREET":"IKONDAMOYO","PLACES":"KALUNGU A"},
{"REGION":"KATAVI","POSTCODE":"50123","DISTRICT":"MPANDA -CBD","WARD":"URWILA","STREET":"IKONDAMOYO","PLACES":"KALUNGU B"},
{"REGION":"KATAVI","POSTCODE":"50123","DISTRICT":"MPANDA -CBD","WARD":"URWILA","STREET":"IKONDAMOYO","PLACES":"KANINKA"},
{"REGION":"KATAVI","POSTCODE":"50123","DISTRICT":"MPANDA -CBD","WARD":"URWILA","STREET":"IKONDAMOYO","PLACES":"MWALU"},
{"REGION":"KATAVI","POSTCODE":"50123","DISTRICT":"MPANDA -CBD","WARD":"URWILA","STREET":"IKONDAMOYO","PLACES":"JITEGEMEE"},
{"REGION":"KATAVI","POSTCODE":"50123","DISTRICT":"MPANDA -CBD","WARD":"URWILA","STREET":"USENSE","PLACES":"KANEMBELA A"},
{"REGION":"KATAVI","POSTCODE":"50123","DISTRICT":"MPANDA -CBD","WARD":"URWILA","STREET":"USENSE","PLACES":"KANEMBELA B"},
{"REGION":"KATAVI","POSTCODE":"50123","DISTRICT":"MPANDA -CBD","WARD":"URWILA","STREET":"USENSE","PLACES":"KAMULONGWE"},
{"REGION":"KATAVI","POSTCODE":"50123","DISTRICT":"MPANDA -CBD","WARD":"URWILA","STREET":"USENSE","PLACES":"IZUGUMULOLE"},
{"REGION":"KATAVI","POSTCODE":"50124","DISTRICT":"MPANDA -CBD","WARD":"UGALLA","STREET":"KATAMBIKE","PLACES":"VIGAENI"},
{"REGION":"KATAVI","POSTCODE":"50124","DISTRICT":"MPANDA -CBD","WARD":"UGALLA","STREET":"KATAMBIKE","PLACES":"MJIMWEMA"},
{"REGION":"KATAVI","POSTCODE":"50124","DISTRICT":"MPANDA -CBD","WARD":"UGALLA","STREET":"KATAMBIKE","PLACES":"UVUVINI A"},
{"REGION":"KATAVI","POSTCODE":"50124","DISTRICT":"MPANDA -CBD","WARD":"UGALLA","STREET":"KATAMBIKE","PLACES":"UVUVINI B"},
{"REGION":"KATAVI","POSTCODE":"50124","DISTRICT":"MPANDA -CBD","WARD":"UGALLA","STREET":"KATAMBIKE","PLACES":"KASULU"},
{"REGION":"KATAVI","POSTCODE":"50124","DISTRICT":"MPANDA -CBD","WARD":"UGALLA","STREET":"KATAMBIKE","PLACES":"ISEKA"},
{"REGION":"KATAVI","POSTCODE":"50124","DISTRICT":"MPANDA -CBD","WARD":"UGALLA","STREET":"KATAMBIKE","PLACES":"KAMINI A"},
{"REGION":"KATAVI","POSTCODE":"50124","DISTRICT":"MPANDA -CBD","WARD":"UGALLA","STREET":"KATAMBIKE","PLACES":"KAMINI B"},
{"REGION":"KATAVI","POSTCODE":"50124","DISTRICT":"MPANDA -CBD","WARD":"UGALLA","STREET":"KATAMBIKE","PLACES":"NSANDA"},
{"REGION":"KATAVI","POSTCODE":"50124","DISTRICT":"MPANDA -CBD","WARD":"UGALLA","STREET":"KATAMBIKE","PLACES":"KAUMBA"},
{"REGION":"KATAVI","POSTCODE":"50124","DISTRICT":"MPANDA -CBD","WARD":"UGALLA","STREET":"KATAMBIKE","PLACES":"KANYAWASOGA"},
{"REGION":"KATAVI","POSTCODE":"50124","DISTRICT":"MPANDA -CBD","WARD":"UGALLA","STREET":"MNYAMASI","PLACES":"MNYAMASI A"},
{"REGION":"KATAVI","POSTCODE":"50124","DISTRICT":"MPANDA -CBD","WARD":"UGALLA","STREET":"MNYAMASI","PLACES":"MNYAMASI B"},
{"REGION":"KATAVI","POSTCODE":"50124","DISTRICT":"MPANDA -CBD","WARD":"UGALLA","STREET":"MNYAMASI","PLACES":"KANKOSHA"},
{"REGION":"KATAVI","POSTCODE":"50124","DISTRICT":"MPANDA -CBD","WARD":"UGALLA","STREET":"MNYAMASI","PLACES":"SIKWISI"},
{"REGION":"KATAVI","POSTCODE":"50124","DISTRICT":"MPANDA -CBD","WARD":"UGALLA","STREET":"KASISI","PLACES":"KASISI A"},
{"REGION":"KATAVI","POSTCODE":"50124","DISTRICT":"MPANDA -CBD","WARD":"UGALLA","STREET":"KASISI","PLACES":"KASISI B"},
{"REGION":"KATAVI","POSTCODE":"50124","DISTRICT":"MPANDA -CBD","WARD":"UGALLA","STREET":"KASISI","PLACES":"LYOGELO"},
{"REGION":"KATAVI","POSTCODE":"50124","DISTRICT":"MPANDA -CBD","WARD":"UGALLA","STREET":"KASISI","PLACES":"ISEKA"},
{"REGION":"KATAVI","POSTCODE":"50124","DISTRICT":"MPANDA -CBD","WARD":"UGALLA","STREET":"KASISI","PLACES":"MTAMBALALA"},
{"REGION":"KATAVI","POSTCODE":"50125","DISTRICT":"MPANDA -CBD","WARD":"LITAPUNGA","STREET":"KABOROGE \"A\"","PLACES":"BARABARA YA 1"},
{"REGION":"KATAVI","POSTCODE":"50125","DISTRICT":"MPANDA -CBD","WARD":"LITAPUNGA","STREET":"KABOROGE \"A\"","PLACES":"BARABARA YA 2"},
{"REGION":"KATAVI","POSTCODE":"50125","DISTRICT":"MPANDA -CBD","WARD":"LITAPUNGA","STREET":"KABOROGE \"A\"","PLACES":"BARABARA YA 3"},
{"REGION":"KATAVI","POSTCODE":"50125","DISTRICT":"MPANDA -CBD","WARD":"LITAPUNGA","STREET":"KABOROGE \"A\"","PLACES":"BARABARA YA 4"},
{"REGION":"KATAVI","POSTCODE":"50125","DISTRICT":"MPANDA -CBD","WARD":"LITAPUNGA","STREET":"KABURONGE \"B\"","PLACES":"BARABARA YA 5"},
{"REGION":"KATAVI","POSTCODE":"50125","DISTRICT":"MPANDA -CBD","WARD":"LITAPUNGA","STREET":"KABURONGE \"B\"","PLACES":"BARABARA YA 6"},
{"REGION":"KATAVI","POSTCODE":"50125","DISTRICT":"MPANDA -CBD","WARD":"LITAPUNGA","STREET":"KABURONGE \"B\"","PLACES":"BARABARA YA 7"},
{"REGION":"KATAVI","POSTCODE":"50125","DISTRICT":"MPANDA -CBD","WARD":"LITAPUNGA","STREET":"KABURONGE \"B\"","PLACES":"BARABARA YA 8"},
{"REGION":"KATAVI","POSTCODE":"50125","DISTRICT":"MPANDA -CBD","WARD":"LITAPUNGA","STREET":"KAMBUZI 'A'","PLACES":"BARABARA YA 1"},
{"REGION":"KATAVI","POSTCODE":"50125","DISTRICT":"MPANDA -CBD","WARD":"LITAPUNGA","STREET":"KAMBUZI 'A'","PLACES":"BARABARA YA 2"},
{"REGION":"KATAVI","POSTCODE":"50125","DISTRICT":"MPANDA -CBD","WARD":"LITAPUNGA","STREET":"KAMBUZI 'A'","PLACES":"BARABARA YA 3"},
{"REGION":"KATAVI","POSTCODE":"50125","DISTRICT":"MPANDA -CBD","WARD":"LITAPUNGA","STREET":"KAMBUZI 'B'","PLACES":"BARABARA YA 4"},
{"REGION":"KATAVI","POSTCODE":"50125","DISTRICT":"MPANDA -CBD","WARD":"LITAPUNGA","STREET":"KAMBUZI 'B'","PLACES":"BARABARA YA 5"},
{"REGION":"KATAVI","POSTCODE":"50125","DISTRICT":"MPANDA -CBD","WARD":"LITAPUNGA","STREET":"KAMBUZI 'B'","PLACES":"BARABARA YA 6"},
{"REGION":"KATAVI","POSTCODE":"50125","DISTRICT":"MPANDA -CBD","WARD":"LITAPUNGA","STREET":"KAMBUZI 'B'","PLACES":"BARABARA YA 7"},
{"REGION":"KATAVI","POSTCODE":"50125","DISTRICT":"MPANDA -CBD","WARD":"LITAPUNGA","STREET":"KAMBUZI 'B'","PLACES":"BARABARA YA 8"},
{"REGION":"KATAVI","POSTCODE":"50125","DISTRICT":"MPANDA -CBD","WARD":"LITAPUNGA","STREET":"LITAPUNGA","PLACES":"LITAPUNGA 'A'"},
{"REGION":"KATAVI","POSTCODE":"50125","DISTRICT":"MPANDA -CBD","WARD":"LITAPUNGA","STREET":"LITAPUNGA","PLACES":"LITAPUNGA 'B\""},
{"REGION":"KATAVI","POSTCODE":"50125","DISTRICT":"MPANDA -CBD","WARD":"LITAPUNGA","STREET":"LITAPUNGA","PLACES":"UFUGAJINI"},
{"REGION":"KATAVI","POSTCODE":"50125","DISTRICT":"MPANDA -CBD","WARD":"LITAPUNGA","STREET":"LITAPUNGA","PLACES":"MAJENGO"},
{"REGION":"KATAVI","POSTCODE":"50125","DISTRICT":"MPANDA -CBD","WARD":"LITAPUNGA","STREET":"KAMBUZI HALT","PLACES":"KAMBUZI MASHARIKI"},
{"REGION":"KATAVI","POSTCODE":"50125","DISTRICT":"MPANDA -CBD","WARD":"LITAPUNGA","STREET":"KAMBUZI HALT","PLACES":"KAMBUZI MAGHARIBI"},
{"REGION":"KATAVI","POSTCODE":"50125","DISTRICT":"MPANDA -CBD","WARD":"LITAPUNGA","STREET":"KAMBUZI HALT","PLACES":"LUSIHA"},
{"REGION":"KATAVI","POSTCODE":"50125","DISTRICT":"MPANDA -CBD","WARD":"LITAPUNGA","STREET":"KAMBUZI HALT","PLACES":"NSANDA"},
{"REGION":"KATAVI","POSTCODE":"50125","DISTRICT":"MPANDA -CBD","WARD":"LITAPUNGA","STREET":"KAMBUZI HALT","PLACES":"KAMBUZI KUSINI"},
{"REGION":"KATAVI","POSTCODE":"50125","DISTRICT":"MPANDA -CBD","WARD":"LITAPUNGA","STREET":"KAMBUZI HALT","PLACES":"UFUGAJINI"},
{"REGION":"KATAVI","POSTCODE":"50125","DISTRICT":"MPANDA -CBD","WARD":"LITAPUNGA","STREET":"KAMBUZI HALT","PLACES":"MUUNGANO"},
{"REGION":"KATAVI","POSTCODE":"50125","DISTRICT":"MPANDA -CBD","WARD":"LITAPUNGA","STREET":"BULEMBO","PLACES":"BARABARA YA 6"},
{"REGION":"KATAVI","POSTCODE":"50125","DISTRICT":"MPANDA -CBD","WARD":"LITAPUNGA","STREET":"BULEMBO","PLACES":"BARABARA YA 7"},
{"REGION":"KATAVI","POSTCODE":"50125","DISTRICT":"MPANDA -CBD","WARD":"LITAPUNGA","STREET":"BULEMBO","PLACES":"BARABARA YA 8"},
{"REGION":"KATAVI","POSTCODE":"50125","DISTRICT":"MPANDA -CBD","WARD":"LITAPUNGA","STREET":"BULEMBO","PLACES":"BARABARA YA 9"},
{"REGION":"KATAVI","POSTCODE":"50125","DISTRICT":"MPANDA -CBD","WARD":"LITAPUNGA","STREET":"NSANDA","PLACES":"KANSENGA"},
{"REGION":"KATAVI","POSTCODE":"50125","DISTRICT":"MPANDA -CBD","WARD":"LITAPUNGA","STREET":"NSANDA","PLACES":"KAMPEMBA"},
{"REGION":"KATAVI","POSTCODE":"50125","DISTRICT":"MPANDA -CBD","WARD":"LITAPUNGA","STREET":"NSANDA","PLACES":"MJIMWEMA"},
{"REGION":"KATAVI","POSTCODE":"50125","DISTRICT":"MPANDA -CBD","WARD":"LITAPUNGA","STREET":"LUKAMA","PLACES":"BARABARA YA 4"},
{"REGION":"KATAVI","POSTCODE":"50125","DISTRICT":"MPANDA -CBD","WARD":"LITAPUNGA","STREET":"LUKAMA","PLACES":"BARABARA YA 5"},
{"REGION":"KATAVI","POSTCODE":"50125","DISTRICT":"MPANDA -CBD","WARD":"LITAPUNGA","STREET":"LUKAMA","PLACES":"BARABARA YA 6"},
{"REGION":"KATAVI","POSTCODE":"50125","DISTRICT":"MPANDA -CBD","WARD":"LITAPUNGA","STREET":"LUKAMA","PLACES":"BARABARA YA 7"},
{"REGION":"KATAVI","POSTCODE":"50125","DISTRICT":"MPANDA -CBD","WARD":"LITAPUNGA","STREET":"LUKAMA","PLACES":"BARABARA YA 8"},
{"REGION":"KATAVI","POSTCODE":"50125","DISTRICT":"MPANDA -CBD","WARD":"LITAPUNGA","STREET":"LUKAMA","PLACES":"BARABARA YA 9"},
{"REGION":"KATAVI","POSTCODE":"50126","DISTRICT":"MPANDA -CBD","WARD":"KANOGE","STREET":"KANOGE LAINI","PLACES":"BULANGWA"},
{"REGION":"KATAVI","POSTCODE":"50126","DISTRICT":"MPANDA -CBD","WARD":"KANOGE","STREET":"KANOGE LAINI","PLACES":"KALOLENI"},
{"REGION":"KATAVI","POSTCODE":"50126","DISTRICT":"MPANDA -CBD","WARD":"KANOGE","STREET":"KANOGE LAINI","PLACES":"MSENGA"},
{"REGION":"KATAVI","POSTCODE":"50126","DISTRICT":"MPANDA -CBD","WARD":"KANOGE","STREET":"KANOGE LAINI","PLACES":"BULAKUKO"},
{"REGION":"KATAVI","POSTCODE":"50126","DISTRICT":"MPANDA -CBD","WARD":"KANOGE","STREET":"KANOGE LAINI","PLACES":"KANOGE CENTER"},
{"REGION":"KATAVI","POSTCODE":"50126","DISTRICT":"MPANDA -CBD","WARD":"KANOGE","STREET":"KANOGE LAINI","PLACES":"TAZARA"},
{"REGION":"KATAVI","POSTCODE":"50126","DISTRICT":"MPANDA -CBD","WARD":"KANOGE","STREET":"KANOGE LAINI","PLACES":"LAINI KATI"},
{"REGION":"KATAVI","POSTCODE":"50126","DISTRICT":"MPANDA -CBD","WARD":"KANOGE","STREET":"KANOGE LAINI","PLACES":"AMANI"},
{"REGION":"KATAVI","POSTCODE":"50126","DISTRICT":"MPANDA -CBD","WARD":"KANOGE","STREET":"KANOGE LAINI","PLACES":"LAINI B"},
{"REGION":"KATAVI","POSTCODE":"50126","DISTRICT":"MPANDA -CBD","WARD":"KANOGE","STREET":"KANOGE LAINI","PLACES":"TAZARA KATI"},
{"REGION":"KATAVI","POSTCODE":"50126","DISTRICT":"MPANDA -CBD","WARD":"KANOGE","STREET":"KABUGA","PLACES":"KAPELE"},
{"REGION":"KATAVI","POSTCODE":"50126","DISTRICT":"MPANDA -CBD","WARD":"KANOGE","STREET":"KABUGA","PLACES":"KIVUKONI"},
{"REGION":"KATAVI","POSTCODE":"50126","DISTRICT":"MPANDA -CBD","WARD":"KANOGE","STREET":"KABUGA","PLACES":"KABUGA KIJIWENI"},
{"REGION":"KATAVI","POSTCODE":"50126","DISTRICT":"MPANDA -CBD","WARD":"KANOGE","STREET":"KABUGA","PLACES":"BOCKFARM"},
{"REGION":"KATAVI","POSTCODE":"50126","DISTRICT":"MPANDA -CBD","WARD":"KANOGE","STREET":"KAJEJE 'A'","PLACES":"BARABARA YA 9"},
{"REGION":"KATAVI","POSTCODE":"50126","DISTRICT":"MPANDA -CBD","WARD":"KANOGE","STREET":"KAJEJE 'A'","PLACES":"BARABARA YA 10"},
{"REGION":"KATAVI","POSTCODE":"50126","DISTRICT":"MPANDA -CBD","WARD":"KANOGE","STREET":"KAJEJE 'A'","PLACES":"BARABARA YA 11"},
{"REGION":"KATAVI","POSTCODE":"50126","DISTRICT":"MPANDA -CBD","WARD":"KANOGE","STREET":"KAJEJE 'B'","PLACES":"BARABARA YA 9"},
{"REGION":"KATAVI","POSTCODE":"50126","DISTRICT":"MPANDA -CBD","WARD":"KANOGE","STREET":"KAJEJE 'B'","PLACES":"BARABARA YA 10"},
{"REGION":"KATAVI","POSTCODE":"50126","DISTRICT":"MPANDA -CBD","WARD":"KANOGE","STREET":"KAJEJE 'B'","PLACES":"BARABARA YA 11"},
{"REGION":"KATAVI","POSTCODE":"50126","DISTRICT":"MPANDA -CBD","WARD":"KANOGE","STREET":"NDURUMO 'B'","PLACES":"BARABARA YA 4"},
{"REGION":"KATAVI","POSTCODE":"50126","DISTRICT":"MPANDA -CBD","WARD":"KANOGE","STREET":"NDURUMO 'B'","PLACES":"BARABARA YA 5"},
{"REGION":"KATAVI","POSTCODE":"50126","DISTRICT":"MPANDA -CBD","WARD":"KANOGE","STREET":"NDURUMO 'B'","PLACES":"BARABARA YA 6"},
{"REGION":"KATAVI","POSTCODE":"50127","DISTRICT":"MPANDA -CBD","WARD":"KATUMBA","STREET":"TAMBAZA 'A'","PLACES":"BARABARA YA 4"},
{"REGION":"KATAVI","POSTCODE":"50127","DISTRICT":"MPANDA -CBD","WARD":"KATUMBA","STREET":"TAMBAZA 'A'","PLACES":"BARABARA YA 5"},
{"REGION":"KATAVI","POSTCODE":"50127","DISTRICT":"MPANDA -CBD","WARD":"KATUMBA","STREET":"TAMBAZA 'A'","PLACES":"BARABARA YA 6"},
{"REGION":"KATAVI","POSTCODE":"50127","DISTRICT":"MPANDA -CBD","WARD":"KATUMBA","STREET":"TAMBAZA 'B'","PLACES":"BARABARA YA 4"},
{"REGION":"KATAVI","POSTCODE":"50127","DISTRICT":"MPANDA -CBD","WARD":"KATUMBA","STREET":"TAMBAZA 'B'","PLACES":"BARABARA YA 5"},
{"REGION":"KATAVI","POSTCODE":"50127","DISTRICT":"MPANDA -CBD","WARD":"KATUMBA","STREET":"TAMBAZA 'B'","PLACES":"BARABARA YA 6"},
{"REGION":"KATAVI","POSTCODE":"50127","DISTRICT":"MPANDA -CBD","WARD":"KATUMBA","STREET":"KATUMBA","PLACES":"BARABARA YA 1"},
{"REGION":"KATAVI","POSTCODE":"50127","DISTRICT":"MPANDA -CBD","WARD":"KATUMBA","STREET":"KATUMBA","PLACES":"BARABARA YA 2 'A'"},
{"REGION":"KATAVI","POSTCODE":"50127","DISTRICT":"MPANDA -CBD","WARD":"KATUMBA","STREET":"KATUMBA","PLACES":"BARABARA YA 3 'A'"},
{"REGION":"KATAVI","POSTCODE":"50127","DISTRICT":"MPANDA -CBD","WARD":"KATUMBA","STREET":"KATUMBA","PLACES":"BARABARA YA 2'B'"},
{"REGION":"KATAVI","POSTCODE":"50127","DISTRICT":"MPANDA -CBD","WARD":"KATUMBA","STREET":"KATUMBA","PLACES":"BARABARA YA 3 'B'"},
{"REGION":"KATAVI","POSTCODE":"50127","DISTRICT":"MPANDA -CBD","WARD":"KATUMBA","STREET":"SOKOINE","PLACES":"BARABARA YA 1"},
{"REGION":"KATAVI","POSTCODE":"50127","DISTRICT":"MPANDA -CBD","WARD":"KATUMBA","STREET":"SOKOINE","PLACES":"BARABARA YA 2"},
{"REGION":"KATAVI","POSTCODE":"50127","DISTRICT":"MPANDA -CBD","WARD":"KATUMBA","STREET":"SOKOINE","PLACES":"BARABARA YA 3"},
{"REGION":"KATAVI","POSTCODE":"50127","DISTRICT":"MPANDA -CBD","WARD":"KATUMBA","STREET":"SOKOINE","PLACES":"BARABARA YA 4"},
{"REGION":"KATAVI","POSTCODE":"50127","DISTRICT":"MPANDA -CBD","WARD":"KATUMBA","STREET":"MNYAKI 'A'","PLACES":"BARABARA YA 1"},
{"REGION":"KATAVI","POSTCODE":"50127","DISTRICT":"MPANDA -CBD","WARD":"KATUMBA","STREET":"MNYAKI 'A'","PLACES":"BARABARA YA 2"},
{"REGION":"KATAVI","POSTCODE":"50127","DISTRICT":"MPANDA -CBD","WARD":"KATUMBA","STREET":"MNYAKI 'A'","PLACES":"BARABARA YA 3"},
{"REGION":"KATAVI","POSTCODE":"50127","DISTRICT":"MPANDA -CBD","WARD":"KATUMBA","STREET":"MNYAKI 'A'","PLACES":"MHAGAMA"},
{"REGION":"KATAVI","POSTCODE":"50127","DISTRICT":"MPANDA -CBD","WARD":"KATUMBA","STREET":"MNYAKI 'A'","PLACES":"MNYAKI A. CENTER"},
{"REGION":"KATAVI","POSTCODE":"50127","DISTRICT":"MPANDA -CBD","WARD":"KATUMBA","STREET":"MNYAKI 'B\"","PLACES":"BARABARA YA 1"},
{"REGION":"KATAVI","POSTCODE":"50127","DISTRICT":"MPANDA -CBD","WARD":"KATUMBA","STREET":"MNYAKI 'B\"","PLACES":"BARABARA YA 2"},
{"REGION":"KATAVI","POSTCODE":"50127","DISTRICT":"MPANDA -CBD","WARD":"KATUMBA","STREET":"MNYAKI 'B\"","PLACES":"BARABARA YA 3"},
{"REGION":"KATAVI","POSTCODE":"50127","DISTRICT":"MPANDA -CBD","WARD":"KATUMBA","STREET":"MNYAKI 'B\"","PLACES":"MNYAKI B. CENTER"},
{"REGION":"KATAVI","POSTCODE":"50127","DISTRICT":"MPANDA -CBD","WARD":"KATUMBA","STREET":"NDUWI STATION","PLACES":"NDUWI STESHENI"},
{"REGION":"KATAVI","POSTCODE":"50127","DISTRICT":"MPANDA -CBD","WARD":"KATUMBA","STREET":"NDUWI STATION","PLACES":"MSASANI 'A'"},
{"REGION":"KATAVI","POSTCODE":"50127","DISTRICT":"MPANDA -CBD","WARD":"KATUMBA","STREET":"NDUWI STATION","PLACES":"MSASANI 'B'"},
{"REGION":"KATAVI","POSTCODE":"50127","DISTRICT":"MPANDA -CBD","WARD":"KATUMBA","STREET":"NDUWI STATION","PLACES":"BARABARA YA 9"},
{"REGION":"KATAVI","POSTCODE":"50127","DISTRICT":"MPANDA -CBD","WARD":"KATUMBA","STREET":"NDUWI STATION","PLACES":"BARABARA YA 7"},
{"REGION":"KATAVI","POSTCODE":"50127","DISTRICT":"MPANDA -CBD","WARD":"KATUMBA","STREET":"NDUWI STATION","PLACES":"BARABARA YA 8"},
{"REGION":"KATAVI","POSTCODE":"50127","DISTRICT":"MPANDA -CBD","WARD":"KATUMBA","STREET":"KAMINULA","PLACES":"BARABARA YA 1"},
{"REGION":"KATAVI","POSTCODE":"50127","DISTRICT":"MPANDA -CBD","WARD":"KATUMBA","STREET":"KAMINULA","PLACES":"BARABARA YA 2"},
{"REGION":"KATAVI","POSTCODE":"50127","DISTRICT":"MPANDA -CBD","WARD":"KATUMBA","STREET":"KAMINULA","PLACES":"MLIBANSI"},
{"REGION":"KATAVI","POSTCODE":"50127","DISTRICT":"MPANDA -CBD","WARD":"KATUMBA","STREET":"NZAGA","PLACES":"BARABARA YA 1"},
{"REGION":"KATAVI","POSTCODE":"50127","DISTRICT":"MPANDA -CBD","WARD":"KATUMBA","STREET":"NZAGA","PLACES":"BARABARA YA 2"},
{"REGION":"KATAVI","POSTCODE":"50127","DISTRICT":"MPANDA -CBD","WARD":"KATUMBA","STREET":"NZAGA","PLACES":"BARABARA YA 3"},
{"REGION":"KATAVI","POSTCODE":"50127","DISTRICT":"MPANDA -CBD","WARD":"KATUMBA","STREET":"MTAMBO","PLACES":"BARABARA YA 1"},
{"REGION":"KATAVI","POSTCODE":"50127","DISTRICT":"MPANDA -CBD","WARD":"KATUMBA","STREET":"MTAMBO","PLACES":"BARABARA YA 2"},
{"REGION":"KATAVI","POSTCODE":"50127","DISTRICT":"MPANDA -CBD","WARD":"KATUMBA","STREET":"MTAMBO","PLACES":"BARABARA YA 3"},
{"REGION":"KATAVI","POSTCODE":"50127","DISTRICT":"MPANDA -CBD","WARD":"KATUMBA","STREET":"IVUNGWE A","PLACES":"BARABARA YA 6"},
{"REGION":"KATAVI","POSTCODE":"50127","DISTRICT":"MPANDA -CBD","WARD":"KATUMBA","STREET":"IVUNGWE A","PLACES":"BARABARA YA 7"},
{"REGION":"KATAVI","POSTCODE":"50127","DISTRICT":"MPANDA -CBD","WARD":"KATUMBA","STREET":"IVUNGWE A","PLACES":"BARABARA YA 8"},
{"REGION":"KATAVI","POSTCODE":"50127","DISTRICT":"MPANDA -CBD","WARD":"KATUMBA","STREET":"IVUNGWE B","PLACES":"BARABARA YA 7"},
{"REGION":"KATAVI","POSTCODE":"50127","DISTRICT":"MPANDA -CBD","WARD":"KATUMBA","STREET":"IVUNGWE B","PLACES":"BARABARA YA 8"},
{"REGION":"KATAVI","POSTCODE":"50127","DISTRICT":"MPANDA -CBD","WARD":"KATUMBA","STREET":"IVUNGWE B","PLACES":"BARABARA YA 9"},
{"REGION":"KATAVI","POSTCODE":"50127","DISTRICT":"MPANDA -CBD","WARD":"KATUMBA","STREET":"IWIMBI","PLACES":"BARABARA YA 7"},
{"REGION":"KATAVI","POSTCODE":"50127","DISTRICT":"MPANDA -CBD","WARD":"KATUMBA","STREET":"IWIMBI","PLACES":"BARABARA YA 8"},
{"REGION":"KATAVI","POSTCODE":"50127","DISTRICT":"MPANDA -CBD","WARD":"KATUMBA","STREET":"IWIMBI","PLACES":"BARABARA YA 9"},
{"REGION":"KATAVI","POSTCODE":"50127","DISTRICT":"MPANDA -CBD","WARD":"KATUMBA","STREET":"KALUNGU","PLACES":"BARABARA YA 7"},
{"REGION":"KATAVI","POSTCODE":"50127","DISTRICT":"MPANDA -CBD","WARD":"KATUMBA","STREET":"KALUNGU","PLACES":"BARABARA YA 8"},
{"REGION":"KATAVI","POSTCODE":"50127","DISTRICT":"MPANDA -CBD","WARD":"KATUMBA","STREET":"KALUNGU","PLACES":"BARABARA YA 9"},
{"REGION":"KATAVI","POSTCODE":"50201","DISTRICT":"TANGANYIKA","WARD":"KAREMA","STREET":"KAREMA","PLACES":"KUSINI A"},
{"REGION":"KATAVI","POSTCODE":"50201","DISTRICT":"TANGANYIKA","WARD":"KAREMA","STREET":"KAREMA","PLACES":"KUSINI B"},
{"REGION":"KATAVI","POSTCODE":"50201","DISTRICT":"TANGANYIKA","WARD":"KAREMA","STREET":"KAREMA","PLACES":"KASKAZINI A"},
{"REGION":"KATAVI","POSTCODE":"50201","DISTRICT":"TANGANYIKA","WARD":"KAREMA","STREET":"KAREMA","PLACES":"KASKAZINI B"},
{"REGION":"KATAVI","POSTCODE":"50201","DISTRICT":"TANGANYIKA","WARD":"KAREMA","STREET":"KAREMA","PLACES":"KIJIWENI"},
{"REGION":"KATAVI","POSTCODE":"50201","DISTRICT":"TANGANYIKA","WARD":"KAREMA","STREET":"KAREMA","PLACES":"KAMAZILE"},
{"REGION":"KATAVI","POSTCODE":"50201","DISTRICT":"TANGANYIKA","WARD":"KAREMA","STREET":"ITETEMYA","PLACES":"IFUME"},
{"REGION":"KATAVI","POSTCODE":"50201","DISTRICT":"TANGANYIKA","WARD":"KAREMA","STREET":"ITETEMYA","PLACES":"SUMBWA"},
{"REGION":"KATAVI","POSTCODE":"50201","DISTRICT":"TANGANYIKA","WARD":"KAREMA","STREET":"ITETEMYA","PLACES":"IGALUKILO A"},
{"REGION":"KATAVI","POSTCODE":"50201","DISTRICT":"TANGANYIKA","WARD":"KAREMA","STREET":"ITETEMYA","PLACES":"IGALUKILO B"},
{"REGION":"KATAVI","POSTCODE":"50202","DISTRICT":"TANGANYIKA","WARD":"KAPALAMSENGA","STREET":"KAPALAMSENGA","PLACES":"KAMALAMANSA"},
{"REGION":"KATAVI","POSTCODE":"50202","DISTRICT":"TANGANYIKA","WARD":"KAPALAMSENGA","STREET":"KAPALAMSENGA","PLACES":"MSASANI"},
{"REGION":"KATAVI","POSTCODE":"50202","DISTRICT":"TANGANYIKA","WARD":"KAPALAMSENGA","STREET":"KAPALAMSENGA","PLACES":"MJI MWEMA"},
{"REGION":"KATAVI","POSTCODE":"50202","DISTRICT":"TANGANYIKA","WARD":"KAPALAMSENGA","STREET":"KAPALAMSENGA","PLACES":"MAJENGO B"},
{"REGION":"KATAVI","POSTCODE":"50202","DISTRICT":"TANGANYIKA","WARD":"KAPALAMSENGA","STREET":"ITUNYA","PLACES":"NKUSWE"},
{"REGION":"KATAVI","POSTCODE":"50202","DISTRICT":"TANGANYIKA","WARD":"KAPALAMSENGA","STREET":"ITUNYA","PLACES":"MNYUNDWE"},
{"REGION":"KATAVI","POSTCODE":"50202","DISTRICT":"TANGANYIKA","WARD":"KAPALAMSENGA","STREET":"ITUNYA","PLACES":"NSANGO"},
{"REGION":"KATAVI","POSTCODE":"50202","DISTRICT":"TANGANYIKA","WARD":"KAPALAMSENGA","STREET":"ITUNYA","PLACES":"MIGUNGANI"},
{"REGION":"KATAVI","POSTCODE":"50202","DISTRICT":"TANGANYIKA","WARD":"KAPALAMSENGA","STREET":"ITUNYA","PLACES":"KAMITOBO"},
{"REGION":"KATAVI","POSTCODE":"50202","DISTRICT":"TANGANYIKA","WARD":"KAPALAMSENGA","STREET":"SONGAMBELE","PLACES":"SONGAMBELE"},
{"REGION":"KATAVI","POSTCODE":"50202","DISTRICT":"TANGANYIKA","WARD":"KAPALAMSENGA","STREET":"SONGAMBELE","PLACES":"MTAKUJA"},
{"REGION":"KATAVI","POSTCODE":"50202","DISTRICT":"TANGANYIKA","WARD":"KAPALAMSENGA","STREET":"SONGAMBELE","PLACES":"MAJENGO A"},
{"REGION":"KATAVI","POSTCODE":"50202","DISTRICT":"TANGANYIKA","WARD":"KAPALAMSENGA","STREET":"SONGAMBELE","PLACES":"MILUNDUMO"},
{"REGION":"KATAVI","POSTCODE":"50203","DISTRICT":"TANGANYIKA","WARD":"IKOLA","STREET":"IKOLA","PLACES":"ISIGO"},
{"REGION":"KATAVI","POSTCODE":"50203","DISTRICT":"TANGANYIKA","WARD":"IKOLA","STREET":"IKOLA","PLACES":"BUJOMBE"},
{"REGION":"KATAVI","POSTCODE":"50203","DISTRICT":"TANGANYIKA","WARD":"IKOLA","STREET":"IKOLA","PLACES":"UTINTA A."},
{"REGION":"KATAVI","POSTCODE":"50203","DISTRICT":"TANGANYIKA","WARD":"IKOLA","STREET":"IKOLA","PLACES":"UTINTA B"},
{"REGION":"KATAVI","POSTCODE":"50203","DISTRICT":"TANGANYIKA","WARD":"IKOLA","STREET":"IKOLA","PLACES":"IKOLA STOO"},
{"REGION":"KATAVI","POSTCODE":"50203","DISTRICT":"TANGANYIKA","WARD":"IKOLA","STREET":"IKOLA","PLACES":"MPALAMAWE  A"},
{"REGION":"KATAVI","POSTCODE":"50203","DISTRICT":"TANGANYIKA","WARD":"IKOLA","STREET":"IKOLA","PLACES":"MPALAMAWE  B"},
{"REGION":"KATAVI","POSTCODE":"50203","DISTRICT":"TANGANYIKA","WARD":"IKOLA","STREET":"IKOLA","PLACES":"KALUMBI"},
{"REGION":"KATAVI","POSTCODE":"50203","DISTRICT":"TANGANYIKA","WARD":"IKOLA","STREET":"MCHANGANI","PLACES":"KALILANGWENA"},
{"REGION":"KATAVI","POSTCODE":"50203","DISTRICT":"TANGANYIKA","WARD":"IKOLA","STREET":"MCHANGANI","PLACES":"MZAMBARAUNI"},
{"REGION":"KATAVI","POSTCODE":"50203","DISTRICT":"TANGANYIKA","WARD":"IKOLA","STREET":"MCHANGANI","PLACES":"MCHANGANI"},
{"REGION":"KATAVI","POSTCODE":"50203","DISTRICT":"TANGANYIKA","WARD":"IKOLA","STREET":"MCHANGANI","PLACES":"MZABWELA"},
{"REGION":"KATAVI","POSTCODE":"50203","DISTRICT":"TANGANYIKA","WARD":"IKOLA","STREET":"MCHANGANI","PLACES":"SOKONI"},
{"REGION":"KATAVI","POSTCODE":"50203","DISTRICT":"TANGANYIKA","WARD":"IKOLA","STREET":"MCHANGANI","PLACES":"SUMBWA"},
{"REGION":"KATAVI","POSTCODE":"50203","DISTRICT":"TANGANYIKA","WARD":"IKOLA","STREET":"MCHANGANI","PLACES":"FORODHANI."},
{"REGION":"KATAVI","POSTCODE":"50203","DISTRICT":"TANGANYIKA","WARD":"IKOLA","STREET":"MCHANGANI","PLACES":"KAJINGA"},
{"REGION":"KATAVI","POSTCODE":"50203","DISTRICT":"TANGANYIKA","WARD":"IKOLA","STREET":"KAFISHA","PLACES":"NGALA"},
{"REGION":"KATAVI","POSTCODE":"50203","DISTRICT":"TANGANYIKA","WARD":"IKOLA","STREET":"KAFISHA","PLACES":"KAFISHA KATI"},
{"REGION":"KATAVI","POSTCODE":"50203","DISTRICT":"TANGANYIKA","WARD":"IKOLA","STREET":"KAFISHA","PLACES":"KATAMBO"},
{"REGION":"KATAVI","POSTCODE":"50203","DISTRICT":"TANGANYIKA","WARD":"IKOLA","STREET":"KAFISHA","PLACES":"ISIGO"},
{"REGION":"KATAVI","POSTCODE":"50204","DISTRICT":"TANGANYIKA","WARD":"KATUMA","STREET":"KATUMA","PLACES":"MAJENGO"},
{"REGION":"KATAVI","POSTCODE":"50204","DISTRICT":"TANGANYIKA","WARD":"KATUMA","STREET":"KATUMA","PLACES":"MASHINENI"},
{"REGION":"KATAVI","POSTCODE":"50204","DISTRICT":"TANGANYIKA","WARD":"KATUMA","STREET":"KATUMA","PLACES":"MWIKANG’OMBE"}
,
{"REGION":"KATAVI","POSTCODE":"50204","DISTRICT":"TANGANYIKA","WARD":"KATUMA","STREET":"KATUMA","PLACES":"SHULENI"},
{"REGION":"KATAVI","POSTCODE":"50204","DISTRICT":"TANGANYIKA","WARD":"KATUMA","STREET":"KATUMA","PLACES":"MSIKITINI"},
{"REGION":"KATAVI","POSTCODE":"50204","DISTRICT":"TANGANYIKA","WARD":"KATUMA","STREET":"KATUMA","PLACES":"NSIMBO"},
{"REGION":"KATAVI","POSTCODE":"50204","DISTRICT":"TANGANYIKA","WARD":"KATUMA","STREET":"MPEMBE","PLACES":"MPEMBE"},
{"REGION":"KATAVI","POSTCODE":"50204","DISTRICT":"TANGANYIKA","WARD":"KATUMA","STREET":"MPEMBE","PLACES":"IBULAMASI MASHARIKI"},
{"REGION":"KATAVI","POSTCODE":"50204","DISTRICT":"TANGANYIKA","WARD":"KATUMA","STREET":"MPEMBE","PLACES":"IBULAMASI MAGHARIBI"},
{"REGION":"KATAVI","POSTCODE":"50204","DISTRICT":"TANGANYIKA","WARD":"KATUMA","STREET":"MPEMBE","PLACES":"MLINDA"},
{"REGION":"KATAVI","POSTCODE":"50204","DISTRICT":"TANGANYIKA","WARD":"KATUMA","STREET":"MPEMBE","PLACES":"KAHELELE"},
{"REGION":"KATAVI","POSTCODE":"50204","DISTRICT":"TANGANYIKA","WARD":"KATUMA","STREET":"MPEMBE","PLACES":"KABATINI"},
{"REGION":"KATAVI","POSTCODE":"50204","DISTRICT":"TANGANYIKA","WARD":"KATUMA","STREET":"KAPANGA","PLACES":"MSIKITINI"},
{"REGION":"KATAVI","POSTCODE":"50204","DISTRICT":"TANGANYIKA","WARD":"KATUMA","STREET":"KAPANGA","PLACES":"MLIMANI"},
{"REGION":"KATAVI","POSTCODE":"50204","DISTRICT":"TANGANYIKA","WARD":"KATUMA","STREET":"KAPANGA","PLACES":"NSIMBO"},
{"REGION":"KATAVI","POSTCODE":"50204","DISTRICT":"TANGANYIKA","WARD":"KATUMA","STREET":"KAMILALA","PLACES":"KAYENZE A"},
{"REGION":"KATAVI","POSTCODE":"50204","DISTRICT":"TANGANYIKA","WARD":"KATUMA","STREET":"KAMILALA","PLACES":"KAYENZE B"},
{"REGION":"KATAVI","POSTCODE":"50204","DISTRICT":"TANGANYIKA","WARD":"KATUMA","STREET":"KAMILALA","PLACES":"KAMLENGA"},
{"REGION":"KATAVI","POSTCODE":"50204","DISTRICT":"TANGANYIKA","WARD":"KATUMA","STREET":"KAMILALA","PLACES":"MZOGA WA FISI"},
{"REGION":"KATAVI","POSTCODE":"50205","DISTRICT":"TANGANYIKA","WARD":"SIBWESA","STREET":"SIBWESA","PLACES":"MTAPENDA"},
{"REGION":"KATAVI","POSTCODE":"50205","DISTRICT":"TANGANYIKA","WARD":"SIBWESA","STREET":"SIBWESA","PLACES":"SIBWESA MASHARIKI"},
{"REGION":"KATAVI","POSTCODE":"50205","DISTRICT":"TANGANYIKA","WARD":"SIBWESA","STREET":"SIBWESA","PLACES":"MAGOGO"},
{"REGION":"KATAVI","POSTCODE":"50205","DISTRICT":"TANGANYIKA","WARD":"SIBWESA","STREET":"SIBWESA","PLACES":"KAMLENGA"},
{"REGION":"KATAVI","POSTCODE":"50205","DISTRICT":"TANGANYIKA","WARD":"SIBWESA","STREET":"SIBWESA","PLACES":"SIBWESA MAGHARIBI"},
{"REGION":"KATAVI","POSTCODE":"50205","DISTRICT":"TANGANYIKA","WARD":"SIBWESA","STREET":"NKUNGWI","PLACES":"NKUNGWI"},
{"REGION":"KATAVI","POSTCODE":"50205","DISTRICT":"TANGANYIKA","WARD":"SIBWESA","STREET":"NKUNGWI","PLACES":"ILOBA A"},
{"REGION":"KATAVI","POSTCODE":"50205","DISTRICT":"TANGANYIKA","WARD":"SIBWESA","STREET":"NKUNGWI","PLACES":"ILOBA B"},
{"REGION":"KATAVI","POSTCODE":"50205","DISTRICT":"TANGANYIKA","WARD":"SIBWESA","STREET":"NKUNGWI","PLACES":"RUTUBA"},
{"REGION":"KATAVI","POSTCODE":"50205","DISTRICT":"TANGANYIKA","WARD":"SIBWESA","STREET":"KABAGE","PLACES":"KABAGE A"},
{"REGION":"KATAVI","POSTCODE":"50205","DISTRICT":"TANGANYIKA","WARD":"SIBWESA","STREET":"KABAGE","PLACES":"KABAGE B"},
{"REGION":"KATAVI","POSTCODE":"50205","DISTRICT":"TANGANYIKA","WARD":"SIBWESA","STREET":"KABAGE","PLACES":"KABAGE MASHARIKI"},
{"REGION":"KATAVI","POSTCODE":"50205","DISTRICT":"TANGANYIKA","WARD":"SIBWESA","STREET":"KABAGE","PLACES":"MWAMAPULI A"},
{"REGION":"KATAVI","POSTCODE":"50205","DISTRICT":"TANGANYIKA","WARD":"SIBWESA","STREET":"KABAGE","PLACES":"MWAMAPULI B"},
{"REGION":"KATAVI","POSTCODE":"50206","DISTRICT":"TANGANYIKA","WARD":"MWESE","STREET":"MWESE","PLACES":"NAMBA 2"},
{"REGION":"KATAVI","POSTCODE":"50206","DISTRICT":"TANGANYIKA","WARD":"MWESE","STREET":"MWESE","PLACES":"NAMBA 3A"},
{"REGION":"KATAVI","POSTCODE":"50206","DISTRICT":"TANGANYIKA","WARD":"MWESE","STREET":"MWESE","PLACES":"NAMBA 3B"},
{"REGION":"KATAVI","POSTCODE":"50206","DISTRICT":"TANGANYIKA","WARD":"MWESE","STREET":"MWESE","PLACES":"NAMBA 3C"},
{"REGION":"KATAVI","POSTCODE":"50206","DISTRICT":"TANGANYIKA","WARD":"MWESE","STREET":"MWESE","PLACES":"NAMBA 3D"},
{"REGION":"KATAVI","POSTCODE":"50206","DISTRICT":"TANGANYIKA","WARD":"MWESE","STREET":"LWEGA","PLACES":"IGALULA"},
{"REGION":"KATAVI","POSTCODE":"50206","DISTRICT":"TANGANYIKA","WARD":"MWESE","STREET":"LWEGA","PLACES":"NAMBA 7A"},
{"REGION":"KATAVI","POSTCODE":"50206","DISTRICT":"TANGANYIKA","WARD":"MWESE","STREET":"LWEGA","PLACES":"NAMBA 7B"},
{"REGION":"KATAVI","POSTCODE":"50206","DISTRICT":"TANGANYIKA","WARD":"MWESE","STREET":"LWEGA","PLACES":"NAMBA 8A"},
{"REGION":"KATAVI","POSTCODE":"50206","DISTRICT":"TANGANYIKA","WARD":"MWESE","STREET":"LWEGA","PLACES":"NAMBA 8B"},
{"REGION":"KATAVI","POSTCODE":"50206","DISTRICT":"TANGANYIKA","WARD":"MWESE","STREET":"LUGONESI","PLACES":"KITONGOJI NA. 4A"},
{"REGION":"KATAVI","POSTCODE":"50206","DISTRICT":"TANGANYIKA","WARD":"MWESE","STREET":"LUGONESI","PLACES":"KITONGOJI NA. 4B"},
{"REGION":"KATAVI","POSTCODE":"50206","DISTRICT":"TANGANYIKA","WARD":"MWESE","STREET":"LUGONESI","PLACES":"KITONGOJI NA. 4C"},
{"REGION":"KATAVI","POSTCODE":"50206","DISTRICT":"TANGANYIKA","WARD":"MWESE","STREET":"LUGONESI","PLACES":"KITONGOJI NA. 4D"},
{"REGION":"KATAVI","POSTCODE":"50206","DISTRICT":"TANGANYIKA","WARD":"MWESE","STREET":"LUGONESI","PLACES":"KITONGOJI NA. 4E"},
{"REGION":"KATAVI","POSTCODE":"50206","DISTRICT":"TANGANYIKA","WARD":"MWESE","STREET":"LUGONESI","PLACES":"KITONGOJI NA. 5A"},
{"REGION":"KATAVI","POSTCODE":"50206","DISTRICT":"TANGANYIKA","WARD":"MWESE","STREET":"LUGONESI","PLACES":"KITONGOJI NA. 5B"},
{"REGION":"KATAVI","POSTCODE":"50206","DISTRICT":"TANGANYIKA","WARD":"MWESE","STREET":"BUJOMBE","PLACES":"MASANGA"},
{"REGION":"KATAVI","POSTCODE":"50206","DISTRICT":"TANGANYIKA","WARD":"MWESE","STREET":"BUJOMBE","PLACES":"BUBANDA"},
{"REGION":"KATAVI","POSTCODE":"50206","DISTRICT":"TANGANYIKA","WARD":"MWESE","STREET":"BUJOMBE","PLACES":"MABWENSOFU"},
{"REGION":"KATAVI","POSTCODE":"50206","DISTRICT":"TANGANYIKA","WARD":"MWESE","STREET":"BUJOMBE","PLACES":"MATIMBA"},
{"REGION":"KATAVI","POSTCODE":"50206","DISTRICT":"TANGANYIKA","WARD":"MWESE","STREET":"BUJOMBE","PLACES":"NKWENDE"},
{"REGION":"KATAVI","POSTCODE":"50206","DISTRICT":"TANGANYIKA","WARD":"MWESE","STREET":"BUJOMBE","PLACES":"KASANGASI"},
{"REGION":"KATAVI","POSTCODE":"50206","DISTRICT":"TANGANYIKA","WARD":"MWESE","STREET":"BUJOMBE","PLACES":"KATENTE"},
{"REGION":"KATAVI","POSTCODE":"50206","DISTRICT":"TANGANYIKA","WARD":"MWESE","STREET":"BUJOMBE","PLACES":"MISANGA"},
{"REGION":"KATAVI","POSTCODE":"50206","DISTRICT":"TANGANYIKA","WARD":"MWESE","STREET":"BUJOMBE","PLACES":"KASUNGA"},
{"REGION":"KATAVI","POSTCODE":"50207","DISTRICT":"TANGANYIKA","WARD":"KABUNGU","STREET":"KABUNGU","PLACES":"IMALAUSINGA"},
{"REGION":"KATAVI","POSTCODE":"50207","DISTRICT":"TANGANYIKA","WARD":"KABUNGU","STREET":"KABUNGU","PLACES":"KAGWILA"},
{"REGION":"KATAVI","POSTCODE":"50207","DISTRICT":"TANGANYIKA","WARD":"KABUNGU","STREET":"KABUNGU","PLACES":"IKULU"},
{"REGION":"KATAVI","POSTCODE":"50207","DISTRICT":"TANGANYIKA","WARD":"KABUNGU","STREET":"KABUNGU","PLACES":"SONGOTUPENDANE"},
{"REGION":"KATAVI","POSTCODE":"50207","DISTRICT":"TANGANYIKA","WARD":"KABUNGU","STREET":"KABUNGU","PLACES":"SIJONGA"},
{"REGION":"KATAVI","POSTCODE":"50207","DISTRICT":"TANGANYIKA","WARD":"KABUNGU","STREET":"KABUNGU","PLACES":"MBOGWE"},
{"REGION":"KATAVI","POSTCODE":"50207","DISTRICT":"TANGANYIKA","WARD":"KABUNGU","STREET":"KABUNGU","PLACES":"WAZO JEMA"},
{"REGION":"KATAVI","POSTCODE":"50207","DISTRICT":"TANGANYIKA","WARD":"KABUNGU","STREET":"KABUNGU","PLACES":"IBAMBYE"},
{"REGION":"KATAVI","POSTCODE":"50207","DISTRICT":"TANGANYIKA","WARD":"KABUNGU","STREET":"KABUNGU","PLACES":"KAMULUGUJU"},
{"REGION":"KATAVI","POSTCODE":"50207","DISTRICT":"TANGANYIKA","WARD":"KABUNGU","STREET":"KASINDE","PLACES":"KASINDE"},
{"REGION":"KATAVI","POSTCODE":"50207","DISTRICT":"TANGANYIKA","WARD":"KABUNGU","STREET":"KASINDE","PLACES":"IKAKA"},
{"REGION":"KATAVI","POSTCODE":"50207","DISTRICT":"TANGANYIKA","WARD":"KABUNGU","STREET":"KASINDE","PLACES":"SHAKOMA"},
{"REGION":"KATAVI","POSTCODE":"50207","DISTRICT":"TANGANYIKA","WARD":"KABUNGU","STREET":"KASINDE","PLACES":"KAFULU"},
{"REGION":"KATAVI","POSTCODE":"50207","DISTRICT":"TANGANYIKA","WARD":"KABUNGU","STREET":"KASINDE","PLACES":"TUPENDANE"},
{"REGION":"KATAVI","POSTCODE":"50207","DISTRICT":"TANGANYIKA","WARD":"KABUNGU","STREET":"KASINDE","PLACES":"IKOMBASOGO"},
{"REGION":"KATAVI","POSTCODE":"50207","DISTRICT":"TANGANYIKA","WARD":"KABUNGU","STREET":"KASINDE","PLACES":"KAGALA"},
{"REGION":"KATAVI","POSTCODE":"50207","DISTRICT":"TANGANYIKA","WARD":"KABUNGU","STREET":"KASINDE","PLACES":"BUTIKI"},
{"REGION":"KATAVI","POSTCODE":"50207","DISTRICT":"TANGANYIKA","WARD":"KABUNGU","STREET":"KASINDE","PLACES":"MAPAMBANO"},
{"REGION":"KATAVI","POSTCODE":"50207","DISTRICT":"TANGANYIKA","WARD":"KABUNGU","STREET":"KASINDE","PLACES":"KATONYAGA"},
{"REGION":"KATAVI","POSTCODE":"50208","DISTRICT":"TANGANYIKA","WARD":"MPANDA NDOGO","STREET":"MCHAKAMCHAKA","PLACES":"CHEMKA"},
{"REGION":"KATAVI","POSTCODE":"50208","DISTRICT":"TANGANYIKA","WARD":"MPANDA NDOGO","STREET":"MCHAKAMCHAKA","PLACES":"ACHATUONE"},
{"REGION":"KATAVI","POSTCODE":"50208","DISTRICT":"TANGANYIKA","WARD":"MPANDA NDOGO","STREET":"MCHAKAMCHAKA","PLACES":"KAMSEMKWA"},
{"REGION":"KATAVI","POSTCODE":"50208","DISTRICT":"TANGANYIKA","WARD":"MPANDA NDOGO","STREET":"MCHAKAMCHAKA","PLACES":"KUMEKUCHA"},
{"REGION":"KATAVI","POSTCODE":"50208","DISTRICT":"TANGANYIKA","WARD":"MPANDA NDOGO","STREET":"KATOBO","PLACES":"KATOBO A"},
{"REGION":"KATAVI","POSTCODE":"50208","DISTRICT":"TANGANYIKA","WARD":"MPANDA NDOGO","STREET":"KATOBO","PLACES":"KATOBO B"},
{"REGION":"KATAVI","POSTCODE":"50208","DISTRICT":"TANGANYIKA","WARD":"MPANDA NDOGO","STREET":"KATOBO","PLACES":"NG’AMBO A"}
,
{"REGION":"KATAVI","POSTCODE":"50208","DISTRICT":"TANGANYIKA","WARD":"MPANDA NDOGO","STREET":"KATOBO","PLACES":"NG'AMBO B"},
{"REGION":"KATAVI","POSTCODE":"50208","DISTRICT":"TANGANYIKA","WARD":"MPANDA NDOGO","STREET":"IGALULA","PLACES":"ITOFU"},
{"REGION":"KATAVI","POSTCODE":"50208","DISTRICT":"TANGANYIKA","WARD":"MPANDA NDOGO","STREET":"IGALULA","PLACES":"MAGUNGA B"},
{"REGION":"KATAVI","POSTCODE":"50208","DISTRICT":"TANGANYIKA","WARD":"MPANDA NDOGO","STREET":"IGALULA","PLACES":"MAGUNGA A"},
{"REGION":"KATAVI","POSTCODE":"50208","DISTRICT":"TANGANYIKA","WARD":"MPANDA NDOGO","STREET":"IGALULA","PLACES":"MIGOMBANI"},
{"REGION":"KATAVI","POSTCODE":"50208","DISTRICT":"TANGANYIKA","WARD":"MPANDA NDOGO","STREET":"IGALULA","PLACES":"KASISI"},
{"REGION":"KATAVI","POSTCODE":"50208","DISTRICT":"TANGANYIKA","WARD":"MPANDA NDOGO","STREET":"IGAGALA","PLACES":"IGAGALA A"},
{"REGION":"KATAVI","POSTCODE":"50208","DISTRICT":"TANGANYIKA","WARD":"MPANDA NDOGO","STREET":"IGAGALA","PLACES":"IGAGALA B"},
{"REGION":"KATAVI","POSTCODE":"50208","DISTRICT":"TANGANYIKA","WARD":"MPANDA NDOGO","STREET":"IGAGALA","PLACES":"IGAGALA C"},
{"REGION":"KATAVI","POSTCODE":"50208","DISTRICT":"TANGANYIKA","WARD":"MPANDA NDOGO","STREET":"IGAGALA","PLACES":"KAMANONGE"},
{"REGION":"KATAVI","POSTCODE":"50208","DISTRICT":"TANGANYIKA","WARD":"MPANDA NDOGO","STREET":"IFUKUTWA","PLACES":"KAMTIMBO"},
{"REGION":"KATAVI","POSTCODE":"50208","DISTRICT":"TANGANYIKA","WARD":"MPANDA NDOGO","STREET":"IFUKUTWA","PLACES":"MISUNKUMILO B"},
{"REGION":"KATAVI","POSTCODE":"50208","DISTRICT":"TANGANYIKA","WARD":"MPANDA NDOGO","STREET":"IFUKUTWA","PLACES":"MISUNKUMILO A"},
{"REGION":"KATAVI","POSTCODE":"50208","DISTRICT":"TANGANYIKA","WARD":"MPANDA NDOGO","STREET":"IFUKUTWA","PLACES":"IFUKUTWA B"},
{"REGION":"KATAVI","POSTCODE":"50208","DISTRICT":"TANGANYIKA","WARD":"MPANDA NDOGO","STREET":"IFUKUTWA","PLACES":"IFUKUTWA A"},
{"REGION":"KATAVI","POSTCODE":"50208","DISTRICT":"TANGANYIKA","WARD":"MPANDA NDOGO","STREET":"IFUKUTWA","PLACES":"BUNYOLWE"},
{"REGION":"KATAVI","POSTCODE":"50209","DISTRICT":"TANGANYIKA","WARD":"MISHAMO","STREET":"ISENGA","PLACES":"IJENDA A"},
{"REGION":"KATAVI","POSTCODE":"50209","DISTRICT":"TANGANYIKA","WARD":"MISHAMO","STREET":"ISENGA","PLACES":"IJENDA B"},
{"REGION":"KATAVI","POSTCODE":"50209","DISTRICT":"TANGANYIKA","WARD":"MISHAMO","STREET":"ISENGA","PLACES":"KABWIKA"},
{"REGION":"KATAVI","POSTCODE":"50209","DISTRICT":"TANGANYIKA","WARD":"MISHAMO","STREET":"ISENGA","PLACES":"MIGOMBANI"},
{"REGION":"KATAVI","POSTCODE":"50209","DISTRICT":"TANGANYIKA","WARD":"MISHAMO","STREET":"ISENGA","PLACES":"MAPAMBANO"},
{"REGION":"KATAVI","POSTCODE":"50209","DISTRICT":"TANGANYIKA","WARD":"MISHAMO","STREET":"ISENGA","PLACES":"JUHUDI"},
{"REGION":"KATAVI","POSTCODE":"50209","DISTRICT":"TANGANYIKA","WARD":"MISHAMO","STREET":"ISENGA","PLACES":"ISENGA"},
{"REGION":"KATAVI","POSTCODE":"50209","DISTRICT":"TANGANYIKA","WARD":"MISHAMO","STREET":"ISENGA","PLACES":"MSIKITINI"},
{"REGION":"KATAVI","POSTCODE":"50209","DISTRICT":"TANGANYIKA","WARD":"MISHAMO","STREET":"IFUMBULA","PLACES":"IFUMBULA"},
{"REGION":"KATAVI","POSTCODE":"50209","DISTRICT":"TANGANYIKA","WARD":"MISHAMO","STREET":"IFUMBULA","PLACES":"MLIMANI"},
{"REGION":"KATAVI","POSTCODE":"50209","DISTRICT":"TANGANYIKA","WARD":"MISHAMO","STREET":"IFUMBULA","PLACES":"MTAKUJA"},
{"REGION":"KATAVI","POSTCODE":"50209","DISTRICT":"TANGANYIKA","WARD":"MISHAMO","STREET":"IFUMBULA","PLACES":"UZUNGUNI"},
{"REGION":"KATAVI","POSTCODE":"50209","DISTRICT":"TANGANYIKA","WARD":"MISHAMO","STREET":"IFUMBULA","PLACES":"MSUFINI"},
{"REGION":"KATAVI","POSTCODE":"50209","DISTRICT":"TANGANYIKA","WARD":"MISHAMO","STREET":"IFUMBULA","PLACES":"LEBANONI"},
{"REGION":"KATAVI","POSTCODE":"50209","DISTRICT":"TANGANYIKA","WARD":"MISHAMO","STREET":"IFUMBULA","PLACES":"KAZAROHO"},
{"REGION":"KATAVI","POSTCODE":"50209","DISTRICT":"TANGANYIKA","WARD":"MISHAMO","STREET":"IFUMBULA","PLACES":"MJIMWEMA"},
{"REGION":"KATAVI","POSTCODE":"50209","DISTRICT":"TANGANYIKA","WARD":"MISHAMO","STREET":"IFUMBULA","PLACES":"KISIWANI"},
{"REGION":"KATAVI","POSTCODE":"50209","DISTRICT":"TANGANYIKA","WARD":"MISHAMO","STREET":"IFUMBULA","PLACES":"KICHANGANI"},
{"REGION":"KATAVI","POSTCODE":"50209","DISTRICT":"TANGANYIKA","WARD":"MISHAMO","STREET":"KAPEMBA","PLACES":"KAPEMBA"},
{"REGION":"KATAVI","POSTCODE":"50209","DISTRICT":"TANGANYIKA","WARD":"MISHAMO","STREET":"KAPEMBA","PLACES":"MLENGA"},
{"REGION":"KATAVI","POSTCODE":"50209","DISTRICT":"TANGANYIKA","WARD":"MISHAMO","STREET":"KAPEMBA","PLACES":"KAMNEMBE"},
{"REGION":"KATAVI","POSTCODE":"50209","DISTRICT":"TANGANYIKA","WARD":"MISHAMO","STREET":"KAPEMBA","PLACES":"MPINGA"},
{"REGION":"KATAVI","POSTCODE":"50209","DISTRICT":"TANGANYIKA","WARD":"MISHAMO","STREET":"KAPEMBA","PLACES":"UMOJA"},
{"REGION":"KATAVI","POSTCODE":"50209","DISTRICT":"TANGANYIKA","WARD":"MISHAMO","STREET":"ISUMBWE","PLACES":"ISUMBWE"},
{"REGION":"KATAVI","POSTCODE":"50209","DISTRICT":"TANGANYIKA","WARD":"MISHAMO","STREET":"ISUMBWE","PLACES":"CENTER"},
{"REGION":"KATAVI","POSTCODE":"50209","DISTRICT":"TANGANYIKA","WARD":"MISHAMO","STREET":"ISUMBWE","PLACES":"BARABARA  1"},
{"REGION":"KATAVI","POSTCODE":"50209","DISTRICT":"TANGANYIKA","WARD":"MISHAMO","STREET":"ISUMBWE","PLACES":"BARABARA  3"},
{"REGION":"KATAVI","POSTCODE":"50209","DISTRICT":"TANGANYIKA","WARD":"MISHAMO","STREET":"ISUMBWE","PLACES":"BARABARA  4"},
{"REGION":"KATAVI","POSTCODE":"50209","DISTRICT":"TANGANYIKA","WARD":"MISHAMO","STREET":"ISUMBWE","PLACES":"BARABARA  5"},
{"REGION":"KATAVI","POSTCODE":"50210","DISTRICT":"TANGANYIKA","WARD":"ISENGULE","STREET":"ISENGULE","PLACES":"ISENGULA MAGHARIBI"},
{"REGION":"KATAVI","POSTCODE":"50210","DISTRICT":"TANGANYIKA","WARD":"ISENGULE","STREET":"ISENGULE","PLACES":"LAELA"},
{"REGION":"KATAVI","POSTCODE":"50210","DISTRICT":"TANGANYIKA","WARD":"ISENGULE","STREET":"ISENGULE","PLACES":"ISENGULE MASHARIKI"},
{"REGION":"KATAVI","POSTCODE":"50210","DISTRICT":"TANGANYIKA","WARD":"ISENGULE","STREET":"ISENGULE","PLACES":"MCHANGANI"},
{"REGION":"KATAVI","POSTCODE":"50210","DISTRICT":"TANGANYIKA","WARD":"ISENGULE","STREET":"SHUKULA","PLACES":"SHUKULA"},
{"REGION":"KATAVI","POSTCODE":"50210","DISTRICT":"TANGANYIKA","WARD":"ISENGULE","STREET":"SHUKULA","PLACES":"KENFUNGWA"},
{"REGION":"KATAVI","POSTCODE":"50210","DISTRICT":"TANGANYIKA","WARD":"ISENGULE","STREET":"SHUKULA","PLACES":"IGOMA"},
{"REGION":"KATAVI","POSTCODE":"50210","DISTRICT":"TANGANYIKA","WARD":"ISENGULE","STREET":"SHUKULA","PLACES":"KAMUHAMA"},
{"REGION":"KATAVI","POSTCODE":"50210","DISTRICT":"TANGANYIKA","WARD":"ISENGULE","STREET":"SHUKULA","PLACES":"IPAKOMATANA’B'"}
,
{"REGION":"KATAVI","POSTCODE":"50210","DISTRICT":"TANGANYIKA","WARD":"ISENGULE","STREET":"KASANGANTONGWE","PLACES":"ISIMWA"},
{"REGION":"KATAVI","POSTCODE":"50210","DISTRICT":"TANGANYIKA","WARD":"ISENGULE","STREET":"KASANGANTONGWE","PLACES":"KASULAMNYAGA"},
{"REGION":"KATAVI","POSTCODE":"50210","DISTRICT":"TANGANYIKA","WARD":"ISENGULE","STREET":"KASANGANTONGWE","PLACES":"TUPONDOGOLO"},
{"REGION":"KATAVI","POSTCODE":"50210","DISTRICT":"TANGANYIKA","WARD":"ISENGULE","STREET":"KASANGANTONGWE","PLACES":"KASANGANTONGWE"},
{"REGION":"KATAVI","POSTCODE":"50211","DISTRICT":"TANGANYIKA","WARD":"KASEKESE","STREET":"KASEKESE","PLACES":"KASEKESE A"},
{"REGION":"KATAVI","POSTCODE":"50211","DISTRICT":"TANGANYIKA","WARD":"KASEKESE","STREET":"KASEKESE","PLACES":"KASEKESE B"},
{"REGION":"KATAVI","POSTCODE":"50211","DISTRICT":"TANGANYIKA","WARD":"KASEKESE","STREET":"KASEKESE","PLACES":"MLANGO MMOJA"},
{"REGION":"KATAVI","POSTCODE":"50211","DISTRICT":"TANGANYIKA","WARD":"KASEKESE","STREET":"KASEKESE","PLACES":"ILWANGA"},
{"REGION":"KATAVI","POSTCODE":"50211","DISTRICT":"TANGANYIKA","WARD":"KASEKESE","STREET":"KASEKESE","PLACES":"MISISI."},
{"REGION":"KATAVI","POSTCODE":"50211","DISTRICT":"TANGANYIKA","WARD":"KASEKESE","STREET":"KAGUNGA","PLACES":"KAGUNGA ‘A’"}
,
{"REGION":"KATAVI","POSTCODE":"50211","DISTRICT":"TANGANYIKA","WARD":"KASEKESE","STREET":"KAGUNGA","PLACES":"KAGUNGA ‘B’"}
,
{"REGION":"KATAVI","POSTCODE":"50211","DISTRICT":"TANGANYIKA","WARD":"KASEKESE","STREET":"KAGUNGA","PLACES":"KAMKOLA"},
{"REGION":"KATAVI","POSTCODE":"50211","DISTRICT":"TANGANYIKA","WARD":"KASEKESE","STREET":"KAGUNGA","PLACES":"MANTENA"},
{"REGION":"KATAVI","POSTCODE":"50211","DISTRICT":"TANGANYIKA","WARD":"KASEKESE","STREET":"KASEGANYAMA","PLACES":"KASEGANYAMA A"},
{"REGION":"KATAVI","POSTCODE":"50211","DISTRICT":"TANGANYIKA","WARD":"KASEKESE","STREET":"KASEGANYAMA","PLACES":"KASEGANYAMA B"},
{"REGION":"KATAVI","POSTCODE":"50211","DISTRICT":"TANGANYIKA","WARD":"KASEKESE","STREET":"KASEGANYAMA","PLACES":"KASEGANYAMA C"},
{"REGION":"KATAVI","POSTCODE":"50212","DISTRICT":"TANGANYIKA","WARD":"MNYAGALA","STREET":"MNYAGALA","PLACES":"NTUMBA"},
{"REGION":"KATAVI","POSTCODE":"50212","DISTRICT":"TANGANYIKA","WARD":"MNYAGALA","STREET":"MNYAGALA","PLACES":"MING’ONG’ONI"}
,
{"REGION":"KATAVI","POSTCODE":"50212","DISTRICT":"TANGANYIKA","WARD":"MNYAGALA","STREET":"MNYAGALA","PLACES":"ILOBA"},
{"REGION":"KATAVI","POSTCODE":"50212","DISTRICT":"TANGANYIKA","WARD":"MNYAGALA","STREET":"MNYAGALA","PLACES":"MNYAGALA A"},
{"REGION":"KATAVI","POSTCODE":"50212","DISTRICT":"TANGANYIKA","WARD":"MNYAGALA","STREET":"MNYAGALA","PLACES":"MNYAGALA B"},
{"REGION":"KATAVI","POSTCODE":"50212","DISTRICT":"TANGANYIKA","WARD":"MNYAGALA","STREET":"KAMSANGA","PLACES":"ILEBULA B"},
{"REGION":"KATAVI","POSTCODE":"50212","DISTRICT":"TANGANYIKA","WARD":"MNYAGALA","STREET":"KAMSANGA","PLACES":"MLIMANI"},
{"REGION":"KATAVI","POSTCODE":"50212","DISTRICT":"TANGANYIKA","WARD":"MNYAGALA","STREET":"KAMSANGA","PLACES":"KAMSANGA"},
{"REGION":"KATAVI","POSTCODE":"50212","DISTRICT":"TANGANYIKA","WARD":"MNYAGALA","STREET":"KAMSANGA","PLACES":"KAMSANGA B"},
{"REGION":"KATAVI","POSTCODE":"50212","DISTRICT":"TANGANYIKA","WARD":"MNYAGALA","STREET":"IKAKA","PLACES":"IKAKA GENGENI"},
{"REGION":"KATAVI","POSTCODE":"50212","DISTRICT":"TANGANYIKA","WARD":"MNYAGALA","STREET":"IKAKA","PLACES":"IKAKA ‘B’"}
,
{"REGION":"KATAVI","POSTCODE":"50212","DISTRICT":"TANGANYIKA","WARD":"MNYAGALA","STREET":"IKAKA","PLACES":"VUMILIA"},
{"REGION":"KATAVI","POSTCODE":"50212","DISTRICT":"TANGANYIKA","WARD":"MNYAGALA","STREET":"IKAKA","PLACES":"ILEBULA ‘A’"}
,
{"REGION":"KATAVI","POSTCODE":"50213","DISTRICT":"TANGANYIKA","WARD":"TONGWE","STREET":"VIKONGE","PLACES":"VIKONGE"},
{"REGION":"KATAVI","POSTCODE":"50213","DISTRICT":"TANGANYIKA","WARD":"TONGWE","STREET":"VIKONGE","PLACES":"MNYAMASI A"},
{"REGION":"KATAVI","POSTCODE":"50213","DISTRICT":"TANGANYIKA","WARD":"TONGWE","STREET":"VIKONGE","PLACES":"MNYAMASI B."},
{"REGION":"KATAVI","POSTCODE":"50213","DISTRICT":"TANGANYIKA","WARD":"TONGWE","STREET":"VIKONGE","PLACES":"MNYAMASI"},
{"REGION":"KATAVI","POSTCODE":"50213","DISTRICT":"TANGANYIKA","WARD":"TONGWE","STREET":"NGOMALUSAMBO","PLACES":"NTINTI"},
{"REGION":"KATAVI","POSTCODE":"50213","DISTRICT":"TANGANYIKA","WARD":"TONGWE","STREET":"NGOMALUSAMBO","PLACES":"IJENJE"},
{"REGION":"KATAVI","POSTCODE":"50213","DISTRICT":"TANGANYIKA","WARD":"TONGWE","STREET":"NGOMALUSAMBO","PLACES":"NGOMALUSAMBO"},
{"REGION":"KATAVI","POSTCODE":"50213","DISTRICT":"TANGANYIKA","WARD":"TONGWE","STREET":"NGOMALUSAMBO","PLACES":"IVUNGWE"},
{"REGION":"KATAVI","POSTCODE":"50213","DISTRICT":"TANGANYIKA","WARD":"TONGWE","STREET":"BUGWE","PLACES":"BUGWE A"},
{"REGION":"KATAVI","POSTCODE":"50213","DISTRICT":"TANGANYIKA","WARD":"TONGWE","STREET":"BUGWE","PLACES":"BUGWE B"},
{"REGION":"KATAVI","POSTCODE":"50213","DISTRICT":"TANGANYIKA","WARD":"TONGWE","STREET":"BUGWE","PLACES":"BUGWE C"},
{"REGION":"KATAVI","POSTCODE":"50213","DISTRICT":"TANGANYIKA","WARD":"TONGWE","STREET":"MAJALILA","PLACES":"MASEMBA"},
{"REGION":"KATAVI","POSTCODE":"50213","DISTRICT":"TANGANYIKA","WARD":"TONGWE","STREET":"MAJALILA","PLACES":"INYANTAMBO"},
{"REGION":"KATAVI","POSTCODE":"50213","DISTRICT":"TANGANYIKA","WARD":"TONGWE","STREET":"MAJALILA","PLACES":"IBENGA"},
{"REGION":"KATAVI","POSTCODE":"50213","DISTRICT":"TANGANYIKA","WARD":"TONGWE","STREET":"MAJALILA","PLACES":"MAJALILA"},
{"REGION":"KATAVI","POSTCODE":"50213","DISTRICT":"TANGANYIKA","WARD":"TONGWE","STREET":"MAJALILA","PLACES":"MPANDANDOGO"},
{"REGION":"KATAVI","POSTCODE":"50214","DISTRICT":"TANGANYIKA","WARD":"ILANGU","STREET":"ILANGU","PLACES":"ALFA"},
{"REGION":"KATAVI","POSTCODE":"50214","DISTRICT":"TANGANYIKA","WARD":"ILANGU","STREET":"ILANGU","PLACES":"BONDENI"},
{"REGION":"KATAVI","POSTCODE":"50214","DISTRICT":"TANGANYIKA","WARD":"ILANGU","STREET":"ILANGU","PLACES":"AMANI"},
{"REGION":"KATAVI","POSTCODE":"50214","DISTRICT":"TANGANYIKA","WARD":"ILANGU","STREET":"ILANGU","PLACES":"NYERERE"},
{"REGION":"KATAVI","POSTCODE":"50214","DISTRICT":"TANGANYIKA","WARD":"ILANGU","STREET":"ILANGU","PLACES":"ILANGU"},
{"REGION":"KATAVI","POSTCODE":"50214","DISTRICT":"TANGANYIKA","WARD":"ILANGU","STREET":"ILANGU","PLACES":"MAPAMBAZUKO"},
{"REGION":"KATAVI","POSTCODE":"50214","DISTRICT":"TANGANYIKA","WARD":"ILANGU","STREET":"ILANGU","PLACES":"MSEBESA"},
{"REGION":"KATAVI","POSTCODE":"50214","DISTRICT":"TANGANYIKA","WARD":"ILANGU","STREET":"ILANGU","PLACES":"KILELENI"},
{"REGION":"KATAVI","POSTCODE":"50214","DISTRICT":"TANGANYIKA","WARD":"ILANGU","STREET":"KABANGA","PLACES":"KABANGA"},
{"REGION":"KATAVI","POSTCODE":"50214","DISTRICT":"TANGANYIKA","WARD":"ILANGU","STREET":"KABANGA","PLACES":"MSHIKAMANO"},
{"REGION":"KATAVI","POSTCODE":"50214","DISTRICT":"TANGANYIKA","WARD":"ILANGU","STREET":"KABANGA","PLACES":"MTAKUJA"},
{"REGION":"KATAVI","POSTCODE":"50214","DISTRICT":"TANGANYIKA","WARD":"ILANGU","STREET":"KABANGA","PLACES":"JAZANATWENDE"},
{"REGION":"KATAVI","POSTCODE":"50214","DISTRICT":"TANGANYIKA","WARD":"ILANGU","STREET":"KABANGA","PLACES":"MIKOCHENI"},
{"REGION":"KATAVI","POSTCODE":"50214","DISTRICT":"TANGANYIKA","WARD":"ILANGU","STREET":"KABANGA","PLACES":"UHURU"},
{"REGION":"KATAVI","POSTCODE":"50214","DISTRICT":"TANGANYIKA","WARD":"ILANGU","STREET":"ISUBANGALA","PLACES":"KILIMAHEWA"},
{"REGION":"KATAVI","POSTCODE":"50214","DISTRICT":"TANGANYIKA","WARD":"ILANGU","STREET":"ISUBANGALA","PLACES":"UTEGAMA"},
{"REGION":"KATAVI","POSTCODE":"50214","DISTRICT":"TANGANYIKA","WARD":"ILANGU","STREET":"ISUBANGALA","PLACES":"KAZIMOTO"},
{"REGION":"KATAVI","POSTCODE":"50214","DISTRICT":"TANGANYIKA","WARD":"ILANGU","STREET":"ISUBANGALA","PLACES":"AZIMIO"},
{"REGION":"KATAVI","POSTCODE":"50214","DISTRICT":"TANGANYIKA","WARD":"ILANGU","STREET":"ISUBANGALA","PLACES":"MANDELA"},
{"REGION":"KATAVI","POSTCODE":"50214","DISTRICT":"TANGANYIKA","WARD":"ILANGU","STREET":"ISUBANGALA","PLACES":"FINGA"},
{"REGION":"KATAVI","POSTCODE":"50214","DISTRICT":"TANGANYIKA","WARD":"ILANGU","STREET":"ISUBANGALA","PLACES":"MUUNGANO"},
{"REGION":"KATAVI","POSTCODE":"50214","DISTRICT":"TANGANYIKA","WARD":"ILANGU","STREET":"ISUBANGALA","PLACES":"MASHA"},
{"REGION":"KATAVI","POSTCODE":"50214","DISTRICT":"TANGANYIKA","WARD":"ILANGU","STREET":"MGANSA","PLACES":"KESENGA A"},
{"REGION":"KATAVI","POSTCODE":"50214","DISTRICT":"TANGANYIKA","WARD":"ILANGU","STREET":"MGANSA","PLACES":"KESENGA B"},
{"REGION":"KATAVI","POSTCODE":"50214","DISTRICT":"TANGANYIKA","WARD":"ILANGU","STREET":"MGANSA","PLACES":"KILOSA"},
{"REGION":"KATAVI","POSTCODE":"50214","DISTRICT":"TANGANYIKA","WARD":"ILANGU","STREET":"MGANSA","PLACES":"MZIZIMA"},
{"REGION":"KATAVI","POSTCODE":"50214","DISTRICT":"TANGANYIKA","WARD":"ILANGU","STREET":"MGANSA","PLACES":"KALYAKOO"},
{"REGION":"KATAVI","POSTCODE":"50214","DISTRICT":"TANGANYIKA","WARD":"ILANGU","STREET":"MGANSA","PLACES":"MSOMBWE"},
{"REGION":"KATAVI","POSTCODE":"50214","DISTRICT":"TANGANYIKA","WARD":"ILANGU","STREET":"MGANSA","PLACES":"KABEBA"},
{"REGION":"KATAVI","POSTCODE":"50214","DISTRICT":"TANGANYIKA","WARD":"ILANGU","STREET":"MGANSA","PLACES":"NKAMBA"},
{"REGION":"KATAVI","POSTCODE":"50215","DISTRICT":"TANGANYIKA","WARD":"BULAMATA","STREET":"BULAMATA","PLACES":"MAGOMENI"},
{"REGION":"KATAVI","POSTCODE":"50215","DISTRICT":"TANGANYIKA","WARD":"BULAMATA","STREET":"BULAMATA","PLACES":"BUSONGOLA A"},
{"REGION":"KATAVI","POSTCODE":"50215","DISTRICT":"TANGANYIKA","WARD":"BULAMATA","STREET":"BULAMATA","PLACES":"MWETA"},
{"REGION":"KATAVI","POSTCODE":"50215","DISTRICT":"TANGANYIKA","WARD":"BULAMATA","STREET":"BULAMATA","PLACES":"MZALENDO"},
{"REGION":"KATAVI","POSTCODE":"50215","DISTRICT":"TANGANYIKA","WARD":"BULAMATA","STREET":"BULAMATA","PLACES":"BUSONGOLA B"},
{"REGION":"KATAVI","POSTCODE":"50215","DISTRICT":"TANGANYIKA","WARD":"BULAMATA","STREET":"BULAMATA","PLACES":"NYARUKA"},
{"REGION":"KATAVI","POSTCODE":"50215","DISTRICT":"TANGANYIKA","WARD":"BULAMATA","STREET":"BULAMATA","PLACES":"MWITUNDE"},
{"REGION":"KATAVI","POSTCODE":"50215","DISTRICT":"TANGANYIKA","WARD":"BULAMATA","STREET":"KAMJELA","PLACES":"KAMJELA"},
{"REGION":"KATAVI","POSTCODE":"50215","DISTRICT":"TANGANYIKA","WARD":"BULAMATA","STREET":"KAMJELA","PLACES":"IPOLE"},
{"REGION":"KATAVI","POSTCODE":"50215","DISTRICT":"TANGANYIKA","WARD":"BULAMATA","STREET":"KAMJELA","PLACES":"AMANI"},
{"REGION":"KATAVI","POSTCODE":"50215","DISTRICT":"TANGANYIKA","WARD":"BULAMATA","STREET":"KAMJELA","PLACES":"CHEMICHEMI"},
{"REGION":"KATAVI","POSTCODE":"50215","DISTRICT":"TANGANYIKA","WARD":"BULAMATA","STREET":"KAMJELA","PLACES":"AZIMIO"},
{"REGION":"KATAVI","POSTCODE":"50215","DISTRICT":"TANGANYIKA","WARD":"BULAMATA","STREET":"KAMJELA","PLACES":"UPENDO"},
{"REGION":"KATAVI","POSTCODE":"50215","DISTRICT":"TANGANYIKA","WARD":"BULAMATA","STREET":"KAMJELA","PLACES":"MNARANI"},
{"REGION":"KATAVI","POSTCODE":"50215","DISTRICT":"TANGANYIKA","WARD":"BULAMATA","STREET":"KAMJELA","PLACES":"MTAPENDA"},
{"REGION":"KATAVI","POSTCODE":"50215","DISTRICT":"TANGANYIKA","WARD":"BULAMATA","STREET":"KUSI","PLACES":"MKWEPU"},
{"REGION":"KATAVI","POSTCODE":"50215","DISTRICT":"TANGANYIKA","WARD":"BULAMATA","STREET":"KUSI","PLACES":"ROZI KONA"},
{"REGION":"KATAVI","POSTCODE":"50215","DISTRICT":"TANGANYIKA","WARD":"BULAMATA","STREET":"KUSI","PLACES":"MBOZI"},
{"REGION":"KATAVI","POSTCODE":"50215","DISTRICT":"TANGANYIKA","WARD":"BULAMATA","STREET":"KUSI","PLACES":"MZIZIMA"},
{"REGION":"KATAVI","POSTCODE":"50215","DISTRICT":"TANGANYIKA","WARD":"BULAMATA","STREET":"KUSI","PLACES":"UHURU"},
{"REGION":"KATAVI","POSTCODE":"50215","DISTRICT":"TANGANYIKA","WARD":"BULAMATA","STREET":"KUSI","PLACES":"MAFYA"},
{"REGION":"KATAVI","POSTCODE":"50215","DISTRICT":"TANGANYIKA","WARD":"BULAMATA","STREET":"KUSI","PLACES":"USUKUMA"},
{"REGION":"KATAVI","POSTCODE":"50215","DISTRICT":"TANGANYIKA","WARD":"BULAMATA","STREET":"KUSI","PLACES":"MFILISI"},
{"REGION":"KATAVI","POSTCODE":"50215","DISTRICT":"TANGANYIKA","WARD":"BULAMATA","STREET":"KUSI","PLACES":"KUSI"},
{"REGION":"KATAVI","POSTCODE":"50215","DISTRICT":"TANGANYIKA","WARD":"BULAMATA","STREET":"BUSONGOLA","PLACES":"BUSONGOLA"},
{"REGION":"KATAVI","POSTCODE":"50215","DISTRICT":"TANGANYIKA","WARD":"BULAMATA","STREET":"BUSONGOLA","PLACES":"KIBAONI"},
{"REGION":"KATAVI","POSTCODE":"50215","DISTRICT":"TANGANYIKA","WARD":"BULAMATA","STREET":"BUSONGOLA","PLACES":"SHUKURANI"},
{"REGION":"KATAVI","POSTCODE":"50215","DISTRICT":"TANGANYIKA","WARD":"BULAMATA","STREET":"BUSONGOLA","PLACES":"KIMWAGA"},
{"REGION":"KATAVI","POSTCODE":"50215","DISTRICT":"TANGANYIKA","WARD":"BULAMATA","STREET":"BUSONGOLA","PLACES":"GEZAULOLE"},
{"REGION":"KATAVI","POSTCODE":"50215","DISTRICT":"TANGANYIKA","WARD":"BULAMATA","STREET":"BUSONGOLA","PLACES":"MWEMBENI"},
{"REGION":"KATAVI","POSTCODE":"50215","DISTRICT":"TANGANYIKA","WARD":"BULAMATA","STREET":"BUSONGOLA","PLACES":"BUHORO"},
{"REGION":"KATAVI","POSTCODE":"50215","DISTRICT":"TANGANYIKA","WARD":"BULAMATA","STREET":"BUSONGOLA","PLACES":"KILOSA"},
{"REGION":"KATAVI","POSTCODE":"50215","DISTRICT":"TANGANYIKA","WARD":"BULAMATA","STREET":"BUSONGOLA","PLACES":"MORONKO"},
{"REGION":"KATAVI","POSTCODE":"50215","DISTRICT":"TANGANYIKA","WARD":"BULAMATA","STREET":"BUSONGOLA","PLACES":"AMANI"},
{"REGION":"KATAVI","POSTCODE":"50216","DISTRICT":"TANGANYIKA","WARD":"IPWAGA","STREET":"MAZWE","PLACES":"MAZWE"},
{"REGION":"KATAVI","POSTCODE":"50216","DISTRICT":"TANGANYIKA","WARD":"IPWAGA","STREET":"MAZWE","PLACES":"MWENGE"},
{"REGION":"KATAVI","POSTCODE":"50216","DISTRICT":"TANGANYIKA","WARD":"IPWAGA","STREET":"MAZWE","PLACES":"SONGAMBELE"},
{"REGION":"KATAVI","POSTCODE":"50216","DISTRICT":"TANGANYIKA","WARD":"IPWAGA","STREET":"MAZWE","PLACES":"KAKONGOLO"},
{"REGION":"KATAVI","POSTCODE":"50216","DISTRICT":"TANGANYIKA","WARD":"IPWAGA","STREET":"MAZWE","PLACES":"KALENGE"},
{"REGION":"KATAVI","POSTCODE":"50216","DISTRICT":"TANGANYIKA","WARD":"IPWAGA","STREET":"MAZWE","PLACES":"KILIMAHEWA"},
{"REGION":"KATAVI","POSTCODE":"50216","DISTRICT":"TANGANYIKA","WARD":"IPWAGA","STREET":"MAZWE","PLACES":"KONDAMOYO"},
{"REGION":"KATAVI","POSTCODE":"50216","DISTRICT":"TANGANYIKA","WARD":"IPWAGA","STREET":"MAZWE","PLACES":"KERANDA"},
{"REGION":"KATAVI","POSTCODE":"50216","DISTRICT":"TANGANYIKA","WARD":"IPWAGA","STREET":"MLIBANSI","PLACES":"KAZAROHO"},
{"REGION":"KATAVI","POSTCODE":"50216","DISTRICT":"TANGANYIKA","WARD":"IPWAGA","STREET":"MLIBANSI","PLACES":"RUTUMBE"},
{"REGION":"KATAVI","POSTCODE":"50216","DISTRICT":"TANGANYIKA","WARD":"IPWAGA","STREET":"MLIBANSI","PLACES":"MLIBANSI"},
{"REGION":"KATAVI","POSTCODE":"50216","DISTRICT":"TANGANYIKA","WARD":"IPWAGA","STREET":"MLIBANSI","PLACES":"SONGAMBELE"},
{"REGION":"KATAVI","POSTCODE":"50216","DISTRICT":"TANGANYIKA","WARD":"IPWAGA","STREET":"MLIBANSI","PLACES":"MWANGAZA"},
{"REGION":"KATAVI","POSTCODE":"50216","DISTRICT":"TANGANYIKA","WARD":"IPWAGA","STREET":"MLIBANSI","PLACES":"KAZAMWENDO"},
{"REGION":"KATAVI","POSTCODE":"50216","DISTRICT":"TANGANYIKA","WARD":"IPWAGA","STREET":"LUGUFU","PLACES":"BARABARA YA 1"},
{"REGION":"KATAVI","POSTCODE":"50216","DISTRICT":"TANGANYIKA","WARD":"IPWAGA","STREET":"LUGUFU","PLACES":"BARABARA YA 2"},
{"REGION":"KATAVI","POSTCODE":"50216","DISTRICT":"TANGANYIKA","WARD":"IPWAGA","STREET":"LUGUFU","PLACES":"BARABARA YA 3"},
{"REGION":"KATAVI","POSTCODE":"50216","DISTRICT":"TANGANYIKA","WARD":"IPWAGA","STREET":"LUGUFU","PLACES":"BARABARA YA 4"},
{"REGION":"KATAVI","POSTCODE":"50216","DISTRICT":"TANGANYIKA","WARD":"IPWAGA","STREET":"LUGUFU","PLACES":"BARABARA YA 5"},
{"REGION":"KATAVI","POSTCODE":"50216","DISTRICT":"TANGANYIKA","WARD":"IPWAGA","STREET":"LUGUFU","PLACES":"BARABARA YA 6"},
{"REGION":"KATAVI","POSTCODE":"50216","DISTRICT":"TANGANYIKA","WARD":"IPWAGA","STREET":"LUGUFU","PLACES":"BARABARA YA 7"},
{"REGION":"KATAVI","POSTCODE":"50216","DISTRICT":"TANGANYIKA","WARD":"IPWAGA","STREET":"LUGUFU","PLACES":"BARABARA YA 8"},
{"REGION":"KATAVI","POSTCODE":"50216","DISTRICT":"TANGANYIKA","WARD":"IPWAGA","STREET":"LUGUFU","PLACES":"BARABARA YA 9"},
{"REGION":"KATAVI","POSTCODE":"50216","DISTRICT":"TANGANYIKA","WARD":"IPWAGA","STREET":"LUGUFU","PLACES":"BARABARA YA 10"},
{"REGION":"KATAVI","POSTCODE":"50216","DISTRICT":"TANGANYIKA","WARD":"IPWAGA","STREET":"LUGUFU","PLACES":"BARABARA YA 11"},
{"REGION":"KATAVI","POSTCODE":"50216","DISTRICT":"TANGANYIKA","WARD":"IPWAGA","STREET":"LUGUFU","PLACES":"BARABARA YA 12"},
{"REGION":"KATAVI","POSTCODE":"50216","DISTRICT":"TANGANYIKA","WARD":"IPWAGA","STREET":"IPWAGA","PLACES":"BARABARA YA 1"},
{"REGION":"KATAVI","POSTCODE":"50216","DISTRICT":"TANGANYIKA","WARD":"IPWAGA","STREET":"IPWAGA","PLACES":"BARABARA YA 2"},
{"REGION":"KATAVI","POSTCODE":"50216","DISTRICT":"TANGANYIKA","WARD":"IPWAGA","STREET":"IPWAGA","PLACES":"BARABARA YA 3"},
{"REGION":"KATAVI","POSTCODE":"50216","DISTRICT":"TANGANYIKA","WARD":"IPWAGA","STREET":"IPWAGA","PLACES":"BARABARA YA 4"},
{"REGION":"KATAVI","POSTCODE":"50216","DISTRICT":"TANGANYIKA","WARD":"IPWAGA","STREET":"IPWAGA","PLACES":"BARABARA YA 5"},
{"REGION":"KATAVI","POSTCODE":"50216","DISTRICT":"TANGANYIKA","WARD":"IPWAGA","STREET":"IPWAGA","PLACES":"BARABARA YA 6"},
{"REGION":"KATAVI","POSTCODE":"50216","DISTRICT":"TANGANYIKA","WARD":"IPWAGA","STREET":"IPWAGA","PLACES":"BARABARA YA 7"},
{"REGION":"KATAVI","POSTCODE":"50216","DISTRICT":"TANGANYIKA","WARD":"IPWAGA","STREET":"IPWAGA","PLACES":"BARABARA YA 8"},
{"REGION":"KATAVI","POSTCODE":"50216","DISTRICT":"TANGANYIKA","WARD":"IPWAGA","STREET":"IPWAGA","PLACES":"BARABARA YA 9"},
{"REGION":"KATAVI","POSTCODE":"50216","DISTRICT":"TANGANYIKA","WARD":"IPWAGA","STREET":"IPWAGA","PLACES":"BARABARA YA 10"},
{"REGION":"KATAVI","POSTCODE":"50216","DISTRICT":"TANGANYIKA","WARD":"IPWAGA","STREET":"IPWAGA","PLACES":"BARABARA YA 11"},
{"REGION":"KATAVI","POSTCODE":"50216","DISTRICT":"TANGANYIKA","WARD":"IPWAGA","STREET":"IPWAGA","PLACES":"BARABARA YA 12"},
{"REGION":"KATAVI","POSTCODE":"50301","DISTRICT":"MLELE","WARD":"INYONGA","STREET":"INYONGA","PLACES":"KAYAMBA A"},
{"REGION":"KATAVI","POSTCODE":"50301","DISTRICT":"MLELE","WARD":"INYONGA","STREET":"INYONGA","PLACES":"KAYAMBA B"},
{"REGION":"KATAVI","POSTCODE":"50301","DISTRICT":"MLELE","WARD":"INYONGA","STREET":"INYONGA","PLACES":"IGOMBE A"},
{"REGION":"KATAVI","POSTCODE":"50301","DISTRICT":"MLELE","WARD":"INYONGA","STREET":"INYONGA","PLACES":"IGOMBE B"},
{"REGION":"KATAVI","POSTCODE":"50301","DISTRICT":"MLELE","WARD":"INYONGA","STREET":"INYONGA","PLACES":"UWANJA WA NDEGE"},
{"REGION":"KATAVI","POSTCODE":"50301","DISTRICT":"MLELE","WARD":"INYONGA","STREET":"INYONGA","PLACES":"ISENGO A"},
{"REGION":"KATAVI","POSTCODE":"50301","DISTRICT":"MLELE","WARD":"INYONGA","STREET":"INYONGA","PLACES":"ISENGO B"},
{"REGION":"KATAVI","POSTCODE":"50301","DISTRICT":"MLELE","WARD":"INYONGA","STREET":"KALOVYA","PLACES":"KALOVYA A"},
{"REGION":"KATAVI","POSTCODE":"50301","DISTRICT":"MLELE","WARD":"INYONGA","STREET":"KALOVYA","PLACES":"KALOVYA B"},
{"REGION":"KATAVI","POSTCODE":"50301","DISTRICT":"MLELE","WARD":"INYONGA","STREET":"KALOVYA","PLACES":"KALOVYA C"},
{"REGION":"KATAVI","POSTCODE":"50301","DISTRICT":"MLELE","WARD":"INYONGA","STREET":"KALOVYA","PLACES":"SHAMA"},
{"REGION":"KATAVI","POSTCODE":"50301","DISTRICT":"MLELE","WARD":"INYONGA","STREET":"KAMALAMPAKA","PLACES":"KAMALAMPAKA A"},
{"REGION":"KATAVI","POSTCODE":"50301","DISTRICT":"MLELE","WARD":"INYONGA","STREET":"KAMALAMPAKA","PLACES":"KAMALAMPAKA B"},
{"REGION":"KATAVI","POSTCODE":"50301","DISTRICT":"MLELE","WARD":"INYONGA","STREET":"KAMALAMPAKA","PLACES":"KAKUNKU"},
{"REGION":"KATAVI","POSTCODE":"50301","DISTRICT":"MLELE","WARD":"INYONGA","STREET":"KAMALAMPAKA","PLACES":"SHAMA"},
{"REGION":"KATAVI","POSTCODE":"50301","DISTRICT":"MLELE","WARD":"INYONGA","STREET":"KAMALAMPAKA","PLACES":"TURIENI"},
{"REGION":"KATAVI","POSTCODE":"50310","DISTRICT":"MLELE","WARD":"NSENKWA","STREET":"NSEKWA","PLACES":"KONDAMOYO A"},
{"REGION":"KATAVI","POSTCODE":"50310","DISTRICT":"MLELE","WARD":"NSENKWA","STREET":"NSEKWA","PLACES":"KONDAMOYO B"},
{"REGION":"KATAVI","POSTCODE":"50310","DISTRICT":"MLELE","WARD":"NSENKWA","STREET":"NSEKWA","PLACES":"KONDAMOYO C"},
{"REGION":"KATAVI","POSTCODE":"50310","DISTRICT":"MLELE","WARD":"NSENKWA","STREET":"NSEKWA","PLACES":"WAKEREKETWA A"},
{"REGION":"KATAVI","POSTCODE":"50310","DISTRICT":"MLELE","WARD":"NSENKWA","STREET":"NSEKWA","PLACES":"WAKEREKETWA B"},
{"REGION":"KATAVI","POSTCODE":"50310","DISTRICT":"MLELE","WARD":"NSENKWA","STREET":"NSEKWA","PLACES":"SHIKAJEMBE A"},
{"REGION":"KATAVI","POSTCODE":"50310","DISTRICT":"MLELE","WARD":"NSENKWA","STREET":"NSEKWA","PLACES":"SHIKAJEMBE B"},
{"REGION":"KATAVI","POSTCODE":"50310","DISTRICT":"MLELE","WARD":"NSENKWA","STREET":"NSEKWA","PLACES":"LEMBELI A"},
{"REGION":"KATAVI","POSTCODE":"50310","DISTRICT":"MLELE","WARD":"NSENKWA","STREET":"KAULOLO","PLACES":"KAULOLO"},
{"REGION":"KATAVI","POSTCODE":"50310","DISTRICT":"MLELE","WARD":"NSENKWA","STREET":"KAULOLO","PLACES":"MAPINDUZI"},
{"REGION":"KATAVI","POSTCODE":"50310","DISTRICT":"MLELE","WARD":"NSENKWA","STREET":"KAULOLO","PLACES":"MAENDELEO"},
{"REGION":"KATAVI","POSTCODE":"50310","DISTRICT":"MLELE","WARD":"NSENKWA","STREET":"MTAKUJA","PLACES":"IGALULA"},
{"REGION":"KATAVI","POSTCODE":"50310","DISTRICT":"MLELE","WARD":"NSENKWA","STREET":"MTAKUJA","PLACES":"SOMGAMBELE"},
{"REGION":"KATAVI","POSTCODE":"50310","DISTRICT":"MLELE","WARD":"NSENKWA","STREET":"MTAKUJA","PLACES":"MANDELA"},
{"REGION":"KATAVI","POSTCODE":"50310","DISTRICT":"MLELE","WARD":"NSENKWA","STREET":"MTAKUJA","PLACES":"LEGEZAMWENDO A"},
{"REGION":"KATAVI","POSTCODE":"50310","DISTRICT":"MLELE","WARD":"NSENKWA","STREET":"MTAKUJA","PLACES":"LEGEZAMWENDO B"},
{"REGION":"KATAVI","POSTCODE":"50311","DISTRICT":"MLELE","WARD":"ILELA","STREET":"MAPILI","PLACES":"MOTOMOTO"},
{"REGION":"KATAVI","POSTCODE":"50311","DISTRICT":"MLELE","WARD":"ILELA","STREET":"MAPILI","PLACES":"KAZAROHO"},
{"REGION":"KATAVI","POSTCODE":"50311","DISTRICT":"MLELE","WARD":"ILELA","STREET":"MAPILI","PLACES":"MAPAMBANO"},
{"REGION":"KATAVI","POSTCODE":"50311","DISTRICT":"MLELE","WARD":"ILELA","STREET":"MAPILI","PLACES":"MAHAMENI"},
{"REGION":"KATAVI","POSTCODE":"50311","DISTRICT":"MLELE","WARD":"ILELA","STREET":"MAPILI","PLACES":"MAJENGO"},
{"REGION":"KATAVI","POSTCODE":"50311","DISTRICT":"MLELE","WARD":"ILELA","STREET":"MAPILI","PLACES":"MLOGOLO"},
{"REGION":"KATAVI","POSTCODE":"50311","DISTRICT":"MLELE","WARD":"ILELA","STREET":"IPWAGA","PLACES":"MAJENGO"},
{"REGION":"KATAVI","POSTCODE":"50311","DISTRICT":"MLELE","WARD":"ILELA","STREET":"IPWAGA","PLACES":"MTAKUMBUKWA"},
{"REGION":"KATAVI","POSTCODE":"50311","DISTRICT":"MLELE","WARD":"ILELA","STREET":"IPWAGA","PLACES":"GEZAULOLE"},
{"REGION":"KATAVI","POSTCODE":"50311","DISTRICT":"MLELE","WARD":"ILELA","STREET":"IPWAGA","PLACES":"ILELA"},
{"REGION":"KATAVI","POSTCODE":"50311","DISTRICT":"MLELE","WARD":"ILELA","STREET":"IPWAGA","PLACES":"MWONGOZO"},
{"REGION":"KATAVI","POSTCODE":"50311","DISTRICT":"MLELE","WARD":"ILELA","STREET":"MASINGO","PLACES":"KILOLENI A"},
{"REGION":"KATAVI","POSTCODE":"50311","DISTRICT":"MLELE","WARD":"ILELA","STREET":"MASINGO","PLACES":"SONGAMBELE"},
{"REGION":"KATAVI","POSTCODE":"50311","DISTRICT":"MLELE","WARD":"ILELA","STREET":"MASINGO","PLACES":"CHEMCHEMI"},
{"REGION":"KATAVI","POSTCODE":"50311","DISTRICT":"MLELE","WARD":"ILELA","STREET":"MASINGO","PLACES":"MAENDELEO"},
{"REGION":"KATAVI","POSTCODE":"50311","DISTRICT":"MLELE","WARD":"ILELA","STREET":"MASINGO","PLACES":"KILOLENI B"},
{"REGION":"KATAVI","POSTCODE":"50312","DISTRICT":"MLELE","WARD":"UTENDE","STREET":"UTENDE","PLACES":"MSHIKAMANO"},
{"REGION":"KATAVI","POSTCODE":"50312","DISTRICT":"MLELE","WARD":"UTENDE","STREET":"UTENDE","PLACES":"MCHAKAMCHAKA"},
{"REGION":"KATAVI","POSTCODE":"50312","DISTRICT":"MLELE","WARD":"UTENDE","STREET":"UTENDE","PLACES":"USALAMA"},
{"REGION":"KATAVI","POSTCODE":"50312","DISTRICT":"MLELE","WARD":"UTENDE","STREET":"UTENDE","PLACES":"MAGEUZI"},
{"REGION":"KATAVI","POSTCODE":"50312","DISTRICT":"MLELE","WARD":"UTENDE","STREET":"UTENDE","PLACES":"UZEGA"},
{"REGION":"KATAVI","POSTCODE":"50312","DISTRICT":"MLELE","WARD":"UTENDE","STREET":"UTENDE","PLACES":"KATEGILE"},
{"REGION":"KATAVI","POSTCODE":"50312","DISTRICT":"MLELE","WARD":"UTENDE","STREET":"MGOMBE","PLACES":"MAPAMBANO"},
{"REGION":"KATAVI","POSTCODE":"50312","DISTRICT":"MLELE","WARD":"UTENDE","STREET":"MGOMBE","PLACES":"MUUNGANO"},
{"REGION":"KATAVI","POSTCODE":"50312","DISTRICT":"MLELE","WARD":"UTENDE","STREET":"MGOMBE","PLACES":"SUNGUSUNGU"},
{"REGION":"KATAVI","POSTCODE":"50312","DISTRICT":"MLELE","WARD":"UTENDE","STREET":"MGOMBE","PLACES":"MGOMBE"},
{"REGION":"KATAVI","POSTCODE":"50312","DISTRICT":"MLELE","WARD":"UTENDE","STREET":"WACHAWASEME","PLACES":"MAKAO"},
{"REGION":"KATAVI","POSTCODE":"50312","DISTRICT":"MLELE","WARD":"UTENDE","STREET":"WACHAWASEME","PLACES":"CHANG’OMBE"}
,
{"REGION":"KATAVI","POSTCODE":"50312","DISTRICT":"MLELE","WARD":"UTENDE","STREET":"WACHAWASEME","PLACES":"SONGAMBELE"},
{"REGION":"KATAVI","POSTCODE":"50312","DISTRICT":"MLELE","WARD":"UTENDE","STREET":"WACHAWASEME","PLACES":"MWENGE"},
{"REGION":"KATAVI","POSTCODE":"50312","DISTRICT":"MLELE","WARD":"UTENDE","STREET":"WACHAWASEME","PLACES":"MSHIKAMANO"},
{"REGION":"KATAVI","POSTCODE":"50312","DISTRICT":"MLELE","WARD":"UTENDE","STREET":"KANOGE","PLACES":"KAZIMOTO"},
{"REGION":"KATAVI","POSTCODE":"50312","DISTRICT":"MLELE","WARD":"UTENDE","STREET":"KANOGE","PLACES":"KUSA"},
{"REGION":"KATAVI","POSTCODE":"50312","DISTRICT":"MLELE","WARD":"UTENDE","STREET":"KANOGE","PLACES":"SONGAMBELE"},
{"REGION":"KATAVI","POSTCODE":"50312","DISTRICT":"MLELE","WARD":"UTENDE","STREET":"KANOGE","PLACES":"KANOGE"},
{"REGION":"KATAVI","POSTCODE":"50312","DISTRICT":"MLELE","WARD":"UTENDE","STREET":"KANOGE","PLACES":"CHANG’OMBE"}
,
{"REGION":"KATAVI","POSTCODE":"50315","DISTRICT":"MLELE","WARD":"MBEDE","STREET":"MBEDE","PLACES":"MBEDE A"},
{"REGION":"KATAVI","POSTCODE":"50315","DISTRICT":"MLELE","WARD":"MBEDE","STREET":"MBEDE","PLACES":"MBEDE B"},
{"REGION":"KATAVI","POSTCODE":"50315","DISTRICT":"MLELE","WARD":"MBEDE","STREET":"MBEDE","PLACES":"MBEDE C"},
{"REGION":"KATAVI","POSTCODE":"50315","DISTRICT":"MLELE","WARD":"MBEDE","STREET":"MBEDE","PLACES":"TUPINDO"},
{"REGION":"KATAVI","POSTCODE":"50315","DISTRICT":"MLELE","WARD":"MBEDE","STREET":"MBEDE","PLACES":"MSISI"},
{"REGION":"KATAVI","POSTCODE":"50315","DISTRICT":"MLELE","WARD":"MBEDE","STREET":"MBEDE","PLACES":"MKUSWE"},
{"REGION":"KATAVI","POSTCODE":"50315","DISTRICT":"MLELE","WARD":"MBEDE","STREET":"MINYOSO","PLACES":"MSAWALA"},
{"REGION":"KATAVI","POSTCODE":"50315","DISTRICT":"MLELE","WARD":"MBEDE","STREET":"MINYOSO","PLACES":"MINYOSO"},
{"REGION":"KATAVI","POSTCODE":"50315","DISTRICT":"MLELE","WARD":"MBEDE","STREET":"MINYOSO","PLACES":"KIBOKO"},
{"REGION":"KATAVI","POSTCODE":"50315","DISTRICT":"MLELE","WARD":"MBEDE","STREET":"MINYOSO","PLACES":"CHEMCHEM"},
{"REGION":"KATAVI","POSTCODE":"50315","DISTRICT":"MLELE","WARD":"MBEDE","STREET":"MINYOSO","PLACES":"KATINDA"},
{"REGION":"KATAVI","POSTCODE":"50315","DISTRICT":"MLELE","WARD":"MBEDE","STREET":"MINYOSO","PLACES":"TUPINDO A"},
{"REGION":"KATAVI","POSTCODE":"50315","DISTRICT":"MLELE","WARD":"MBEDE","STREET":"MINYOSO","PLACES":"TUPINDO B"},
{"REGION":"KATAVI","POSTCODE":"50315","DISTRICT":"MLELE","WARD":"MBEDE","STREET":"MWAMATIGA","PLACES":"MWAMATIGA A"},
{"REGION":"KATAVI","POSTCODE":"50315","DISTRICT":"MLELE","WARD":"MBEDE","STREET":"MWAMATIGA","PLACES":"MIGUNDA"},
{"REGION":"KATAVI","POSTCODE":"50315","DISTRICT":"MLELE","WARD":"MBEDE","STREET":"MWAMATIGA","PLACES":"MWAMATIGA B"},
{"REGION":"KATAVI","POSTCODE":"50315","DISTRICT":"MLELE","WARD":"MBEDE","STREET":"MWAMATIGA","PLACES":"MWAMATIGA C"},
{"REGION":"KATAVI","POSTCODE":"50315","DISTRICT":"MLELE","WARD":"MBEDE","STREET":"MWAMATIGA","PLACES":"MBUGANI"},
{"REGION":"KATAVI","POSTCODE":"50316","DISTRICT":"MLELE","WARD":"MAMBA","STREET":"MAMBA","PLACES":"MAMBA MAGHARIBI"},
{"REGION":"KATAVI","POSTCODE":"50316","DISTRICT":"MLELE","WARD":"MAMBA","STREET":"MAMBA","PLACES":"MAKONGORO"},
{"REGION":"KATAVI","POSTCODE":"50316","DISTRICT":"MLELE","WARD":"MAMBA","STREET":"MAMBA","PLACES":"LUSANGA"},
{"REGION":"KATAVI","POSTCODE":"50316","DISTRICT":"MLELE","WARD":"MAMBA","STREET":"MAMBA","PLACES":"ILINGAMILA"},
{"REGION":"KATAVI","POSTCODE":"50316","DISTRICT":"MLELE","WARD":"MAMBA","STREET":"MAMBA B","PLACES":"MAMBA SOKONI"},
{"REGION":"KATAVI","POSTCODE":"50316","DISTRICT":"MLELE","WARD":"MAMBA","STREET":"MAMBA B","PLACES":"MAMBA SHULENI"},
{"REGION":"KATAVI","POSTCODE":"50316","DISTRICT":"MLELE","WARD":"MAMBA","STREET":"MAMBA B","PLACES":"MABAMBASI"},
{"REGION":"KATAVI","POSTCODE":"50316","DISTRICT":"MLELE","WARD":"MAMBA","STREET":"MAMBA B","PLACES":"NTASWA A"},
{"REGION":"KATAVI","POSTCODE":"50316","DISTRICT":"MLELE","WARD":"MAMBA","STREET":"MAMBA B","PLACES":"NTASWA B"},
{"REGION":"KATAVI","POSTCODE":"50316","DISTRICT":"MLELE","WARD":"MAMBA","STREET":"KANINDI","PLACES":"KANINDI A"},
{"REGION":"KATAVI","POSTCODE":"50316","DISTRICT":"MLELE","WARD":"MAMBA","STREET":"KANINDI","PLACES":"KANINDI B"},
{"REGION":"KATAVI","POSTCODE":"50316","DISTRICT":"MLELE","WARD":"MAMBA","STREET":"KANINDI","PLACES":"KADE"},
{"REGION":"KATAVI","POSTCODE":"50316","DISTRICT":"MLELE","WARD":"MAMBA","STREET":"KANINDI","PLACES":"MINO"},
{"REGION":"KATAVI","POSTCODE":"50316","DISTRICT":"MLELE","WARD":"MAMBA","STREET":"KANINDI","PLACES":"MNYAMANDI"},
{"REGION":"KATAVI","POSTCODE":"50316","DISTRICT":"MLELE","WARD":"MAMBA","STREET":"KANINDI","PLACES":"CHEMCHEM"},
{"REGION":"KATAVI","POSTCODE":"50316","DISTRICT":"MLELE","WARD":"MAMBA","STREET":"KILIDA","PLACES":"KILIDA A"},
{"REGION":"KATAVI","POSTCODE":"50316","DISTRICT":"MLELE","WARD":"MAMBA","STREET":"KILIDA","PLACES":"LUSINGA"},
{"REGION":"KATAVI","POSTCODE":"50316","DISTRICT":"MLELE","WARD":"MAMBA","STREET":"KILIDA","PLACES":"MWEZYA"},
{"REGION":"KATAVI","POSTCODE":"50316","DISTRICT":"MLELE","WARD":"MAMBA","STREET":"KILIDA","PLACES":"KASISI"},
{"REGION":"KATAVI","POSTCODE":"50316","DISTRICT":"MLELE","WARD":"MAMBA","STREET":"KILIDA","PLACES":"MASANSO"},
{"REGION":"KATAVI","POSTCODE":"50316","DISTRICT":"MLELE","WARD":"MAMBA","STREET":"KABUNDE","PLACES":"MAKUYUGU A"},
{"REGION":"KATAVI","POSTCODE":"50316","DISTRICT":"MLELE","WARD":"MAMBA","STREET":"KABUNDE","PLACES":"MAKUYUGU B"},
{"REGION":"KATAVI","POSTCODE":"50316","DISTRICT":"MLELE","WARD":"MAMBA","STREET":"KABUNDE","PLACES":"KAPELE A"},
{"REGION":"KATAVI","POSTCODE":"50316","DISTRICT":"MLELE","WARD":"MAMBA","STREET":"KABUNDE","PLACES":"KAPELE B"},
{"REGION":"KATAVI","POSTCODE":"50316","DISTRICT":"MLELE","WARD":"MAMBA","STREET":"KABUNDE","PLACES":"BANANE"},
{"REGION":"KATAVI","POSTCODE":"50316","DISTRICT":"MLELE","WARD":"MAMBA","STREET":"KABUNDE","PLACES":"MPILIPILI A"},
{"REGION":"KATAVI","POSTCODE":"50316","DISTRICT":"MLELE","WARD":"MAMBA","STREET":"KABUNDE","PLACES":"MPILIPILI B"},
{"REGION":"KATAVI","POSTCODE":"50316","DISTRICT":"MLELE","WARD":"MAMBA","STREET":"KABUNDE","PLACES":"IZIWAKASHA"},
{"REGION":"KATAVI","POSTCODE":"50316","DISTRICT":"MLELE","WARD":"MAMBA","STREET":"KABUNDE","PLACES":"KING’ANDA"}
,
{"REGION":"KATAVI","POSTCODE":"50317","DISTRICT":"MLELE","WARD":"USEVYA","STREET":"USEVYA","PLACES":"MALIBOMBA"},
{"REGION":"KATAVI","POSTCODE":"50317","DISTRICT":"MLELE","WARD":"USEVYA","STREET":"USEVYA","PLACES":"LAINI"},
{"REGION":"KATAVI","POSTCODE":"50317","DISTRICT":"MLELE","WARD":"USEVYA","STREET":"USEVYA","PLACES":"NTOPOLA"},
{"REGION":"KATAVI","POSTCODE":"50317","DISTRICT":"MLELE","WARD":"USEVYA","STREET":"USEVYA","PLACES":"MBUGANI"},
{"REGION":"KATAVI","POSTCODE":"50317","DISTRICT":"MLELE","WARD":"USEVYA","STREET":"USEVYA","PLACES":"MKUYUNI"},
{"REGION":"KATAVI","POSTCODE":"50317","DISTRICT":"MLELE","WARD":"USEVYA","STREET":"USEVYA","PLACES":"KAUNYALA"},
{"REGION":"KATAVI","POSTCODE":"50317","DISTRICT":"MLELE","WARD":"USEVYA","STREET":"USEVYA","PLACES":"KAFUNZURU"},
{"REGION":"KATAVI","POSTCODE":"50317","DISTRICT":"MLELE","WARD":"USEVYA","STREET":"USEVYA","PLACES":"KASHAMKULO"},
{"REGION":"KATAVI","POSTCODE":"50317","DISTRICT":"MLELE","WARD":"USEVYA","STREET":"MSADYA","PLACES":"MSADYA A"},
{"REGION":"KATAVI","POSTCODE":"50317","DISTRICT":"MLELE","WARD":"USEVYA","STREET":"MSADYA","PLACES":"MSADYA B"},
{"REGION":"KATAVI","POSTCODE":"50317","DISTRICT":"MLELE","WARD":"USEVYA","STREET":"MSADYA","PLACES":"MANELO"},
{"REGION":"KATAVI","POSTCODE":"50317","DISTRICT":"MLELE","WARD":"USEVYA","STREET":"MSADYA","PLACES":"MAGU"},
{"REGION":"KATAVI","POSTCODE":"50317","DISTRICT":"MLELE","WARD":"USEVYA","STREET":"NYAMBWE","PLACES":"NYAMBWE A"},
{"REGION":"KATAVI","POSTCODE":"50317","DISTRICT":"MLELE","WARD":"USEVYA","STREET":"NYAMBWE","PLACES":"NYAMBWE B"},
{"REGION":"KATAVI","POSTCODE":"50317","DISTRICT":"MLELE","WARD":"USEVYA","STREET":"NYAMBWE","PLACES":"NYAMBWE C"},
{"REGION":"KATAVI","POSTCODE":"50317","DISTRICT":"MLELE","WARD":"USEVYA","STREET":"NYAMBWE","PLACES":"NYAMBWE D"},
{"REGION":"KATAVI","POSTCODE":"50317","DISTRICT":"MLELE","WARD":"USEVYA","STREET":"NYAMBWE","PLACES":"NYAMBWE E"},
{"REGION":"KATAVI","POSTCODE":"50318","DISTRICT":"MLELE","WARD":"KIBAONI","STREET":"KIBAONI","PLACES":"USHIRIKA"},
{"REGION":"KATAVI","POSTCODE":"50318","DISTRICT":"MLELE","WARD":"KIBAONI","STREET":"KIBAONI","PLACES":"ISAMVU"},
{"REGION":"KATAVI","POSTCODE":"50318","DISTRICT":"MLELE","WARD":"KIBAONI","STREET":"KIBAONI","PLACES":"NDEMANILWA"},
{"REGION":"KATAVI","POSTCODE":"50318","DISTRICT":"MLELE","WARD":"KIBAONI","STREET":"KIBAONI","PLACES":"KAKUNI"},
{"REGION":"KATAVI","POSTCODE":"50318","DISTRICT":"MLELE","WARD":"KIBAONI","STREET":"KIBAONI","PLACES":"KAGERA"},
{"REGION":"KATAVI","POSTCODE":"50318","DISTRICT":"MLELE","WARD":"KIBAONI","STREET":"KIBAONI","PLACES":"CHONGWE"},
{"REGION":"KATAVI","POSTCODE":"50318","DISTRICT":"MLELE","WARD":"KIBAONI","STREET":"KIBAONI","PLACES":"LALANAYO"},
{"REGION":"KATAVI","POSTCODE":"50318","DISTRICT":"MLELE","WARD":"KIBAONI","STREET":"MIRUMBA","PLACES":"MIRUMBA"},
{"REGION":"KATAVI","POSTCODE":"50318","DISTRICT":"MLELE","WARD":"KIBAONI","STREET":"MIRUMBA","PLACES":"MTUKULA"},
{"REGION":"KATAVI","POSTCODE":"50318","DISTRICT":"MLELE","WARD":"KIBAONI","STREET":"MIRUMBA","PLACES":"KITUMBA"},
{"REGION":"KATAVI","POSTCODE":"50318","DISTRICT":"MLELE","WARD":"KIBAONI","STREET":"MIRUMBA","PLACES":"KATETE"},
{"REGION":"KATAVI","POSTCODE":"50318","DISTRICT":"MLELE","WARD":"KIBAONI","STREET":"MIRUMBA","PLACES":"WAMPEMBE"},
{"REGION":"KATAVI","POSTCODE":"50318","DISTRICT":"MLELE","WARD":"KIBAONI","STREET":"ILALANGULU","PLACES":"NGOMENI"},
{"REGION":"KATAVI","POSTCODE":"50318","DISTRICT":"MLELE","WARD":"KIBAONI","STREET":"ILALANGULU","PLACES":"ILALANGULU"},
{"REGION":"KATAVI","POSTCODE":"50318","DISTRICT":"MLELE","WARD":"KIBAONI","STREET":"ILALANGULU","PLACES":"NGWILO"},
{"REGION":"KATAVI","POSTCODE":"50318","DISTRICT":"MLELE","WARD":"KIBAONI","STREET":"ILALANGULU","PLACES":"MKWAKWA"},
{"REGION":"KATAVI","POSTCODE":"50318","DISTRICT":"MLELE","WARD":"KIBAONI","STREET":"ILALANGULU","PLACES":"KATANDALA"},
{"REGION":"KATAVI","POSTCODE":"50318","DISTRICT":"MLELE","WARD":"KIBAONI","STREET":"ILALANGULU","PLACES":"MASANJA"},
{"REGION":"KATAVI","POSTCODE":"50319","DISTRICT":"MLELE","WARD":"IKUBA","STREET":"IKUBA","PLACES":"ISENGA"},
{"REGION":"KATAVI","POSTCODE":"50319","DISTRICT":"MLELE","WARD":"IKUBA","STREET":"IKUBA","PLACES":"MOBA"},
{"REGION":"KATAVI","POSTCODE":"50319","DISTRICT":"MLELE","WARD":"IKUBA","STREET":"IKUBA","PLACES":"IGOGWE"},
{"REGION":"KATAVI","POSTCODE":"50319","DISTRICT":"MLELE","WARD":"IKUBA","STREET":"IKUBA","PLACES":"UZUMBULA"},
{"REGION":"KATAVI","POSTCODE":"50319","DISTRICT":"MLELE","WARD":"IKUBA","STREET":"IKUBA","PLACES":"KIKULWE"},
{"REGION":"KATAVI","POSTCODE":"50319","DISTRICT":"MLELE","WARD":"IKUBA","STREET":"IKUBA","PLACES":"IPOTA"},
{"REGION":"KATAVI","POSTCODE":"50319","DISTRICT":"MLELE","WARD":"IKUBA","STREET":"IKUBA","PLACES":"MNYAKASI"},
{"REGION":"KATAVI","POSTCODE":"50319","DISTRICT":"MLELE","WARD":"IKUBA","STREET":"KASHISHI","PLACES":"KASHISHI KASKAZINI"},
{"REGION":"KATAVI","POSTCODE":"50319","DISTRICT":"MLELE","WARD":"IKUBA","STREET":"KASHISHI","PLACES":"KASHISHI KATI"},
{"REGION":"KATAVI","POSTCODE":"50319","DISTRICT":"MLELE","WARD":"IKUBA","STREET":"KASHISHI","PLACES":"KASHISHI KUSINI"},
{"REGION":"KATAVI","POSTCODE":"50319","DISTRICT":"MLELE","WARD":"IKUBA","STREET":"KASHISHI","PLACES":"UNYONYI A"},
{"REGION":"KATAVI","POSTCODE":"50319","DISTRICT":"MLELE","WARD":"IKUBA","STREET":"KASHISHI","PLACES":"UNYONYI B"},
{"REGION":"KATAVI","POSTCODE":"50319","DISTRICT":"MLELE","WARD":"IKUBA","STREET":"KASHISHI","PLACES":"ITULA"},
{"REGION":"KATAVI","POSTCODE":"50320","DISTRICT":"MLELE","WARD":"MAJIMOTO","STREET":"MAJIMOTO","PLACES":"MAJIMOTO"},
{"REGION":"KATAVI","POSTCODE":"50320","DISTRICT":"MLELE","WARD":"MAJIMOTO","STREET":"MAJIMOTO","PLACES":"BHULA"},
{"REGION":"KATAVI","POSTCODE":"50320","DISTRICT":"MLELE","WARD":"MAJIMOTO","STREET":"MAJIMOTO","PLACES":"NAMANYERE"},
{"REGION":"KATAVI","POSTCODE":"50320","DISTRICT":"MLELE","WARD":"MAJIMOTO","STREET":"MAJIMOTO","PLACES":"CHANGI"},
{"REGION":"KATAVI","POSTCODE":"50320","DISTRICT":"MLELE","WARD":"MAJIMOTO","STREET":"KITUPA","PLACES":"KITUPA BARABARANI"},
{"REGION":"KATAVI","POSTCODE":"50320","DISTRICT":"MLELE","WARD":"MAJIMOTO","STREET":"KITUPA","PLACES":"KITUPA MLIMANI"},
{"REGION":"KATAVI","POSTCODE":"50320","DISTRICT":"MLELE","WARD":"MAJIMOTO","STREET":"MKUYUNI","PLACES":"KIWANJANI"},
{"REGION":"KATAVI","POSTCODE":"50320","DISTRICT":"MLELE","WARD":"MAJIMOTO","STREET":"MKUYUNI","PLACES":"KILIMAHEWA"},
{"REGION":"KATAVI","POSTCODE":"50320","DISTRICT":"MLELE","WARD":"MAJIMOTO","STREET":"MKUYUNI","PLACES":"KOLEDYA"},
{"REGION":"KATAVI","POSTCODE":"50320","DISTRICT":"MLELE","WARD":"MAJIMOTO","STREET":"MKUYUNI","PLACES":"MIGUNGA A"},
{"REGION":"KATAVI","POSTCODE":"50320","DISTRICT":"MLELE","WARD":"MAJIMOTO","STREET":"MIGUNGA","PLACES":"MIGUNGA A"},
{"REGION":"KATAVI","POSTCODE":"50320","DISTRICT":"MLELE","WARD":"MAJIMOTO","STREET":"MIGUNGA","PLACES":"MIGUNGA B"},
{"REGION":"KATAVI","POSTCODE":"50320","DISTRICT":"MLELE","WARD":"MAJIMOTO","STREET":"MIGUNGA","PLACES":"MIGUNGA C"},
{"REGION":"KATAVI","POSTCODE":"50320","DISTRICT":"MLELE","WARD":"MAJIMOTO","STREET":"MIGUNGA","PLACES":"SOMBO"},
{"REGION":"KATAVI","POSTCODE":"50320","DISTRICT":"MLELE","WARD":"MAJIMOTO","STREET":"LUCHIMA","PLACES":"LUCHIMA A"},
{"REGION":"KATAVI","POSTCODE":"50320","DISTRICT":"MLELE","WARD":"MAJIMOTO","STREET":"LUCHIMA","PLACES":"MASANGANO"},
{"REGION":"KATAVI","POSTCODE":"50320","DISTRICT":"MLELE","WARD":"MAJIMOTO","STREET":"LUCHIMA","PLACES":"KING’ANDA A"}
,
{"REGION":"KATAVI","POSTCODE":"50320","DISTRICT":"MLELE","WARD":"MAJIMOTO","STREET":"LUCHIMA","PLACES":"KIWANJANI A"},
{"REGION":"KATAVI","POSTCODE":"50320","DISTRICT":"MLELE","WARD":"MAJIMOTO","STREET":"LUCHIMA","PLACES":"KAWANGA"},
{"REGION":"KATAVI","POSTCODE":"50320","DISTRICT":"MLELE","WARD":"MAJIMOTO","STREET":"LUCHIMA","PLACES":"ILUNDA"},
{"REGION":"KATAVI","POSTCODE":"50320","DISTRICT":"MLELE","WARD":"MAJIMOTO","STREET":"ILULWE","PLACES":"ILULWE A"},
{"REGION":"KATAVI","POSTCODE":"50320","DISTRICT":"MLELE","WARD":"MAJIMOTO","STREET":"ILULWE","PLACES":"ILULWE B"},
{"REGION":"KATAVI","POSTCODE":"50320","DISTRICT":"MLELE","WARD":"MAJIMOTO","STREET":"ILULWE","PLACES":"MADULU"},
{"REGION":"KATAVI","POSTCODE":"50320","DISTRICT":"MLELE","WARD":"MAJIMOTO","STREET":"ILULWE","PLACES":"ISIMBA"},
{"REGION":"KATAVI","POSTCODE":"50320","DISTRICT":"MLELE","WARD":"MAJIMOTO","STREET":"ILULWE","PLACES":"MGOLOKA"},
{"REGION":"KATAVI","POSTCODE":"50321","DISTRICT":"MLELE","WARD":"KASANSA","STREET":"IGALUKILO","PLACES":"IGALUKILO A"},
{"REGION":"KATAVI","POSTCODE":"50321","DISTRICT":"MLELE","WARD":"KASANSA","STREET":"IGALUKILO","PLACES":"IGALUKILO B"},
{"REGION":"KATAVI","POSTCODE":"50321","DISTRICT":"MLELE","WARD":"KASANSA","STREET":"IGALUKILO","PLACES":"IGALUKILO C"},
{"REGION":"KATAVI","POSTCODE":"50321","DISTRICT":"MLELE","WARD":"KASANSA","STREET":"IGALUKILO","PLACES":"KING’ANDA A"}
,
{"REGION":"KATAVI","POSTCODE":"50321","DISTRICT":"MLELE","WARD":"KASANSA","STREET":"IGALUKILO","PLACES":"KING’ANDA B"}
,
{"REGION":"KATAVI","POSTCODE":"50321","DISTRICT":"MLELE","WARD":"KASANSA","STREET":"KIKONKO","PLACES":"KIKONKO A"},
{"REGION":"KATAVI","POSTCODE":"50321","DISTRICT":"MLELE","WARD":"KASANSA","STREET":"KIKONKO","PLACES":"KIKONKO B"},
{"REGION":"KATAVI","POSTCODE":"50321","DISTRICT":"MLELE","WARD":"KASANSA","STREET":"KIKONKO","PLACES":"KIKONKO C"},
{"REGION":"KATAVI","POSTCODE":"50321","DISTRICT":"MLELE","WARD":"KASANSA","STREET":"KIKONKO","PLACES":"KIKONKO D"},
{"REGION":"KATAVI","POSTCODE":"50321","DISTRICT":"MLELE","WARD":"KASANSA","STREET":"KIKONKO","PLACES":"KIKONKO E"},
{"REGION":"KATAVI","POSTCODE":"50321","DISTRICT":"MLELE","WARD":"KASANSA","STREET":"IZIWASUNGU","PLACES":"NG’ONGO"}
,
{"REGION":"KATAVI","POSTCODE":"50321","DISTRICT":"MLELE","WARD":"KASANSA","STREET":"IZIWASUNGU","PLACES":"KAVUU"},
{"REGION":"KATAVI","POSTCODE":"50321","DISTRICT":"MLELE","WARD":"KASANSA","STREET":"IZIWASUNGU","PLACES":"IZIWASUNGU"},
{"REGION":"KATAVI","POSTCODE":"50321","DISTRICT":"MLELE","WARD":"KASANSA","STREET":"IZIWASUNGU","PLACES":"NSIMBO"},
{"REGION":"KATAVI","POSTCODE":"50321","DISTRICT":"MLELE","WARD":"KASANSA","STREET":"NTIBILI","PLACES":"NTIBILI"},
{"REGION":"KATAVI","POSTCODE":"50321","DISTRICT":"MLELE","WARD":"KASANSA","STREET":"NTIBILI","PLACES":"NTIBILI B"},
{"REGION":"KATAVI","POSTCODE":"50321","DISTRICT":"MLELE","WARD":"KASANSA","STREET":"NTIBILI","PLACES":"NTIBILI C"},
{"REGION":"KATAVI","POSTCODE":"50321","DISTRICT":"MLELE","WARD":"KASANSA","STREET":"NTIBILI","PLACES":"CHIFUNDA"},
{"REGION":"KATAVI","POSTCODE":"50321","DISTRICT":"MLELE","WARD":"KASANSA","STREET":"NTIBILI","PLACES":"MANZISHE"},
{"REGION":"KATAVI","POSTCODE":"50322","DISTRICT":"MLELE","WARD":"MWAMAPULI","STREET":"MWAMAPULI","PLACES":"MWAMAPULI A"},
{"REGION":"KATAVI","POSTCODE":"50322","DISTRICT":"MLELE","WARD":"MWAMAPULI","STREET":"MWAMAPULI","PLACES":"MWAMAPULI B"},
{"REGION":"KATAVI","POSTCODE":"50322","DISTRICT":"MLELE","WARD":"MWAMAPULI","STREET":"MWAMAPULI","PLACES":"ITOBANILO A"},
{"REGION":"KATAVI","POSTCODE":"50322","DISTRICT":"MLELE","WARD":"MWAMAPULI","STREET":"MWAMAPULI","PLACES":"ITOBANILO B"},
{"REGION":"KATAVI","POSTCODE":"50322","DISTRICT":"MLELE","WARD":"MWAMAPULI","STREET":"MWAMAPULI","PLACES":"MBUYUNI"},
{"REGION":"KATAVI","POSTCODE":"50322","DISTRICT":"MLELE","WARD":"MWAMAPULI","STREET":"MWAMAPULI","PLACES":"NTATUA"},
{"REGION":"KATAVI","POSTCODE":"50322","DISTRICT":"MLELE","WARD":"MWAMAPULI","STREET":"UKINGWAMINZI","PLACES":"UKINGWAMINZI A"},
{"REGION":"KATAVI","POSTCODE":"50322","DISTRICT":"MLELE","WARD":"MWAMAPULI","STREET":"UKINGWAMINZI","PLACES":"UKINGWAMINZI B"},
{"REGION":"KATAVI","POSTCODE":"50322","DISTRICT":"MLELE","WARD":"MWAMAPULI","STREET":"UKINGWAMINZI","PLACES":"UKINGWAMINZI C"},
{"REGION":"KATAVI","POSTCODE":"50322","DISTRICT":"MLELE","WARD":"MWAMAPULI","STREET":"UKINGWAMINZI","PLACES":"ITUMBA A"},
{"REGION":"KATAVI","POSTCODE":"50322","DISTRICT":"MLELE","WARD":"MWAMAPULI","STREET":"UKINGWAMINZI","PLACES":"ITUMBA B"},
{"REGION":"KATAVI","POSTCODE":"50322","DISTRICT":"MLELE","WARD":"MWAMAPULI","STREET":"LUNGUYA","PLACES":"LUNGUYA A"},
{"REGION":"KATAVI","POSTCODE":"50322","DISTRICT":"MLELE","WARD":"MWAMAPULI","STREET":"LUNGUYA","PLACES":"LUNGUYA B"},
{"REGION":"KATAVI","POSTCODE":"50322","DISTRICT":"MLELE","WARD":"MWAMAPULI","STREET":"LUNGUYA","PLACES":"LUNGUYA C"},
{"REGION":"KATAVI","POSTCODE":"50322","DISTRICT":"MLELE","WARD":"MWAMAPULI","STREET":"LUNGUYA","PLACES":"MADULU A"},
{"REGION":"KATAVI","POSTCODE":"50322","DISTRICT":"MLELE","WARD":"MWAMAPULI","STREET":"LUNGUYA","PLACES":"MADULU B"},
{"REGION":"KATAVI","POSTCODE":"50324","DISTRICT":"MLELE","WARD":"ILUNDE","STREET":"ILUNDE","PLACES":"KIVUKONI"},
{"REGION":"KATAVI","POSTCODE":"50324","DISTRICT":"MLELE","WARD":"ILUNDE","STREET":"ILUNDE","PLACES":"ILAMBWE"},
{"REGION":"KATAVI","POSTCODE":"50324","DISTRICT":"MLELE","WARD":"ILUNDE","STREET":"ILUNDE","PLACES":"KAUYE"},
{"REGION":"KATAVI","POSTCODE":"50324","DISTRICT":"MLELE","WARD":"ILUNDE","STREET":"ILUNDE","PLACES":"KALANGALI"},
{"REGION":"KATAVI","POSTCODE":"50324","DISTRICT":"MLELE","WARD":"ILUNDE","STREET":"ISENGENEZYA","PLACES":"ISENGENEZYA"},
{"REGION":"KATAVI","POSTCODE":"50324","DISTRICT":"MLELE","WARD":"ILUNDE","STREET":"ISENGENEZYA","PLACES":"MJIMWEMA"},
{"REGION":"KATAVI","POSTCODE":"50324","DISTRICT":"MLELE","WARD":"ILUNDE","STREET":"ISENGENEZYA","PLACES":"SHAMA A"},
{"REGION":"KATAVI","POSTCODE":"50324","DISTRICT":"MLELE","WARD":"ILUNDE","STREET":"ISENGENEZYA","PLACES":"SHAMA B"},
{"REGION":"KATAVI","POSTCODE":"50325","DISTRICT":"MLELE","WARD":"KAMSISI","STREET":"KAMSISI","PLACES":"KAMSISI"},
{"REGION":"KATAVI","POSTCODE":"50325","DISTRICT":"MLELE","WARD":"KAMSISI","STREET":"KAMSISI","PLACES":"MAGURUWE"},
{"REGION":"KATAVI","POSTCODE":"50325","DISTRICT":"MLELE","WARD":"KAMSISI","STREET":"KAMSISI","PLACES":"SHAMANDUME"},
{"REGION":"KATAVI","POSTCODE":"50325","DISTRICT":"MLELE","WARD":"KAMSISI","STREET":"SONGAMBELE","PLACES":"SONGAMBELE"},
{"REGION":"KATAVI","POSTCODE":"50325","DISTRICT":"MLELE","WARD":"KAMSISI","STREET":"SONGAMBELE","PLACES":"ILELANDA"},
{"REGION":"KATAVI","POSTCODE":"50325","DISTRICT":"MLELE","WARD":"KAMSISI","STREET":"SONGAMBELE","PLACES":"SHAMARA"},
{"REGION":"KATAVI","POSTCODE":"50325","DISTRICT":"MLELE","WARD":"KAMSISI","STREET":"IMALAUDUKI","PLACES":"IMALAUDUKI"},
{"REGION":"KATAVI","POSTCODE":"50325","DISTRICT":"MLELE","WARD":"KAMSISI","STREET":"IMALAUDUKI","PLACES":"ILANGA"},
{"REGION":"KATAVI","POSTCODE":"50325","DISTRICT":"MLELE","WARD":"KAMSISI","STREET":"IMALAUDUKI","PLACES":"KANYUMBU"},
{"REGION":"KATAVI","POSTCODE":"50326","DISTRICT":"MLELE","WARD":"CHAMALENDI","STREET":"CHAMALENDI","PLACES":"CHAMALENDI A"},
{"REGION":"KATAVI","POSTCODE":"50326","DISTRICT":"MLELE","WARD":"CHAMALENDI","STREET":"CHAMALENDI","PLACES":"CHAMALENDI B"},
{"REGION":"KATAVI","POSTCODE":"50326","DISTRICT":"MLELE","WARD":"CHAMALENDI","STREET":"CHAMALENDI","PLACES":"MAHIMBA"},
{"REGION":"KATAVI","POSTCODE":"50326","DISTRICT":"MLELE","WARD":"CHAMALENDI","STREET":"CHAMALENDI","PLACES":"MABAMBASI A"},
{"REGION":"KATAVI","POSTCODE":"50326","DISTRICT":"MLELE","WARD":"CHAMALENDI","STREET":"CHAMALENDI","PLACES":"MABAMBASI B"},
{"REGION":"KATAVI","POSTCODE":"50326","DISTRICT":"MLELE","WARD":"CHAMALENDI","STREET":"MKWAJUNI","PLACES":"MKWAJUNI"},
{"REGION":"KATAVI","POSTCODE":"50326","DISTRICT":"MLELE","WARD":"CHAMALENDI","STREET":"MKWAJUNI","PLACES":"MANELA A"},
{"REGION":"KATAVI","POSTCODE":"50326","DISTRICT":"MLELE","WARD":"CHAMALENDI","STREET":"MKWAJUNI","PLACES":"MANELA B"},
{"REGION":"KATAVI","POSTCODE":"50326","DISTRICT":"MLELE","WARD":"CHAMALENDI","STREET":"MKWAJUNI","PLACES":"MSADYA A"},
{"REGION":"KATAVI","POSTCODE":"50326","DISTRICT":"MLELE","WARD":"CHAMALENDI","STREET":"MKWAJUNI","PLACES":"MSADYA B"}
]
