[
{"REGION":"SONGWE","POSTCODE":"54101","DISTRICT":"SONGWE","WARD":"GUA","STREET":"GUA","PLACES":"GUA  A"},
{"REGION":"SONGWE","POSTCODE":"54101","DISTRICT":"SONGWE","WARD":"GUA","STREET":"GUA","PLACES":"GUA   E"},
{"REGION":"SONGWE","POSTCODE":"54101","DISTRICT":"SONGWE","WARD":"GUA","STREET":"GUA","PLACES":"GUA   F"},
{"REGION":"SONGWE","POSTCODE":"54101","DISTRICT":"SONGWE","WARD":"GUA","STREET":"GUA","PLACES":"KATAVI   A"},
{"REGION":"SONGWE","POSTCODE":"54101","DISTRICT":"SONGWE","WARD":"GUA","STREET":"GUA","PLACES":"KATAVI   B"},
{"REGION":"SONGWE","POSTCODE":"54101","DISTRICT":"SONGWE","WARD":"GUA","STREET":"GUA","PLACES":"KATAVI   C"},
{"REGION":"SONGWE","POSTCODE":"54101","DISTRICT":"SONGWE","WARD":"GUA","STREET":"GUA","PLACES":"KATAVI  D"},
{"REGION":"SONGWE","POSTCODE":"54101","DISTRICT":"SONGWE","WARD":"GUA","STREET":"GUA","PLACES":"KAKOMA"},
{"REGION":"SONGWE","POSTCODE":"54101","DISTRICT":"SONGWE","WARD":"GUA","STREET":"GUA","PLACES":"SONGAMBELE"},
{"REGION":"SONGWE","POSTCODE":"54101","DISTRICT":"SONGWE","WARD":"GUA","STREET":"GUA","PLACES":"MANDA JUU."},
{"REGION":"SONGWE","POSTCODE":"54101","DISTRICT":"SONGWE","WARD":"GUA","STREET":"SOME","PLACES":"SOME   A"},
{"REGION":"SONGWE","POSTCODE":"54101","DISTRICT":"SONGWE","WARD":"GUA","STREET":"SOME","PLACES":"SOME   B"},
{"REGION":"SONGWE","POSTCODE":"54101","DISTRICT":"SONGWE","WARD":"GUA","STREET":"SOME","PLACES":"SOME   C"},
{"REGION":"SONGWE","POSTCODE":"54102","DISTRICT":"SONGWE","WARD":"NGWALA","STREET":"NGWALA","PLACES":"NGWALA KATI  A"},
{"REGION":"SONGWE","POSTCODE":"54102","DISTRICT":"SONGWE","WARD":"NGWALA","STREET":"NGWALA","PLACES":"NGWALA KATI  B"},
{"REGION":"SONGWE","POSTCODE":"54102","DISTRICT":"SONGWE","WARD":"NGWALA","STREET":"NGWALA","PLACES":"KAMFICHENI"},
{"REGION":"SONGWE","POSTCODE":"54102","DISTRICT":"SONGWE","WARD":"NGWALA","STREET":"NGWALA","PLACES":"MAJENGO"},
{"REGION":"SONGWE","POSTCODE":"54102","DISTRICT":"SONGWE","WARD":"NGWALA","STREET":"NGWALA","PLACES":"AZIMIO"},
{"REGION":"SONGWE","POSTCODE":"54102","DISTRICT":"SONGWE","WARD":"NGWALA","STREET":"NGWALA","PLACES":"NGWALA MAGHARIBI"},
{"REGION":"SONGWE","POSTCODE":"54102","DISTRICT":"SONGWE","WARD":"NGWALA","STREET":"NGWALA","PLACES":"MADODOMYA"},
{"REGION":"SONGWE","POSTCODE":"54102","DISTRICT":"SONGWE","WARD":"NGWALA","STREET":"ITIZIRO","PLACES":"KIKAMBA"},
{"REGION":"SONGWE","POSTCODE":"54102","DISTRICT":"SONGWE","WARD":"NGWALA","STREET":"ITIZIRO","PLACES":"ITIZIRO"},
{"REGION":"SONGWE","POSTCODE":"54102","DISTRICT":"SONGWE","WARD":"NGWALA","STREET":"ITIZIRO","PLACES":"KISERUKA"},
{"REGION":"SONGWE","POSTCODE":"54103","DISTRICT":"SONGWE","WARD":"KAPALALA","STREET":"KAPALALA","PLACES":"KAPALALA A"},
{"REGION":"SONGWE","POSTCODE":"54103","DISTRICT":"SONGWE","WARD":"KAPALALA","STREET":"KAPALALA","PLACES":"KAPALALA B"},
{"REGION":"SONGWE","POSTCODE":"54103","DISTRICT":"SONGWE","WARD":"KAPALALA","STREET":"KAPALALA","PLACES":"KAPALALA C"},
{"REGION":"SONGWE","POSTCODE":"54103","DISTRICT":"SONGWE","WARD":"KAPALALA","STREET":"KAPALALA","PLACES":"KININGA"},
{"REGION":"SONGWE","POSTCODE":"54103","DISTRICT":"SONGWE","WARD":"KAPALALA","STREET":"KAPALALA","PLACES":"MTEKA"},
{"REGION":"SONGWE","POSTCODE":"54103","DISTRICT":"SONGWE","WARD":"KAPALALA","STREET":"UDINDE","PLACES":"IBOMA"},
{"REGION":"SONGWE","POSTCODE":"54103","DISTRICT":"SONGWE","WARD":"KAPALALA","STREET":"UDINDE","PLACES":"IPONGA"},
{"REGION":"SONGWE","POSTCODE":"54103","DISTRICT":"SONGWE","WARD":"KAPALALA","STREET":"UDINDE","PLACES":"MKUMBILI"},
{"REGION":"SONGWE","POSTCODE":"54103","DISTRICT":"SONGWE","WARD":"KAPALALA","STREET":"UDINDE","PLACES":"NYERERE"},
{"REGION":"SONGWE","POSTCODE":"54103","DISTRICT":"SONGWE","WARD":"KAPALALA","STREET":"UDINDE","PLACES":"ULAYA"},
{"REGION":"SONGWE","POSTCODE":"54103","DISTRICT":"SONGWE","WARD":"KAPALALA","STREET":"RUKWA","PLACES":"ITUMBI"},
{"REGION":"SONGWE","POSTCODE":"54103","DISTRICT":"SONGWE","WARD":"KAPALALA","STREET":"RUKWA","PLACES":"IZOSHA"},
{"REGION":"SONGWE","POSTCODE":"54103","DISTRICT":"SONGWE","WARD":"KAPALALA","STREET":"RUKWA","PLACES":"MBIZYA"},
{"REGION":"SONGWE","POSTCODE":"54104","DISTRICT":"SONGWE","WARD":"MBANGALA","STREET":"MBANGALA","PLACES":"MBANGALA  A"},
{"REGION":"SONGWE","POSTCODE":"54104","DISTRICT":"SONGWE","WARD":"MBANGALA","STREET":"MBANGALA","PLACES":"MBANGALA  B"},
{"REGION":"SONGWE","POSTCODE":"54104","DISTRICT":"SONGWE","WARD":"MBANGALA","STREET":"MBANGALA","PLACES":"MGOMBA"},
{"REGION":"SONGWE","POSTCODE":"54104","DISTRICT":"SONGWE","WARD":"MBANGALA","STREET":"MBANGALA","PLACES":"ICHESE"},
{"REGION":"SONGWE","POSTCODE":"54104","DISTRICT":"SONGWE","WARD":"MBANGALA","STREET":"MALEZA","PLACES":"LUTUMBI  A"},
{"REGION":"SONGWE","POSTCODE":"54104","DISTRICT":"SONGWE","WARD":"MBANGALA","STREET":"MALEZA","PLACES":"LUTUMBI  B"},
{"REGION":"SONGWE","POSTCODE":"54104","DISTRICT":"SONGWE","WARD":"MBANGALA","STREET":"MALEZA","PLACES":"MALEZA JUU"},
{"REGION":"SONGWE","POSTCODE":"54104","DISTRICT":"SONGWE","WARD":"MBANGALA","STREET":"MALEZA","PLACES":"MTOTO JUU"},
{"REGION":"SONGWE","POSTCODE":"54104","DISTRICT":"SONGWE","WARD":"MBANGALA","STREET":"MALEZA","PLACES":"MADIZINI"},
{"REGION":"SONGWE","POSTCODE":"54104","DISTRICT":"SONGWE","WARD":"MBANGALA","STREET":"MALEZA","PLACES":"KALANDA"},
{"REGION":"SONGWE","POSTCODE":"54104","DISTRICT":"SONGWE","WARD":"MBANGALA","STREET":"MALEZA","PLACES":"SAZA FALLS"},
{"REGION":"SONGWE","POSTCODE":"54105","DISTRICT":"SONGWE","WARD":"SAZA","STREET":"SAZA","PLACES":"SAZA KATI"},
{"REGION":"SONGWE","POSTCODE":"54105","DISTRICT":"SONGWE","WARD":"SAZA","STREET":"SAZA","PLACES":"MAKAMBINI"},
{"REGION":"SONGWE","POSTCODE":"54105","DISTRICT":"SONGWE","WARD":"SAZA","STREET":"SAZA","PLACES":"BWANA MZUNGU"},
{"REGION":"SONGWE","POSTCODE":"54105","DISTRICT":"SONGWE","WARD":"SAZA","STREET":"SAZA","PLACES":"KIBAONI"},
{"REGION":"SONGWE","POSTCODE":"54105","DISTRICT":"SONGWE","WARD":"SAZA","STREET":"SAZA","PLACES":"BWAWANI"},
{"REGION":"SONGWE","POSTCODE":"54105","DISTRICT":"SONGWE","WARD":"SAZA","STREET":"SAZA","PLACES":"MIEMBENI"},
{"REGION":"SONGWE","POSTCODE":"54105","DISTRICT":"SONGWE","WARD":"SAZA","STREET":"PATAMELA","PLACES":"MJINI"},
{"REGION":"SONGWE","POSTCODE":"54105","DISTRICT":"SONGWE","WARD":"SAZA","STREET":"PATAMELA","PLACES":"MBUGANI"},
{"REGION":"SONGWE","POSTCODE":"54105","DISTRICT":"SONGWE","WARD":"SAZA","STREET":"PATAMELA","PLACES":"MAWOWO"},
{"REGION":"SONGWE","POSTCODE":"54105","DISTRICT":"SONGWE","WARD":"SAZA","STREET":"PATAMELA","PLACES":"SHULENI"},
{"REGION":"SONGWE","POSTCODE":"54106","DISTRICT":"SONGWE","WARD":"MKWAJUNI","STREET":"MKWAJUNI","PLACES":"MKWAJUNI  A"},
{"REGION":"SONGWE","POSTCODE":"54106","DISTRICT":"SONGWE","WARD":"MKWAJUNI","STREET":"MKWAJUNI","PLACES":"MKWAJUNI  B"},
{"REGION":"SONGWE","POSTCODE":"54106","DISTRICT":"SONGWE","WARD":"MKWAJUNI","STREET":"MKWAJUNI","PLACES":"KAMFICHENI  A"},
{"REGION":"SONGWE","POSTCODE":"54106","DISTRICT":"SONGWE","WARD":"MKWAJUNI","STREET":"MKWAJUNI","PLACES":"KAMFICHENI  B"},
{"REGION":"SONGWE","POSTCODE":"54106","DISTRICT":"SONGWE","WARD":"MKWAJUNI","STREET":"MKWAJUNI","PLACES":"MNAZIMMOJA."},
{"REGION":"SONGWE","POSTCODE":"54106","DISTRICT":"SONGWE","WARD":"MKWAJUNI","STREET":"MAJENGO","PLACES":"MAJENGO"},
{"REGION":"SONGWE","POSTCODE":"54106","DISTRICT":"SONGWE","WARD":"MKWAJUNI","STREET":"MAJENGO","PLACES":"MAGEREZA"},
{"REGION":"SONGWE","POSTCODE":"54106","DISTRICT":"SONGWE","WARD":"MKWAJUNI","STREET":"MAJENGO","PLACES":"MBUGANI"},
{"REGION":"SONGWE","POSTCODE":"54106","DISTRICT":"SONGWE","WARD":"MKWAJUNI","STREET":"MAJENGO","PLACES":"MORAVIAN"},
{"REGION":"SONGWE","POSTCODE":"54106","DISTRICT":"SONGWE","WARD":"MKWAJUNI","STREET":"MAJENGO","PLACES":"KIMBOROKOTO"},
{"REGION":"SONGWE","POSTCODE":"54106","DISTRICT":"SONGWE","WARD":"MKWAJUNI","STREET":"CHUDECO","PLACES":"CHUDECO"},
{"REGION":"SONGWE","POSTCODE":"54106","DISTRICT":"SONGWE","WARD":"MKWAJUNI","STREET":"CHUDECO","PLACES":"OSTERBAY"},
{"REGION":"SONGWE","POSTCODE":"54106","DISTRICT":"SONGWE","WARD":"MKWAJUNI","STREET":"CHUDECO","PLACES":"ITONTERA"},
{"REGION":"SONGWE","POSTCODE":"54106","DISTRICT":"SONGWE","WARD":"MKWAJUNI","STREET":"CHUDECO","PLACES":"MAWENI"},
{"REGION":"SONGWE","POSTCODE":"54106","DISTRICT":"SONGWE","WARD":"MKWAJUNI","STREET":"CHUDECO","PLACES":"MELERANI"},
{"REGION":"SONGWE","POSTCODE":"54106","DISTRICT":"SONGWE","WARD":"MKWAJUNI","STREET":"KALOLENI","PLACES":"KALOLENI"},
{"REGION":"SONGWE","POSTCODE":"54106","DISTRICT":"SONGWE","WARD":"MKWAJUNI","STREET":"KALOLENI","PLACES":"KIKUYU"},
{"REGION":"SONGWE","POSTCODE":"54106","DISTRICT":"SONGWE","WARD":"MKWAJUNI","STREET":"KALOLENI","PLACES":"KALUNGU"},
{"REGION":"SONGWE","POSTCODE":"54106","DISTRICT":"SONGWE","WARD":"MKWAJUNI","STREET":"KALOLENI","PLACES":"ILEPUKA"},
{"REGION":"SONGWE","POSTCODE":"54107","DISTRICT":"SONGWE","WARD":"MWAMBANI","STREET":"MWAMBANI","PLACES":"LUTUMBI"},
{"REGION":"SONGWE","POSTCODE":"54107","DISTRICT":"SONGWE","WARD":"MWAMBANI","STREET":"MWAMBANI","PLACES":"KALIMA"},
{"REGION":"SONGWE","POSTCODE":"54107","DISTRICT":"SONGWE","WARD":"MWAMBANI","STREET":"MWAMBANI","PLACES":"KABONDE"},
{"REGION":"SONGWE","POSTCODE":"54107","DISTRICT":"SONGWE","WARD":"MWAMBANI","STREET":"MWAMBANI","PLACES":"CHIZYA"},
{"REGION":"SONGWE","POSTCODE":"54107","DISTRICT":"SONGWE","WARD":"MWAMBANI","STREET":"MWAMBANI","PLACES":"MAOMBWE"},
{"REGION":"SONGWE","POSTCODE":"54107","DISTRICT":"SONGWE","WARD":"MWAMBANI","STREET":"MBALA","PLACES":"MBALA"},
{"REGION":"SONGWE","POSTCODE":"54107","DISTRICT":"SONGWE","WARD":"MWAMBANI","STREET":"MBALA","PLACES":"MIEMBENI"},
{"REGION":"SONGWE","POSTCODE":"54107","DISTRICT":"SONGWE","WARD":"MWAMBANI","STREET":"MBALA","PLACES":"MAPOROMOKO"},
{"REGION":"SONGWE","POSTCODE":"54107","DISTRICT":"SONGWE","WARD":"MWAMBANI","STREET":"ISECHE","PLACES":"KIKONDO"},
{"REGION":"SONGWE","POSTCODE":"54107","DISTRICT":"SONGWE","WARD":"MWAMBANI","STREET":"ISECHE","PLACES":"ISECHE  A"},
{"REGION":"SONGWE","POSTCODE":"54107","DISTRICT":"SONGWE","WARD":"MWAMBANI","STREET":"ISECHE","PLACES":"ISECHE  B"},
{"REGION":"SONGWE","POSTCODE":"54107","DISTRICT":"SONGWE","WARD":"MWAMBANI","STREET":"ISECHE","PLACES":"ISECHE  C"},
{"REGION":"SONGWE","POSTCODE":"54108","DISTRICT":"SONGWE","WARD":"TOTOWE","STREET":"TOTOWE","PLACES":"TOTOWE KUSINI"},
{"REGION":"SONGWE","POSTCODE":"54108","DISTRICT":"SONGWE","WARD":"TOTOWE","STREET":"TOTOWE","PLACES":"TOTOWE KATI"},
{"REGION":"SONGWE","POSTCODE":"54108","DISTRICT":"SONGWE","WARD":"TOTOWE","STREET":"TOTOWE","PLACES":"HANDENI  A"},
{"REGION":"SONGWE","POSTCODE":"54108","DISTRICT":"SONGWE","WARD":"TOTOWE","STREET":"TOTOWE","PLACES":"MBUYUNI"},
{"REGION":"SONGWE","POSTCODE":"54108","DISTRICT":"SONGWE","WARD":"TOTOWE","STREET":"TOTOWE","PLACES":"CHEMICHEMI"},
{"REGION":"SONGWE","POSTCODE":"54108","DISTRICT":"SONGWE","WARD":"TOTOWE","STREET":"TOTOWE","PLACES":"KAZUNDU"},
{"REGION":"SONGWE","POSTCODE":"54108","DISTRICT":"SONGWE","WARD":"TOTOWE","STREET":"NAMAMBO","PLACES":"MWONGOZO"},
{"REGION":"SONGWE","POSTCODE":"54108","DISTRICT":"SONGWE","WARD":"TOTOWE","STREET":"NAMAMBO","PLACES":"RUKWA"},
{"REGION":"SONGWE","POSTCODE":"54108","DISTRICT":"SONGWE","WARD":"TOTOWE","STREET":"NAMAMBO","PLACES":"MIKOCHENI"},
{"REGION":"SONGWE","POSTCODE":"54108","DISTRICT":"SONGWE","WARD":"TOTOWE","STREET":"NAMAMBO","PLACES":"HANDENI  B"},
{"REGION":"SONGWE","POSTCODE":"54108","DISTRICT":"SONGWE","WARD":"TOTOWE","STREET":"NAMAMBO","PLACES":"MIEMBENI"},
{"REGION":"SONGWE","POSTCODE":"54109","DISTRICT":"SONGWE","WARD":"MPONA","STREET":"MPONA","PLACES":"MPONA"},
{"REGION":"SONGWE","POSTCODE":"54109","DISTRICT":"SONGWE","WARD":"MPONA","STREET":"MPONA","PLACES":"NAMALAMA"},
{"REGION":"SONGWE","POSTCODE":"54109","DISTRICT":"SONGWE","WARD":"MPONA","STREET":"MPONA","PLACES":"MWAWADIMI  A"},
{"REGION":"SONGWE","POSTCODE":"54109","DISTRICT":"SONGWE","WARD":"MPONA","STREET":"MPONA","PLACES":"MALANGALI"},
{"REGION":"SONGWE","POSTCODE":"54109","DISTRICT":"SONGWE","WARD":"MPONA","STREET":"MPONA","PLACES":"MWAWADIMI  B."},
{"REGION":"SONGWE","POSTCODE":"54109","DISTRICT":"SONGWE","WARD":"MPONA","STREET":"IYOVYO","PLACES":"IYOVYO MASH."},
{"REGION":"SONGWE","POSTCODE":"54109","DISTRICT":"SONGWE","WARD":"MPONA","STREET":"IYOVYO","PLACES":"IYOVYO MAGH."},
{"REGION":"SONGWE","POSTCODE":"54109","DISTRICT":"SONGWE","WARD":"MPONA","STREET":"IYOVYO","PLACES":"KAZUNDU"},
{"REGION":"SONGWE","POSTCODE":"54109","DISTRICT":"SONGWE","WARD":"MPONA","STREET":"IYOVYO","PLACES":"MWAWADIMI"},
{"REGION":"SONGWE","POSTCODE":"54109","DISTRICT":"SONGWE","WARD":"MPONA","STREET":"IYOVYO","PLACES":"KAMBIPOTEA."},
{"REGION":"SONGWE","POSTCODE":"54110","DISTRICT":"SONGWE","WARD":"NAMKUKWE","STREET":"NAMKUKWE","PLACES":"NAMKUKWE  A"},
{"REGION":"SONGWE","POSTCODE":"54110","DISTRICT":"SONGWE","WARD":"NAMKUKWE","STREET":"NAMKUKWE","PLACES":"NAMKUKWE  B"},
{"REGION":"SONGWE","POSTCODE":"54110","DISTRICT":"SONGWE","WARD":"NAMKUKWE","STREET":"NAMKUKWE","PLACES":"NAMKUKWE  C"},
{"REGION":"SONGWE","POSTCODE":"54110","DISTRICT":"SONGWE","WARD":"NAMKUKWE","STREET":"NAMKUKWE","PLACES":"MPANGALA"},
{"REGION":"SONGWE","POSTCODE":"54110","DISTRICT":"SONGWE","WARD":"NAMKUKWE","STREET":"NAMKUKWE","PLACES":"KISALE"},
{"REGION":"SONGWE","POSTCODE":"54110","DISTRICT":"SONGWE","WARD":"NAMKUKWE","STREET":"MUHEZA","PLACES":"MUHEZA  A"},
{"REGION":"SONGWE","POSTCODE":"54110","DISTRICT":"SONGWE","WARD":"NAMKUKWE","STREET":"MUHEZA","PLACES":"MUHEZA  B"},
{"REGION":"SONGWE","POSTCODE":"54110","DISTRICT":"SONGWE","WARD":"NAMKUKWE","STREET":"MUHEZA","PLACES":"NGUZI"},
{"REGION":"SONGWE","POSTCODE":"54111","DISTRICT":"SONGWE","WARD":"MANDA","STREET":"ISANZU","PLACES":"UKOMBOZI"},
{"REGION":"SONGWE","POSTCODE":"54111","DISTRICT":"SONGWE","WARD":"MANDA","STREET":"ISANZU","PLACES":"LANDANI"},
{"REGION":"SONGWE","POSTCODE":"54111","DISTRICT":"SONGWE","WARD":"MANDA","STREET":"ISANZU","PLACES":"MWAMBANG'OMBE"},
{"REGION":"SONGWE","POSTCODE":"54111","DISTRICT":"SONGWE","WARD":"MANDA","STREET":"ISANZU","PLACES":"KWIMBA"},
{"REGION":"SONGWE","POSTCODE":"54111","DISTRICT":"SONGWE","WARD":"MANDA","STREET":"MANDA","PLACES":"MANDA A"},
{"REGION":"SONGWE","POSTCODE":"54111","DISTRICT":"SONGWE","WARD":"MANDA","STREET":"MANDA","PLACES":"MANDA B"},
{"REGION":"SONGWE","POSTCODE":"54111","DISTRICT":"SONGWE","WARD":"MANDA","STREET":"MANDA","PLACES":"MANDA C"},
{"REGION":"SONGWE","POSTCODE":"54111","DISTRICT":"SONGWE","WARD":"MANDA","STREET":"MANDA","PLACES":"LUTUMBI"},
{"REGION":"SONGWE","POSTCODE":"54111","DISTRICT":"SONGWE","WARD":"MANDA","STREET":"MANDA","PLACES":"KAMBIULIZA"},
{"REGION":"SONGWE","POSTCODE":"54112","DISTRICT":"SONGWE","WARD":"MAGAMBA","STREET":"MAGAMBA","PLACES":"MAGAMBA"},
{"REGION":"SONGWE","POSTCODE":"54112","DISTRICT":"SONGWE","WARD":"MAGAMBA","STREET":"MAGAMBA","PLACES":"NGAYANGWANDA"},
{"REGION":"SONGWE","POSTCODE":"54112","DISTRICT":"SONGWE","WARD":"MAGAMBA","STREET":"MAGAMBA","PLACES":"MBALWE"},
{"REGION":"SONGWE","POSTCODE":"54112","DISTRICT":"SONGWE","WARD":"MAGAMBA","STREET":"MAGAMBA","PLACES":"NKOMANO"},
{"REGION":"SONGWE","POSTCODE":"54112","DISTRICT":"SONGWE","WARD":"MAGAMBA","STREET":"MAGAMBA","PLACES":"MTAKUJA"},
{"REGION":"SONGWE","POSTCODE":"54112","DISTRICT":"SONGWE","WARD":"MAGAMBA","STREET":"KAMBARAGE","PLACES":"SOGA"},
{"REGION":"SONGWE","POSTCODE":"54112","DISTRICT":"SONGWE","WARD":"MAGAMBA","STREET":"KAMBARAGE","PLACES":"ILEMBO"},
{"REGION":"SONGWE","POSTCODE":"54112","DISTRICT":"SONGWE","WARD":"MAGAMBA","STREET":"HALYONGO","PLACES":"HALYONGO A"},
{"REGION":"SONGWE","POSTCODE":"54112","DISTRICT":"SONGWE","WARD":"MAGAMBA","STREET":"HALYONGO","PLACES":"HALYONGO B"},
{"REGION":"SONGWE","POSTCODE":"54112","DISTRICT":"SONGWE","WARD":"MAGAMBA","STREET":"HALYONGO","PLACES":"MILE"},
{"REGION":"SONGWE","POSTCODE":"54112","DISTRICT":"SONGWE","WARD":"MAGAMBA","STREET":"HALYONGO","PLACES":"MAZINDE"},
{"REGION":"SONGWE","POSTCODE":"54112","DISTRICT":"SONGWE","WARD":"MAGAMBA","STREET":"SONGAMBELE","PLACES":"MBUGANI"},
{"REGION":"SONGWE","POSTCODE":"54112","DISTRICT":"SONGWE","WARD":"MAGAMBA","STREET":"SONGAMBELE","PLACES":"SHUJILA"},
{"REGION":"SONGWE","POSTCODE":"54112","DISTRICT":"SONGWE","WARD":"MAGAMBA","STREET":"SONGAMBELE","PLACES":"LUMWAHA"},
{"REGION":"SONGWE","POSTCODE":"54113","DISTRICT":"SONGWE","WARD":"GALULA","STREET":"GALULA","PLACES":"GALULA  A"},
{"REGION":"SONGWE","POSTCODE":"54113","DISTRICT":"SONGWE","WARD":"GALULA","STREET":"GALULA","PLACES":"GALULA  B"},
{"REGION":"SONGWE","POSTCODE":"54113","DISTRICT":"SONGWE","WARD":"GALULA","STREET":"GALULA","PLACES":"MUHIMBILI"},
{"REGION":"SONGWE","POSTCODE":"54113","DISTRICT":"SONGWE","WARD":"GALULA","STREET":"GALULA","PLACES":"GALULA  C"},
{"REGION":"SONGWE","POSTCODE":"54113","DISTRICT":"SONGWE","WARD":"GALULA","STREET":"GALULA","PLACES":"ILEMBO"},
{"REGION":"SONGWE","POSTCODE":"54113","DISTRICT":"SONGWE","WARD":"GALULA","STREET":"ILASILO","PLACES":"ILASILO  A"},
{"REGION":"SONGWE","POSTCODE":"54113","DISTRICT":"SONGWE","WARD":"GALULA","STREET":"ILASILO","PLACES":"ILASILO  B"},
{"REGION":"SONGWE","POSTCODE":"54113","DISTRICT":"SONGWE","WARD":"GALULA","STREET":"ILASILO","PLACES":"LUMPAMBA"},
{"REGION":"SONGWE","POSTCODE":"54113","DISTRICT":"SONGWE","WARD":"GALULA","STREET":"ILASILO","PLACES":"IWOMBWE"},
{"REGION":"SONGWE","POSTCODE":"54113","DISTRICT":"SONGWE","WARD":"GALULA","STREET":"ITINDI","PLACES":"NAMAKUNGU"},
{"REGION":"SONGWE","POSTCODE":"54113","DISTRICT":"SONGWE","WARD":"GALULA","STREET":"ITINDI","PLACES":"ITINDI KATI"},
{"REGION":"SONGWE","POSTCODE":"54113","DISTRICT":"SONGWE","WARD":"GALULA","STREET":"ITINDI","PLACES":"MTAKUJA"},
{"REGION":"SONGWE","POSTCODE":"54113","DISTRICT":"SONGWE","WARD":"GALULA","STREET":"ITINDI","PLACES":"IGUZYA"},
{"REGION":"SONGWE","POSTCODE":"54114","DISTRICT":"SONGWE","WARD":"MBUYUNI","STREET":"MBUYUNI","PLACES":"MBUYUNI  A"},
{"REGION":"SONGWE","POSTCODE":"54114","DISTRICT":"SONGWE","WARD":"MBUYUNI","STREET":"MBUYUNI","PLACES":"MBUYUNI  B"},
{"REGION":"SONGWE","POSTCODE":"54114","DISTRICT":"SONGWE","WARD":"MBUYUNI","STREET":"MBUYUNI","PLACES":"MBUYUNI  C"},
{"REGION":"SONGWE","POSTCODE":"54114","DISTRICT":"SONGWE","WARD":"MBUYUNI","STREET":"MBUYUNI","PLACES":"MBUYUNI  D"},
{"REGION":"SONGWE","POSTCODE":"54114","DISTRICT":"SONGWE","WARD":"MBUYUNI","STREET":"NDANGA","PLACES":"NDANGA  A"},
{"REGION":"SONGWE","POSTCODE":"54114","DISTRICT":"SONGWE","WARD":"MBUYUNI","STREET":"NDANGA","PLACES":"NDANGA  B"},
{"REGION":"SONGWE","POSTCODE":"54114","DISTRICT":"SONGWE","WARD":"MBUYUNI","STREET":"NDANGA","PLACES":"MBUYUNI  E"},
{"REGION":"SONGWE","POSTCODE":"54114","DISTRICT":"SONGWE","WARD":"MBUYUNI","STREET":"MWAGALA","PLACES":"MWAGALA  A"},
{"REGION":"SONGWE","POSTCODE":"54114","DISTRICT":"SONGWE","WARD":"MBUYUNI","STREET":"MWAGALA","PLACES":"MWAGALA  B"},
{"REGION":"SONGWE","POSTCODE":"54114","DISTRICT":"SONGWE","WARD":"MBUYUNI","STREET":"MWAGALA","PLACES":"MWAGALA  C"},
{"REGION":"SONGWE","POSTCODE":"54114","DISTRICT":"SONGWE","WARD":"MBUYUNI","STREET":"MWAGALA","PLACES":"MWAGALA  D"},
{"REGION":"SONGWE","POSTCODE":"54115","DISTRICT":"SONGWE","WARD":"CHANG'OMBE","STREET":"CHANG’OMBE","PLACES":"ISALE"}
,
{"REGION":"SONGWE","POSTCODE":"54115","DISTRICT":"SONGWE","WARD":"CHANG'OMBE","STREET":"CHANG’OMBE","PLACES":"MWAGALA"}
,
{"REGION":"SONGWE","POSTCODE":"54115","DISTRICT":"SONGWE","WARD":"CHANG'OMBE","STREET":"CHANG’OMBE","PLACES":"MTAKUJA"}
,
{"REGION":"SONGWE","POSTCODE":"54115","DISTRICT":"SONGWE","WARD":"CHANG'OMBE","STREET":"CHANG’OMBE","PLACES":"MAGUNGA  A"}
,
{"REGION":"SONGWE","POSTCODE":"54115","DISTRICT":"SONGWE","WARD":"CHANG'OMBE","STREET":"CHANG’OMBE","PLACES":"MAGUNGA  B"}
,
{"REGION":"SONGWE","POSTCODE":"54115","DISTRICT":"SONGWE","WARD":"CHANG'OMBE","STREET":"IFUKO","PLACES":"MAZIZINI"},
{"REGION":"SONGWE","POSTCODE":"54115","DISTRICT":"SONGWE","WARD":"CHANG'OMBE","STREET":"IFUKO","PLACES":"MAZIZINI  B"},
{"REGION":"SONGWE","POSTCODE":"54115","DISTRICT":"SONGWE","WARD":"CHANG'OMBE","STREET":"IFUKO","PLACES":"MAPOGOLO"},
{"REGION":"SONGWE","POSTCODE":"54115","DISTRICT":"SONGWE","WARD":"CHANG'OMBE","STREET":"IFUKO","PLACES":"MTONI"},
{"REGION":"SONGWE","POSTCODE":"54115","DISTRICT":"SONGWE","WARD":"CHANG'OMBE","STREET":"IFUKO","PLACES":"MIEMBENI"},
{"REGION":"SONGWE","POSTCODE":"54115","DISTRICT":"SONGWE","WARD":"CHANG'OMBE","STREET":"IFUKO","PLACES":"SWELA"},
{"REGION":"SONGWE","POSTCODE":"54115","DISTRICT":"SONGWE","WARD":"CHANG'OMBE","STREET":"IFUKO","PLACES":"MABATINI"},
{"REGION":"SONGWE","POSTCODE":"54115","DISTRICT":"SONGWE","WARD":"CHANG'OMBE","STREET":"WANZANI","PLACES":"MKOMA"},
{"REGION":"SONGWE","POSTCODE":"54115","DISTRICT":"SONGWE","WARD":"CHANG'OMBE","STREET":"WANZANI","PLACES":"USANGU"},
{"REGION":"SONGWE","POSTCODE":"54115","DISTRICT":"SONGWE","WARD":"CHANG'OMBE","STREET":"WANZANI","PLACES":"WAFUGAJI"},
{"REGION":"SONGWE","POSTCODE":"54116","DISTRICT":"SONGWE","WARD":"KANGA","STREET":"KANGA","PLACES":"KANGA"},
{"REGION":"SONGWE","POSTCODE":"54116","DISTRICT":"SONGWE","WARD":"KANGA","STREET":"KANGA","PLACES":"MAGADINI"},
{"REGION":"SONGWE","POSTCODE":"54116","DISTRICT":"SONGWE","WARD":"KANGA","STREET":"KANGA","PLACES":"MAZIZINI"},
{"REGION":"SONGWE","POSTCODE":"54116","DISTRICT":"SONGWE","WARD":"KANGA","STREET":"KANGA","PLACES":"MIKOCHENI"},
{"REGION":"SONGWE","POSTCODE":"54116","DISTRICT":"SONGWE","WARD":"KANGA","STREET":"KANGA","PLACES":"MAJENGO"},
{"REGION":"SONGWE","POSTCODE":"54116","DISTRICT":"SONGWE","WARD":"KANGA","STREET":"KANGA","PLACES":"IPALA"},
{"REGION":"SONGWE","POSTCODE":"54116","DISTRICT":"SONGWE","WARD":"KANGA","STREET":"KANGA","PLACES":"SAWI"},
{"REGION":"SONGWE","POSTCODE":"54116","DISTRICT":"SONGWE","WARD":"KANGA","STREET":"TETE","PLACES":"BWAWANI"},
{"REGION":"SONGWE","POSTCODE":"54116","DISTRICT":"SONGWE","WARD":"KANGA","STREET":"TETE","PLACES":"MAJIMOTO"},
{"REGION":"SONGWE","POSTCODE":"54116","DISTRICT":"SONGWE","WARD":"KANGA","STREET":"TETE","PLACES":"ILANGA"},
{"REGION":"SONGWE","POSTCODE":"54116","DISTRICT":"SONGWE","WARD":"KANGA","STREET":"TETE","PLACES":"TETE KATI"},
{"REGION":"SONGWE","POSTCODE":"54116","DISTRICT":"SONGWE","WARD":"KANGA","STREET":"TETE","PLACES":"NAHAGONDO"},
{"REGION":"SONGWE","POSTCODE":"54116","DISTRICT":"SONGWE","WARD":"KANGA","STREET":"TETE","PLACES":"CHIKUWA"},
{"REGION":"SONGWE","POSTCODE":"54116","DISTRICT":"SONGWE","WARD":"KANGA","STREET":"TETE","PLACES":"MAGADINI"},
{"REGION":"SONGWE","POSTCODE":"54117","DISTRICT":"SONGWE","WARD":"IFWENKENYA","STREET":"IFWENKENYA","PLACES":"BWAWANI"},
{"REGION":"SONGWE","POSTCODE":"54117","DISTRICT":"SONGWE","WARD":"IFWENKENYA","STREET":"IFWENKENYA","PLACES":"TANKINI"},
{"REGION":"SONGWE","POSTCODE":"54117","DISTRICT":"SONGWE","WARD":"IFWENKENYA","STREET":"IFWENKENYA","PLACES":"MLIMANI"},
{"REGION":"SONGWE","POSTCODE":"54117","DISTRICT":"SONGWE","WARD":"IFWENKENYA","STREET":"IFWENKENYA","PLACES":"MADIZINI"},
{"REGION":"SONGWE","POSTCODE":"54117","DISTRICT":"SONGWE","WARD":"IFWENKENYA","STREET":"IFWENKENYA","PLACES":"MIEMBENI"},
{"REGION":"SONGWE","POSTCODE":"54117","DISTRICT":"SONGWE","WARD":"IFWENKENYA","STREET":"IFWENKENYA","PLACES":"IPWIZI"},
{"REGION":"SONGWE","POSTCODE":"54117","DISTRICT":"SONGWE","WARD":"IFWENKENYA","STREET":"IFWENKENYA","PLACES":"NZOHA"},
{"REGION":"SONGWE","POSTCODE":"54117","DISTRICT":"SONGWE","WARD":"IFWENKENYA","STREET":"IFWENKENYA","PLACES":"IWAMBI."},
{"REGION":"SONGWE","POSTCODE":"54117","DISTRICT":"SONGWE","WARD":"IFWENKENYA","STREET":"ILEYA","PLACES":"ILEYA"},
{"REGION":"SONGWE","POSTCODE":"54117","DISTRICT":"SONGWE","WARD":"IFWENKENYA","STREET":"ILEYA","PLACES":"ILEMBO"},
{"REGION":"SONGWE","POSTCODE":"54117","DISTRICT":"SONGWE","WARD":"IFWENKENYA","STREET":"ILEYA","PLACES":"KIKAVU"},
{"REGION":"SONGWE","POSTCODE":"54117","DISTRICT":"SONGWE","WARD":"IFWENKENYA","STREET":"ILEYA","PLACES":"MULU."},
{"REGION":"SONGWE","POSTCODE":"54201","DISTRICT":"MBOZI","WARD":"VWAWA","STREET":"VWAWA","PLACES":"VWAWA KATI"},
{"REGION":"SONGWE","POSTCODE":"54201","DISTRICT":"MBOZI","WARD":"VWAWA","STREET":"VWAWA","PLACES":"SOKONI"},
{"REGION":"SONGWE","POSTCODE":"54201","DISTRICT":"MBOZI","WARD":"VWAWA","STREET":"VWAWA","PLACES":"MWENGE"},
{"REGION":"SONGWE","POSTCODE":"54201","DISTRICT":"MBOZI","WARD":"VWAWA","STREET":"VWAWA","PLACES":"VWAWA SEKONDARI"},
{"REGION":"SONGWE","POSTCODE":"54201","DISTRICT":"MBOZI","WARD":"VWAWA","STREET":"VWAWA","PLACES":"OLD VWAWA"},
{"REGION":"SONGWE","POSTCODE":"54201","DISTRICT":"MBOZI","WARD":"VWAWA","STREET":"VWAWA","PLACES":"MAKATANI"},
{"REGION":"SONGWE","POSTCODE":"54201","DISTRICT":"MBOZI","WARD":"VWAWA","STREET":"VWAWA","PLACES":"SHIWANDA"},
{"REGION":"SONGWE","POSTCODE":"54201","DISTRICT":"MBOZI","WARD":"VWAWA","STREET":"VWAWA","PLACES":"SHIGODE A"},
{"REGION":"SONGWE","POSTCODE":"54201","DISTRICT":"MBOZI","WARD":"VWAWA","STREET":"VWAWA","PLACES":"SHIGODE B"},
{"REGION":"SONGWE","POSTCODE":"54201","DISTRICT":"MBOZI","WARD":"VWAWA","STREET":"VWAWA","PLACES":"RELINI"},
{"REGION":"SONGWE","POSTCODE":"54201","DISTRICT":"MBOZI","WARD":"VWAWA","STREET":"VWAWA","PLACES":"NSENYA"},
{"REGION":"SONGWE","POSTCODE":"54201","DISTRICT":"MBOZI","WARD":"VWAWA","STREET":"VWAWA","PLACES":"NAMLEYA"},
{"REGION":"SONGWE","POSTCODE":"54201","DISTRICT":"MBOZI","WARD":"VWAWA","STREET":"VWAWA","PLACES":"MAJENGO"},
{"REGION":"SONGWE","POSTCODE":"54201","DISTRICT":"MBOZI","WARD":"VWAWA","STREET":"VWAWA","PLACES":"HALOLI"},
{"REGION":"SONGWE","POSTCODE":"54201","DISTRICT":"MBOZI","WARD":"VWAWA","STREET":"VWAWA","PLACES":"MANTENGU \"A\""},
{"REGION":"SONGWE","POSTCODE":"54201","DISTRICT":"MBOZI","WARD":"VWAWA","STREET":"VWAWA","PLACES":"MANTENGU \"B\""},
{"REGION":"SONGWE","POSTCODE":"54201","DISTRICT":"MBOZI","WARD":"VWAWA","STREET":"VWAWA","PLACES":"UKINGANI"},
{"REGION":"SONGWE","POSTCODE":"54201","DISTRICT":"MBOZI","WARD":"VWAWA","STREET":"VWAWA","PLACES":"KITOVUNI\"A\""},
{"REGION":"SONGWE","POSTCODE":"54201","DISTRICT":"MBOZI","WARD":"VWAWA","STREET":"VWAWA","PLACES":"KITOVUNI \"B\""},
{"REGION":"SONGWE","POSTCODE":"54202","DISTRICT":"MBOZI","WARD":"MLOWO","STREET":"MLOWO","PLACES":"MLOWO"},
{"REGION":"SONGWE","POSTCODE":"54202","DISTRICT":"MBOZI","WARD":"MLOWO","STREET":"MLOWO","PLACES":"SHULE"},
{"REGION":"SONGWE","POSTCODE":"54202","DISTRICT":"MBOZI","WARD":"MLOWO","STREET":"MLOWO","PLACES":"MABATINI"},
{"REGION":"SONGWE","POSTCODE":"54202","DISTRICT":"MBOZI","WARD":"MLOWO","STREET":"MLOWO","PLACES":"MAJENGO"},
{"REGION":"SONGWE","POSTCODE":"54202","DISTRICT":"MBOZI","WARD":"MLOWO","STREET":"MLOWO","PLACES":"TAZARA"},
{"REGION":"SONGWE","POSTCODE":"54202","DISTRICT":"MBOZI","WARD":"MLOWO","STREET":"MLOWO","PLACES":"MTAKUJA"},
{"REGION":"SONGWE","POSTCODE":"54202","DISTRICT":"MBOZI","WARD":"MLOWO","STREET":"MLOWO","PLACES":"KIWANDANI"},
{"REGION":"SONGWE","POSTCODE":"54202","DISTRICT":"MBOZI","WARD":"MLOWO","STREET":"MLOWO","PLACES":"ISINIZYA"},
{"REGION":"SONGWE","POSTCODE":"54202","DISTRICT":"MBOZI","WARD":"MLOWO","STREET":"MLOWO","PLACES":"MIGOMBANI"},
{"REGION":"SONGWE","POSTCODE":"54202","DISTRICT":"MBOZI","WARD":"MLOWO","STREET":"MLOWO","PLACES":"MAKOMBONI"},
{"REGION":"SONGWE","POSTCODE":"54202","DISTRICT":"MBOZI","WARD":"MLOWO","STREET":"MLOWO","PLACES":"NSELEWA"},
{"REGION":"SONGWE","POSTCODE":"54202","DISTRICT":"MBOZI","WARD":"MLOWO","STREET":"MLOWO","PLACES":"ILEMBO"},
{"REGION":"SONGWE","POSTCODE":"54202","DISTRICT":"MBOZI","WARD":"MLOWO","STREET":"MLOWO","PLACES":"NAMBALA"},
{"REGION":"SONGWE","POSTCODE":"54202","DISTRICT":"MBOZI","WARD":"MLOWO","STREET":"MLOWO","PLACES":"IZUMU"},
{"REGION":"SONGWE","POSTCODE":"54202","DISTRICT":"MBOZI","WARD":"MLOWO","STREET":"MLOWO","PLACES":"MZUNGUKO"},
{"REGION":"SONGWE","POSTCODE":"54202","DISTRICT":"MBOZI","WARD":"MLOWO","STREET":"MLOWO","PLACES":"ITENDE"},
{"REGION":"SONGWE","POSTCODE":"54202","DISTRICT":"MBOZI","WARD":"MLOWO","STREET":"MLOWO","PLACES":"IGAWANYA"},
{"REGION":"SONGWE","POSTCODE":"54202","DISTRICT":"MBOZI","WARD":"MLOWO","STREET":"MLOWO","PLACES":"SEGEREA"},
{"REGION":"SONGWE","POSTCODE":"54202","DISTRICT":"MBOZI","WARD":"MLOWO","STREET":"MLOWO","PLACES":"MALENJE"},
{"REGION":"SONGWE","POSTCODE":"54202","DISTRICT":"MBOZI","WARD":"MLOWO","STREET":"MLOWO","PLACES":"KALASHA"},
{"REGION":"SONGWE","POSTCODE":"54202","DISTRICT":"MBOZI","WARD":"MLOWO","STREET":"MLOWO","PLACES":"IPANGA"},
{"REGION":"SONGWE","POSTCODE":"54202","DISTRICT":"MBOZI","WARD":"MLOWO","STREET":"MLOWO","PLACES":"MABATINI"},
{"REGION":"SONGWE","POSTCODE":"54202","DISTRICT":"MBOZI","WARD":"MLOWO","STREET":"MLOWO","PLACES":"IZYILA"},
{"REGION":"SONGWE","POSTCODE":"54202","DISTRICT":"MBOZI","WARD":"MLOWO","STREET":"MLOWO","PLACES":"SANGANOTI"},
{"REGION":"SONGWE","POSTCODE":"54203","DISTRICT":"MBOZI","WARD":"IGAMBA","STREET":"IGAMBA","PLACES":"MSUTO"},
{"REGION":"SONGWE","POSTCODE":"54203","DISTRICT":"MBOZI","WARD":"IGAMBA","STREET":"IGAMBA","PLACES":"MZUMANZI"},
{"REGION":"SONGWE","POSTCODE":"54203","DISTRICT":"MBOZI","WARD":"IGAMBA","STREET":"IGAMBA","PLACES":"CHAMANI"},
{"REGION":"SONGWE","POSTCODE":"54203","DISTRICT":"MBOZI","WARD":"IGAMBA","STREET":"IGAMBA","PLACES":"IGAMBA KATI"},
{"REGION":"SONGWE","POSTCODE":"54203","DISTRICT":"MBOZI","WARD":"IGAMBA","STREET":"IGAMBA","PLACES":"ISENTI"},
{"REGION":"SONGWE","POSTCODE":"54203","DISTRICT":"MBOZI","WARD":"IGAMBA","STREET":"MSANYILA","PLACES":"NANTEGO"},
{"REGION":"SONGWE","POSTCODE":"54203","DISTRICT":"MBOZI","WARD":"IGAMBA","STREET":"MSANYILA","PLACES":"ITINKINYA"},
{"REGION":"SONGWE","POSTCODE":"54203","DISTRICT":"MBOZI","WARD":"IGAMBA","STREET":"MSANYILA","PLACES":"KAYEWA"},
{"REGION":"SONGWE","POSTCODE":"54203","DISTRICT":"MBOZI","WARD":"IGAMBA","STREET":"MSANYILA","PLACES":"NDOLEZI"},
{"REGION":"SONGWE","POSTCODE":"54203","DISTRICT":"MBOZI","WARD":"IGAMBA","STREET":"MWANDA","PLACES":"MWANDA"},
{"REGION":"SONGWE","POSTCODE":"54203","DISTRICT":"MBOZI","WARD":"IGAMBA","STREET":"MWANDA","PLACES":"IVULULU"},
{"REGION":"SONGWE","POSTCODE":"54203","DISTRICT":"MBOZI","WARD":"IGAMBA","STREET":"MWANDA","PLACES":"IGONDA"},
{"REGION":"SONGWE","POSTCODE":"54203","DISTRICT":"MBOZI","WARD":"IGAMBA","STREET":"MBOZI","PLACES":"MATULA A"},
{"REGION":"SONGWE","POSTCODE":"54203","DISTRICT":"MBOZI","WARD":"IGAMBA","STREET":"MBOZI","PLACES":"MATUKA B"},
{"REGION":"SONGWE","POSTCODE":"54203","DISTRICT":"MBOZI","WARD":"IGAMBA","STREET":"MBOZI","PLACES":"MBOZI KATI"},
{"REGION":"SONGWE","POSTCODE":"54203","DISTRICT":"MBOZI","WARD":"IGAMBA","STREET":"MBOZI","PLACES":"IDIMI A"},
{"REGION":"SONGWE","POSTCODE":"54203","DISTRICT":"MBOZI","WARD":"IGAMBA","STREET":"MBUGA","PLACES":"MBUGA A"},
{"REGION":"SONGWE","POSTCODE":"54203","DISTRICT":"MBOZI","WARD":"IGAMBA","STREET":"MBUGA","PLACES":"MBUGA B"},
{"REGION":"SONGWE","POSTCODE":"54203","DISTRICT":"MBOZI","WARD":"IGAMBA","STREET":"MBUGA","PLACES":"IDIMI B"},
{"REGION":"SONGWE","POSTCODE":"54203","DISTRICT":"MBOZI","WARD":"IGAMBA","STREET":"ZELEZETA","PLACES":"WASA"},
{"REGION":"SONGWE","POSTCODE":"54203","DISTRICT":"MBOZI","WARD":"IGAMBA","STREET":"ZELEZETA","PLACES":"SHULENI"},
{"REGION":"SONGWE","POSTCODE":"54203","DISTRICT":"MBOZI","WARD":"IGAMBA","STREET":"ZELEZETA","PLACES":"ISYALAMAGAZI"},
{"REGION":"SONGWE","POSTCODE":"54203","DISTRICT":"MBOZI","WARD":"IGAMBA","STREET":"ZELEZETA","PLACES":"RUTINDI"},
{"REGION":"SONGWE","POSTCODE":"54203","DISTRICT":"MBOZI","WARD":"IGAMBA","STREET":"ITEPULA","PLACES":"ITEPULA KATI"},
{"REGION":"SONGWE","POSTCODE":"54203","DISTRICT":"MBOZI","WARD":"IGAMBA","STREET":"ITEPULA","PLACES":"MWENZO"},
{"REGION":"SONGWE","POSTCODE":"54203","DISTRICT":"MBOZI","WARD":"IGAMBA","STREET":"ITEPULA","PLACES":"SHAJI"},
{"REGION":"SONGWE","POSTCODE":"54203","DISTRICT":"MBOZI","WARD":"IGAMBA","STREET":"ITEPULA","PLACES":"ITEWE"},
{"REGION":"SONGWE","POSTCODE":"54203","DISTRICT":"MBOZI","WARD":"IGAMBA","STREET":"ITEPULA","PLACES":"MWANDA"},
{"REGION":"SONGWE","POSTCODE":"54203","DISTRICT":"MBOZI","WARD":"IGAMBA","STREET":"ITEPULA","PLACES":"MPANDA MAINI"},
{"REGION":"SONGWE","POSTCODE":"54204","DISTRICT":"MBOZI","WARD":"MSIA","STREET":"MSIA","PLACES":"MSIA"},
{"REGION":"SONGWE","POSTCODE":"54204","DISTRICT":"MBOZI","WARD":"MSIA","STREET":"MSIA","PLACES":"HANKALAGWA"},
{"REGION":"SONGWE","POSTCODE":"54204","DISTRICT":"MBOZI","WARD":"MSIA","STREET":"MSIA","PLACES":"MGOMBEZI"},
{"REGION":"SONGWE","POSTCODE":"54204","DISTRICT":"MBOZI","WARD":"MSIA","STREET":"MSIA","PLACES":"IYUNGA"},
{"REGION":"SONGWE","POSTCODE":"54204","DISTRICT":"MBOZI","WARD":"MSIA","STREET":"MSIA","PLACES":"IBANDAWE"},
{"REGION":"SONGWE","POSTCODE":"54204","DISTRICT":"MBOZI","WARD":"MSIA","STREET":"MSIA","PLACES":"UZINJE"},
{"REGION":"SONGWE","POSTCODE":"54204","DISTRICT":"MBOZI","WARD":"MSIA","STREET":"IBEMBWA","PLACES":"IBEMBWA"},
{"REGION":"SONGWE","POSTCODE":"54204","DISTRICT":"MBOZI","WARD":"MSIA","STREET":"IBEMBWA","PLACES":"MAWANGA"},
{"REGION":"SONGWE","POSTCODE":"54204","DISTRICT":"MBOZI","WARD":"MSIA","STREET":"IBEMBWA","PLACES":"MPALAMAWE"},
{"REGION":"SONGWE","POSTCODE":"54204","DISTRICT":"MBOZI","WARD":"MSIA","STREET":"IBEMBWA","PLACES":"IGUNDA"},
{"REGION":"SONGWE","POSTCODE":"54204","DISTRICT":"MBOZI","WARD":"MSIA","STREET":"IGANDUKA","PLACES":"IGANDUKA KATI"},
{"REGION":"SONGWE","POSTCODE":"54204","DISTRICT":"MBOZI","WARD":"MSIA","STREET":"IGANDUKA","PLACES":"BAGAMOYO"},
{"REGION":"SONGWE","POSTCODE":"54204","DISTRICT":"MBOZI","WARD":"MSIA","STREET":"IGANDUKA","PLACES":"MSUMBI"},
{"REGION":"SONGWE","POSTCODE":"54204","DISTRICT":"MBOZI","WARD":"MSIA","STREET":"IGANDUKA","PLACES":"MAGEGE"},
{"REGION":"SONGWE","POSTCODE":"54204","DISTRICT":"MBOZI","WARD":"MSIA","STREET":"WELU I","PLACES":"WELU"},
{"REGION":"SONGWE","POSTCODE":"54204","DISTRICT":"MBOZI","WARD":"MSIA","STREET":"WELU I","PLACES":"NKANA"},
{"REGION":"SONGWE","POSTCODE":"54204","DISTRICT":"MBOZI","WARD":"MSIA","STREET":"WELU I","PLACES":"CHILONGO"},
{"REGION":"SONGWE","POSTCODE":"54205","DISTRICT":"MBOZI","WARD":"IHANDA","STREET":"IHANDA","PLACES":"IHANDA"},
{"REGION":"SONGWE","POSTCODE":"54205","DISTRICT":"MBOZI","WARD":"IHANDA","STREET":"IHANDA","PLACES":"LWIBA"},
{"REGION":"SONGWE","POSTCODE":"54205","DISTRICT":"MBOZI","WARD":"IHANDA","STREET":"IHANDA","PLACES":"MLIMANI"},
{"REGION":"SONGWE","POSTCODE":"54205","DISTRICT":"MBOZI","WARD":"IHANDA","STREET":"IHANDA","PLACES":"MTAKUJA"},
{"REGION":"SONGWE","POSTCODE":"54205","DISTRICT":"MBOZI","WARD":"IHANDA","STREET":"IHANDA","PLACES":"MPANDE"},
{"REGION":"SONGWE","POSTCODE":"54205","DISTRICT":"MBOZI","WARD":"IHANDA","STREET":"MAJENGO","PLACES":"NGUVU KAZI"},
{"REGION":"SONGWE","POSTCODE":"54205","DISTRICT":"MBOZI","WARD":"IHANDA","STREET":"MAJENGO","PLACES":"MAENDELEO"},
{"REGION":"SONGWE","POSTCODE":"54205","DISTRICT":"MBOZI","WARD":"IHANDA","STREET":"MAJENGO","PLACES":"MPAKANI"},
{"REGION":"SONGWE","POSTCODE":"54205","DISTRICT":"MBOZI","WARD":"IHANDA","STREET":"MAJENGO","PLACES":"UPENDO"},
{"REGION":"SONGWE","POSTCODE":"54205","DISTRICT":"MBOZI","WARD":"IHANDA","STREET":"MAJENGO","PLACES":"IZYIKA"},
{"REGION":"SONGWE","POSTCODE":"54205","DISTRICT":"MBOZI","WARD":"IHANDA","STREET":"SUMBALWELA","PLACES":"MTAKUJA"},
{"REGION":"SONGWE","POSTCODE":"54205","DISTRICT":"MBOZI","WARD":"IHANDA","STREET":"SUMBALWELA","PLACES":"SAMBEMBE"},
{"REGION":"SONGWE","POSTCODE":"54205","DISTRICT":"MBOZI","WARD":"IHANDA","STREET":"SUMBALWELA","PLACES":"IZYIKA"},
{"REGION":"SONGWE","POSTCODE":"54205","DISTRICT":"MBOZI","WARD":"IHANDA","STREET":"SUMBALWELA","PLACES":"NG'AMBA"},
{"REGION":"SONGWE","POSTCODE":"54205","DISTRICT":"MBOZI","WARD":"IHANDA","STREET":"SUMBALWELA","PLACES":"MAJI MOTO"},
{"REGION":"SONGWE","POSTCODE":"54205","DISTRICT":"MBOZI","WARD":"IHANDA","STREET":"SUMBALWELA","PLACES":"SAWEYA KATI"},
{"REGION":"SONGWE","POSTCODE":"54205","DISTRICT":"MBOZI","WARD":"IHANDA","STREET":"HANSEKETWA","PLACES":"AZIMIO"},
{"REGION":"SONGWE","POSTCODE":"54205","DISTRICT":"MBOZI","WARD":"IHANDA","STREET":"HANSEKETWA","PLACES":"SONGA MBELE"},
{"REGION":"SONGWE","POSTCODE":"54205","DISTRICT":"MBOZI","WARD":"IHANDA","STREET":"HANSEKETWA","PLACES":"KAYAMBE"},
{"REGION":"SONGWE","POSTCODE":"54205","DISTRICT":"MBOZI","WARD":"IHANDA","STREET":"HANSEKETWA","PLACES":"IHOZYA"},
{"REGION":"SONGWE","POSTCODE":"54205","DISTRICT":"MBOZI","WARD":"IHANDA","STREET":"HANSEKETWA","PLACES":"MWANDAJE"},
{"REGION":"SONGWE","POSTCODE":"54205","DISTRICT":"MBOZI","WARD":"IHANDA","STREET":"HANSEKETWA","PLACES":"MAJENGO"},
{"REGION":"SONGWE","POSTCODE":"54205","DISTRICT":"MBOZI","WARD":"IHANDA","STREET":"HANSEKETWA","PLACES":"HANSEKETWA KATI"},
{"REGION":"SONGWE","POSTCODE":"54205","DISTRICT":"MBOZI","WARD":"IHANDA","STREET":"MALONJI","PLACES":"MALONJI"},
{"REGION":"SONGWE","POSTCODE":"54205","DISTRICT":"MBOZI","WARD":"IHANDA","STREET":"MALONJI","PLACES":"NG'AMBA"},
{"REGION":"SONGWE","POSTCODE":"54205","DISTRICT":"MBOZI","WARD":"IHANDA","STREET":"MALONJI","PLACES":"MANG'ANZO"},
{"REGION":"SONGWE","POSTCODE":"54205","DISTRICT":"MBOZI","WARD":"IHANDA","STREET":"MALONJI","PLACES":"LENGO"},
{"REGION":"SONGWE","POSTCODE":"54205","DISTRICT":"MBOZI","WARD":"IHANDA","STREET":"NANYUNYI","PLACES":"NANYUNYI"},
{"REGION":"SONGWE","POSTCODE":"54205","DISTRICT":"MBOZI","WARD":"IHANDA","STREET":"NANYUNYI","PLACES":"MLAMBWIZI"},
{"REGION":"SONGWE","POSTCODE":"54205","DISTRICT":"MBOZI","WARD":"IHANDA","STREET":"NANYUNYI","PLACES":"MLEMELA"},
{"REGION":"SONGWE","POSTCODE":"54205","DISTRICT":"MBOZI","WARD":"IHANDA","STREET":"NANYUNYI","PLACES":"NAMBWAJI"},
{"REGION":"SONGWE","POSTCODE":"54205","DISTRICT":"MBOZI","WARD":"IHANDA","STREET":"NANYUNYI","PLACES":"KIBAONI"},
{"REGION":"SONGWE","POSTCODE":"54205","DISTRICT":"MBOZI","WARD":"IHANDA","STREET":"SAKAMWELA","PLACES":"LUNGWA"},
{"REGION":"SONGWE","POSTCODE":"54205","DISTRICT":"MBOZI","WARD":"IHANDA","STREET":"SAKAMWELA","PLACES":"ISONGOLE"},
{"REGION":"SONGWE","POSTCODE":"54205","DISTRICT":"MBOZI","WARD":"IHANDA","STREET":"SAKAMWELA","PLACES":"CHIYANGA"},
{"REGION":"SONGWE","POSTCODE":"54205","DISTRICT":"MBOZI","WARD":"IHANDA","STREET":"SAKAMWELA","PLACES":"ICHENJEZYA"},
{"REGION":"SONGWE","POSTCODE":"54205","DISTRICT":"MBOZI","WARD":"IHANDA","STREET":"SAKAMWELA","PLACES":"SONGANBELE A"},
{"REGION":"SONGWE","POSTCODE":"54205","DISTRICT":"MBOZI","WARD":"IHANDA","STREET":"SAKAMWELA","PLACES":"MABATINI"},
{"REGION":"SONGWE","POSTCODE":"54205","DISTRICT":"MBOZI","WARD":"IHANDA","STREET":"SAKAMWELA","PLACES":"SONGAMBELE B"},
{"REGION":"SONGWE","POSTCODE":"54205","DISTRICT":"MBOZI","WARD":"IHANDA","STREET":"SHILANGA","PLACES":"SHILANGA"},
{"REGION":"SONGWE","POSTCODE":"54205","DISTRICT":"MBOZI","WARD":"IHANDA","STREET":"SHILANGA","PLACES":"NTAZU"},
{"REGION":"SONGWE","POSTCODE":"54205","DISTRICT":"MBOZI","WARD":"IHANDA","STREET":"SHILANGA","PLACES":"NAMALEMA"},
{"REGION":"SONGWE","POSTCODE":"54205","DISTRICT":"MBOZI","WARD":"IHANDA","STREET":"SHILANGA","PLACES":"KAWE"},
{"REGION":"SONGWE","POSTCODE":"54205","DISTRICT":"MBOZI","WARD":"IHANDA","STREET":"SHILANGA","PLACES":"SUPU"},
{"REGION":"SONGWE","POSTCODE":"54206","DISTRICT":"MBOZI","WARD":"ISANDULA","STREET":"CHIMBUYA","PLACES":"MAZINGA"},
{"REGION":"SONGWE","POSTCODE":"54206","DISTRICT":"MBOZI","WARD":"ISANDULA","STREET":"CHIMBUYA","PLACES":"MLAMBWIZI"},
{"REGION":"SONGWE","POSTCODE":"54206","DISTRICT":"MBOZI","WARD":"ISANDULA","STREET":"CHIMBUYA","PLACES":"CHIMBUYA"},
{"REGION":"SONGWE","POSTCODE":"54206","DISTRICT":"MBOZI","WARD":"ISANDULA","STREET":"CHIMBUYA","PLACES":"ICHENJEZYA"},
{"REGION":"SONGWE","POSTCODE":"54206","DISTRICT":"MBOZI","WARD":"ISANDULA","STREET":"CHIMBUYA","PLACES":"IBOBI"},
{"REGION":"SONGWE","POSTCODE":"54206","DISTRICT":"MBOZI","WARD":"ISANDULA","STREET":"LUDEWA","PLACES":"MAPOROMOKO"},
{"REGION":"SONGWE","POSTCODE":"54206","DISTRICT":"MBOZI","WARD":"ISANDULA","STREET":"LUDEWA","PLACES":"CHUNYA"},
{"REGION":"SONGWE","POSTCODE":"54206","DISTRICT":"MBOZI","WARD":"ISANDULA","STREET":"LUDEWA","PLACES":"IKINGA"},
{"REGION":"SONGWE","POSTCODE":"54206","DISTRICT":"MBOZI","WARD":"ISANDULA","STREET":"LUDEWA","PLACES":"MTAKUJA"},
{"REGION":"SONGWE","POSTCODE":"54206","DISTRICT":"MBOZI","WARD":"ISANDULA","STREET":"UKWILE","PLACES":"MWEMBE"},
{"REGION":"SONGWE","POSTCODE":"54206","DISTRICT":"MBOZI","WARD":"ISANDULA","STREET":"UKWILE","PLACES":"UKWILE"},
{"REGION":"SONGWE","POSTCODE":"54206","DISTRICT":"MBOZI","WARD":"ISANDULA","STREET":"UKWILE","PLACES":"SONGAMBELE"},
{"REGION":"SONGWE","POSTCODE":"54206","DISTRICT":"MBOZI","WARD":"ISANDULA","STREET":"UKWILE","PLACES":"MWANDAJE"},
{"REGION":"SONGWE","POSTCODE":"54206","DISTRICT":"MBOZI","WARD":"ISANDULA","STREET":"CHIZUMBI","PLACES":"MOVA"},
{"REGION":"SONGWE","POSTCODE":"54206","DISTRICT":"MBOZI","WARD":"ISANDULA","STREET":"CHIZUMBI","PLACES":"IYALAWE"},
{"REGION":"SONGWE","POSTCODE":"54206","DISTRICT":"MBOZI","WARD":"ISANDULA","STREET":"CHIZUMBI","PLACES":"IBABA"},
{"REGION":"SONGWE","POSTCODE":"54206","DISTRICT":"MBOZI","WARD":"ISANDULA","STREET":"MPONELA","PLACES":"SONGAMBELE"},
{"REGION":"SONGWE","POSTCODE":"54206","DISTRICT":"MBOZI","WARD":"ISANDULA","STREET":"MPONELA","PLACES":"MBUGANI"},
{"REGION":"SONGWE","POSTCODE":"54206","DISTRICT":"MBOZI","WARD":"ISANDULA","STREET":"MPONELA","PLACES":"MABATINI"},
{"REGION":"SONGWE","POSTCODE":"54206","DISTRICT":"MBOZI","WARD":"ISANDULA","STREET":"MPONELA","PLACES":"NAMASANGU"},
{"REGION":"SONGWE","POSTCODE":"54207","DISTRICT":"MBOZI","WARD":"NYIMBILI","STREET":"NYIMBILI","PLACES":"NYIMBILI KATI"},
{"REGION":"SONGWE","POSTCODE":"54207","DISTRICT":"MBOZI","WARD":"NYIMBILI","STREET":"NYIMBILI","PLACES":"ILENGO"},
{"REGION":"SONGWE","POSTCODE":"54207","DISTRICT":"MBOZI","WARD":"NYIMBILI","STREET":"NYIMBILI","PLACES":"MABULA"},
{"REGION":"SONGWE","POSTCODE":"54207","DISTRICT":"MBOZI","WARD":"NYIMBILI","STREET":"NYIMBILI","PLACES":"MLOWO"},
{"REGION":"SONGWE","POSTCODE":"54207","DISTRICT":"MBOZI","WARD":"NYIMBILI","STREET":"NYIMBILI","PLACES":"SHIDUNDA"},
{"REGION":"SONGWE","POSTCODE":"54207","DISTRICT":"MBOZI","WARD":"NYIMBILI","STREET":"MPANDA","PLACES":"MPANDA KATI"},
{"REGION":"SONGWE","POSTCODE":"54207","DISTRICT":"MBOZI","WARD":"NYIMBILI","STREET":"MPANDA","PLACES":"ISEWE"},
{"REGION":"SONGWE","POSTCODE":"54207","DISTRICT":"MBOZI","WARD":"NYIMBILI","STREET":"MPANDA","PLACES":"SHITITI"},
{"REGION":"SONGWE","POSTCODE":"54207","DISTRICT":"MBOZI","WARD":"NYIMBILI","STREET":"MPANDA","PLACES":"NZOVU"},
{"REGION":"SONGWE","POSTCODE":"54207","DISTRICT":"MBOZI","WARD":"NYIMBILI","STREET":"MPANDA","PLACES":"NYANYI"},
{"REGION":"SONGWE","POSTCODE":"54207","DISTRICT":"MBOZI","WARD":"NYIMBILI","STREET":"MASANGULA","PLACES":"MSANGULA KATI"},
{"REGION":"SONGWE","POSTCODE":"54207","DISTRICT":"MBOZI","WARD":"NYIMBILI","STREET":"MASANGULA","PLACES":"SHINDUSWA"},
{"REGION":"SONGWE","POSTCODE":"54207","DISTRICT":"MBOZI","WARD":"NYIMBILI","STREET":"MASANGULA","PLACES":"MAKWELA"},
{"REGION":"SONGWE","POSTCODE":"54207","DISTRICT":"MBOZI","WARD":"NYIMBILI","STREET":"MASANGULA","PLACES":"NALAWA"},
{"REGION":"SONGWE","POSTCODE":"54207","DISTRICT":"MBOZI","WARD":"NYIMBILI","STREET":"MASANGULA","PLACES":"UDINDE"},
{"REGION":"SONGWE","POSTCODE":"54207","DISTRICT":"MBOZI","WARD":"NYIMBILI","STREET":"HANTESYA","PLACES":"HANTESYA KATI"},
{"REGION":"SONGWE","POSTCODE":"54207","DISTRICT":"MBOZI","WARD":"NYIMBILI","STREET":"HANTESYA","PLACES":"IYUMBA"},
{"REGION":"SONGWE","POSTCODE":"54207","DISTRICT":"MBOZI","WARD":"NYIMBILI","STREET":"HANTESYA","PLACES":"MAKWEMBA"},
{"REGION":"SONGWE","POSTCODE":"54207","DISTRICT":"MBOZI","WARD":"NYIMBILI","STREET":"HANTESYA","PLACES":"SHISI"},
{"REGION":"SONGWE","POSTCODE":"54208","DISTRICT":"MBOZI","WARD":"HALUNGU","STREET":"HALUNGU","PLACES":"HALUNGU MJINI"},
{"REGION":"SONGWE","POSTCODE":"54208","DISTRICT":"MBOZI","WARD":"HALUNGU","STREET":"HALUNGU","PLACES":"NZIJE A"},
{"REGION":"SONGWE","POSTCODE":"54208","DISTRICT":"MBOZI","WARD":"HALUNGU","STREET":"HALUNGU","PLACES":"NZIJE B"},
{"REGION":"SONGWE","POSTCODE":"54208","DISTRICT":"MBOZI","WARD":"HALUNGU","STREET":"HALUNGU","PLACES":"MAKAMBINI"},
{"REGION":"SONGWE","POSTCODE":"54208","DISTRICT":"MBOZI","WARD":"HALUNGU","STREET":"HALAMBO","PLACES":"MBWIGA"},
{"REGION":"SONGWE","POSTCODE":"54208","DISTRICT":"MBOZI","WARD":"HALUNGU","STREET":"HALAMBO","PLACES":"MPALWA"},
{"REGION":"SONGWE","POSTCODE":"54208","DISTRICT":"MBOZI","WARD":"HALUNGU","STREET":"HALAMBO","PLACES":"HANGAMBA"},
{"REGION":"SONGWE","POSTCODE":"54208","DISTRICT":"MBOZI","WARD":"HALUNGU","STREET":"HALAMBO","PLACES":"MAWANGA"},
{"REGION":"SONGWE","POSTCODE":"54208","DISTRICT":"MBOZI","WARD":"HALUNGU","STREET":"HALAMBO","PLACES":"NUMBWE"},
{"REGION":"SONGWE","POSTCODE":"54208","DISTRICT":"MBOZI","WARD":"HALUNGU","STREET":"HALAMBO","PLACES":"MWANYA"},
{"REGION":"SONGWE","POSTCODE":"54208","DISTRICT":"MBOZI","WARD":"HALUNGU","STREET":"HAMPANGALA","PLACES":"MALONGOTI"},
{"REGION":"SONGWE","POSTCODE":"54208","DISTRICT":"MBOZI","WARD":"HALUNGU","STREET":"HAMPANGALA","PLACES":"NAMATENDA"},
{"REGION":"SONGWE","POSTCODE":"54208","DISTRICT":"MBOZI","WARD":"HALUNGU","STREET":"HAMPANGALA","PLACES":"MSAMVU"},
{"REGION":"SONGWE","POSTCODE":"54208","DISTRICT":"MBOZI","WARD":"HALUNGU","STREET":"HAMPANGALA","PLACES":"IHOMA"},
{"REGION":"SONGWE","POSTCODE":"54208","DISTRICT":"MBOZI","WARD":"HALUNGU","STREET":"HAMPANGALA","PLACES":"ISINIZYA"},
{"REGION":"SONGWE","POSTCODE":"54208","DISTRICT":"MBOZI","WARD":"HALUNGU","STREET":"HAMPANGALA","PLACES":"ILONGA"},
{"REGION":"SONGWE","POSTCODE":"54208","DISTRICT":"MBOZI","WARD":"HALUNGU","STREET":"HAMPANGALA","PLACES":"YOWELA"},
{"REGION":"SONGWE","POSTCODE":"54208","DISTRICT":"MBOZI","WARD":"HALUNGU","STREET":"LWATI","PLACES":"BAGAMOYO"},
{"REGION":"SONGWE","POSTCODE":"54208","DISTRICT":"MBOZI","WARD":"HALUNGU","STREET":"LWATI","PLACES":"SHIKWALE"},
{"REGION":"SONGWE","POSTCODE":"54208","DISTRICT":"MBOZI","WARD":"HALUNGU","STREET":"LWATI","PLACES":"LWATI KATI"},
{"REGION":"SONGWE","POSTCODE":"54208","DISTRICT":"MBOZI","WARD":"HALUNGU","STREET":"LWATI","PLACES":"IVULULU"},
{"REGION":"SONGWE","POSTCODE":"54208","DISTRICT":"MBOZI","WARD":"HALUNGU","STREET":"LWATI","PLACES":"MANDENGA"},
{"REGION":"SONGWE","POSTCODE":"54208","DISTRICT":"MBOZI","WARD":"HALUNGU","STREET":"SHASYA","PLACES":"NACHILESYA"},
{"REGION":"SONGWE","POSTCODE":"54208","DISTRICT":"MBOZI","WARD":"HALUNGU","STREET":"SHASYA","PLACES":"ITAGO"},
{"REGION":"SONGWE","POSTCODE":"54208","DISTRICT":"MBOZI","WARD":"HALUNGU","STREET":"SHASYA","PLACES":"IBUCHILA"},
{"REGION":"SONGWE","POSTCODE":"54208","DISTRICT":"MBOZI","WARD":"HALUNGU","STREET":"SHASYA","PLACES":"MANG'ANZO"},
{"REGION":"SONGWE","POSTCODE":"54208","DISTRICT":"MBOZI","WARD":"HALUNGU","STREET":"SHASYA","PLACES":"SHASYA KATI"},
{"REGION":"SONGWE","POSTCODE":"54208","DISTRICT":"MBOZI","WARD":"HALUNGU","STREET":"SHASYA","PLACES":"NAMKWENDE"},
{"REGION":"SONGWE","POSTCODE":"54208","DISTRICT":"MBOZI","WARD":"HALUNGU","STREET":"SASENGA","PLACES":"SASENGA"},
{"REGION":"SONGWE","POSTCODE":"54208","DISTRICT":"MBOZI","WARD":"HALUNGU","STREET":"SASENGA","PLACES":"ILANGALI"},
{"REGION":"SONGWE","POSTCODE":"54208","DISTRICT":"MBOZI","WARD":"HALUNGU","STREET":"SASENGA","PLACES":"KALISHI"},
{"REGION":"SONGWE","POSTCODE":"54209","DISTRICT":"MBOZI","WARD":"MLANGALI","STREET":"MLANGALI","PLACES":"MLANGALI"},
{"REGION":"SONGWE","POSTCODE":"54209","DISTRICT":"MBOZI","WARD":"MLANGALI","STREET":"MLANGALI","PLACES":"UNDALI"},
{"REGION":"SONGWE","POSTCODE":"54209","DISTRICT":"MBOZI","WARD":"MLANGALI","STREET":"MLANGALI","PLACES":"UVIMBIZYA"},
{"REGION":"SONGWE","POSTCODE":"54209","DISTRICT":"MBOZI","WARD":"MLANGALI","STREET":"MLANGALI","PLACES":"UNYALA"},
{"REGION":"SONGWE","POSTCODE":"54209","DISTRICT":"MBOZI","WARD":"MLANGALI","STREET":"MLANGALI","PLACES":"MAHENJE"},
{"REGION":"SONGWE","POSTCODE":"54209","DISTRICT":"MBOZI","WARD":"MLANGALI","STREET":"NDOLEZI","PLACES":"NDOLEZI A"},
{"REGION":"SONGWE","POSTCODE":"54209","DISTRICT":"MBOZI","WARD":"MLANGALI","STREET":"NDOLEZI","PLACES":"NDOLEZI B"},
{"REGION":"SONGWE","POSTCODE":"54209","DISTRICT":"MBOZI","WARD":"MLANGALI","STREET":"NDOLEZI","PLACES":"SAGULE"},
{"REGION":"SONGWE","POSTCODE":"54209","DISTRICT":"MBOZI","WARD":"MLANGALI","STREET":"NDOLEZI","PLACES":"SIPUKA"},
{"REGION":"SONGWE","POSTCODE":"54209","DISTRICT":"MBOZI","WARD":"MLANGALI","STREET":"NDOLEZI","PLACES":"MTAKUJA"},
{"REGION":"SONGWE","POSTCODE":"54209","DISTRICT":"MBOZI","WARD":"MLANGALI","STREET":"NDOLEZI","PLACES":"ISELA"},
{"REGION":"SONGWE","POSTCODE":"54209","DISTRICT":"MBOZI","WARD":"MLANGALI","STREET":"NDOLEZI","PLACES":"IPOLA"},
{"REGION":"SONGWE","POSTCODE":"54209","DISTRICT":"MBOZI","WARD":"MLANGALI","STREET":"MBEWE","PLACES":"IYOMBO"},
{"REGION":"SONGWE","POSTCODE":"54209","DISTRICT":"MBOZI","WARD":"MLANGALI","STREET":"MBEWE","PLACES":"ILULA"},
{"REGION":"SONGWE","POSTCODE":"54209","DISTRICT":"MBOZI","WARD":"MLANGALI","STREET":"MBEWE","PLACES":"INTESYA"},
{"REGION":"SONGWE","POSTCODE":"54209","DISTRICT":"MBOZI","WARD":"MLANGALI","STREET":"MBEWE","PLACES":"IDUVULA"},
{"REGION":"SONGWE","POSTCODE":"54209","DISTRICT":"MBOZI","WARD":"MLANGALI","STREET":"MBEWE","PLACES":"MPANGALA"},
{"REGION":"SONGWE","POSTCODE":"54209","DISTRICT":"MBOZI","WARD":"MLANGALI","STREET":"LUKULULU","PLACES":"LUKULULU"},
{"REGION":"SONGWE","POSTCODE":"54209","DISTRICT":"MBOZI","WARD":"MLANGALI","STREET":"LUKULULU","PLACES":"ITEMBA"},
{"REGION":"SONGWE","POSTCODE":"54209","DISTRICT":"MBOZI","WARD":"MLANGALI","STREET":"LUKULULU","PLACES":"SHAMWA"},
{"REGION":"SONGWE","POSTCODE":"54209","DISTRICT":"MBOZI","WARD":"MLANGALI","STREET":"LUKULULU","PLACES":"MWANDAJE"},
{"REGION":"SONGWE","POSTCODE":"54209","DISTRICT":"MBOZI","WARD":"MLANGALI","STREET":"LUKULULU","PLACES":"ITAWA"},
{"REGION":"SONGWE","POSTCODE":"54209","DISTRICT":"MBOZI","WARD":"MLANGALI","STREET":"LUKULULU","PLACES":"VILULUTA"},
{"REGION":"SONGWE","POSTCODE":"54209","DISTRICT":"MBOZI","WARD":"MLANGALI","STREET":"SHAJI","PLACES":"SHAJI"},
{"REGION":"SONGWE","POSTCODE":"54209","DISTRICT":"MBOZI","WARD":"MLANGALI","STREET":"SHAJI","PLACES":"MASOKO"},
{"REGION":"SONGWE","POSTCODE":"54209","DISTRICT":"MBOZI","WARD":"MLANGALI","STREET":"SHAJI","PLACES":"HAWIGA"},
{"REGION":"SONGWE","POSTCODE":"54209","DISTRICT":"MBOZI","WARD":"MLANGALI","STREET":"SHAJI","PLACES":"DOGO"},
{"REGION":"SONGWE","POSTCODE":"54209","DISTRICT":"MBOZI","WARD":"MLANGALI","STREET":"SHAJI","PLACES":"UTEMBELE"},
{"REGION":"SONGWE","POSTCODE":"54209","DISTRICT":"MBOZI","WARD":"MLANGALI","STREET":"SHAJI","PLACES":"SEKEWE"},
{"REGION":"SONGWE","POSTCODE":"54209","DISTRICT":"MBOZI","WARD":"MLANGALI","STREET":"SHOMOLA","PLACES":"SHOMOLA"},
{"REGION":"SONGWE","POSTCODE":"54209","DISTRICT":"MBOZI","WARD":"MLANGALI","STREET":"SHOMOLA","PLACES":"NSENGA"},
{"REGION":"SONGWE","POSTCODE":"54209","DISTRICT":"MBOZI","WARD":"MLANGALI","STREET":"SHOMOLA","PLACES":"IBOYO"},
{"REGION":"SONGWE","POSTCODE":"54210","DISTRICT":"MBOZI","WARD":"IYULA","STREET":"IYULA","PLACES":"IYULA A"},
{"REGION":"SONGWE","POSTCODE":"54210","DISTRICT":"MBOZI","WARD":"IYULA","STREET":"IYULA","PLACES":"CHAWAMA"},
{"REGION":"SONGWE","POSTCODE":"54210","DISTRICT":"MBOZI","WARD":"IYULA","STREET":"IYULA","PLACES":"ILEYA"},
{"REGION":"SONGWE","POSTCODE":"54210","DISTRICT":"MBOZI","WARD":"IYULA","STREET":"IYULA","PLACES":"NANYUKI"},
{"REGION":"SONGWE","POSTCODE":"54210","DISTRICT":"MBOZI","WARD":"IYULA","STREET":"HATETE","PLACES":"HATETE"},
{"REGION":"SONGWE","POSTCODE":"54210","DISTRICT":"MBOZI","WARD":"IYULA","STREET":"HATETE","PLACES":"MKULA"},
{"REGION":"SONGWE","POSTCODE":"54210","DISTRICT":"MBOZI","WARD":"IYULA","STREET":"HATETE","PLACES":"IKUKA"},
{"REGION":"SONGWE","POSTCODE":"54210","DISTRICT":"MBOZI","WARD":"IYULA","STREET":"HATETE","PLACES":"HASALE"},
{"REGION":"SONGWE","POSTCODE":"54210","DISTRICT":"MBOZI","WARD":"IYULA","STREET":"HATETE","PLACES":"SANTANGU"},
{"REGION":"SONGWE","POSTCODE":"54210","DISTRICT":"MBOZI","WARD":"IYULA","STREET":"IYULA B","PLACES":"JOSHO"},
{"REGION":"SONGWE","POSTCODE":"54210","DISTRICT":"MBOZI","WARD":"IYULA","STREET":"IYULA B","PLACES":"FOREST"},
{"REGION":"SONGWE","POSTCODE":"54210","DISTRICT":"MBOZI","WARD":"IYULA","STREET":"IYULA B","PLACES":"ITUMBA"},
{"REGION":"SONGWE","POSTCODE":"54210","DISTRICT":"MBOZI","WARD":"IYULA","STREET":"IYULA B","PLACES":"MTAKUJA"},
{"REGION":"SONGWE","POSTCODE":"54210","DISTRICT":"MBOZI","WARD":"IYULA","STREET":"IYULA B","PLACES":"MAENDELEO"},
{"REGION":"SONGWE","POSTCODE":"54210","DISTRICT":"MBOZI","WARD":"IYULA","STREET":"IPYANA","PLACES":"MAKAO MAKUU"},
{"REGION":"SONGWE","POSTCODE":"54210","DISTRICT":"MBOZI","WARD":"IYULA","STREET":"IPYANA","PLACES":"SADAMU"},
{"REGION":"SONGWE","POSTCODE":"54210","DISTRICT":"MBOZI","WARD":"IYULA","STREET":"IPYANA","PLACES":"MAJIMOTO"},
{"REGION":"SONGWE","POSTCODE":"54210","DISTRICT":"MBOZI","WARD":"IYULA","STREET":"IPYANA","PLACES":"NYEMBE"},
{"REGION":"SONGWE","POSTCODE":"54210","DISTRICT":"MBOZI","WARD":"IYULA","STREET":"IPYANA","PLACES":"NSANYA"},
{"REGION":"SONGWE","POSTCODE":"54210","DISTRICT":"MBOZI","WARD":"IYULA","STREET":"IGALE","PLACES":"UNYENYEMBE"},
{"REGION":"SONGWE","POSTCODE":"54210","DISTRICT":"MBOZI","WARD":"IYULA","STREET":"IGALE","PLACES":"MSIA"},
{"REGION":"SONGWE","POSTCODE":"54210","DISTRICT":"MBOZI","WARD":"IYULA","STREET":"IGALE","PLACES":"SHILUNGU"},
{"REGION":"SONGWE","POSTCODE":"54210","DISTRICT":"MBOZI","WARD":"IYULA","STREET":"IGALE","PLACES":"LALASIMBA"},
{"REGION":"SONGWE","POSTCODE":"54210","DISTRICT":"MBOZI","WARD":"IYULA","STREET":"IGALE","PLACES":"NSWIGA"},
{"REGION":"SONGWE","POSTCODE":"54210","DISTRICT":"MBOZI","WARD":"IYULA","STREET":"IGALE","PLACES":"IZIWILA"},
{"REGION":"SONGWE","POSTCODE":"54211","DISTRICT":"MBOZI","WARD":"MYOVIZI","STREET":"MAHENJE","PLACES":"HASALE"},
{"REGION":"SONGWE","POSTCODE":"54211","DISTRICT":"MBOZI","WARD":"MYOVIZI","STREET":"MAHENJE","PLACES":"SHAMBWE"},
{"REGION":"SONGWE","POSTCODE":"54211","DISTRICT":"MBOZI","WARD":"MYOVIZI","STREET":"MAHENJE","PLACES":"SELE"},
{"REGION":"SONGWE","POSTCODE":"54211","DISTRICT":"MBOZI","WARD":"MYOVIZI","STREET":"MAHENJE","PLACES":"NJIA PANDA"},
{"REGION":"SONGWE","POSTCODE":"54211","DISTRICT":"MBOZI","WARD":"MYOVIZI","STREET":"MAHENJE","PLACES":"ILONGA"},
{"REGION":"SONGWE","POSTCODE":"54211","DISTRICT":"MBOZI","WARD":"MYOVIZI","STREET":"ICHESA","PLACES":"ICHESA KATI"},
{"REGION":"SONGWE","POSTCODE":"54211","DISTRICT":"MBOZI","WARD":"MYOVIZI","STREET":"ICHESA","PLACES":"HATELELE"},
{"REGION":"SONGWE","POSTCODE":"54211","DISTRICT":"MBOZI","WARD":"MYOVIZI","STREET":"ICHESA","PLACES":"UPENDO"},
{"REGION":"SONGWE","POSTCODE":"54211","DISTRICT":"MBOZI","WARD":"MYOVIZI","STREET":"ICHESA","PLACES":"MAPOROMOKO"},
{"REGION":"SONGWE","POSTCODE":"54211","DISTRICT":"MBOZI","WARD":"MYOVIZI","STREET":"ICHESA","PLACES":"BELU"},
{"REGION":"SONGWE","POSTCODE":"54211","DISTRICT":"MBOZI","WARD":"MYOVIZI","STREET":"ICHESA","PLACES":"NANSYANI"},
{"REGION":"SONGWE","POSTCODE":"54211","DISTRICT":"MBOZI","WARD":"MYOVIZI","STREET":"MYOVIZI","PLACES":"MYOVIZI KATI"},
{"REGION":"SONGWE","POSTCODE":"54211","DISTRICT":"MBOZI","WARD":"MYOVIZI","STREET":"MYOVIZI","PLACES":"MWONGOZO"},
{"REGION":"SONGWE","POSTCODE":"54211","DISTRICT":"MBOZI","WARD":"MYOVIZI","STREET":"MYOVIZI","PLACES":"AZIMIO"},
{"REGION":"SONGWE","POSTCODE":"54211","DISTRICT":"MBOZI","WARD":"MYOVIZI","STREET":"MYOVIZI","PLACES":"ITEKA"},
{"REGION":"SONGWE","POSTCODE":"54211","DISTRICT":"MBOZI","WARD":"MYOVIZI","STREET":"MBULU","PLACES":"MBULU KATI"},
{"REGION":"SONGWE","POSTCODE":"54211","DISTRICT":"MBOZI","WARD":"MYOVIZI","STREET":"MBULU","PLACES":"IYALAWE"},
{"REGION":"SONGWE","POSTCODE":"54211","DISTRICT":"MBOZI","WARD":"MYOVIZI","STREET":"MBULU","PLACES":"ILINDI"},
{"REGION":"SONGWE","POSTCODE":"54211","DISTRICT":"MBOZI","WARD":"MYOVIZI","STREET":"MBULU","PLACES":"ISONGOLE"},
{"REGION":"SONGWE","POSTCODE":"54211","DISTRICT":"MBOZI","WARD":"MYOVIZI","STREET":"MBULU","PLACES":"HASALE"},
{"REGION":"SONGWE","POSTCODE":"54211","DISTRICT":"MBOZI","WARD":"MYOVIZI","STREET":"MBULU","PLACES":"ILANGALI"},
{"REGION":"SONGWE","POSTCODE":"54211","DISTRICT":"MBOZI","WARD":"MYOVIZI","STREET":"IGUNDA","PLACES":"GHALANI"},
{"REGION":"SONGWE","POSTCODE":"54211","DISTRICT":"MBOZI","WARD":"MYOVIZI","STREET":"IGUNDA","PLACES":"MJI MWEMA"},
{"REGION":"SONGWE","POSTCODE":"54211","DISTRICT":"MBOZI","WARD":"MYOVIZI","STREET":"IGUNDA","PLACES":"NAKUNGURU"},
{"REGION":"SONGWE","POSTCODE":"54211","DISTRICT":"MBOZI","WARD":"MYOVIZI","STREET":"IGUNDA","PLACES":"MIANZINI"},
{"REGION":"SONGWE","POSTCODE":"54211","DISTRICT":"MBOZI","WARD":"MYOVIZI","STREET":"IGUNDA","PLACES":"NSEKEWE"},
{"REGION":"SONGWE","POSTCODE":"54211","DISTRICT":"MBOZI","WARD":"MYOVIZI","STREET":"IVUGULA","PLACES":"SHOGO KATI"},
{"REGION":"SONGWE","POSTCODE":"54211","DISTRICT":"MBOZI","WARD":"MYOVIZI","STREET":"IVUGULA","PLACES":"MPEMBE"},
{"REGION":"SONGWE","POSTCODE":"54211","DISTRICT":"MBOZI","WARD":"MYOVIZI","STREET":"IVUGULA","PLACES":"HATETE"},
{"REGION":"SONGWE","POSTCODE":"54211","DISTRICT":"MBOZI","WARD":"MYOVIZI","STREET":"IVUGULA","PLACES":"MWANDAJE"},
{"REGION":"SONGWE","POSTCODE":"54211","DISTRICT":"MBOZI","WARD":"MYOVIZI","STREET":"IVUGULA","PLACES":"IVUGULA JUU"},
{"REGION":"SONGWE","POSTCODE":"54211","DISTRICT":"MBOZI","WARD":"MYOVIZI","STREET":"IVUGULA","PLACES":"HALINGA"},
{"REGION":"SONGWE","POSTCODE":"54212","DISTRICT":"MBOZI","WARD":"RUANDA","STREET":"LUMBILA","PLACES":"LUMBILA KATI"},
{"REGION":"SONGWE","POSTCODE":"54212","DISTRICT":"MBOZI","WARD":"RUANDA","STREET":"LUMBILA","PLACES":"LUDADULA"},
{"REGION":"SONGWE","POSTCODE":"54212","DISTRICT":"MBOZI","WARD":"RUANDA","STREET":"LUMBILA","PLACES":"IVWANGWA"},
{"REGION":"SONGWE","POSTCODE":"54212","DISTRICT":"MBOZI","WARD":"RUANDA","STREET":"LUMBILA","PLACES":"LUWEMBA"},
{"REGION":"SONGWE","POSTCODE":"54212","DISTRICT":"MBOZI","WARD":"RUANDA","STREET":"LUMBILA","PLACES":"NKAHATU"},
{"REGION":"SONGWE","POSTCODE":"54212","DISTRICT":"MBOZI","WARD":"RUANDA","STREET":"LUMBILA","PLACES":"ISENTE"},
{"REGION":"SONGWE","POSTCODE":"54212","DISTRICT":"MBOZI","WARD":"RUANDA","STREET":"WELU II","PLACES":"WELU KATI"},
{"REGION":"SONGWE","POSTCODE":"54212","DISTRICT":"MBOZI","WARD":"RUANDA","STREET":"WELU II","PLACES":"IFINGANO"},
{"REGION":"SONGWE","POSTCODE":"54212","DISTRICT":"MBOZI","WARD":"RUANDA","STREET":"WELU II","PLACES":"LUGONYO"},
{"REGION":"SONGWE","POSTCODE":"54212","DISTRICT":"MBOZI","WARD":"RUANDA","STREET":"WELU II","PLACES":"IWAWA"},
{"REGION":"SONGWE","POSTCODE":"54212","DISTRICT":"MBOZI","WARD":"RUANDA","STREET":"IHOWA","PLACES":"ITEWE"},
{"REGION":"SONGWE","POSTCODE":"54212","DISTRICT":"MBOZI","WARD":"RUANDA","STREET":"IHOWA","PLACES":"NJIA PANDA"},
{"REGION":"SONGWE","POSTCODE":"54212","DISTRICT":"MBOZI","WARD":"RUANDA","STREET":"IHOWA","PLACES":"SHONDA"},
{"REGION":"SONGWE","POSTCODE":"54212","DISTRICT":"MBOZI","WARD":"RUANDA","STREET":"IHOWA","PLACES":"KILABUNI KATI"},
{"REGION":"SONGWE","POSTCODE":"54212","DISTRICT":"MBOZI","WARD":"RUANDA","STREET":"IHOWA","PLACES":"SHULENI"},
{"REGION":"SONGWE","POSTCODE":"54212","DISTRICT":"MBOZI","WARD":"RUANDA","STREET":"IHOWA","PLACES":"IYANGA"},
{"REGION":"SONGWE","POSTCODE":"54212","DISTRICT":"MBOZI","WARD":"RUANDA","STREET":"IHOWA","PLACES":"SHILANGA"},
{"REGION":"SONGWE","POSTCODE":"54212","DISTRICT":"MBOZI","WARD":"RUANDA","STREET":"IDIBILA","PLACES":"MAJENGO"},
{"REGION":"SONGWE","POSTCODE":"54212","DISTRICT":"MBOZI","WARD":"RUANDA","STREET":"IDIBILA","PLACES":"MABUBA"},
{"REGION":"SONGWE","POSTCODE":"54212","DISTRICT":"MBOZI","WARD":"RUANDA","STREET":"IDIBILA","PLACES":"NAMLEA"},
{"REGION":"SONGWE","POSTCODE":"54212","DISTRICT":"MBOZI","WARD":"RUANDA","STREET":"IDIBILA","PLACES":"NASHUNGA"},
{"REGION":"SONGWE","POSTCODE":"54212","DISTRICT":"MBOZI","WARD":"RUANDA","STREET":"IDIBILA","PLACES":"IVUGULA"},
{"REGION":"SONGWE","POSTCODE":"54213","DISTRICT":"MBOZI","WARD":"ITAKA","STREET":"INSANI","PLACES":"IZIMBWE"},
{"REGION":"SONGWE","POSTCODE":"54213","DISTRICT":"MBOZI","WARD":"ITAKA","STREET":"INSANI","PLACES":"MCHESE"},
{"REGION":"SONGWE","POSTCODE":"54213","DISTRICT":"MBOZI","WARD":"ITAKA","STREET":"INSANI","PLACES":"NAMWAYA"},
{"REGION":"SONGWE","POSTCODE":"54213","DISTRICT":"MBOZI","WARD":"ITAKA","STREET":"INSANI","PLACES":"MWANDAJE"},
{"REGION":"SONGWE","POSTCODE":"54213","DISTRICT":"MBOZI","WARD":"ITAKA","STREET":"INSANI","PLACES":"UWANISHE"},
{"REGION":"SONGWE","POSTCODE":"54213","DISTRICT":"MBOZI","WARD":"ITAKA","STREET":"MBOJE","PLACES":"NKASI"},
{"REGION":"SONGWE","POSTCODE":"54213","DISTRICT":"MBOZI","WARD":"ITAKA","STREET":"MBOJE","PLACES":"TOGAMWENDO"},
{"REGION":"SONGWE","POSTCODE":"54213","DISTRICT":"MBOZI","WARD":"ITAKA","STREET":"MBOJE","PLACES":"MBOJE"},
{"REGION":"SONGWE","POSTCODE":"54213","DISTRICT":"MBOZI","WARD":"ITAKA","STREET":"MBOJE","PLACES":"HAZEMBE"},
{"REGION":"SONGWE","POSTCODE":"54213","DISTRICT":"MBOZI","WARD":"ITAKA","STREET":"MBOJE","PLACES":"IBULA"},
{"REGION":"SONGWE","POSTCODE":"54213","DISTRICT":"MBOZI","WARD":"ITAKA","STREET":"ITAKA","PLACES":"ITAKA MJINI"},
{"REGION":"SONGWE","POSTCODE":"54213","DISTRICT":"MBOZI","WARD":"ITAKA","STREET":"ITAKA","PLACES":"MASEWE"},
{"REGION":"SONGWE","POSTCODE":"54213","DISTRICT":"MBOZI","WARD":"ITAKA","STREET":"ITAKA","PLACES":"SHIHANDO"},
{"REGION":"SONGWE","POSTCODE":"54213","DISTRICT":"MBOZI","WARD":"ITAKA","STREET":"ITAKA","PLACES":"LUNYEGO"},
{"REGION":"SONGWE","POSTCODE":"54213","DISTRICT":"MBOZI","WARD":"ITAKA","STREET":"HAMWELO","PLACES":"MPANTILA"},
{"REGION":"SONGWE","POSTCODE":"54213","DISTRICT":"MBOZI","WARD":"ITAKA","STREET":"HAMWELO","PLACES":"NYEMBE"},
{"REGION":"SONGWE","POSTCODE":"54213","DISTRICT":"MBOZI","WARD":"ITAKA","STREET":"HAMWELO","PLACES":"MAPOGORO"},
{"REGION":"SONGWE","POSTCODE":"54213","DISTRICT":"MBOZI","WARD":"ITAKA","STREET":"HAMWELO","PLACES":"ISUKAMAWELA"},
{"REGION":"SONGWE","POSTCODE":"54213","DISTRICT":"MBOZI","WARD":"ITAKA","STREET":"HAMWELO","PLACES":"NZIGE"},
{"REGION":"SONGWE","POSTCODE":"54213","DISTRICT":"MBOZI","WARD":"ITAKA","STREET":"HAMWELO","PLACES":"NJOOMUONE"},
{"REGION":"SONGWE","POSTCODE":"54213","DISTRICT":"MBOZI","WARD":"ITAKA","STREET":"ISELA","PLACES":"ISELA"},
{"REGION":"SONGWE","POSTCODE":"54213","DISTRICT":"MBOZI","WARD":"ITAKA","STREET":"ISELA","PLACES":"IYUNGA"},
{"REGION":"SONGWE","POSTCODE":"54213","DISTRICT":"MBOZI","WARD":"ITAKA","STREET":"ISELA","PLACES":"HAROLI"},
{"REGION":"SONGWE","POSTCODE":"54213","DISTRICT":"MBOZI","WARD":"ITAKA","STREET":"ISELA","PLACES":"GEZAULOLE"},
{"REGION":"SONGWE","POSTCODE":"54213","DISTRICT":"MBOZI","WARD":"ITAKA","STREET":"ITENTULA","PLACES":"STENDI"},
{"REGION":"SONGWE","POSTCODE":"54213","DISTRICT":"MBOZI","WARD":"ITAKA","STREET":"ITENTULA","PLACES":"SUMBAWANGA"},
{"REGION":"SONGWE","POSTCODE":"54213","DISTRICT":"MBOZI","WARD":"ITAKA","STREET":"ITENTULA","PLACES":"NANKANZA"},
{"REGION":"SONGWE","POSTCODE":"54213","DISTRICT":"MBOZI","WARD":"ITAKA","STREET":"ITENTULA","PLACES":"LIWELYAMANGA"},
{"REGION":"SONGWE","POSTCODE":"54213","DISTRICT":"MBOZI","WARD":"ITAKA","STREET":"ITEWE","PLACES":"ITEWE"},
{"REGION":"SONGWE","POSTCODE":"54213","DISTRICT":"MBOZI","WARD":"ITAKA","STREET":"ITEWE","PLACES":"GEZAULOLE"},
{"REGION":"SONGWE","POSTCODE":"54213","DISTRICT":"MBOZI","WARD":"ITAKA","STREET":"ITEWE","PLACES":"MAJENGO"},
{"REGION":"SONGWE","POSTCODE":"54213","DISTRICT":"MBOZI","WARD":"ITAKA","STREET":"ITEWE","PLACES":"KALOLENI"},
{"REGION":"SONGWE","POSTCODE":"54213","DISTRICT":"MBOZI","WARD":"ITAKA","STREET":"ITEWE","PLACES":"MGANGA"},
{"REGION":"SONGWE","POSTCODE":"54214","DISTRICT":"MBOZI","WARD":"NAMBINZO","STREET":"NKANGA","PLACES":"GHALANI"},
{"REGION":"SONGWE","POSTCODE":"54214","DISTRICT":"MBOZI","WARD":"NAMBINZO","STREET":"NKANGA","PLACES":"MAKAMBINI"},
{"REGION":"SONGWE","POSTCODE":"54214","DISTRICT":"MBOZI","WARD":"NAMBINZO","STREET":"NKANGA","PLACES":"SHILANGA"},
{"REGION":"SONGWE","POSTCODE":"54214","DISTRICT":"MBOZI","WARD":"NAMBINZO","STREET":"NKANGA","PLACES":"IPENYA"},
{"REGION":"SONGWE","POSTCODE":"54214","DISTRICT":"MBOZI","WARD":"NAMBINZO","STREET":"MWANJELWA","PLACES":"MAJENGO"},
{"REGION":"SONGWE","POSTCODE":"54214","DISTRICT":"MBOZI","WARD":"NAMBINZO","STREET":"MWANJELWA","PLACES":"NALUSANYA"},
{"REGION":"SONGWE","POSTCODE":"54214","DISTRICT":"MBOZI","WARD":"NAMBINZO","STREET":"MWANJELWA","PLACES":"MWANJELWA"},
{"REGION":"SONGWE","POSTCODE":"54214","DISTRICT":"MBOZI","WARD":"NAMBINZO","STREET":"MWANJELWA","PLACES":"SUMBA MAJEMBE"},
{"REGION":"SONGWE","POSTCODE":"54214","DISTRICT":"MBOZI","WARD":"NAMBINZO","STREET":"ISENZANYA","PLACES":"UDONDA"},
{"REGION":"SONGWE","POSTCODE":"54214","DISTRICT":"MBOZI","WARD":"NAMBINZO","STREET":"ISENZANYA","PLACES":"USUANGALA"},
{"REGION":"SONGWE","POSTCODE":"54214","DISTRICT":"MBOZI","WARD":"NAMBINZO","STREET":"ISENZANYA","PLACES":"MKUKWE"},
{"REGION":"SONGWE","POSTCODE":"54214","DISTRICT":"MBOZI","WARD":"NAMBINZO","STREET":"ISENZANYA","PLACES":"ISENZANYA KATI"},
{"REGION":"SONGWE","POSTCODE":"54214","DISTRICT":"MBOZI","WARD":"NAMBINZO","STREET":"MANYARA","PLACES":"MANYARA KATI"},
{"REGION":"SONGWE","POSTCODE":"54214","DISTRICT":"MBOZI","WARD":"NAMBINZO","STREET":"MANYARA","PLACES":"PATAMELA"},
{"REGION":"SONGWE","POSTCODE":"54214","DISTRICT":"MBOZI","WARD":"NAMBINZO","STREET":"MANYARA","PLACES":"HAZUMBI"},
{"REGION":"SONGWE","POSTCODE":"54214","DISTRICT":"MBOZI","WARD":"NAMBINZO","STREET":"MANYARA","PLACES":"UPENDO"},
{"REGION":"SONGWE","POSTCODE":"54214","DISTRICT":"MBOZI","WARD":"NAMBINZO","STREET":"NAMBINZO","PLACES":"NAMBINZO KATI"},
{"REGION":"SONGWE","POSTCODE":"54214","DISTRICT":"MBOZI","WARD":"NAMBINZO","STREET":"NAMBINZO","PLACES":"MKUKWE"},
{"REGION":"SONGWE","POSTCODE":"54214","DISTRICT":"MBOZI","WARD":"NAMBINZO","STREET":"NAMBINZO","PLACES":"NAMANGA"},
{"REGION":"SONGWE","POSTCODE":"54214","DISTRICT":"MBOZI","WARD":"NAMBINZO","STREET":"NAMBINZO","PLACES":"MWALA"},
{"REGION":"SONGWE","POSTCODE":"54214","DISTRICT":"MBOZI","WARD":"NAMBINZO","STREET":"NAMBINZO","PLACES":"IWEZYA"},
{"REGION":"SONGWE","POSTCODE":"54214","DISTRICT":"MBOZI","WARD":"NAMBINZO","STREET":"UTAMBALILA","PLACES":"HUDUMA"},
{"REGION":"SONGWE","POSTCODE":"54214","DISTRICT":"MBOZI","WARD":"NAMBINZO","STREET":"UTAMBALILA","PLACES":"MWANSAPILA"},
{"REGION":"SONGWE","POSTCODE":"54214","DISTRICT":"MBOZI","WARD":"NAMBINZO","STREET":"UTAMBALILA","PLACES":"TENDAMEMA"},
{"REGION":"SONGWE","POSTCODE":"54214","DISTRICT":"MBOZI","WARD":"NAMBINZO","STREET":"UTAMBALILA","PLACES":"MAGAMBA"},
{"REGION":"SONGWE","POSTCODE":"54214","DISTRICT":"MBOZI","WARD":"NAMBINZO","STREET":"UTAMBALILA","PLACES":"ILALANGULU"},
{"REGION":"SONGWE","POSTCODE":"54214","DISTRICT":"MBOZI","WARD":"NAMBINZO","STREET":"SHITUNGURU","PLACES":"SHITUNGURU KATI"},
{"REGION":"SONGWE","POSTCODE":"54214","DISTRICT":"MBOZI","WARD":"NAMBINZO","STREET":"SHITUNGURU","PLACES":"NANYANYA"},
{"REGION":"SONGWE","POSTCODE":"54214","DISTRICT":"MBOZI","WARD":"NAMBINZO","STREET":"SHITUNGURU","PLACES":"SHIHANDO"},
{"REGION":"SONGWE","POSTCODE":"54214","DISTRICT":"MBOZI","WARD":"NAMBINZO","STREET":"SHITUNGURU","PLACES":"LUPANGO"},
{"REGION":"SONGWE","POSTCODE":"54214","DISTRICT":"MBOZI","WARD":"NAMBINZO","STREET":"IPAPA","PLACES":"NAMPANJI"},
{"REGION":"SONGWE","POSTCODE":"54214","DISTRICT":"MBOZI","WARD":"NAMBINZO","STREET":"IPAPA","PLACES":"MBUGANI"},
{"REGION":"SONGWE","POSTCODE":"54214","DISTRICT":"MBOZI","WARD":"NAMBINZO","STREET":"IPAPA","PLACES":"MANTIVWANA"},
{"REGION":"SONGWE","POSTCODE":"54214","DISTRICT":"MBOZI","WARD":"NAMBINZO","STREET":"IPAPA","PLACES":"IPAPA"},
{"REGION":"SONGWE","POSTCODE":"54214","DISTRICT":"MBOZI","WARD":"NAMBINZO","STREET":"IPAPA","PLACES":"HASALE"},
{"REGION":"SONGWE","POSTCODE":"54215","DISTRICT":"MBOZI","WARD":"NANYALA","STREET":"NANYALA","PLACES":"NANYALA KATI"},
{"REGION":"SONGWE","POSTCODE":"54215","DISTRICT":"MBOZI","WARD":"NANYALA","STREET":"NANYALA","PLACES":"KAWETELE"},
{"REGION":"SONGWE","POSTCODE":"54215","DISTRICT":"MBOZI","WARD":"NANYALA","STREET":"NANYALA","PLACES":"MAULA"},
{"REGION":"SONGWE","POSTCODE":"54215","DISTRICT":"MBOZI","WARD":"NANYALA","STREET":"NANYALA","PLACES":"IFUFU"},
{"REGION":"SONGWE","POSTCODE":"54215","DISTRICT":"MBOZI","WARD":"NANYALA","STREET":"NANYALA","PLACES":"IWANGA"},
{"REGION":"SONGWE","POSTCODE":"54215","DISTRICT":"MBOZI","WARD":"NANYALA","STREET":"NANYALA","PLACES":"UDINDE"},
{"REGION":"SONGWE","POSTCODE":"54215","DISTRICT":"MBOZI","WARD":"NANYALA","STREET":"NANYALA","PLACES":"MAJI YA MOTO"},
{"REGION":"SONGWE","POSTCODE":"54215","DISTRICT":"MBOZI","WARD":"NANYALA","STREET":"SENJELE","PLACES":"NANDAGO"},
{"REGION":"SONGWE","POSTCODE":"54215","DISTRICT":"MBOZI","WARD":"NANYALA","STREET":"SENJELE","PLACES":"SHITUNGULU"},
{"REGION":"SONGWE","POSTCODE":"54215","DISTRICT":"MBOZI","WARD":"NANYALA","STREET":"SENJELE","PLACES":"SHIKULA"},
{"REGION":"SONGWE","POSTCODE":"54215","DISTRICT":"MBOZI","WARD":"NANYALA","STREET":"SENJELE","PLACES":"IDIBILA"},
{"REGION":"SONGWE","POSTCODE":"54215","DISTRICT":"MBOZI","WARD":"NANYALA","STREET":"NAMLONGA","PLACES":"IWANGA"},
{"REGION":"SONGWE","POSTCODE":"54215","DISTRICT":"MBOZI","WARD":"NANYALA","STREET":"NAMLONGA","PLACES":"IFINGANO"},
{"REGION":"SONGWE","POSTCODE":"54215","DISTRICT":"MBOZI","WARD":"NANYALA","STREET":"NAMLONGA","PLACES":"LUGONYO"},
{"REGION":"SONGWE","POSTCODE":"54215","DISTRICT":"MBOZI","WARD":"NANYALA","STREET":"NAMLONGA","PLACES":"MALEMA SONGWE"},
{"REGION":"SONGWE","POSTCODE":"54215","DISTRICT":"MBOZI","WARD":"NANYALA","STREET":"SONGWE","PLACES":"MPIKA"},
{"REGION":"SONGWE","POSTCODE":"54215","DISTRICT":"MBOZI","WARD":"NANYALA","STREET":"SONGWE","PLACES":"MANYALA"},
{"REGION":"SONGWE","POSTCODE":"54215","DISTRICT":"MBOZI","WARD":"NANYALA","STREET":"SONGWE","PLACES":"MLANGALI"},
{"REGION":"SONGWE","POSTCODE":"54215","DISTRICT":"MBOZI","WARD":"NANYALA","STREET":"SONGWE","PLACES":"MAJENGO"},
{"REGION":"SONGWE","POSTCODE":"54215","DISTRICT":"MBOZI","WARD":"NANYALA","STREET":"SONGWE","PLACES":"SOGEA"},
{"REGION":"SONGWE","POSTCODE":"54215","DISTRICT":"MBOZI","WARD":"NANYALA","STREET":"LUSUNGO","PLACES":"LONJELA"},
{"REGION":"SONGWE","POSTCODE":"54215","DISTRICT":"MBOZI","WARD":"NANYALA","STREET":"LUSUNGO","PLACES":"IHOMBE"},
{"REGION":"SONGWE","POSTCODE":"54215","DISTRICT":"MBOZI","WARD":"NANYALA","STREET":"LUSUNGO","PLACES":"LUHOMANO"},
{"REGION":"SONGWE","POSTCODE":"54215","DISTRICT":"MBOZI","WARD":"NANYALA","STREET":"LUSUNGO","PLACES":"NTIKA"},
{"REGION":"SONGWE","POSTCODE":"54216","DISTRICT":"MBOZI","WARD":"IPUNGA","STREET":"IPUNGA","PLACES":"ISUNKA"},
{"REGION":"SONGWE","POSTCODE":"54216","DISTRICT":"MBOZI","WARD":"IPUNGA","STREET":"IPUNGA","PLACES":"NAKONDE"},
{"REGION":"SONGWE","POSTCODE":"54216","DISTRICT":"MBOZI","WARD":"IPUNGA","STREET":"IPUNGA","PLACES":"CHILULUMO"},
{"REGION":"SONGWE","POSTCODE":"54216","DISTRICT":"MBOZI","WARD":"IPUNGA","STREET":"IPUNGA","PLACES":"NAZARETI"},
{"REGION":"SONGWE","POSTCODE":"54216","DISTRICT":"MBOZI","WARD":"IPUNGA","STREET":"IPUNGA","PLACES":"CHIYANGA"},
{"REGION":"SONGWE","POSTCODE":"54216","DISTRICT":"MBOZI","WARD":"IPUNGA","STREET":"IPUNGA","PLACES":"MPAKANI"},
{"REGION":"SONGWE","POSTCODE":"54216","DISTRICT":"MBOZI","WARD":"IPUNGA","STREET":"IPUNGA","PLACES":"MTAKUJA"},
{"REGION":"SONGWE","POSTCODE":"54216","DISTRICT":"MBOZI","WARD":"IPUNGA","STREET":"IPAPA","PLACES":"MAWENI"},
{"REGION":"SONGWE","POSTCODE":"54216","DISTRICT":"MBOZI","WARD":"IPUNGA","STREET":"IPAPA","PLACES":"HANSALE"},
{"REGION":"SONGWE","POSTCODE":"54216","DISTRICT":"MBOZI","WARD":"IPUNGA","STREET":"IPAPA","PLACES":"IPAPA KATI"},
{"REGION":"SONGWE","POSTCODE":"54216","DISTRICT":"MBOZI","WARD":"IPUNGA","STREET":"IPAPA","PLACES":"IWUNJI"},
{"REGION":"SONGWE","POSTCODE":"54216","DISTRICT":"MBOZI","WARD":"IPUNGA","STREET":"IPAPA","PLACES":"SAMBANDOLA"},
{"REGION":"SONGWE","POSTCODE":"54216","DISTRICT":"MBOZI","WARD":"IPUNGA","STREET":"IPAPA","PLACES":"SHANDAMU"},
{"REGION":"SONGWE","POSTCODE":"54216","DISTRICT":"MBOZI","WARD":"IPUNGA","STREET":"IPANZYA","PLACES":"IPANZYA KATI"},
{"REGION":"SONGWE","POSTCODE":"54216","DISTRICT":"MBOZI","WARD":"IPUNGA","STREET":"IPANZYA","PLACES":"INYELA"},
{"REGION":"SONGWE","POSTCODE":"54216","DISTRICT":"MBOZI","WARD":"IPUNGA","STREET":"IPANZYA","PLACES":"KILIMAMPIMBI"},
{"REGION":"SONGWE","POSTCODE":"54216","DISTRICT":"MBOZI","WARD":"IPUNGA","STREET":"IPANZYA","PLACES":"MSULO"},
{"REGION":"SONGWE","POSTCODE":"54216","DISTRICT":"MBOZI","WARD":"IPUNGA","STREET":"IPANZYA","PLACES":"TOGAMWENDO"},
{"REGION":"SONGWE","POSTCODE":"54216","DISTRICT":"MBOZI","WARD":"IPUNGA","STREET":"MPELA","PLACES":"MPELA"},
{"REGION":"SONGWE","POSTCODE":"54216","DISTRICT":"MBOZI","WARD":"IPUNGA","STREET":"MPELA","PLACES":"LEGEZA MWENDO"},
{"REGION":"SONGWE","POSTCODE":"54216","DISTRICT":"MBOZI","WARD":"IPUNGA","STREET":"MPELA","PLACES":"MIBULANI"},
{"REGION":"SONGWE","POSTCODE":"54217","DISTRICT":"MBOZI","WARD":"BARA","STREET":"BARA","PLACES":"BARA MJINI"},
{"REGION":"SONGWE","POSTCODE":"54217","DISTRICT":"MBOZI","WARD":"BARA","STREET":"BARA","PLACES":"CHANG'OMBE"},
{"REGION":"SONGWE","POSTCODE":"54217","DISTRICT":"MBOZI","WARD":"BARA","STREET":"BARA","PLACES":"USAFWANI"},
{"REGION":"SONGWE","POSTCODE":"54217","DISTRICT":"MBOZI","WARD":"BARA","STREET":"BARA","PLACES":"BARA KATI"},
{"REGION":"SONGWE","POSTCODE":"54217","DISTRICT":"MBOZI","WARD":"BARA","STREET":"BARA","PLACES":"ITANDULA"},
{"REGION":"SONGWE","POSTCODE":"54217","DISTRICT":"MBOZI","WARD":"BARA","STREET":"MANINGA","PLACES":"MANINGA"},
{"REGION":"SONGWE","POSTCODE":"54217","DISTRICT":"MBOZI","WARD":"BARA","STREET":"MANINGA","PLACES":"IGOLOLA"},
{"REGION":"SONGWE","POSTCODE":"54217","DISTRICT":"MBOZI","WARD":"BARA","STREET":"MANINGA","PLACES":"NGOMANI"},
{"REGION":"SONGWE","POSTCODE":"54217","DISTRICT":"MBOZI","WARD":"BARA","STREET":"TWINZI","PLACES":"NAZWANGA"},
{"REGION":"SONGWE","POSTCODE":"54217","DISTRICT":"MBOZI","WARD":"BARA","STREET":"TWINZI","PLACES":"TWINZI"},
{"REGION":"SONGWE","POSTCODE":"54217","DISTRICT":"MBOZI","WARD":"BARA","STREET":"TWINZI","PLACES":"MAHOMA"},
{"REGION":"SONGWE","POSTCODE":"54217","DISTRICT":"MBOZI","WARD":"BARA","STREET":"TWINZI","PLACES":"MTAKUJA"},
{"REGION":"SONGWE","POSTCODE":"54217","DISTRICT":"MBOZI","WARD":"BARA","STREET":"TWINZI","PLACES":"RAHALEO"},
{"REGION":"SONGWE","POSTCODE":"54217","DISTRICT":"MBOZI","WARD":"BARA","STREET":"HANGOMBA","PLACES":"HANGOMBA MJINI"},
{"REGION":"SONGWE","POSTCODE":"54217","DISTRICT":"MBOZI","WARD":"BARA","STREET":"HANGOMBA","PLACES":"ITANDULA"},
{"REGION":"SONGWE","POSTCODE":"54217","DISTRICT":"MBOZI","WARD":"BARA","STREET":"HANGOMBA","PLACES":"ISECHE"},
{"REGION":"SONGWE","POSTCODE":"54217","DISTRICT":"MBOZI","WARD":"BARA","STREET":"HANGOMBA","PLACES":"IYULA"},
{"REGION":"SONGWE","POSTCODE":"54217","DISTRICT":"MBOZI","WARD":"BARA","STREET":"HANGOMBA","PLACES":"SHAMBWE"},
{"REGION":"SONGWE","POSTCODE":"54217","DISTRICT":"MBOZI","WARD":"BARA","STREET":"IKONYA","PLACES":"SHAMNDA"},
{"REGION":"SONGWE","POSTCODE":"54217","DISTRICT":"MBOZI","WARD":"BARA","STREET":"IKONYA","PLACES":"IKONYA A"},
{"REGION":"SONGWE","POSTCODE":"54217","DISTRICT":"MBOZI","WARD":"BARA","STREET":"IKONYA","PLACES":"LUWEMBA"},
{"REGION":"SONGWE","POSTCODE":"54217","DISTRICT":"MBOZI","WARD":"BARA","STREET":"IKONYA","PLACES":"IKONYA B"},
{"REGION":"SONGWE","POSTCODE":"54217","DISTRICT":"MBOZI","WARD":"BARA","STREET":"IKONYA","PLACES":"ISANGU"},
{"REGION":"SONGWE","POSTCODE":"54217","DISTRICT":"MBOZI","WARD":"BARA","STREET":"IPOROTO","PLACES":"SHAMBWE"},
{"REGION":"SONGWE","POSTCODE":"54217","DISTRICT":"MBOZI","WARD":"BARA","STREET":"IPOROTO","PLACES":"IPOLOTO KATI"},
{"REGION":"SONGWE","POSTCODE":"54217","DISTRICT":"MBOZI","WARD":"BARA","STREET":"IPOROTO","PLACES":"ILANZI"},
{"REGION":"SONGWE","POSTCODE":"54217","DISTRICT":"MBOZI","WARD":"BARA","STREET":"IPOROTO","PLACES":"MALENJE"},
{"REGION":"SONGWE","POSTCODE":"54218","DISTRICT":"MBOZI","WARD":"ILOLO","STREET":"ILOLO","PLACES":"IKONONGO"},
{"REGION":"SONGWE","POSTCODE":"54218","DISTRICT":"MBOZI","WARD":"ILOLO","STREET":"ILOLO","PLACES":"LAMI"},
{"REGION":"SONGWE","POSTCODE":"54218","DISTRICT":"MBOZI","WARD":"ILOLO","STREET":"ILOLO","PLACES":"ILOLO SHULENI"},
{"REGION":"SONGWE","POSTCODE":"54218","DISTRICT":"MBOZI","WARD":"ILOLO","STREET":"ILOLO","PLACES":"MIGOMBANI"},
{"REGION":"SONGWE","POSTCODE":"54218","DISTRICT":"MBOZI","WARD":"ILOLO","STREET":"ILOLO","PLACES":"MWANGUKU"},
{"REGION":"SONGWE","POSTCODE":"54218","DISTRICT":"MBOZI","WARD":"ILOLO","STREET":"ILOLO","PLACES":"KANISANI"},
{"REGION":"SONGWE","POSTCODE":"54218","DISTRICT":"MBOZI","WARD":"ILOLO","STREET":"ILOLO","PLACES":"IGWALA"},
{"REGION":"SONGWE","POSTCODE":"54219","DISTRICT":"MBOZI","WARD":"ICHENJEZYA","STREET":"ICHENJEZYA","PLACES":"MBUGANI"},
{"REGION":"SONGWE","POSTCODE":"54219","DISTRICT":"MBOZI","WARD":"ICHENJEZYA","STREET":"ICHENJEZYA","PLACES":"MPAKANI"},
{"REGION":"SONGWE","POSTCODE":"54219","DISTRICT":"MBOZI","WARD":"ICHENJEZYA","STREET":"ICHENJEZYA","PLACES":"ICHENJEZYA SHULENI"},
{"REGION":"SONGWE","POSTCODE":"54219","DISTRICT":"MBOZI","WARD":"ICHENJEZYA","STREET":"ICHENJEZYA","PLACES":"IPANGA"},
{"REGION":"SONGWE","POSTCODE":"54219","DISTRICT":"MBOZI","WARD":"ICHENJEZYA","STREET":"ICHENJEZYA","PLACES":"MASAKI"},
{"REGION":"SONGWE","POSTCODE":"54220","DISTRICT":"MBOZI","WARD":"HASANGA","STREET":"HASANGA","PLACES":"HASANGA"},
{"REGION":"SONGWE","POSTCODE":"54220","DISTRICT":"MBOZI","WARD":"HASANGA","STREET":"HASANGA","PLACES":"MAJENGO"},
{"REGION":"SONGWE","POSTCODE":"54220","DISTRICT":"MBOZI","WARD":"HASANGA","STREET":"HASANGA","PLACES":"NAMBA WANI"},
{"REGION":"SONGWE","POSTCODE":"54220","DISTRICT":"MBOZI","WARD":"HASANGA","STREET":"HASANGA","PLACES":"ICHENJEZYA"},
{"REGION":"SONGWE","POSTCODE":"54220","DISTRICT":"MBOZI","WARD":"HASANGA","STREET":"HASANGA","PLACES":"UDINDE"},
{"REGION":"SONGWE","POSTCODE":"54220","DISTRICT":"MBOZI","WARD":"HASANGA","STREET":"HASANGA","PLACES":"NANGONDO"},
{"REGION":"SONGWE","POSTCODE":"54220","DISTRICT":"MBOZI","WARD":"HASANGA","STREET":"HASANGA","PLACES":"ITAGHA"},
{"REGION":"SONGWE","POSTCODE":"54220","DISTRICT":"MBOZI","WARD":"HASANGA","STREET":"HASANGA","PLACES":"MIANZINI"},
{"REGION":"SONGWE","POSTCODE":"54220","DISTRICT":"MBOZI","WARD":"HASANGA","STREET":"HASANGA","PLACES":"ISANGU"},
{"REGION":"SONGWE","POSTCODE":"54220","DISTRICT":"MBOZI","WARD":"HASANGA","STREET":"HASANGA","PLACES":"IYELA"},
{"REGION":"SONGWE","POSTCODE":"54220","DISTRICT":"MBOZI","WARD":"HASANGA","STREET":"HASANGA","PLACES":"LONDONI"},
{"REGION":"SONGWE","POSTCODE":"54220","DISTRICT":"MBOZI","WARD":"HASANGA","STREET":"HASANGA","PLACES":"SHANKO"},
{"REGION":"SONGWE","POSTCODE":"54220","DISTRICT":"MBOZI","WARD":"HASANGA","STREET":"HASANGA","PLACES":"LUPEMBE"},
{"REGION":"SONGWE","POSTCODE":"54220","DISTRICT":"MBOZI","WARD":"HASANGA","STREET":"HASANGA","PLACES":"MTAKUJA"},
{"REGION":"SONGWE","POSTCODE":"54221","DISTRICT":"MBOZI","WARD":"HASAMBA","STREET":"HASAMBA","PLACES":"IYENGA"},
{"REGION":"SONGWE","POSTCODE":"54221","DISTRICT":"MBOZI","WARD":"HASAMBA","STREET":"HASAMBA","PLACES":"ILYIKA"},
{"REGION":"SONGWE","POSTCODE":"54221","DISTRICT":"MBOZI","WARD":"HASAMBA","STREET":"HASAMBA","PLACES":"MIGOMBANI"},
{"REGION":"SONGWE","POSTCODE":"54221","DISTRICT":"MBOZI","WARD":"HASAMBA","STREET":"HASAMBA","PLACES":"NSENYA"},
{"REGION":"SONGWE","POSTCODE":"54221","DISTRICT":"MBOZI","WARD":"HASAMBA","STREET":"HASAMBA","PLACES":"HAZERU \"A\""},
{"REGION":"SONGWE","POSTCODE":"54221","DISTRICT":"MBOZI","WARD":"HASAMBA","STREET":"HASAMBA","PLACES":"HAZERU \"B\""},
{"REGION":"SONGWE","POSTCODE":"54221","DISTRICT":"MBOZI","WARD":"HASAMBA","STREET":"HASAMBA","PLACES":"CHIGOMA"},
{"REGION":"SONGWE","POSTCODE":"54221","DISTRICT":"MBOZI","WARD":"HASAMBA","STREET":"HASAMBA","PLACES":"SHINANDALA"},
{"REGION":"SONGWE","POSTCODE":"54221","DISTRICT":"MBOZI","WARD":"HASAMBA","STREET":"HASAMBA","PLACES":"KAMFICHENI"},
{"REGION":"SONGWE","POSTCODE":"54222","DISTRICT":"MBOZI","WARD":"ISANSA","STREET":"ISANSA","PLACES":"ISANSA KATI"},
{"REGION":"SONGWE","POSTCODE":"54222","DISTRICT":"MBOZI","WARD":"ISANSA","STREET":"ISANSA","PLACES":"IWELA"},
{"REGION":"SONGWE","POSTCODE":"54222","DISTRICT":"MBOZI","WARD":"ISANSA","STREET":"ISANSA","PLACES":"LUONGA"},
{"REGION":"SONGWE","POSTCODE":"54222","DISTRICT":"MBOZI","WARD":"ISANSA","STREET":"ISANSA","PLACES":"ILANGALI"},
{"REGION":"SONGWE","POSTCODE":"54222","DISTRICT":"MBOZI","WARD":"ISANSA","STREET":"ISOWEZYA","PLACES":"ISOWEZYA"},
{"REGION":"SONGWE","POSTCODE":"54222","DISTRICT":"MBOZI","WARD":"ISANSA","STREET":"ISOWEZYA","PLACES":"MSOWELO"},
{"REGION":"SONGWE","POSTCODE":"54222","DISTRICT":"MBOZI","WARD":"ISANSA","STREET":"ISOWEZYA","PLACES":"WANISHE"},
{"REGION":"SONGWE","POSTCODE":"54222","DISTRICT":"MBOZI","WARD":"ISANSA","STREET":"ISOWEZYA","PLACES":"ZWALO"},
{"REGION":"SONGWE","POSTCODE":"54222","DISTRICT":"MBOZI","WARD":"ISANSA","STREET":"ISOWEZYA","PLACES":"IWINDI"},
{"REGION":"SONGWE","POSTCODE":"54222","DISTRICT":"MBOZI","WARD":"ISANSA","STREET":"LUNGWA","PLACES":"HANGOMBA"},
{"REGION":"SONGWE","POSTCODE":"54222","DISTRICT":"MBOZI","WARD":"ISANSA","STREET":"LUNGWA","PLACES":"HANSULU"},
{"REGION":"SONGWE","POSTCODE":"54222","DISTRICT":"MBOZI","WARD":"ISANSA","STREET":"LUNGWA","PLACES":"LUONGA"},
{"REGION":"SONGWE","POSTCODE":"54222","DISTRICT":"MBOZI","WARD":"ISANSA","STREET":"LUNGWA","PLACES":"MALENJE"},
{"REGION":"SONGWE","POSTCODE":"54222","DISTRICT":"MBOZI","WARD":"ISANSA","STREET":"NANSAMA","PLACES":"USUNJE"},
{"REGION":"SONGWE","POSTCODE":"54222","DISTRICT":"MBOZI","WARD":"ISANSA","STREET":"NANSAMA","PLACES":"ILANZI"},
{"REGION":"SONGWE","POSTCODE":"54222","DISTRICT":"MBOZI","WARD":"ISANSA","STREET":"NANSAMA","PLACES":"MWANJELWA"},
{"REGION":"SONGWE","POSTCODE":"54222","DISTRICT":"MBOZI","WARD":"ISANSA","STREET":"NANSAMA","PLACES":"NASAMA KATI A"},
{"REGION":"SONGWE","POSTCODE":"54222","DISTRICT":"MBOZI","WARD":"ISANSA","STREET":"NANSAMA","PLACES":"MSENSE"},
{"REGION":"SONGWE","POSTCODE":"54222","DISTRICT":"MBOZI","WARD":"ISANSA","STREET":"NANSAMA","PLACES":"NANSAMA KATI B"},
{"REGION":"SONGWE","POSTCODE":"54222","DISTRICT":"MBOZI","WARD":"ISANSA","STREET":"MPITO","PLACES":"MPITO KATI A"},
{"REGION":"SONGWE","POSTCODE":"54222","DISTRICT":"MBOZI","WARD":"ISANSA","STREET":"MPITO","PLACES":"MBWAJI"},
{"REGION":"SONGWE","POSTCODE":"54222","DISTRICT":"MBOZI","WARD":"ISANSA","STREET":"MPITO","PLACES":"NSAHALA"},
{"REGION":"SONGWE","POSTCODE":"54222","DISTRICT":"MBOZI","WARD":"ISANSA","STREET":"MPITO","PLACES":"SHENJE"},
{"REGION":"SONGWE","POSTCODE":"54222","DISTRICT":"MBOZI","WARD":"ISANSA","STREET":"MPITO","PLACES":"MPITO KATI B"},
{"REGION":"SONGWE","POSTCODE":"54222","DISTRICT":"MBOZI","WARD":"ISANSA","STREET":"MPITO","PLACES":"MAWE"},
{"REGION":"SONGWE","POSTCODE":"54223","DISTRICT":"MBOZI","WARD":"SHIWINGA","STREET":"SHIWINGA","PLACES":"UZYIKA"},
{"REGION":"SONGWE","POSTCODE":"54223","DISTRICT":"MBOZI","WARD":"SHIWINGA","STREET":"SHIWINGA","PLACES":"MALENJE"},
{"REGION":"SONGWE","POSTCODE":"54223","DISTRICT":"MBOZI","WARD":"SHIWINGA","STREET":"SHIWINGA","PLACES":"MAZIMBO"},
{"REGION":"SONGWE","POSTCODE":"54223","DISTRICT":"MBOZI","WARD":"SHIWINGA","STREET":"SHIWINGA","PLACES":"NANKWITWA"},
{"REGION":"SONGWE","POSTCODE":"54223","DISTRICT":"MBOZI","WARD":"SHIWINGA","STREET":"SHIWINGA","PLACES":"NTUNGWA"},
{"REGION":"SONGWE","POSTCODE":"54223","DISTRICT":"MBOZI","WARD":"SHIWINGA","STREET":"SHIWINGA","PLACES":"UNYANYEMBE"},
{"REGION":"SONGWE","POSTCODE":"54223","DISTRICT":"MBOZI","WARD":"SHIWINGA","STREET":"IWEZI","PLACES":"IWEZI KATI"},
{"REGION":"SONGWE","POSTCODE":"54223","DISTRICT":"MBOZI","WARD":"SHIWINGA","STREET":"IWEZI","PLACES":"IWILU"},
{"REGION":"SONGWE","POSTCODE":"54223","DISTRICT":"MBOZI","WARD":"SHIWINGA","STREET":"IWEZI","PLACES":"NAHANCHALA"},
{"REGION":"SONGWE","POSTCODE":"54223","DISTRICT":"MBOZI","WARD":"SHIWINGA","STREET":"IWEZI","PLACES":"NAMSAKELI"},
{"REGION":"SONGWE","POSTCODE":"54223","DISTRICT":"MBOZI","WARD":"SHIWINGA","STREET":"IWEZI","PLACES":"MWANTA"},
{"REGION":"SONGWE","POSTCODE":"54223","DISTRICT":"MBOZI","WARD":"SHIWINGA","STREET":"HATELELE","PLACES":"NYELYA"},
{"REGION":"SONGWE","POSTCODE":"54223","DISTRICT":"MBOZI","WARD":"SHIWINGA","STREET":"HATELELE","PLACES":"ISYALAMAGAZI"},
{"REGION":"SONGWE","POSTCODE":"54223","DISTRICT":"MBOZI","WARD":"SHIWINGA","STREET":"HATELELE","PLACES":"MAZIMBO"},
{"REGION":"SONGWE","POSTCODE":"54223","DISTRICT":"MBOZI","WARD":"SHIWINGA","STREET":"HATELELE","PLACES":"NAKULA"},
{"REGION":"SONGWE","POSTCODE":"54223","DISTRICT":"MBOZI","WARD":"SHIWINGA","STREET":"HATELELE","PLACES":"HATELELE KIJIJINI"},
{"REGION":"SONGWE","POSTCODE":"54223","DISTRICT":"MBOZI","WARD":"SHIWINGA","STREET":"MAKUA","PLACES":"MAKUA"},
{"REGION":"SONGWE","POSTCODE":"54223","DISTRICT":"MBOZI","WARD":"SHIWINGA","STREET":"MAKUA","PLACES":"ILOLO"},
{"REGION":"SONGWE","POSTCODE":"54223","DISTRICT":"MBOZI","WARD":"SHIWINGA","STREET":"MAKUA","PLACES":"IBULA"},
{"REGION":"SONGWE","POSTCODE":"54224","DISTRICT":"MBOZI","WARD":"ITUMPI","STREET":"ITUMPI","PLACES":"ITUMPI KATI"},
{"REGION":"SONGWE","POSTCODE":"54224","DISTRICT":"MBOZI","WARD":"ITUMPI","STREET":"ITUMPI","PLACES":"IGANDA"},
{"REGION":"SONGWE","POSTCODE":"54224","DISTRICT":"MBOZI","WARD":"ITUMPI","STREET":"ITUMPI","PLACES":"IWAGAMOYO"},
{"REGION":"SONGWE","POSTCODE":"54224","DISTRICT":"MBOZI","WARD":"ITUMPI","STREET":"ITUMPI","PLACES":"KALENJE"},
{"REGION":"SONGWE","POSTCODE":"54224","DISTRICT":"MBOZI","WARD":"ITUMPI","STREET":"ITUMPI","PLACES":"SHILANGA"},
{"REGION":"SONGWE","POSTCODE":"54224","DISTRICT":"MBOZI","WARD":"ITUMPI","STREET":"ITUMPI","PLACES":"ISANGU"},
{"REGION":"SONGWE","POSTCODE":"54224","DISTRICT":"MBOZI","WARD":"ITUMPI","STREET":"SAMBEWE","PLACES":"SAMBEWE"},
{"REGION":"SONGWE","POSTCODE":"54224","DISTRICT":"MBOZI","WARD":"ITUMPI","STREET":"SAMBEWE","PLACES":"IGANYA"},
{"REGION":"SONGWE","POSTCODE":"54224","DISTRICT":"MBOZI","WARD":"ITUMPI","STREET":"SAMBEWE","PLACES":"IWENJE"},
{"REGION":"SONGWE","POSTCODE":"54224","DISTRICT":"MBOZI","WARD":"ITUMPI","STREET":"SAMBEWE","PLACES":"SILANGA"},
{"REGION":"SONGWE","POSTCODE":"54224","DISTRICT":"MBOZI","WARD":"ITUMPI","STREET":"SAMBEWE","PLACES":"MTAKUJA"},
{"REGION":"SONGWE","POSTCODE":"54224","DISTRICT":"MBOZI","WARD":"ITUMPI","STREET":"ILEYA","PLACES":"MYOMBONI"},
{"REGION":"SONGWE","POSTCODE":"54224","DISTRICT":"MBOZI","WARD":"ITUMPI","STREET":"ILEYA","PLACES":"ULANDA"},
{"REGION":"SONGWE","POSTCODE":"54224","DISTRICT":"MBOZI","WARD":"ITUMPI","STREET":"ILEYA","PLACES":"SEJELELA"},
{"REGION":"SONGWE","POSTCODE":"54224","DISTRICT":"MBOZI","WARD":"ITUMPI","STREET":"ILEYA","PLACES":"ILEYA KATI"},
{"REGION":"SONGWE","POSTCODE":"54224","DISTRICT":"MBOZI","WARD":"ITUMPI","STREET":"ILEYA","PLACES":"MLOWO"},
{"REGION":"SONGWE","POSTCODE":"54224","DISTRICT":"MBOZI","WARD":"ITUMPI","STREET":"NSENGA","PLACES":"ITINDI"},
{"REGION":"SONGWE","POSTCODE":"54224","DISTRICT":"MBOZI","WARD":"ITUMPI","STREET":"NSENGA","PLACES":"KASAMA"},
{"REGION":"SONGWE","POSTCODE":"54224","DISTRICT":"MBOZI","WARD":"ITUMPI","STREET":"NSENGA","PLACES":"KONKWE A"},
{"REGION":"SONGWE","POSTCODE":"54224","DISTRICT":"MBOZI","WARD":"ITUMPI","STREET":"NSENGA","PLACES":"KONKWE B"},
{"REGION":"SONGWE","POSTCODE":"54224","DISTRICT":"MBOZI","WARD":"ITUMPI","STREET":"NSENGA","PLACES":"NAMANINGA"},
{"REGION":"SONGWE","POSTCODE":"54224","DISTRICT":"MBOZI","WARD":"ITUMPI","STREET":"IYENGA","PLACES":"SIJI"},
{"REGION":"SONGWE","POSTCODE":"54224","DISTRICT":"MBOZI","WARD":"ITUMPI","STREET":"IYENGA","PLACES":"NDEZI"},
{"REGION":"SONGWE","POSTCODE":"54224","DISTRICT":"MBOZI","WARD":"ITUMPI","STREET":"IYENGA","PLACES":"IYENGA KATI"},
{"REGION":"SONGWE","POSTCODE":"54224","DISTRICT":"MBOZI","WARD":"ITUMPI","STREET":"IYENGA","PLACES":"RAHA LEO"},
{"REGION":"SONGWE","POSTCODE":"54225","DISTRICT":"MBOZI","WARD":"KILIMAMPIMBI","STREET":"IKOMELA","PLACES":"IKOMELA"},
{"REGION":"SONGWE","POSTCODE":"54225","DISTRICT":"MBOZI","WARD":"KILIMAMPIMBI","STREET":"IKOMELA","PLACES":"LUPIA"},
{"REGION":"SONGWE","POSTCODE":"54225","DISTRICT":"MBOZI","WARD":"KILIMAMPIMBI","STREET":"IKOMELA","PLACES":"MAVULA"},
{"REGION":"SONGWE","POSTCODE":"54225","DISTRICT":"MBOZI","WARD":"KILIMAMPIMBI","STREET":"IKOMELA","PLACES":"WAYA"},
{"REGION":"SONGWE","POSTCODE":"54225","DISTRICT":"MBOZI","WARD":"KILIMAMPIMBI","STREET":"ISANDULA","PLACES":"ISANDULA A"},
{"REGION":"SONGWE","POSTCODE":"54225","DISTRICT":"MBOZI","WARD":"KILIMAMPIMBI","STREET":"ISANDULA","PLACES":"ISANDULA B"},
{"REGION":"SONGWE","POSTCODE":"54225","DISTRICT":"MBOZI","WARD":"KILIMAMPIMBI","STREET":"ISANDULA","PLACES":"MBWIGA"},
{"REGION":"SONGWE","POSTCODE":"54225","DISTRICT":"MBOZI","WARD":"KILIMAMPIMBI","STREET":"ISANDULA","PLACES":"NYULA"},
{"REGION":"SONGWE","POSTCODE":"54225","DISTRICT":"MBOZI","WARD":"KILIMAMPIMBI","STREET":"KILIMAMPIMBI","PLACES":"KANJENJE"},
{"REGION":"SONGWE","POSTCODE":"54225","DISTRICT":"MBOZI","WARD":"KILIMAMPIMBI","STREET":"KILIMAMPIMBI","PLACES":"LEKEZONTA"},
{"REGION":"SONGWE","POSTCODE":"54225","DISTRICT":"MBOZI","WARD":"KILIMAMPIMBI","STREET":"KILIMAMPIMBI","PLACES":"KILIMAMPIMBI"},
{"REGION":"SONGWE","POSTCODE":"54225","DISTRICT":"MBOZI","WARD":"KILIMAMPIMBI","STREET":"KILIMAMPIMBI","PLACES":"MAJENGO"},
{"REGION":"SONGWE","POSTCODE":"54225","DISTRICT":"MBOZI","WARD":"KILIMAMPIMBI","STREET":"MSAMBA 1","PLACES":"MSAMBA KATI"},
{"REGION":"SONGWE","POSTCODE":"54225","DISTRICT":"MBOZI","WARD":"KILIMAMPIMBI","STREET":"MSAMBA 2","PLACES":"KAWALE"},
{"REGION":"SONGWE","POSTCODE":"54225","DISTRICT":"MBOZI","WARD":"KILIMAMPIMBI","STREET":"MSAMBA 3","PLACES":"NJIA PANDA"},
{"REGION":"SONGWE","POSTCODE":"54226","DISTRICT":"MBOZI","WARD":"WASA","STREET":"WASA","PLACES":"WASA KATI"},
{"REGION":"SONGWE","POSTCODE":"54226","DISTRICT":"MBOZI","WARD":"WASA","STREET":"WASA","PLACES":"MANYALA"},
{"REGION":"SONGWE","POSTCODE":"54226","DISTRICT":"MBOZI","WARD":"WASA","STREET":"WASA","PLACES":"NDOLA"},
{"REGION":"SONGWE","POSTCODE":"54226","DISTRICT":"MBOZI","WARD":"WASA","STREET":"WASA","PLACES":"ISELA"},
{"REGION":"SONGWE","POSTCODE":"54226","DISTRICT":"MBOZI","WARD":"WASA","STREET":"WASA","PLACES":"LUCHECHE"},
{"REGION":"SONGWE","POSTCODE":"54226","DISTRICT":"MBOZI","WARD":"WASA","STREET":"WASA","PLACES":"NAMATONTO"},
{"REGION":"SONGWE","POSTCODE":"54226","DISTRICT":"MBOZI","WARD":"WASA","STREET":"ISALALO","PLACES":"ISALALO KATI"},
{"REGION":"SONGWE","POSTCODE":"54226","DISTRICT":"MBOZI","WARD":"WASA","STREET":"ISALALO","PLACES":"LUPEMBE"},
{"REGION":"SONGWE","POSTCODE":"54226","DISTRICT":"MBOZI","WARD":"WASA","STREET":"ISALALO","PLACES":"CHIYANGA"},
{"REGION":"SONGWE","POSTCODE":"54226","DISTRICT":"MBOZI","WARD":"WASA","STREET":"ISALALO","PLACES":"TAZARA"},
{"REGION":"SONGWE","POSTCODE":"54226","DISTRICT":"MBOZI","WARD":"WASA","STREET":"IZYANICHE","PLACES":"ISAFI"},
{"REGION":"SONGWE","POSTCODE":"54226","DISTRICT":"MBOZI","WARD":"WASA","STREET":"IZYANICHE","PLACES":"MWAMBANI"},
{"REGION":"SONGWE","POSTCODE":"54226","DISTRICT":"MBOZI","WARD":"WASA","STREET":"IZYANICHE","PLACES":"NAMAULWE"},
{"REGION":"SONGWE","POSTCODE":"54226","DISTRICT":"MBOZI","WARD":"WASA","STREET":"IZYANICHE","PLACES":"KESELIA"},
{"REGION":"SONGWE","POSTCODE":"54226","DISTRICT":"MBOZI","WARD":"WASA","STREET":"IZYANICHE","PLACES":"IZYANICHE KATI"},
{"REGION":"SONGWE","POSTCODE":"54226","DISTRICT":"MBOZI","WARD":"WASA","STREET":"MALOLO","PLACES":"MALOLO"},
{"REGION":"SONGWE","POSTCODE":"54226","DISTRICT":"MBOZI","WARD":"WASA","STREET":"MALOLO","PLACES":"IYULA"},
{"REGION":"SONGWE","POSTCODE":"54226","DISTRICT":"MBOZI","WARD":"WASA","STREET":"MALOLO","PLACES":"ISEMBUKA"},
{"REGION":"SONGWE","POSTCODE":"54226","DISTRICT":"MBOZI","WARD":"WASA","STREET":"MALOLO","PLACES":"ILOMBA"},
{"REGION":"SONGWE","POSTCODE":"54227","DISTRICT":"MBOZI","WARD":"HEZYA","STREET":"HEZYA","PLACES":"HEZYA KATI"},
{"REGION":"SONGWE","POSTCODE":"54227","DISTRICT":"MBOZI","WARD":"HEZYA","STREET":"HEZYA","PLACES":"SITI"},
{"REGION":"SONGWE","POSTCODE":"54227","DISTRICT":"MBOZI","WARD":"HEZYA","STREET":"HEZYA","PLACES":"UYOLE"},
{"REGION":"SONGWE","POSTCODE":"54227","DISTRICT":"MBOZI","WARD":"HEZYA","STREET":"HEZYA","PLACES":"SHONGO"},
{"REGION":"SONGWE","POSTCODE":"54227","DISTRICT":"MBOZI","WARD":"HEZYA","STREET":"IZUMBI","PLACES":"IZUMBI"},
{"REGION":"SONGWE","POSTCODE":"54227","DISTRICT":"MBOZI","WARD":"HEZYA","STREET":"IZUMBI","PLACES":"IDODOMA"},
{"REGION":"SONGWE","POSTCODE":"54227","DISTRICT":"MBOZI","WARD":"HEZYA","STREET":"IZUMBI","PLACES":"SHILOTA"},
{"REGION":"SONGWE","POSTCODE":"54227","DISTRICT":"MBOZI","WARD":"HEZYA","STREET":"IZUMBI","PLACES":"SONGWE"},
{"REGION":"SONGWE","POSTCODE":"54227","DISTRICT":"MBOZI","WARD":"HEZYA","STREET":"NAMWANGWA","PLACES":"SONGWE"},
{"REGION":"SONGWE","POSTCODE":"54227","DISTRICT":"MBOZI","WARD":"HEZYA","STREET":"NAMWANGWA","PLACES":"ISENGA"},
{"REGION":"SONGWE","POSTCODE":"54227","DISTRICT":"MBOZI","WARD":"HEZYA","STREET":"NAMWANGWA","PLACES":"SONGAMBELE"},
{"REGION":"SONGWE","POSTCODE":"54227","DISTRICT":"MBOZI","WARD":"HEZYA","STREET":"HARAKA","PLACES":"KIMEMBE"},
{"REGION":"SONGWE","POSTCODE":"54227","DISTRICT":"MBOZI","WARD":"HEZYA","STREET":"HARAKA","PLACES":"MYOMBO"},
{"REGION":"SONGWE","POSTCODE":"54227","DISTRICT":"MBOZI","WARD":"HEZYA","STREET":"HARAKA","PLACES":"HARAKA KATI"},
{"REGION":"SONGWE","POSTCODE":"54227","DISTRICT":"MBOZI","WARD":"HEZYA","STREET":"HARAKA","PLACES":"IYALAWE"},
{"REGION":"SONGWE","POSTCODE":"54227","DISTRICT":"MBOZI","WARD":"HEZYA","STREET":"HARAKA","PLACES":"NGEKE"},
{"REGION":"SONGWE","POSTCODE":"54227","DISTRICT":"MBOZI","WARD":"HEZYA","STREET":"HARAKA","PLACES":"NAMWANGULE"},
{"REGION":"SONGWE","POSTCODE":"54227","DISTRICT":"MBOZI","WARD":"HEZYA","STREET":"HARAKA","PLACES":"MALINGO"},
{"REGION":"SONGWE","POSTCODE":"54228","DISTRICT":"MBOZI","WARD":"MAGAMBA","STREET":"MAGAMBA","PLACES":"MAGAMBA KATI"},
{"REGION":"SONGWE","POSTCODE":"54228","DISTRICT":"MBOZI","WARD":"MAGAMBA","STREET":"MAGAMBA","PLACES":"IGANYA"},
{"REGION":"SONGWE","POSTCODE":"54228","DISTRICT":"MBOZI","WARD":"MAGAMBA","STREET":"MAGAMBA","PLACES":"HASAMBA"},
{"REGION":"SONGWE","POSTCODE":"54228","DISTRICT":"MBOZI","WARD":"MAGAMBA","STREET":"MAGAMBA","PLACES":"SHUNI"},
{"REGION":"SONGWE","POSTCODE":"54228","DISTRICT":"MBOZI","WARD":"MAGAMBA","STREET":"MAGAMBA","PLACES":"MTUNDURU"},
{"REGION":"SONGWE","POSTCODE":"54228","DISTRICT":"MBOZI","WARD":"MAGAMBA","STREET":"MAGAMBA","PLACES":"ITILIWINDI"},
{"REGION":"SONGWE","POSTCODE":"54228","DISTRICT":"MBOZI","WARD":"MAGAMBA","STREET":"IGANYA","PLACES":"HAPONJELE"},
{"REGION":"SONGWE","POSTCODE":"54228","DISTRICT":"MBOZI","WARD":"MAGAMBA","STREET":"IGANYA","PLACES":"MALONJI"},
{"REGION":"SONGWE","POSTCODE":"54228","DISTRICT":"MBOZI","WARD":"MAGAMBA","STREET":"IGANYA","PLACES":"ITIPULA"},
{"REGION":"SONGWE","POSTCODE":"54228","DISTRICT":"MBOZI","WARD":"MAGAMBA","STREET":"IGANYA","PLACES":"IGANYA"},
{"REGION":"SONGWE","POSTCODE":"54228","DISTRICT":"MBOZI","WARD":"MAGAMBA","STREET":"IGANYA","PLACES":"SIYA"},
{"REGION":"SONGWE","POSTCODE":"54228","DISTRICT":"MBOZI","WARD":"MAGAMBA","STREET":"MTUNDURU","PLACES":"MTUNDURU"},
{"REGION":"SONGWE","POSTCODE":"54228","DISTRICT":"MBOZI","WARD":"MAGAMBA","STREET":"MTUNDURU","PLACES":"MASEDA"},
{"REGION":"SONGWE","POSTCODE":"54228","DISTRICT":"MBOZI","WARD":"MAGAMBA","STREET":"MTUNDURU","PLACES":"ISOMOLE"},
{"REGION":"SONGWE","POSTCODE":"54228","DISTRICT":"MBOZI","WARD":"MAGAMBA","STREET":"MTUNDURU","PLACES":"ITILIWINDI"},
{"REGION":"SONGWE","POSTCODE":"54228","DISTRICT":"MBOZI","WARD":"MAGAMBA","STREET":"MTUNDURU","PLACES":"MALENJE"},
{"REGION":"SONGWE","POSTCODE":"54228","DISTRICT":"MBOZI","WARD":"MAGAMBA","STREET":"IWALANJE","PLACES":"IWALANJE"},
{"REGION":"SONGWE","POSTCODE":"54228","DISTRICT":"MBOZI","WARD":"MAGAMBA","STREET":"IWALANJE","PLACES":"ILEWE"},
{"REGION":"SONGWE","POSTCODE":"54228","DISTRICT":"MBOZI","WARD":"MAGAMBA","STREET":"IWALANJE","PLACES":"HAULENGE"},
{"REGION":"SONGWE","POSTCODE":"54228","DISTRICT":"MBOZI","WARD":"MAGAMBA","STREET":"IWALANJE","PLACES":"BETHELEHEMU"},
{"REGION":"SONGWE","POSTCODE":"54228","DISTRICT":"MBOZI","WARD":"MAGAMBA","STREET":"IWALANJE","PLACES":"ILENDELA"},
{"REGION":"SONGWE","POSTCODE":"54228","DISTRICT":"MBOZI","WARD":"MAGAMBA","STREET":"NAULONGO","PLACES":"NAULONGO KATI"},
{"REGION":"SONGWE","POSTCODE":"54228","DISTRICT":"MBOZI","WARD":"MAGAMBA","STREET":"NAULONGO","PLACES":"SAMLENDA"},
{"REGION":"SONGWE","POSTCODE":"54228","DISTRICT":"MBOZI","WARD":"MAGAMBA","STREET":"NAULONGO","PLACES":"MAJIWE"},
{"REGION":"SONGWE","POSTCODE":"54228","DISTRICT":"MBOZI","WARD":"MAGAMBA","STREET":"NAULONGO","PLACES":"NANTONGORO"},
{"REGION":"SONGWE","POSTCODE":"54228","DISTRICT":"MBOZI","WARD":"MAGAMBA","STREET":"NAULONGO","PLACES":"HANTUPA"},
{"REGION":"SONGWE","POSTCODE":"54229","DISTRICT":"MBOZI","WARD":"IDIWILI","STREET":"IDIWILI","PLACES":"MBALAMUSEJE"},
{"REGION":"SONGWE","POSTCODE":"54229","DISTRICT":"MBOZI","WARD":"IDIWILI","STREET":"IDIWILI","PLACES":"IDOGO"},
{"REGION":"SONGWE","POSTCODE":"54229","DISTRICT":"MBOZI","WARD":"IDIWILI","STREET":"IDIWILI","PLACES":"NONDE A"},
{"REGION":"SONGWE","POSTCODE":"54229","DISTRICT":"MBOZI","WARD":"IDIWILI","STREET":"IDIWILI","PLACES":"NONDE B"},
{"REGION":"SONGWE","POSTCODE":"54229","DISTRICT":"MBOZI","WARD":"IDIWILI","STREET":"IDIWILI","PLACES":"ILINDI"},
{"REGION":"SONGWE","POSTCODE":"54229","DISTRICT":"MBOZI","WARD":"IDIWILI","STREET":"ULULU","PLACES":"SHITETI"},
{"REGION":"SONGWE","POSTCODE":"54229","DISTRICT":"MBOZI","WARD":"IDIWILI","STREET":"ULULU","PLACES":"IHOWA"},
{"REGION":"SONGWE","POSTCODE":"54229","DISTRICT":"MBOZI","WARD":"IDIWILI","STREET":"ULULU","PLACES":"ULULU"},
{"REGION":"SONGWE","POSTCODE":"54229","DISTRICT":"MBOZI","WARD":"IDIWILI","STREET":"ULULU","PLACES":"NTASYE B"},
{"REGION":"SONGWE","POSTCODE":"54229","DISTRICT":"MBOZI","WARD":"IDIWILI","STREET":"ILOMBA","PLACES":"HUDUMA"},
{"REGION":"SONGWE","POSTCODE":"54229","DISTRICT":"MBOZI","WARD":"IDIWILI","STREET":"ILOMBA","PLACES":"NTASYE"},
{"REGION":"SONGWE","POSTCODE":"54229","DISTRICT":"MBOZI","WARD":"IDIWILI","STREET":"ILOMBA","PLACES":"SHIMANGA"},
{"REGION":"SONGWE","POSTCODE":"54229","DISTRICT":"MBOZI","WARD":"IDIWILI","STREET":"ILOMBA","PLACES":"IGWILA"},
{"REGION":"SONGWE","POSTCODE":"54229","DISTRICT":"MBOZI","WARD":"IDIWILI","STREET":"ILOMBA","PLACES":"ISALE"},
{"REGION":"SONGWE","POSTCODE":"54229","DISTRICT":"MBOZI","WARD":"IDIWILI","STREET":"ILOMBA","PLACES":"NANYONGO"},
{"REGION":"SONGWE","POSTCODE":"54229","DISTRICT":"MBOZI","WARD":"IDIWILI","STREET":"MAFUMBO","PLACES":"MATENGA"},
{"REGION":"SONGWE","POSTCODE":"54229","DISTRICT":"MBOZI","WARD":"IDIWILI","STREET":"MAFUMBO","PLACES":"MAFUMBO"},
{"REGION":"SONGWE","POSTCODE":"54229","DISTRICT":"MBOZI","WARD":"IDIWILI","STREET":"MAFUMBO","PLACES":"NDOLA"},
{"REGION":"SONGWE","POSTCODE":"54229","DISTRICT":"MBOZI","WARD":"IDIWILI","STREET":"MAFUMBO","PLACES":"SHENYA"},
{"REGION":"SONGWE","POSTCODE":"54229","DISTRICT":"MBOZI","WARD":"IDIWILI","STREET":"IDUNDA","PLACES":"IYALAWE"},
{"REGION":"SONGWE","POSTCODE":"54229","DISTRICT":"MBOZI","WARD":"IDIWILI","STREET":"IDUNDA","PLACES":"IWEZYA"},
{"REGION":"SONGWE","POSTCODE":"54229","DISTRICT":"MBOZI","WARD":"IDIWILI","STREET":"IDUNDA","PLACES":"NZOVU"},
{"REGION":"SONGWE","POSTCODE":"54229","DISTRICT":"MBOZI","WARD":"IDIWILI","STREET":"IDUNDA","PLACES":"MPANZI"},
{"REGION":"SONGWE","POSTCODE":"54229","DISTRICT":"MBOZI","WARD":"IDIWILI","STREET":"IDUNDA","PLACES":"IPANGA"},
{"REGION":"SONGWE","POSTCODE":"54301","DISTRICT":"ILEJE","WARD":"ITUMBA","STREET":"ITUMBA","PLACES":"RUNGWA A"},
{"REGION":"SONGWE","POSTCODE":"54301","DISTRICT":"ILEJE","WARD":"ITUMBA","STREET":"ITUMBA","PLACES":"RUNGWA B"},
{"REGION":"SONGWE","POSTCODE":"54301","DISTRICT":"ILEJE","WARD":"ITUMBA","STREET":"ITUMBA","PLACES":"RUNGWA C"},
{"REGION":"SONGWE","POSTCODE":"54301","DISTRICT":"ILEJE","WARD":"ITUMBA","STREET":"ITUMBA","PLACES":"BUSWESI"},
{"REGION":"SONGWE","POSTCODE":"54301","DISTRICT":"ILEJE","WARD":"ITUMBA","STREET":"ITUMBA","PLACES":"NAMANGONI"},
{"REGION":"SONGWE","POSTCODE":"54301","DISTRICT":"ILEJE","WARD":"ITUMBA","STREET":"ITUMBA","PLACES":"CHIBANJE"},
{"REGION":"SONGWE","POSTCODE":"54301","DISTRICT":"ILEJE","WARD":"ITUMBA","STREET":"ITUMBA","PLACES":"CHAFWONYA"},
{"REGION":"SONGWE","POSTCODE":"54301","DISTRICT":"ILEJE","WARD":"ITUMBA","STREET":"ITUMBA","PLACES":"HARAKA"},
{"REGION":"SONGWE","POSTCODE":"54301","DISTRICT":"ILEJE","WARD":"ITUMBA","STREET":"ITUMBA","PLACES":"NKANKA"},
{"REGION":"SONGWE","POSTCODE":"54301","DISTRICT":"ILEJE","WARD":"ITUMBA","STREET":"ITUMBA","PLACES":"CHOBWE"},
{"REGION":"SONGWE","POSTCODE":"54301","DISTRICT":"ILEJE","WARD":"ITUMBA","STREET":"YENZEBWE","PLACES":"NYINZA"},
{"REGION":"SONGWE","POSTCODE":"54301","DISTRICT":"ILEJE","WARD":"ITUMBA","STREET":"YENZEBWE","PLACES":"CHIBANJE"},
{"REGION":"SONGWE","POSTCODE":"54301","DISTRICT":"ILEJE","WARD":"ITUMBA","STREET":"YENZEBWE","PLACES":"BULENJE"},
{"REGION":"SONGWE","POSTCODE":"54302","DISTRICT":"ILEJE","WARD":"ISONGOLE","STREET":"ISONGOLE","PLACES":"CHUMBAGENI A"},
{"REGION":"SONGWE","POSTCODE":"54302","DISTRICT":"ILEJE","WARD":"ISONGOLE","STREET":"ISONGOLE","PLACES":"CHUMBAGENI B"},
{"REGION":"SONGWE","POSTCODE":"54302","DISTRICT":"ILEJE","WARD":"ISONGOLE","STREET":"ISONGOLE","PLACES":"NAKALULU"},
{"REGION":"SONGWE","POSTCODE":"54302","DISTRICT":"ILEJE","WARD":"ISONGOLE","STREET":"ISONGOLE","PLACES":"IPAPA"},
{"REGION":"SONGWE","POSTCODE":"54302","DISTRICT":"ILEJE","WARD":"ISONGOLE","STREET":"ISONGOLE","PLACES":"IGUNDA"},
{"REGION":"SONGWE","POSTCODE":"54302","DISTRICT":"ILEJE","WARD":"ISONGOLE","STREET":"ISONGOLE","PLACES":"MBENZU"},
{"REGION":"SONGWE","POSTCODE":"54302","DISTRICT":"ILEJE","WARD":"ISONGOLE","STREET":"IZUBA","PLACES":"KABWE"},
{"REGION":"SONGWE","POSTCODE":"54302","DISTRICT":"ILEJE","WARD":"ISONGOLE","STREET":"IZUBA","PLACES":"ILESHELA A"},
{"REGION":"SONGWE","POSTCODE":"54302","DISTRICT":"ILEJE","WARD":"ISONGOLE","STREET":"IZUBA","PLACES":"ILESHELA B"},
{"REGION":"SONGWE","POSTCODE":"54302","DISTRICT":"ILEJE","WARD":"ISONGOLE","STREET":"IZUBA","PLACES":"MANYARA"},
{"REGION":"SONGWE","POSTCODE":"54302","DISTRICT":"ILEJE","WARD":"ISONGOLE","STREET":"ILULU","PLACES":"IPUNGA"},
{"REGION":"SONGWE","POSTCODE":"54302","DISTRICT":"ILEJE","WARD":"ISONGOLE","STREET":"ILULU","PLACES":"CHITEKA"},
{"REGION":"SONGWE","POSTCODE":"54302","DISTRICT":"ILEJE","WARD":"ISONGOLE","STREET":"ILULU","PLACES":"CHIPYA"},
{"REGION":"SONGWE","POSTCODE":"54302","DISTRICT":"ILEJE","WARD":"ISONGOLE","STREET":"ILULU","PLACES":"NTEBELA"},
{"REGION":"SONGWE","POSTCODE":"54302","DISTRICT":"ILEJE","WARD":"ISONGOLE","STREET":"ILULU","PLACES":"KATI"},
{"REGION":"SONGWE","POSTCODE":"54303","DISTRICT":"ILEJE","WARD":"NDOLA","STREET":"NDOLA","PLACES":"KABULU"},
{"REGION":"SONGWE","POSTCODE":"54303","DISTRICT":"ILEJE","WARD":"NDOLA","STREET":"NDOLA","PLACES":"NDOLA"},
{"REGION":"SONGWE","POSTCODE":"54303","DISTRICT":"ILEJE","WARD":"NDOLA","STREET":"NDOLA","PLACES":"ISANGA"},
{"REGION":"SONGWE","POSTCODE":"54303","DISTRICT":"ILEJE","WARD":"NDOLA","STREET":"NDOLA","PLACES":"KALOLENI"},
{"REGION":"SONGWE","POSTCODE":"54303","DISTRICT":"ILEJE","WARD":"NDOLA","STREET":"NDOLA","PLACES":"TUNDUMA"},
{"REGION":"SONGWE","POSTCODE":"54303","DISTRICT":"ILEJE","WARD":"NDOLA","STREET":"NDOLA","PLACES":"ILEYA"},
{"REGION":"SONGWE","POSTCODE":"54303","DISTRICT":"ILEJE","WARD":"NDOLA","STREET":"NDOLA","PLACES":"ISAGAMA"},
{"REGION":"SONGWE","POSTCODE":"54303","DISTRICT":"ILEJE","WARD":"NDOLA","STREET":"ISHENTA","PLACES":"MDIBE"},
{"REGION":"SONGWE","POSTCODE":"54303","DISTRICT":"ILEJE","WARD":"NDOLA","STREET":"ISHENTA","PLACES":"IBUTUTU"},
{"REGION":"SONGWE","POSTCODE":"54303","DISTRICT":"ILEJE","WARD":"NDOLA","STREET":"ISHENTA","PLACES":"ITULA"},
{"REGION":"SONGWE","POSTCODE":"54303","DISTRICT":"ILEJE","WARD":"NDOLA","STREET":"ISHENTA","PLACES":"SERENJE"},
{"REGION":"SONGWE","POSTCODE":"54303","DISTRICT":"ILEJE","WARD":"NDOLA","STREET":"IGUMILA","PLACES":"MBILU"},
{"REGION":"SONGWE","POSTCODE":"54303","DISTRICT":"ILEJE","WARD":"NDOLA","STREET":"IGUMILA","PLACES":"IGUMILA"},
{"REGION":"SONGWE","POSTCODE":"54303","DISTRICT":"ILEJE","WARD":"NDOLA","STREET":"IGUMILA","PLACES":"ILEMBO"},
{"REGION":"SONGWE","POSTCODE":"54303","DISTRICT":"ILEJE","WARD":"NDOLA","STREET":"IBEZYA","PLACES":"IBEZYA"},
{"REGION":"SONGWE","POSTCODE":"54303","DISTRICT":"ILEJE","WARD":"NDOLA","STREET":"IBEZYA","PLACES":"ILULU"},
{"REGION":"SONGWE","POSTCODE":"54303","DISTRICT":"ILEJE","WARD":"NDOLA","STREET":"IBEZYA","PLACES":"ULANDA"},
{"REGION":"SONGWE","POSTCODE":"54304","DISTRICT":"ILEJE","WARD":"BUPIGU","STREET":"BUPIGU","PLACES":"LUBEMBA"},
{"REGION":"SONGWE","POSTCODE":"54304","DISTRICT":"ILEJE","WARD":"BUPIGU","STREET":"BUPIGU","PLACES":"MWATI"},
{"REGION":"SONGWE","POSTCODE":"54304","DISTRICT":"ILEJE","WARD":"BUPIGU","STREET":"BUPIGU","PLACES":"ITENJE"},
{"REGION":"SONGWE","POSTCODE":"54304","DISTRICT":"ILEJE","WARD":"BUPIGU","STREET":"BUPIGU","PLACES":"ILAMBI"},
{"REGION":"SONGWE","POSTCODE":"54304","DISTRICT":"ILEJE","WARD":"BUPIGU","STREET":"BUPIGU","PLACES":"INYALA"},
{"REGION":"SONGWE","POSTCODE":"54304","DISTRICT":"ILEJE","WARD":"BUPIGU","STREET":"BUPIGU","PLACES":"ILEMBO"},
{"REGION":"SONGWE","POSTCODE":"54304","DISTRICT":"ILEJE","WARD":"BUPIGU","STREET":"BUPIGU","PLACES":"CHONGO"},
{"REGION":"SONGWE","POSTCODE":"54304","DISTRICT":"ILEJE","WARD":"BUPIGU","STREET":"IBUNGU","PLACES":"ILEBELO"},
{"REGION":"SONGWE","POSTCODE":"54304","DISTRICT":"ILEJE","WARD":"BUPIGU","STREET":"IBUNGU","PLACES":"NJEJE"},
{"REGION":"SONGWE","POSTCODE":"54304","DISTRICT":"ILEJE","WARD":"BUPIGU","STREET":"IBUNGU","PLACES":"MBALULA"},
{"REGION":"SONGWE","POSTCODE":"54304","DISTRICT":"ILEJE","WARD":"BUPIGU","STREET":"IBUNGU","PLACES":"LUBANDA"},
{"REGION":"SONGWE","POSTCODE":"54304","DISTRICT":"ILEJE","WARD":"BUPIGU","STREET":"CHABU","PLACES":"LUPANDO"},
{"REGION":"SONGWE","POSTCODE":"54304","DISTRICT":"ILEJE","WARD":"BUPIGU","STREET":"CHABU","PLACES":"IKOMBE"},
{"REGION":"SONGWE","POSTCODE":"54304","DISTRICT":"ILEJE","WARD":"BUPIGU","STREET":"CHABU","PLACES":"MANGWINA"},
{"REGION":"SONGWE","POSTCODE":"54304","DISTRICT":"ILEJE","WARD":"BUPIGU","STREET":"CHABU","PLACES":"SEKONDARI"},
{"REGION":"SONGWE","POSTCODE":"54304","DISTRICT":"ILEJE","WARD":"BUPIGU","STREET":"CHABU","PLACES":"ISIMIKE"},
{"REGION":"SONGWE","POSTCODE":"54304","DISTRICT":"ILEJE","WARD":"BUPIGU","STREET":"MABULA","PLACES":"MBANGALA"},
{"REGION":"SONGWE","POSTCODE":"54304","DISTRICT":"ILEJE","WARD":"BUPIGU","STREET":"MABULA","PLACES":"CHIPUPWA"},
{"REGION":"SONGWE","POSTCODE":"54304","DISTRICT":"ILEJE","WARD":"BUPIGU","STREET":"MABULA","PLACES":"NDIMA"},
{"REGION":"SONGWE","POSTCODE":"54304","DISTRICT":"ILEJE","WARD":"BUPIGU","STREET":"MABULA","PLACES":"LULI"},
{"REGION":"SONGWE","POSTCODE":"54305","DISTRICT":"ILEJE","WARD":"CHITETE","STREET":"IKUMBILO","PLACES":"LUSUNGO"},
{"REGION":"SONGWE","POSTCODE":"54305","DISTRICT":"ILEJE","WARD":"CHITETE","STREET":"IKUMBILO","PLACES":"ITABA"},
{"REGION":"SONGWE","POSTCODE":"54305","DISTRICT":"ILEJE","WARD":"CHITETE","STREET":"IKUMBILO","PLACES":"MAGEREZA"},
{"REGION":"SONGWE","POSTCODE":"54305","DISTRICT":"ILEJE","WARD":"CHITETE","STREET":"IKUMBILO","PLACES":"IKUMBILO"},
{"REGION":"SONGWE","POSTCODE":"54305","DISTRICT":"ILEJE","WARD":"CHITETE","STREET":"IKUMBILO","PLACES":"KAWAMA"},
{"REGION":"SONGWE","POSTCODE":"54305","DISTRICT":"ILEJE","WARD":"CHITETE","STREET":"IKUMBILO","PLACES":"NAVILOLO"},
{"REGION":"SONGWE","POSTCODE":"54305","DISTRICT":"ILEJE","WARD":"CHITETE","STREET":"CHITETE","PLACES":"MAJENGO"},
{"REGION":"SONGWE","POSTCODE":"54305","DISTRICT":"ILEJE","WARD":"CHITETE","STREET":"CHITETE","PLACES":"CHITETE"},
{"REGION":"SONGWE","POSTCODE":"54305","DISTRICT":"ILEJE","WARD":"CHITETE","STREET":"CHITETE","PLACES":"IBANA"},
{"REGION":"SONGWE","POSTCODE":"54305","DISTRICT":"ILEJE","WARD":"CHITETE","STREET":"CHITETE","PLACES":"BULANGA"},
{"REGION":"SONGWE","POSTCODE":"54305","DISTRICT":"ILEJE","WARD":"CHITETE","STREET":"CHITETE","PLACES":"NANGOJI"},
{"REGION":"SONGWE","POSTCODE":"54305","DISTRICT":"ILEJE","WARD":"CHITETE","STREET":"CHITETE","PLACES":"LUSUNGOJUU"},
{"REGION":"SONGWE","POSTCODE":"54305","DISTRICT":"ILEJE","WARD":"CHITETE","STREET":"MSIA","PLACES":"IZWALANGUO"},
{"REGION":"SONGWE","POSTCODE":"54305","DISTRICT":"ILEJE","WARD":"CHITETE","STREET":"MSIA","PLACES":"IYUNGA"},
{"REGION":"SONGWE","POSTCODE":"54305","DISTRICT":"ILEJE","WARD":"CHITETE","STREET":"MSIA","PLACES":"IHANDANG'OMBE"},
{"REGION":"SONGWE","POSTCODE":"54305","DISTRICT":"ILEJE","WARD":"CHITETE","STREET":"MSIA","PLACES":"ISUNDAMBWA"},
{"REGION":"SONGWE","POSTCODE":"54305","DISTRICT":"ILEJE","WARD":"CHITETE","STREET":"NTEMBO","PLACES":"IGALULA"},
{"REGION":"SONGWE","POSTCODE":"54305","DISTRICT":"ILEJE","WARD":"CHITETE","STREET":"NTEMBO","PLACES":"LUSENGA"},
{"REGION":"SONGWE","POSTCODE":"54305","DISTRICT":"ILEJE","WARD":"CHITETE","STREET":"NTEMBO","PLACES":"MAJENGO"},
{"REGION":"SONGWE","POSTCODE":"54306","DISTRICT":"ILEJE","WARD":"MBEBE","STREET":"MBEBE","PLACES":"MBEBE"},
{"REGION":"SONGWE","POSTCODE":"54306","DISTRICT":"ILEJE","WARD":"MBEBE","STREET":"MBEBE","PLACES":"NATWAJIMBA"},
{"REGION":"SONGWE","POSTCODE":"54306","DISTRICT":"ILEJE","WARD":"MBEBE","STREET":"MBEBE","PLACES":"NGOMOLO"},
{"REGION":"SONGWE","POSTCODE":"54306","DISTRICT":"ILEJE","WARD":"MBEBE","STREET":"MBEBE","PLACES":"NAMBIJILI"},
{"REGION":"SONGWE","POSTCODE":"54306","DISTRICT":"ILEJE","WARD":"MBEBE","STREET":"MBEBE","PLACES":"ISOKA"},
{"REGION":"SONGWE","POSTCODE":"54306","DISTRICT":"ILEJE","WARD":"MBEBE","STREET":"MBEBE","PLACES":"IPANGA"},
{"REGION":"SONGWE","POSTCODE":"54306","DISTRICT":"ILEJE","WARD":"MBEBE","STREET":"MBEBE","PLACES":"NALWENDA"},
{"REGION":"SONGWE","POSTCODE":"54306","DISTRICT":"ILEJE","WARD":"MBEBE","STREET":"MAPOGORO","PLACES":"NG'ONGO"},
{"REGION":"SONGWE","POSTCODE":"54306","DISTRICT":"ILEJE","WARD":"MBEBE","STREET":"MAPOGORO","PLACES":"MAPOGORO"},
{"REGION":"SONGWE","POSTCODE":"54306","DISTRICT":"ILEJE","WARD":"MBEBE","STREET":"MAPOGORO","PLACES":"NAMALONGOLA"},
{"REGION":"SONGWE","POSTCODE":"54306","DISTRICT":"ILEJE","WARD":"MBEBE","STREET":"MAPOGORO","PLACES":"NAKASALE"},
{"REGION":"SONGWE","POSTCODE":"54306","DISTRICT":"ILEJE","WARD":"MBEBE","STREET":"MAPOGORO","PLACES":"NAMBUNDA"},
{"REGION":"SONGWE","POSTCODE":"54306","DISTRICT":"ILEJE","WARD":"MBEBE","STREET":"SHINJI","PLACES":"MAJENGO"},
{"REGION":"SONGWE","POSTCODE":"54306","DISTRICT":"ILEJE","WARD":"MBEBE","STREET":"SHINJI","PLACES":"SHINJI"},
{"REGION":"SONGWE","POSTCODE":"54306","DISTRICT":"ILEJE","WARD":"MBEBE","STREET":"SHINJI","PLACES":"NDENDO"},
{"REGION":"SONGWE","POSTCODE":"54306","DISTRICT":"ILEJE","WARD":"MBEBE","STREET":"SHINJI","PLACES":"HASONGWA"},
{"REGION":"SONGWE","POSTCODE":"54306","DISTRICT":"ILEJE","WARD":"MBEBE","STREET":"MTIMA","PLACES":"MTIMA"},
{"REGION":"SONGWE","POSTCODE":"54306","DISTRICT":"ILEJE","WARD":"MBEBE","STREET":"MTIMA","PLACES":"MSANGA"},
{"REGION":"SONGWE","POSTCODE":"54307","DISTRICT":"ILEJE","WARD":"ITALE","STREET":"ITEGA","PLACES":"KAFULE"},
{"REGION":"SONGWE","POSTCODE":"54307","DISTRICT":"ILEJE","WARD":"ITALE","STREET":"ITEGA","PLACES":"CHIKOMBOLASI"},
{"REGION":"SONGWE","POSTCODE":"54307","DISTRICT":"ILEJE","WARD":"ITALE","STREET":"ITEGA","PLACES":"SAMPEMBE"},
{"REGION":"SONGWE","POSTCODE":"54307","DISTRICT":"ILEJE","WARD":"ITALE","STREET":"ITEGA","PLACES":"SHINYA"},
{"REGION":"SONGWE","POSTCODE":"54307","DISTRICT":"ILEJE","WARD":"ITALE","STREET":"ITEGA","PLACES":"ISANGA"},
{"REGION":"SONGWE","POSTCODE":"54307","DISTRICT":"ILEJE","WARD":"ITALE","STREET":"ITALE","PLACES":"MPANDE A"},
{"REGION":"SONGWE","POSTCODE":"54307","DISTRICT":"ILEJE","WARD":"ITALE","STREET":"ITALE","PLACES":"MPANDE B"},
{"REGION":"SONGWE","POSTCODE":"54307","DISTRICT":"ILEJE","WARD":"ITALE","STREET":"ITALE","PLACES":"KABWE"},
{"REGION":"SONGWE","POSTCODE":"54307","DISTRICT":"ILEJE","WARD":"ITALE","STREET":"ITALE","PLACES":"IJEMBE"},
{"REGION":"SONGWE","POSTCODE":"54307","DISTRICT":"ILEJE","WARD":"ITALE","STREET":"ITALE","PLACES":"ILOMBA"},
{"REGION":"SONGWE","POSTCODE":"54307","DISTRICT":"ILEJE","WARD":"ITALE","STREET":"ITALE","PLACES":"KATETE"},
{"REGION":"SONGWE","POSTCODE":"54307","DISTRICT":"ILEJE","WARD":"ITALE","STREET":"ITALE","PLACES":"WIMI"},
{"REGION":"SONGWE","POSTCODE":"54307","DISTRICT":"ILEJE","WARD":"ITALE","STREET":"IWALA","PLACES":"MELA A"},
{"REGION":"SONGWE","POSTCODE":"54307","DISTRICT":"ILEJE","WARD":"ITALE","STREET":"IWALA","PLACES":"MELA B"},
{"REGION":"SONGWE","POSTCODE":"54307","DISTRICT":"ILEJE","WARD":"ITALE","STREET":"IWALA","PLACES":"IWALA A"},
{"REGION":"SONGWE","POSTCODE":"54307","DISTRICT":"ILEJE","WARD":"ITALE","STREET":"IWALA","PLACES":"IWALA B"},
{"REGION":"SONGWE","POSTCODE":"54307","DISTRICT":"ILEJE","WARD":"ITALE","STREET":"IWALA","PLACES":"HADUYA"},
{"REGION":"SONGWE","POSTCODE":"54307","DISTRICT":"ILEJE","WARD":"ITALE","STREET":"IWALA","PLACES":"META"},
{"REGION":"SONGWE","POSTCODE":"54307","DISTRICT":"ILEJE","WARD":"ITALE","STREET":"IWALA","PLACES":"IBUBI"},
{"REGION":"SONGWE","POSTCODE":"54307","DISTRICT":"ILEJE","WARD":"ITALE","STREET":"ISHINGA","PLACES":"ISHIMBILA"},
{"REGION":"SONGWE","POSTCODE":"54307","DISTRICT":"ILEJE","WARD":"ITALE","STREET":"ISHINGA","PLACES":"MSELEMA"},
{"REGION":"SONGWE","POSTCODE":"54307","DISTRICT":"ILEJE","WARD":"ITALE","STREET":"ISHINGA","PLACES":"ITEPULA"},
{"REGION":"SONGWE","POSTCODE":"54308","DISTRICT":"ILEJE","WARD":"IBABA","STREET":"SHUBA","PLACES":"ILUFI A"},
{"REGION":"SONGWE","POSTCODE":"54308","DISTRICT":"ILEJE","WARD":"IBABA","STREET":"SHUBA","PLACES":"ILUFI B"},
{"REGION":"SONGWE","POSTCODE":"54308","DISTRICT":"ILEJE","WARD":"IBABA","STREET":"SHUBA","PLACES":"MWATI"},
{"REGION":"SONGWE","POSTCODE":"54308","DISTRICT":"ILEJE","WARD":"IBABA","STREET":"SHUBA","PLACES":"SHUBA A"},
{"REGION":"SONGWE","POSTCODE":"54308","DISTRICT":"ILEJE","WARD":"IBABA","STREET":"SHUBA","PLACES":"SHUBA B"},
{"REGION":"SONGWE","POSTCODE":"54308","DISTRICT":"ILEJE","WARD":"IBABA","STREET":"SHUBA","PLACES":"ILUMBA"},
{"REGION":"SONGWE","POSTCODE":"54308","DISTRICT":"ILEJE","WARD":"IBABA","STREET":"SHEYO","PLACES":"IPOLOTO"},
{"REGION":"SONGWE","POSTCODE":"54308","DISTRICT":"ILEJE","WARD":"IBABA","STREET":"SHEYO","PLACES":"SHEYO"},
{"REGION":"SONGWE","POSTCODE":"54308","DISTRICT":"ILEJE","WARD":"IBABA","STREET":"SHEYO","PLACES":"SHILIBA"},
{"REGION":"SONGWE","POSTCODE":"54308","DISTRICT":"ILEJE","WARD":"IBABA","STREET":"SHEYO","PLACES":"SUMBI"},
{"REGION":"SONGWE","POSTCODE":"54308","DISTRICT":"ILEJE","WARD":"IBABA","STREET":"IBABA","PLACES":"KABWE"},
{"REGION":"SONGWE","POSTCODE":"54308","DISTRICT":"ILEJE","WARD":"IBABA","STREET":"IBABA","PLACES":"ILOLA"},
{"REGION":"SONGWE","POSTCODE":"54308","DISTRICT":"ILEJE","WARD":"IBABA","STREET":"IBABA","PLACES":"IBABA"},
{"REGION":"SONGWE","POSTCODE":"54308","DISTRICT":"ILEJE","WARD":"IBABA","STREET":"IBABA","PLACES":"IJIGIMA"},
{"REGION":"SONGWE","POSTCODE":"54308","DISTRICT":"ILEJE","WARD":"IBABA","STREET":"LALI","PLACES":"LALI"},
{"REGION":"SONGWE","POSTCODE":"54308","DISTRICT":"ILEJE","WARD":"IBABA","STREET":"LALI","PLACES":"MBIJILI"},
{"REGION":"SONGWE","POSTCODE":"54308","DISTRICT":"ILEJE","WARD":"IBABA","STREET":"LALI","PLACES":"NDUGWE"},
{"REGION":"SONGWE","POSTCODE":"54308","DISTRICT":"ILEJE","WARD":"IBABA","STREET":"LALI","PLACES":"MASOKO"},
{"REGION":"SONGWE","POSTCODE":"54308","DISTRICT":"ILEJE","WARD":"IBABA","STREET":"LALI","PLACES":"ITUKUTE"},
{"REGION":"SONGWE","POSTCODE":"54308","DISTRICT":"ILEJE","WARD":"IBABA","STREET":"SHIKUNGA","PLACES":"MAPOLE"},
{"REGION":"SONGWE","POSTCODE":"54308","DISTRICT":"ILEJE","WARD":"IBABA","STREET":"SHIKUNGA","PLACES":"IYUNGWE"},
{"REGION":"SONGWE","POSTCODE":"54308","DISTRICT":"ILEJE","WARD":"IBABA","STREET":"SHIKUNGA","PLACES":"KAWETELE"},
{"REGION":"SONGWE","POSTCODE":"54308","DISTRICT":"ILEJE","WARD":"IBABA","STREET":"SHIKUNGA","PLACES":"SENJELE"},
{"REGION":"SONGWE","POSTCODE":"54308","DISTRICT":"ILEJE","WARD":"IBABA","STREET":"SHIKUNGA","PLACES":"SHIKUNGA"},
{"REGION":"SONGWE","POSTCODE":"54308","DISTRICT":"ILEJE","WARD":"IBABA","STREET":"SHIKUNGA","PLACES":"KALULUSHI"},
{"REGION":"SONGWE","POSTCODE":"54309","DISTRICT":"ILEJE","WARD":"MALANGALI","STREET":"MALANGALI","PLACES":"MALANGALI"},
{"REGION":"SONGWE","POSTCODE":"54309","DISTRICT":"ILEJE","WARD":"MALANGALI","STREET":"MALANGALI","PLACES":"MLENDA"},
{"REGION":"SONGWE","POSTCODE":"54309","DISTRICT":"ILEJE","WARD":"MALANGALI","STREET":"MALANGALI","PLACES":"MTEMA"},
{"REGION":"SONGWE","POSTCODE":"54309","DISTRICT":"ILEJE","WARD":"MALANGALI","STREET":"MALANGALI","PLACES":"LUBWE"},
{"REGION":"SONGWE","POSTCODE":"54309","DISTRICT":"ILEJE","WARD":"MALANGALI","STREET":"MALANGALI","PLACES":"LWAGE"},
{"REGION":"SONGWE","POSTCODE":"54309","DISTRICT":"ILEJE","WARD":"MALANGALI","STREET":"MALANGALI","PLACES":"LUBOGA"},
{"REGION":"SONGWE","POSTCODE":"54309","DISTRICT":"ILEJE","WARD":"MALANGALI","STREET":"CHEMBE","PLACES":"CHIKWAMBALALA"},
{"REGION":"SONGWE","POSTCODE":"54309","DISTRICT":"ILEJE","WARD":"MALANGALI","STREET":"CHEMBE","PLACES":"CHIBULI"},
{"REGION":"SONGWE","POSTCODE":"54309","DISTRICT":"ILEJE","WARD":"MALANGALI","STREET":"CHEMBE","PLACES":"NDONDELA"},
{"REGION":"SONGWE","POSTCODE":"54309","DISTRICT":"ILEJE","WARD":"MALANGALI","STREET":"ILONDO","PLACES":"NDEGULA"},
{"REGION":"SONGWE","POSTCODE":"54309","DISTRICT":"ILEJE","WARD":"MALANGALI","STREET":"ILONDO","PLACES":"NAMASELE"},
{"REGION":"SONGWE","POSTCODE":"54309","DISTRICT":"ILEJE","WARD":"MALANGALI","STREET":"ILONDO","PLACES":"IGOJE"},
{"REGION":"SONGWE","POSTCODE":"54309","DISTRICT":"ILEJE","WARD":"MALANGALI","STREET":"ILONDO","PLACES":"MLAMBA"},
{"REGION":"SONGWE","POSTCODE":"54309","DISTRICT":"ILEJE","WARD":"MALANGALI","STREET":"ILONDO","PLACES":"ILONDO"},
{"REGION":"SONGWE","POSTCODE":"54309","DISTRICT":"ILEJE","WARD":"MALANGALI","STREET":"BULANGA","PLACES":"BULANGA"},
{"REGION":"SONGWE","POSTCODE":"54309","DISTRICT":"ILEJE","WARD":"MALANGALI","STREET":"BULANGA","PLACES":"CHUNYA"},
{"REGION":"SONGWE","POSTCODE":"54309","DISTRICT":"ILEJE","WARD":"MALANGALI","STREET":"BULANGA","PLACES":"MALANGALI"},
{"REGION":"SONGWE","POSTCODE":"54310","DISTRICT":"ILEJE","WARD":"KAFULE","STREET":"KAPELEKESI","PLACES":"KISALALA"},
{"REGION":"SONGWE","POSTCODE":"54310","DISTRICT":"ILEJE","WARD":"KAFULE","STREET":"KAPELEKESI","PLACES":"KASEBE"},
{"REGION":"SONGWE","POSTCODE":"54310","DISTRICT":"ILEJE","WARD":"KAFULE","STREET":"KAPELEKESI","PLACES":"MKELA"},
{"REGION":"SONGWE","POSTCODE":"54310","DISTRICT":"ILEJE","WARD":"KAFULE","STREET":"KAPELEKESI","PLACES":"IBOLE"},
{"REGION":"SONGWE","POSTCODE":"54310","DISTRICT":"ILEJE","WARD":"KAFULE","STREET":"KAPELEKESI","PLACES":"KAPELEKESI"},
{"REGION":"SONGWE","POSTCODE":"54310","DISTRICT":"ILEJE","WARD":"KAFULE","STREET":"KAPELEKESI","PLACES":"ITEJA"},
{"REGION":"SONGWE","POSTCODE":"54310","DISTRICT":"ILEJE","WARD":"KAFULE","STREET":"KAFULE","PLACES":"KAFULE"},
{"REGION":"SONGWE","POSTCODE":"54310","DISTRICT":"ILEJE","WARD":"KAFULE","STREET":"KAFULE","PLACES":"ISEGELO"},
{"REGION":"SONGWE","POSTCODE":"54310","DISTRICT":"ILEJE","WARD":"KAFULE","STREET":"KAFULE","PLACES":"ILIKWA"},
{"REGION":"SONGWE","POSTCODE":"54310","DISTRICT":"ILEJE","WARD":"KAFULE","STREET":"KAFULE","PLACES":"IKUYU"},
{"REGION":"SONGWE","POSTCODE":"54310","DISTRICT":"ILEJE","WARD":"KAFULE","STREET":"KAFULE","PLACES":"CHIJA"},
{"REGION":"SONGWE","POSTCODE":"54310","DISTRICT":"ILEJE","WARD":"KAFULE","STREET":"BANJI","PLACES":"LUNDO"},
{"REGION":"SONGWE","POSTCODE":"54310","DISTRICT":"ILEJE","WARD":"KAFULE","STREET":"BANJI","PLACES":"MSONGWI"},
{"REGION":"SONGWE","POSTCODE":"54310","DISTRICT":"ILEJE","WARD":"KAFULE","STREET":"ISOKO","PLACES":"KATETE"},
{"REGION":"SONGWE","POSTCODE":"54310","DISTRICT":"ILEJE","WARD":"KAFULE","STREET":"ISOKO","PLACES":"MGOFI"},
{"REGION":"SONGWE","POSTCODE":"54310","DISTRICT":"ILEJE","WARD":"KAFULE","STREET":"ISOKO","PLACES":"KALOLA"},
{"REGION":"SONGWE","POSTCODE":"54310","DISTRICT":"ILEJE","WARD":"KAFULE","STREET":"ISOKO","PLACES":"LUPEMBE"},
{"REGION":"SONGWE","POSTCODE":"54311","DISTRICT":"ILEJE","WARD":"IKINGA","STREET":"IKINGA","PLACES":"IKINGA"},
{"REGION":"SONGWE","POSTCODE":"54311","DISTRICT":"ILEJE","WARD":"IKINGA","STREET":"IKINGA","PLACES":"LUPUNGU"},
{"REGION":"SONGWE","POSTCODE":"54311","DISTRICT":"ILEJE","WARD":"IKINGA","STREET":"IKINGA","PLACES":"MGESHI"},
{"REGION":"SONGWE","POSTCODE":"54311","DISTRICT":"ILEJE","WARD":"IKINGA","STREET":"KIKOTA","PLACES":"KIKOTA"},
{"REGION":"SONGWE","POSTCODE":"54311","DISTRICT":"ILEJE","WARD":"IKINGA","STREET":"KIKOTA","PLACES":"KASHETO"},
{"REGION":"SONGWE","POSTCODE":"54311","DISTRICT":"ILEJE","WARD":"IKINGA","STREET":"KIKOTA","PLACES":"SOKA"},
{"REGION":"SONGWE","POSTCODE":"54311","DISTRICT":"ILEJE","WARD":"IKINGA","STREET":"KIKOTA","PLACES":"KASANGA"},
{"REGION":"SONGWE","POSTCODE":"54311","DISTRICT":"ILEJE","WARD":"IKINGA","STREET":"KIKOTA","PLACES":"IBUNGI"},
{"REGION":"SONGWE","POSTCODE":"54311","DISTRICT":"ILEJE","WARD":"IKINGA","STREET":"KIKOTA","PLACES":"NDEMBO"},
{"REGION":"SONGWE","POSTCODE":"54311","DISTRICT":"ILEJE","WARD":"IKINGA","STREET":"IBETA","PLACES":"IBETA"},
{"REGION":"SONGWE","POSTCODE":"54311","DISTRICT":"ILEJE","WARD":"IKINGA","STREET":"IBETA","PLACES":"MINYARA"},
{"REGION":"SONGWE","POSTCODE":"54311","DISTRICT":"ILEJE","WARD":"IKINGA","STREET":"IBETA","PLACES":"HALALE"},
{"REGION":"SONGWE","POSTCODE":"54311","DISTRICT":"ILEJE","WARD":"IKINGA","STREET":"KAPETA","PLACES":"KAPETA"},
{"REGION":"SONGWE","POSTCODE":"54311","DISTRICT":"ILEJE","WARD":"IKINGA","STREET":"KAPETA","PLACES":"IBEMBE"},
{"REGION":"SONGWE","POSTCODE":"54311","DISTRICT":"ILEJE","WARD":"IKINGA","STREET":"KAPETA","PLACES":"LANDANI"},
{"REGION":"SONGWE","POSTCODE":"54311","DISTRICT":"ILEJE","WARD":"IKINGA","STREET":"MGAYA","PLACES":"MGAYA"},
{"REGION":"SONGWE","POSTCODE":"54311","DISTRICT":"ILEJE","WARD":"IKINGA","STREET":"MGAYA","PLACES":"LUBINDU"},
{"REGION":"SONGWE","POSTCODE":"54311","DISTRICT":"ILEJE","WARD":"IKINGA","STREET":"MGAYA","PLACES":"NGELE"},
{"REGION":"SONGWE","POSTCODE":"54311","DISTRICT":"ILEJE","WARD":"IKINGA","STREET":"MGAYA","PLACES":"KAPANGA"},
{"REGION":"SONGWE","POSTCODE":"54311","DISTRICT":"ILEJE","WARD":"IKINGA","STREET":"BWIPA","PLACES":"BWIPA"},
{"REGION":"SONGWE","POSTCODE":"54311","DISTRICT":"ILEJE","WARD":"IKINGA","STREET":"BWIPA","PLACES":"BUFWILO"},
{"REGION":"SONGWE","POSTCODE":"54311","DISTRICT":"ILEJE","WARD":"IKINGA","STREET":"BWIPA","PLACES":"MWALISI"},
{"REGION":"SONGWE","POSTCODE":"54311","DISTRICT":"ILEJE","WARD":"IKINGA","STREET":"BWIPA","PLACES":"MFULU"},
{"REGION":"SONGWE","POSTCODE":"54312","DISTRICT":"ILEJE","WARD":"SANGE","STREET":"SANGE","PLACES":"SANGE"},
{"REGION":"SONGWE","POSTCODE":"54312","DISTRICT":"ILEJE","WARD":"SANGE","STREET":"SANGE","PLACES":"ITANGA"},
{"REGION":"SONGWE","POSTCODE":"54312","DISTRICT":"ILEJE","WARD":"SANGE","STREET":"SANGE","PLACES":"MWALUPASO"},
{"REGION":"SONGWE","POSTCODE":"54312","DISTRICT":"ILEJE","WARD":"SANGE","STREET":"SANGE","PLACES":"ZAHANATI"},
{"REGION":"SONGWE","POSTCODE":"54312","DISTRICT":"ILEJE","WARD":"SANGE","STREET":"SANGE","PLACES":"MIJUNI"},
{"REGION":"SONGWE","POSTCODE":"54312","DISTRICT":"ILEJE","WARD":"SANGE","STREET":"LUSALALA","PLACES":"ITONGO"},
{"REGION":"SONGWE","POSTCODE":"54312","DISTRICT":"ILEJE","WARD":"SANGE","STREET":"LUSALALA","PLACES":"MABWE"},
{"REGION":"SONGWE","POSTCODE":"54312","DISTRICT":"ILEJE","WARD":"SANGE","STREET":"LUSALALA","PLACES":"ISANGA"},
{"REGION":"SONGWE","POSTCODE":"54312","DISTRICT":"ILEJE","WARD":"SANGE","STREET":"LUSALALA","PLACES":"MLANGA"},
{"REGION":"SONGWE","POSTCODE":"54312","DISTRICT":"ILEJE","WARD":"SANGE","STREET":"LUSALALA","PLACES":"KALEJA"},
{"REGION":"SONGWE","POSTCODE":"54312","DISTRICT":"ILEJE","WARD":"SANGE","STREET":"LUSALALA","PLACES":"MAMBI"},
{"REGION":"SONGWE","POSTCODE":"54312","DISTRICT":"ILEJE","WARD":"SANGE","STREET":"MSWIMA","PLACES":"MWAKAJWISHA"},
{"REGION":"SONGWE","POSTCODE":"54312","DISTRICT":"ILEJE","WARD":"SANGE","STREET":"MSWIMA","PLACES":"LWIBA"},
{"REGION":"SONGWE","POSTCODE":"54312","DISTRICT":"ILEJE","WARD":"SANGE","STREET":"MSWIMA","PLACES":"MAJENGO"},
{"REGION":"SONGWE","POSTCODE":"54312","DISTRICT":"ILEJE","WARD":"SANGE","STREET":"MSWIMA","PLACES":"KAIRO"},
{"REGION":"SONGWE","POSTCODE":"54313","DISTRICT":"ILEJE","WARD":"LUBANDA","STREET":"MTULA","PLACES":"MTULA"},
{"REGION":"SONGWE","POSTCODE":"54313","DISTRICT":"ILEJE","WARD":"LUBANDA","STREET":"MTULA","PLACES":"KABATA"},
{"REGION":"SONGWE","POSTCODE":"54313","DISTRICT":"ILEJE","WARD":"LUBANDA","STREET":"MTULA","PLACES":"LUBANDA"},
{"REGION":"SONGWE","POSTCODE":"54313","DISTRICT":"ILEJE","WARD":"LUBANDA","STREET":"MTULA","PLACES":"CHITETE"},
{"REGION":"SONGWE","POSTCODE":"54313","DISTRICT":"ILEJE","WARD":"LUBANDA","STREET":"MTULA","PLACES":"CHIPWELA"},
{"REGION":"SONGWE","POSTCODE":"54313","DISTRICT":"ILEJE","WARD":"LUBANDA","STREET":"BWENDA","PLACES":"BWENDA"},
{"REGION":"SONGWE","POSTCODE":"54313","DISTRICT":"ILEJE","WARD":"LUBANDA","STREET":"BWENDA","PLACES":"MTAMBO"},
{"REGION":"SONGWE","POSTCODE":"54313","DISTRICT":"ILEJE","WARD":"LUBANDA","STREET":"BWENDA","PLACES":"KALOKANI"},
{"REGION":"SONGWE","POSTCODE":"54313","DISTRICT":"ILEJE","WARD":"LUBANDA","STREET":"BWENDA","PLACES":"IGAMBA"},
{"REGION":"SONGWE","POSTCODE":"54313","DISTRICT":"ILEJE","WARD":"LUBANDA","STREET":"BWENDA","PLACES":"MBASAGILA"},
{"REGION":"SONGWE","POSTCODE":"54313","DISTRICT":"ILEJE","WARD":"LUBANDA","STREET":"BWENDA","PLACES":"IKUYU"},
{"REGION":"SONGWE","POSTCODE":"54313","DISTRICT":"ILEJE","WARD":"LUBANDA","STREET":"MBEMBATI","PLACES":"MBEMBATI"},
{"REGION":"SONGWE","POSTCODE":"54313","DISTRICT":"ILEJE","WARD":"LUBANDA","STREET":"MBEMBATI","PLACES":"MKWAWA"},
{"REGION":"SONGWE","POSTCODE":"54313","DISTRICT":"ILEJE","WARD":"LUBANDA","STREET":"MBEMBATI","PLACES":"IKOMBELA"},
{"REGION":"SONGWE","POSTCODE":"54313","DISTRICT":"ILEJE","WARD":"LUBANDA","STREET":"MBEMBATI","PLACES":"MAJENGO"},
{"REGION":"SONGWE","POSTCODE":"54313","DISTRICT":"ILEJE","WARD":"LUBANDA","STREET":"MBEMBATI","PLACES":"MATWISA"},
{"REGION":"SONGWE","POSTCODE":"54313","DISTRICT":"ILEJE","WARD":"LUBANDA","STREET":"MBEMBATI","PLACES":"ILOLA"},
{"REGION":"SONGWE","POSTCODE":"54313","DISTRICT":"ILEJE","WARD":"LUBANDA","STREET":"CHILEMBA","PLACES":"MABATINI"},
{"REGION":"SONGWE","POSTCODE":"54313","DISTRICT":"ILEJE","WARD":"LUBANDA","STREET":"CHILEMBA","PLACES":"MLIMANI"},
{"REGION":"SONGWE","POSTCODE":"54313","DISTRICT":"ILEJE","WARD":"LUBANDA","STREET":"CHILEMBA","PLACES":"CHILEMBA"},
{"REGION":"SONGWE","POSTCODE":"54313","DISTRICT":"ILEJE","WARD":"LUBANDA","STREET":"CHILEMBA","PLACES":"MASEBE"},
{"REGION":"SONGWE","POSTCODE":"54313","DISTRICT":"ILEJE","WARD":"LUBANDA","STREET":"CHILEMBA","PLACES":"IBONDE"},
{"REGION":"SONGWE","POSTCODE":"54313","DISTRICT":"ILEJE","WARD":"LUBANDA","STREET":"CHILEMBA","PLACES":"MAGAMBA"},
{"REGION":"SONGWE","POSTCODE":"54313","DISTRICT":"ILEJE","WARD":"LUBANDA","STREET":"KASANGA","PLACES":"KASANGA"},
{"REGION":"SONGWE","POSTCODE":"54313","DISTRICT":"ILEJE","WARD":"LUBANDA","STREET":"KASANGA","PLACES":"CHIGULU"},
{"REGION":"SONGWE","POSTCODE":"54313","DISTRICT":"ILEJE","WARD":"LUBANDA","STREET":"KASANGA","PLACES":"ILUNDI"},
{"REGION":"SONGWE","POSTCODE":"54314","DISTRICT":"ILEJE","WARD":"NGULUGULU","STREET":"NGULUGULU","PLACES":"IPANGA"},
{"REGION":"SONGWE","POSTCODE":"54314","DISTRICT":"ILEJE","WARD":"NGULUGULU","STREET":"NGULUGULU","PLACES":"NGULUGUGU A"},
{"REGION":"SONGWE","POSTCODE":"54314","DISTRICT":"ILEJE","WARD":"NGULUGULU","STREET":"NGULUGULU","PLACES":"NGULUGULU B"},
{"REGION":"SONGWE","POSTCODE":"54314","DISTRICT":"ILEJE","WARD":"NGULUGULU","STREET":"NGULUGULU","PLACES":"KANYENYE"},
{"REGION":"SONGWE","POSTCODE":"54314","DISTRICT":"ILEJE","WARD":"NGULUGULU","STREET":"NGULUGULU","PLACES":"IBUNGU"},
{"REGION":"SONGWE","POSTCODE":"54314","DISTRICT":"ILEJE","WARD":"NGULUGULU","STREET":"CHUKUMBULU","PLACES":"IBANGA"},
{"REGION":"SONGWE","POSTCODE":"54314","DISTRICT":"ILEJE","WARD":"NGULUGULU","STREET":"CHUKUMBULU","PLACES":"ISHARA A"},
{"REGION":"SONGWE","POSTCODE":"54314","DISTRICT":"ILEJE","WARD":"NGULUGULU","STREET":"CHUKUMBULU","PLACES":"ISHARA B"},
{"REGION":"SONGWE","POSTCODE":"54314","DISTRICT":"ILEJE","WARD":"NGULUGULU","STREET":"CHUKUMBULU","PLACES":"MWAKALELI"},
{"REGION":"SONGWE","POSTCODE":"54314","DISTRICT":"ILEJE","WARD":"NGULUGULU","STREET":"CHUKUMBULU","PLACES":"ITEMBWE"},
{"REGION":"SONGWE","POSTCODE":"54314","DISTRICT":"ILEJE","WARD":"NGULUGULU","STREET":"CHUKUMBULU","PLACES":"MTETE"},
{"REGION":"SONGWE","POSTCODE":"54314","DISTRICT":"ILEJE","WARD":"NGULUGULU","STREET":"KISYESYE","PLACES":"MAGENGE"},
{"REGION":"SONGWE","POSTCODE":"54314","DISTRICT":"ILEJE","WARD":"NGULUGULU","STREET":"KISYESYE","PLACES":"KISYESYE"},
{"REGION":"SONGWE","POSTCODE":"54314","DISTRICT":"ILEJE","WARD":"NGULUGULU","STREET":"KISYESYE","PLACES":"MWALUBUNJU"},
{"REGION":"SONGWE","POSTCODE":"54314","DISTRICT":"ILEJE","WARD":"NGULUGULU","STREET":"KISYESYE","PLACES":"KISHINGA"},
{"REGION":"SONGWE","POSTCODE":"54314","DISTRICT":"ILEJE","WARD":"NGULUGULU","STREET":"KISYESYE","PLACES":"IJONGWE"},
{"REGION":"SONGWE","POSTCODE":"54314","DISTRICT":"ILEJE","WARD":"NGULUGULU","STREET":"KISYESYE","PLACES":"KAPUGI A"},
{"REGION":"SONGWE","POSTCODE":"54314","DISTRICT":"ILEJE","WARD":"NGULUGULU","STREET":"KISYESYE","PLACES":"KAPUGI B"},
{"REGION":"SONGWE","POSTCODE":"54314","DISTRICT":"ILEJE","WARD":"NGULUGULU","STREET":"BUFULA","PLACES":"KINA"},
{"REGION":"SONGWE","POSTCODE":"54314","DISTRICT":"ILEJE","WARD":"NGULUGULU","STREET":"BUFULA","PLACES":"BUFULA"},
{"REGION":"SONGWE","POSTCODE":"54315","DISTRICT":"ILEJE","WARD":"LUSWISI","STREET":"LUSWISI","PLACES":"LUSWISI"},
{"REGION":"SONGWE","POSTCODE":"54315","DISTRICT":"ILEJE","WARD":"LUSWISI","STREET":"LUSWISI","PLACES":"LUTETE"},
{"REGION":"SONGWE","POSTCODE":"54315","DISTRICT":"ILEJE","WARD":"LUSWISI","STREET":"LUSWISI","PLACES":"ITAMANDA"},
{"REGION":"SONGWE","POSTCODE":"54315","DISTRICT":"ILEJE","WARD":"LUSWISI","STREET":"LUSWISI","PLACES":"SONGWE"},
{"REGION":"SONGWE","POSTCODE":"54315","DISTRICT":"ILEJE","WARD":"LUSWISI","STREET":"MAKOGA","PLACES":"MAKOGA"},
{"REGION":"SONGWE","POSTCODE":"54315","DISTRICT":"ILEJE","WARD":"LUSWISI","STREET":"MAKOGA","PLACES":"KAFWAFWA"},
{"REGION":"SONGWE","POSTCODE":"54315","DISTRICT":"ILEJE","WARD":"LUSWISI","STREET":"MAKOGA","PLACES":"MEGA"},
{"REGION":"SONGWE","POSTCODE":"54315","DISTRICT":"ILEJE","WARD":"LUSWISI","STREET":"CHIBILA","PLACES":"CHIBILA"},
{"REGION":"SONGWE","POSTCODE":"54315","DISTRICT":"ILEJE","WARD":"LUSWISI","STREET":"CHIBILA","PLACES":"IBAGA"},
{"REGION":"SONGWE","POSTCODE":"54315","DISTRICT":"ILEJE","WARD":"LUSWISI","STREET":"CHIBILA","PLACES":"NGUNGUNI"},
{"REGION":"SONGWE","POSTCODE":"54315","DISTRICT":"ILEJE","WARD":"LUSWISI","STREET":"IPANDE","PLACES":"IPANDE"},
{"REGION":"SONGWE","POSTCODE":"54315","DISTRICT":"ILEJE","WARD":"LUSWISI","STREET":"IPANDE","PLACES":"JIBANDA"},
{"REGION":"SONGWE","POSTCODE":"54315","DISTRICT":"ILEJE","WARD":"LUSWISI","STREET":"IPANDE","PLACES":"MLENGE"},
{"REGION":"SONGWE","POSTCODE":"54316","DISTRICT":"ILEJE","WARD":"NGULILO","STREET":"NGULILO","PLACES":"NGULILO"},
{"REGION":"SONGWE","POSTCODE":"54316","DISTRICT":"ILEJE","WARD":"NGULILO","STREET":"NGULILO","PLACES":"IPESI"},
{"REGION":"SONGWE","POSTCODE":"54316","DISTRICT":"ILEJE","WARD":"NGULILO","STREET":"NGULILO","PLACES":"MLIMBA"},
{"REGION":"SONGWE","POSTCODE":"54316","DISTRICT":"ILEJE","WARD":"NGULILO","STREET":"NGULILO","PLACES":"IKOMBE"},
{"REGION":"SONGWE","POSTCODE":"54316","DISTRICT":"ILEJE","WARD":"NGULILO","STREET":"SHIRINGA","PLACES":"KABALE"},
{"REGION":"SONGWE","POSTCODE":"54316","DISTRICT":"ILEJE","WARD":"NGULILO","STREET":"SHIRINGA","PLACES":"CHUNYA"},
{"REGION":"SONGWE","POSTCODE":"54316","DISTRICT":"ILEJE","WARD":"NGULILO","STREET":"SHIRINGA","PLACES":"IBUTUTU"},
{"REGION":"SONGWE","POSTCODE":"54316","DISTRICT":"ILEJE","WARD":"NGULILO","STREET":"SAPANDA","PLACES":"SAPANDA"},
{"REGION":"SONGWE","POSTCODE":"54316","DISTRICT":"ILEJE","WARD":"NGULILO","STREET":"SAPANDA","PLACES":"SAMBOGO"},
{"REGION":"SONGWE","POSTCODE":"54316","DISTRICT":"ILEJE","WARD":"NGULILO","STREET":"SAPANDA","PLACES":"MBEPETE"},
{"REGION":"SONGWE","POSTCODE":"54316","DISTRICT":"ILEJE","WARD":"NGULILO","STREET":"NDAPWA","PLACES":"IPOJO"},
{"REGION":"SONGWE","POSTCODE":"54316","DISTRICT":"ILEJE","WARD":"NGULILO","STREET":"NDAPWA","PLACES":"BUSANGO"},
{"REGION":"SONGWE","POSTCODE":"54316","DISTRICT":"ILEJE","WARD":"NGULILO","STREET":"NDAPWA","PLACES":"NDAPWA"},
{"REGION":"SONGWE","POSTCODE":"54317","DISTRICT":"ILEJE","WARD":"MLALE","STREET":"MLALE","PLACES":"MPEMBE"},
{"REGION":"SONGWE","POSTCODE":"54317","DISTRICT":"ILEJE","WARD":"MLALE","STREET":"MLALE","PLACES":"SHIGOMBOLA"},
{"REGION":"SONGWE","POSTCODE":"54317","DISTRICT":"ILEJE","WARD":"MLALE","STREET":"MLALE","PLACES":"ILAGANILO"},
{"REGION":"SONGWE","POSTCODE":"54317","DISTRICT":"ILEJE","WARD":"MLALE","STREET":"MLALE","PLACES":"MCHALA"},
{"REGION":"SONGWE","POSTCODE":"54317","DISTRICT":"ILEJE","WARD":"MLALE","STREET":"MLALE","PLACES":"MAJENGO"},
{"REGION":"SONGWE","POSTCODE":"54317","DISTRICT":"ILEJE","WARD":"MLALE","STREET":"MLALE","PLACES":"SIMBOBE"},
{"REGION":"SONGWE","POSTCODE":"54317","DISTRICT":"ILEJE","WARD":"MLALE","STREET":"ILANGA","PLACES":"MBEYA"},
{"REGION":"SONGWE","POSTCODE":"54317","DISTRICT":"ILEJE","WARD":"MLALE","STREET":"ILANGA","PLACES":"LUSUNGO"},
{"REGION":"SONGWE","POSTCODE":"54317","DISTRICT":"ILEJE","WARD":"MLALE","STREET":"ILANGA","PLACES":"UFIPA"},
{"REGION":"SONGWE","POSTCODE":"54317","DISTRICT":"ILEJE","WARD":"MLALE","STREET":"YULI","PLACES":"IKUMBI"},
{"REGION":"SONGWE","POSTCODE":"54317","DISTRICT":"ILEJE","WARD":"MLALE","STREET":"YULI","PLACES":"HASALE"},
{"REGION":"SONGWE","POSTCODE":"54317","DISTRICT":"ILEJE","WARD":"MLALE","STREET":"YULI","PLACES":"NASHIPASA"},
{"REGION":"SONGWE","POSTCODE":"54318","DISTRICT":"ILEJE","WARD":"KALEMBO","STREET":"KALEMBO","PLACES":"IPANDE"},
{"REGION":"SONGWE","POSTCODE":"54318","DISTRICT":"ILEJE","WARD":"KALEMBO","STREET":"KALEMBO","PLACES":"VULI"},
{"REGION":"SONGWE","POSTCODE":"54318","DISTRICT":"ILEJE","WARD":"KALEMBO","STREET":"KALEMBO","PLACES":"MKUYU"},
{"REGION":"SONGWE","POSTCODE":"54318","DISTRICT":"ILEJE","WARD":"KALEMBO","STREET":"KALEMBO","PLACES":"KALEMBO"},
{"REGION":"SONGWE","POSTCODE":"54318","DISTRICT":"ILEJE","WARD":"KALEMBO","STREET":"KALEMBO","PLACES":"IPASA"},
{"REGION":"SONGWE","POSTCODE":"54318","DISTRICT":"ILEJE","WARD":"KALEMBO","STREET":"KABALE","PLACES":"KABALE A"},
{"REGION":"SONGWE","POSTCODE":"54318","DISTRICT":"ILEJE","WARD":"KALEMBO","STREET":"KABALE","PLACES":"KABALE B"},
{"REGION":"SONGWE","POSTCODE":"54318","DISTRICT":"ILEJE","WARD":"KALEMBO","STREET":"MBANGALA","PLACES":"MBANGALA A"},
{"REGION":"SONGWE","POSTCODE":"54318","DISTRICT":"ILEJE","WARD":"KALEMBO","STREET":"MBANGALA","PLACES":"MBANGALA B"},
{"REGION":"SONGWE","POSTCODE":"54318","DISTRICT":"ILEJE","WARD":"KALEMBO","STREET":"MBANGALA","PLACES":"MBAGALA C"},
{"REGION":"SONGWE","POSTCODE":"54318","DISTRICT":"ILEJE","WARD":"KALEMBO","STREET":"IBANDI","PLACES":"IBANDI"},
{"REGION":"SONGWE","POSTCODE":"54318","DISTRICT":"ILEJE","WARD":"KALEMBO","STREET":"IBANDI","PLACES":"SWEBE"},
{"REGION":"SONGWE","POSTCODE":"54401","DISTRICT":"MOMBA","WARD":"TUNDUMA","STREET":"TUKUYU","PLACES":""},
{"REGION":"SONGWE","POSTCODE":"54401","DISTRICT":"MOMBA","WARD":"TUNDUMA","STREET":"SIKANYIKA","PLACES":""},
{"REGION":"SONGWE","POSTCODE":"54401","DISTRICT":"MOMBA","WARD":"TUNDUMA","STREET":"IHANDA","PLACES":""},
{"REGION":"SONGWE","POSTCODE":"54401","DISTRICT":"MOMBA","WARD":"TUNDUMA","STREET":"UNYAMWANGA","PLACES":""},
{"REGION":"SONGWE","POSTCODE":"54401","DISTRICT":"MOMBA","WARD":"TUNDUMA","STREET":"TUNDUMA KATI","PLACES":""},
{"REGION":"SONGWE","POSTCODE":"54402","DISTRICT":"MOMBA","WARD":"CHIWEZI","STREET":"CHIWEZI","PLACES":""},
{"REGION":"SONGWE","POSTCODE":"54402","DISTRICT":"MOMBA","WARD":"CHIWEZI","STREET":"NAMOLE","PLACES":""},
{"REGION":"SONGWE","POSTCODE":"54402","DISTRICT":"MOMBA","WARD":"CHIWEZI","STREET":"NSANZYA","PLACES":""},
{"REGION":"SONGWE","POSTCODE":"54402","DISTRICT":"MOMBA","WARD":"CHIWEZI","STREET":"NIUMBA","PLACES":""},
{"REGION":"SONGWE","POSTCODE":"54402","DISTRICT":"MOMBA","WARD":"CHIWEZI","STREET":"MSAMBA II","PLACES":""},
{"REGION":"SONGWE","POSTCODE":"54403","DISTRICT":"MOMBA","WARD":"NKANGAMO","STREET":"CHIWANDA","PLACES":"CHIWANDA"},
{"REGION":"SONGWE","POSTCODE":"54403","DISTRICT":"MOMBA","WARD":"NKANGAMO","STREET":"CHIWANDA","PLACES":"CHIMILA"},
{"REGION":"SONGWE","POSTCODE":"54403","DISTRICT":"MOMBA","WARD":"NKANGAMO","STREET":"CHIWANDA","PLACES":"MUKO"},
{"REGION":"SONGWE","POSTCODE":"54403","DISTRICT":"MOMBA","WARD":"NKANGAMO","STREET":"CHIWANDA","PLACES":"MLANGALI"},
{"REGION":"SONGWE","POSTCODE":"54403","DISTRICT":"MOMBA","WARD":"NKANGAMO","STREET":"CHIWANDA","PLACES":"MPUMPI"},
{"REGION":"SONGWE","POSTCODE":"54403","DISTRICT":"MOMBA","WARD":"NKANGAMO","STREET":"NKANGAMO","PLACES":"NKANGAMO"},
{"REGION":"SONGWE","POSTCODE":"54403","DISTRICT":"MOMBA","WARD":"NKANGAMO","STREET":"NKANGAMO","PLACES":"NZAZI"},
{"REGION":"SONGWE","POSTCODE":"54403","DISTRICT":"MOMBA","WARD":"NKANGAMO","STREET":"NKANGAMO","PLACES":"ILUMA"},
{"REGION":"SONGWE","POSTCODE":"54403","DISTRICT":"MOMBA","WARD":"NKANGAMO","STREET":"NKANGAMO","PLACES":"ZANGA"},
{"REGION":"SONGWE","POSTCODE":"54403","DISTRICT":"MOMBA","WARD":"NKANGAMO","STREET":"ISANGA","PLACES":"MWAKA"},
{"REGION":"SONGWE","POSTCODE":"54403","DISTRICT":"MOMBA","WARD":"NKANGAMO","STREET":"ISANGA","PLACES":"MZUNDU"},
{"REGION":"SONGWE","POSTCODE":"54403","DISTRICT":"MOMBA","WARD":"NKANGAMO","STREET":"ISANGA","PLACES":"MAJENGO"},
{"REGION":"SONGWE","POSTCODE":"54403","DISTRICT":"MOMBA","WARD":"NKANGAMO","STREET":"ISANGA","PLACES":"NYANGU"},
{"REGION":"SONGWE","POSTCODE":"54403","DISTRICT":"MOMBA","WARD":"NKANGAMO","STREET":"ISANGA","PLACES":"KATETE"},
{"REGION":"SONGWE","POSTCODE":"54403","DISTRICT":"MOMBA","WARD":"NKANGAMO","STREET":"ISANGA","PLACES":"MPAPA"},
{"REGION":"SONGWE","POSTCODE":"54404","DISTRICT":"MOMBA","WARD":"NDALAMBO","STREET":"NDALAMBO","PLACES":"NDALAMBO"},
{"REGION":"SONGWE","POSTCODE":"54404","DISTRICT":"MOMBA","WARD":"NDALAMBO","STREET":"NDALAMBO","PLACES":"KAMSUNTE"},
{"REGION":"SONGWE","POSTCODE":"54404","DISTRICT":"MOMBA","WARD":"NDALAMBO","STREET":"NDALAMBO","PLACES":"CHALAWIKOZI"},
{"REGION":"SONGWE","POSTCODE":"54404","DISTRICT":"MOMBA","WARD":"NDALAMBO","STREET":"NDALAMBO","PLACES":"NANKONJE"},
{"REGION":"SONGWE","POSTCODE":"54404","DISTRICT":"MOMBA","WARD":"NDALAMBO","STREET":"NDALAMBO","PLACES":"KAMWANKOKO"},
{"REGION":"SONGWE","POSTCODE":"54404","DISTRICT":"MOMBA","WARD":"NDALAMBO","STREET":"MENGO","PLACES":"MENGO"},
{"REGION":"SONGWE","POSTCODE":"54404","DISTRICT":"MOMBA","WARD":"NDALAMBO","STREET":"MENGO","PLACES":"KALONGA"},
{"REGION":"SONGWE","POSTCODE":"54404","DISTRICT":"MOMBA","WARD":"NDALAMBO","STREET":"MENGO","PLACES":"MTAKUJA"},
{"REGION":"SONGWE","POSTCODE":"54404","DISTRICT":"MOMBA","WARD":"NDALAMBO","STREET":"MENGO","PLACES":"MZOMBO"},
{"REGION":"SONGWE","POSTCODE":"54404","DISTRICT":"MOMBA","WARD":"NDALAMBO","STREET":"MENGO","PLACES":"CHILOVYA"},
{"REGION":"SONGWE","POSTCODE":"54404","DISTRICT":"MOMBA","WARD":"NDALAMBO","STREET":"IPUMPILA","PLACES":"IPUMPILA"},
{"REGION":"SONGWE","POSTCODE":"54404","DISTRICT":"MOMBA","WARD":"NDALAMBO","STREET":"IPUMPILA","PLACES":"CHITETE"},
{"REGION":"SONGWE","POSTCODE":"54404","DISTRICT":"MOMBA","WARD":"NDALAMBO","STREET":"IPUMPILA","PLACES":"KAYUMBI"},
{"REGION":"SONGWE","POSTCODE":"54404","DISTRICT":"MOMBA","WARD":"NDALAMBO","STREET":"KAKOZI","PLACES":"KAKOZI KATI"},
{"REGION":"SONGWE","POSTCODE":"54404","DISTRICT":"MOMBA","WARD":"NDALAMBO","STREET":"KAKOZI","PLACES":"MSEKWA"},
{"REGION":"SONGWE","POSTCODE":"54404","DISTRICT":"MOMBA","WARD":"NDALAMBO","STREET":"KAKOZI","PLACES":"MASANGATI"},
{"REGION":"SONGWE","POSTCODE":"54404","DISTRICT":"MOMBA","WARD":"NDALAMBO","STREET":"KAKOZI","PLACES":"KASEWA"},
{"REGION":"SONGWE","POSTCODE":"54405","DISTRICT":"MOMBA","WARD":"MSANGANO","STREET":"MSANGANO","PLACES":"MLANDA “A”"}
,
{"REGION":"SONGWE","POSTCODE":"54405","DISTRICT":"MOMBA","WARD":"MSANGANO","STREET":"MSANGANO","PLACES":"MLANDA “B”"}
,
{"REGION":"SONGWE","POSTCODE":"54405","DISTRICT":"MOMBA","WARD":"MSANGANO","STREET":"MSANGANO","PLACES":"MLANDA “C”"}
,
{"REGION":"SONGWE","POSTCODE":"54405","DISTRICT":"MOMBA","WARD":"MSANGANO","STREET":"MSANGANO","PLACES":"MLANDA “D”"}
,
{"REGION":"SONGWE","POSTCODE":"54405","DISTRICT":"MOMBA","WARD":"MSANGANO","STREET":"MSANGANO","PLACES":"IPENZA"},
{"REGION":"SONGWE","POSTCODE":"54405","DISTRICT":"MOMBA","WARD":"MSANGANO","STREET":"MSANGANO","PLACES":"KAWALE"},
{"REGION":"SONGWE","POSTCODE":"54405","DISTRICT":"MOMBA","WARD":"MSANGANO","STREET":"MSANGANO","PLACES":"IYELA"},
{"REGION":"SONGWE","POSTCODE":"54405","DISTRICT":"MOMBA","WARD":"MSANGANO","STREET":"MSANGANO","PLACES":"RUANDA"},
{"REGION":"SONGWE","POSTCODE":"54405","DISTRICT":"MOMBA","WARD":"MSANGANO","STREET":"MSANGANO","PLACES":"MBUYUNI"},
{"REGION":"SONGWE","POSTCODE":"54405","DISTRICT":"MOMBA","WARD":"MSANGANO","STREET":"NTINGA","PLACES":"CHANSENAMWA"},
{"REGION":"SONGWE","POSTCODE":"54405","DISTRICT":"MOMBA","WARD":"MSANGANO","STREET":"NTINGA","PLACES":"MILEMWA “A”"}
,
{"REGION":"SONGWE","POSTCODE":"54405","DISTRICT":"MOMBA","WARD":"MSANGANO","STREET":"NTINGA","PLACES":"MILEMWA “B”"}
,
{"REGION":"SONGWE","POSTCODE":"54405","DISTRICT":"MOMBA","WARD":"MSANGANO","STREET":"NTINGA","PLACES":"SAYUNI"},
{"REGION":"SONGWE","POSTCODE":"54405","DISTRICT":"MOMBA","WARD":"MSANGANO","STREET":"NTINGA","PLACES":"TEMBEZI"},
{"REGION":"SONGWE","POSTCODE":"54405","DISTRICT":"MOMBA","WARD":"MSANGANO","STREET":"CHINDI","PLACES":"MPAPA"},
{"REGION":"SONGWE","POSTCODE":"54405","DISTRICT":"MOMBA","WARD":"MSANGANO","STREET":"CHINDI","PLACES":"MSIA"},
{"REGION":"SONGWE","POSTCODE":"54405","DISTRICT":"MOMBA","WARD":"MSANGANO","STREET":"CHINDI","PLACES":"NDALWE"},
{"REGION":"SONGWE","POSTCODE":"54405","DISTRICT":"MOMBA","WARD":"MSANGANO","STREET":"CHINDI","PLACES":"IKONKO"},
{"REGION":"SONGWE","POSTCODE":"54405","DISTRICT":"MOMBA","WARD":"MSANGANO","STREET":"CHINDI","PLACES":"CHINDI ‘A’"}
,
{"REGION":"SONGWE","POSTCODE":"54405","DISTRICT":"MOMBA","WARD":"MSANGANO","STREET":"CHINDI","PLACES":"CHINDI ‘B’"}
,
{"REGION":"SONGWE","POSTCODE":"54405","DISTRICT":"MOMBA","WARD":"MSANGANO","STREET":"CHINDI","PLACES":"NANTUMBE"},
{"REGION":"SONGWE","POSTCODE":"54405","DISTRICT":"MOMBA","WARD":"MSANGANO","STREET":"CHINDI","PLACES":"MIKUTI"},
{"REGION":"SONGWE","POSTCODE":"54405","DISTRICT":"MOMBA","WARD":"MSANGANO","STREET":"CHINDI","PLACES":"MAJENGO"},
{"REGION":"SONGWE","POSTCODE":"54405","DISTRICT":"MOMBA","WARD":"MSANGANO","STREET":"MNYUZI","PLACES":"MNYUZI"},
{"REGION":"SONGWE","POSTCODE":"54405","DISTRICT":"MOMBA","WARD":"MSANGANO","STREET":"MNYUZI","PLACES":"LWANDA"},
{"REGION":"SONGWE","POSTCODE":"54405","DISTRICT":"MOMBA","WARD":"MSANGANO","STREET":"MNYUZI","PLACES":"MTAKUJA"},
{"REGION":"SONGWE","POSTCODE":"54405","DISTRICT":"MOMBA","WARD":"MSANGANO","STREET":"MNYUZI","PLACES":"MKOMBA"},
{"REGION":"SONGWE","POSTCODE":"54405","DISTRICT":"MOMBA","WARD":"MSANGANO","STREET":"MNYUZI","PLACES":"NANTETE"},
{"REGION":"SONGWE","POSTCODE":"54405","DISTRICT":"MOMBA","WARD":"MSANGANO","STREET":"IPATA","PLACES":"KOMBE"},
{"REGION":"SONGWE","POSTCODE":"54405","DISTRICT":"MOMBA","WARD":"MSANGANO","STREET":"IPATA","PLACES":"IPATA"},
{"REGION":"SONGWE","POSTCODE":"54405","DISTRICT":"MOMBA","WARD":"MSANGANO","STREET":"IPATA","PLACES":"MHEZA"},
{"REGION":"SONGWE","POSTCODE":"54405","DISTRICT":"MOMBA","WARD":"MSANGANO","STREET":"IPATA","PLACES":"NAFINGA"},
{"REGION":"SONGWE","POSTCODE":"54405","DISTRICT":"MOMBA","WARD":"MSANGANO","STREET":"IPATA","PLACES":"NACHIZINJI"},
{"REGION":"SONGWE","POSTCODE":"54406","DISTRICT":"MOMBA","WARD":"CHITETE","STREET":"CHITETE","PLACES":"CHITETE KATI"},
{"REGION":"SONGWE","POSTCODE":"54406","DISTRICT":"MOMBA","WARD":"CHITETE","STREET":"CHITETE","PLACES":"MINTAKOMWA"},
{"REGION":"SONGWE","POSTCODE":"54406","DISTRICT":"MOMBA","WARD":"CHITETE","STREET":"CHITETE","PLACES":"MSOGEZE"},
{"REGION":"SONGWE","POSTCODE":"54406","DISTRICT":"MOMBA","WARD":"CHITETE","STREET":"MLOMBA","PLACES":"IKUNGWE"},
{"REGION":"SONGWE","POSTCODE":"54406","DISTRICT":"MOMBA","WARD":"CHITETE","STREET":"MLOMBA","PLACES":"POLILELO"},
{"REGION":"SONGWE","POSTCODE":"54406","DISTRICT":"MOMBA","WARD":"CHITETE","STREET":"MLOMBA","PLACES":"MBALWA"},
{"REGION":"SONGWE","POSTCODE":"54406","DISTRICT":"MOMBA","WARD":"CHITETE","STREET":"NKALA","PLACES":"CHING’ONY’O"}
,
{"REGION":"SONGWE","POSTCODE":"54406","DISTRICT":"MOMBA","WARD":"CHITETE","STREET":"NKALA","PLACES":"MUWEMBA ‘A’"}
,
{"REGION":"SONGWE","POSTCODE":"54406","DISTRICT":"MOMBA","WARD":"CHITETE","STREET":"NKALA","PLACES":"MUWEMBA ‘B’"}
,
{"REGION":"SONGWE","POSTCODE":"54406","DISTRICT":"MOMBA","WARD":"CHITETE","STREET":"NKALA","PLACES":"CHIKAMBA"},
{"REGION":"SONGWE","POSTCODE":"54406","DISTRICT":"MOMBA","WARD":"CHITETE","STREET":"NKALA","PLACES":"HAKAMBA ‘C’"}
,
{"REGION":"SONGWE","POSTCODE":"54406","DISTRICT":"MOMBA","WARD":"CHITETE","STREET":"MAKAMBA","PLACES":"MAKAMBA ‘A’"}
,
{"REGION":"SONGWE","POSTCODE":"54406","DISTRICT":"MOMBA","WARD":"CHITETE","STREET":"MAKAMBA","PLACES":"MAKAMBA ‘B’"}
,
{"REGION":"SONGWE","POSTCODE":"54406","DISTRICT":"MOMBA","WARD":"CHITETE","STREET":"MAKAMBA","PLACES":"LOZI"},
{"REGION":"SONGWE","POSTCODE":"54406","DISTRICT":"MOMBA","WARD":"CHITETE","STREET":"NAMING’ONGO","PLACES":"NAMING’ONGO"}
,
{"REGION":"SONGWE","POSTCODE":"54406","DISTRICT":"MOMBA","WARD":"CHITETE","STREET":"NAMING’ONGO","PLACES":"KAWANA"}
,
{"REGION":"SONGWE","POSTCODE":"54406","DISTRICT":"MOMBA","WARD":"CHITETE","STREET":"NAMING’ONGO","PLACES":"NACHISITU"}
,
{"REGION":"SONGWE","POSTCODE":"54406","DISTRICT":"MOMBA","WARD":"CHITETE","STREET":"NAMING’ONGO","PLACES":"NSALA"}
,
{"REGION":"SONGWE","POSTCODE":"54406","DISTRICT":"MOMBA","WARD":"CHITETE","STREET":"NAMING’ONGO","PLACES":"MSWEPA"}
,
{"REGION":"SONGWE","POSTCODE":"54406","DISTRICT":"MOMBA","WARD":"CHITETE","STREET":"YALA","PLACES":"YALA"},
{"REGION":"SONGWE","POSTCODE":"54406","DISTRICT":"MOMBA","WARD":"CHITETE","STREET":"YALA","PLACES":"NG’AMBA"}
,
{"REGION":"SONGWE","POSTCODE":"54406","DISTRICT":"MOMBA","WARD":"CHITETE","STREET":"TINDINGOMA","PLACES":"CHIPECHELO"},
{"REGION":"SONGWE","POSTCODE":"54406","DISTRICT":"MOMBA","WARD":"CHITETE","STREET":"TINDINGOMA","PLACES":"MOROGORO"},
{"REGION":"SONGWE","POSTCODE":"54406","DISTRICT":"MOMBA","WARD":"CHITETE","STREET":"TINDINGOMA","PLACES":"IYUNGA"},
{"REGION":"SONGWE","POSTCODE":"54407","DISTRICT":"MOMBA","WARD":"IVUNA","STREET":"IVUNA","PLACES":"KINAMWENE"},
{"REGION":"SONGWE","POSTCODE":"54407","DISTRICT":"MOMBA","WARD":"IVUNA","STREET":"IVUNA","PLACES":"MNYUZI"},
{"REGION":"SONGWE","POSTCODE":"54407","DISTRICT":"MOMBA","WARD":"IVUNA","STREET":"IVUNA","PLACES":"IKONJE"},
{"REGION":"SONGWE","POSTCODE":"54407","DISTRICT":"MOMBA","WARD":"IVUNA","STREET":"IVUNA","PLACES":"MABATINI"},
{"REGION":"SONGWE","POSTCODE":"54407","DISTRICT":"MOMBA","WARD":"IVUNA","STREET":"IVUNA","PLACES":"KALOLENI"},
{"REGION":"SONGWE","POSTCODE":"54407","DISTRICT":"MOMBA","WARD":"IVUNA","STREET":"ITUMBULA","PLACES":"CHUMVI"},
{"REGION":"SONGWE","POSTCODE":"54407","DISTRICT":"MOMBA","WARD":"IVUNA","STREET":"ITUMBULA","PLACES":"MORAVIAN"},
{"REGION":"SONGWE","POSTCODE":"54407","DISTRICT":"MOMBA","WARD":"IVUNA","STREET":"ITUMBULA","PLACES":"NAKASANU"},
{"REGION":"SONGWE","POSTCODE":"54407","DISTRICT":"MOMBA","WARD":"IVUNA","STREET":"LWATWE","PLACES":"INUNKA"},
{"REGION":"SONGWE","POSTCODE":"54407","DISTRICT":"MOMBA","WARD":"IVUNA","STREET":"LWATWE","PLACES":"MTAKUJA “A”"}
,
{"REGION":"SONGWE","POSTCODE":"54407","DISTRICT":"MOMBA","WARD":"IVUNA","STREET":"LWATWE","PLACES":"MBAMBILA"},
{"REGION":"SONGWE","POSTCODE":"54407","DISTRICT":"MOMBA","WARD":"IVUNA","STREET":"LWATWE","PLACES":"MSHANSHA"},
{"REGION":"SONGWE","POSTCODE":"54407","DISTRICT":"MOMBA","WARD":"IVUNA","STREET":"LWATWE","PLACES":"MTAKUJA “B”"}
,
{"REGION":"SONGWE","POSTCODE":"54407","DISTRICT":"MOMBA","WARD":"IVUNA","STREET":"SAMANG’OMBE","PLACES":"FORODHANI"}
,
{"REGION":"SONGWE","POSTCODE":"54407","DISTRICT":"MOMBA","WARD":"IVUNA","STREET":"SAMANG’OMBE","PLACES":"MSHANSHA"}
,
{"REGION":"SONGWE","POSTCODE":"54407","DISTRICT":"MOMBA","WARD":"IVUNA","STREET":"SAMANG’OMBE","PLACES":"MASUCHE"}
,
{"REGION":"SONGWE","POSTCODE":"54407","DISTRICT":"MOMBA","WARD":"IVUNA","STREET":"SAMANG’OMBE","PLACES":"SAMANG’OMBE “A”"}
,
{"REGION":"SONGWE","POSTCODE":"54407","DISTRICT":"MOMBA","WARD":"IVUNA","STREET":"SAMANG’OMBE","PLACES":"SAMANG’OMBE “B”"}
,
{"REGION":"SONGWE","POSTCODE":"54407","DISTRICT":"MOMBA","WARD":"IVUNA","STREET":"KALUNGU","PLACES":"KALUNGU “A”"}
,
{"REGION":"SONGWE","POSTCODE":"54407","DISTRICT":"MOMBA","WARD":"IVUNA","STREET":"KALUNGU","PLACES":"KANISANI"},
{"REGION":"SONGWE","POSTCODE":"54407","DISTRICT":"MOMBA","WARD":"IVUNA","STREET":"KALUNGU","PLACES":"KALUNGU “B”"}
,
{"REGION":"SONGWE","POSTCODE":"54407","DISTRICT":"MOMBA","WARD":"IVUNA","STREET":"KALUNGU","PLACES":"MUBUYUNI"},
{"REGION":"SONGWE","POSTCODE":"54407","DISTRICT":"MOMBA","WARD":"IVUNA","STREET":"KALUNGU","PLACES":"NANKANGA"},
{"REGION":"SONGWE","POSTCODE":"54408","DISTRICT":"MOMBA","WARD":"KAMSAMBA","STREET":"KAMSAMBA","PLACES":"KAMSAMBA KATI"},
{"REGION":"SONGWE","POSTCODE":"54408","DISTRICT":"MOMBA","WARD":"KAMSAMBA","STREET":"KAMSAMBA","PLACES":"MTUI"},
{"REGION":"SONGWE","POSTCODE":"54408","DISTRICT":"MOMBA","WARD":"KAMSAMBA","STREET":"KAMSAMBA","PLACES":"MUWEMBA"},
{"REGION":"SONGWE","POSTCODE":"54408","DISTRICT":"MOMBA","WARD":"KAMSAMBA","STREET":"KAMSAMBA","PLACES":"MALANGWA"},
{"REGION":"SONGWE","POSTCODE":"54408","DISTRICT":"MOMBA","WARD":"KAMSAMBA","STREET":"KAMSAMBA","PLACES":"NTEMBO"},
{"REGION":"SONGWE","POSTCODE":"54408","DISTRICT":"MOMBA","WARD":"KAMSAMBA","STREET":"MUUNGANO","PLACES":"MDUNDO"},
{"REGION":"SONGWE","POSTCODE":"54408","DISTRICT":"MOMBA","WARD":"KAMSAMBA","STREET":"MUUNGANO","PLACES":"MIYUNGA"},
{"REGION":"SONGWE","POSTCODE":"54408","DISTRICT":"MOMBA","WARD":"KAMSAMBA","STREET":"MUUNGANO","PLACES":"CHIMBO"},
{"REGION":"SONGWE","POSTCODE":"54408","DISTRICT":"MOMBA","WARD":"KAMSAMBA","STREET":"MUUNGANO","PLACES":"KAPUTA"},
{"REGION":"SONGWE","POSTCODE":"54408","DISTRICT":"MOMBA","WARD":"KAMSAMBA","STREET":"MUUYU","PLACES":"MUUYU KATI"},
{"REGION":"SONGWE","POSTCODE":"54408","DISTRICT":"MOMBA","WARD":"KAMSAMBA","STREET":"MUUYU","PLACES":"SOGEA"},
{"REGION":"SONGWE","POSTCODE":"54408","DISTRICT":"MOMBA","WARD":"KAMSAMBA","STREET":"MUUYU","PLACES":"KAOMBWE"},
{"REGION":"SONGWE","POSTCODE":"54408","DISTRICT":"MOMBA","WARD":"KAMSAMBA","STREET":"MKONKO","PLACES":"LAELA"},
{"REGION":"SONGWE","POSTCODE":"54408","DISTRICT":"MOMBA","WARD":"KAMSAMBA","STREET":"MKONKO","PLACES":"MKWAJUNI"},
{"REGION":"SONGWE","POSTCODE":"54408","DISTRICT":"MOMBA","WARD":"KAMSAMBA","STREET":"MKONKO","PLACES":"MWAMI"},
{"REGION":"SONGWE","POSTCODE":"54408","DISTRICT":"MOMBA","WARD":"KAMSAMBA","STREET":"MKONKO","PLACES":"DESSA"},
{"REGION":"SONGWE","POSTCODE":"54408","DISTRICT":"MOMBA","WARD":"KAMSAMBA","STREET":"USOCHE","PLACES":"IWETA"},
{"REGION":"SONGWE","POSTCODE":"54408","DISTRICT":"MOMBA","WARD":"KAMSAMBA","STREET":"USOCHE","PLACES":"MCHANGANI"},
{"REGION":"SONGWE","POSTCODE":"54408","DISTRICT":"MOMBA","WARD":"KAMSAMBA","STREET":"USOCHE","PLACES":"CHANGOMBE"},
{"REGION":"SONGWE","POSTCODE":"54408","DISTRICT":"MOMBA","WARD":"KAMSAMBA","STREET":"USOCHE","PLACES":"MIEMBENI"},
{"REGION":"SONGWE","POSTCODE":"54408","DISTRICT":"MOMBA","WARD":"KAMSAMBA","STREET":"SENGA","PLACES":"SENGA"},
{"REGION":"SONGWE","POSTCODE":"54408","DISTRICT":"MOMBA","WARD":"KAMSAMBA","STREET":"SENGA","PLACES":"CHANG’OMBE"}
,
{"REGION":"SONGWE","POSTCODE":"54408","DISTRICT":"MOMBA","WARD":"KAMSAMBA","STREET":"SENGA","PLACES":"NTELWA"},
{"REGION":"SONGWE","POSTCODE":"54408","DISTRICT":"MOMBA","WARD":"KAMSAMBA","STREET":"SENGA","PLACES":"MING’ONGO"}
,
{"REGION":"SONGWE","POSTCODE":"54408","DISTRICT":"MOMBA","WARD":"KAMSAMBA","STREET":"SENGA","PLACES":"MCHANGANI"},
{"REGION":"SONGWE","POSTCODE":"54409","DISTRICT":"MOMBA","WARD":"CHILULUMO","STREET":"CHILULUMO","PLACES":"CHILULUMO KATI"},
{"REGION":"SONGWE","POSTCODE":"54409","DISTRICT":"MOMBA","WARD":"CHILULUMO","STREET":"CHILULUMO","PLACES":"CHILULUMO JUU"},
{"REGION":"SONGWE","POSTCODE":"54409","DISTRICT":"MOMBA","WARD":"CHILULUMO","STREET":"CHILULUMO","PLACES":"MILOMBWA"},
{"REGION":"SONGWE","POSTCODE":"54409","DISTRICT":"MOMBA","WARD":"CHILULUMO","STREET":"CHILULUMO","PLACES":"MBUYUNI 'A'"},
{"REGION":"SONGWE","POSTCODE":"54409","DISTRICT":"MOMBA","WARD":"CHILULUMO","STREET":"CHILULUMO","PLACES":"MBUYUNI"},
{"REGION":"SONGWE","POSTCODE":"54409","DISTRICT":"MOMBA","WARD":"CHILULUMO","STREET":"TONTELA","PLACES":"TONTELA"},
{"REGION":"SONGWE","POSTCODE":"54409","DISTRICT":"MOMBA","WARD":"CHILULUMO","STREET":"TONTELA","PLACES":"CHINAMWENE"},
{"REGION":"SONGWE","POSTCODE":"54409","DISTRICT":"MOMBA","WARD":"CHILULUMO","STREET":"TONTELA","PLACES":"NAKASANU"},
{"REGION":"SONGWE","POSTCODE":"54409","DISTRICT":"MOMBA","WARD":"CHILULUMO","STREET":"TONTELA","PLACES":"KANYALA"},
{"REGION":"SONGWE","POSTCODE":"54409","DISTRICT":"MOMBA","WARD":"CHILULUMO","STREET":"TONTELA","PLACES":"MAWIMBA"},
{"REGION":"SONGWE","POSTCODE":"54409","DISTRICT":"MOMBA","WARD":"CHILULUMO","STREET":"KAONGA","PLACES":"KAONGA"},
{"REGION":"SONGWE","POSTCODE":"54409","DISTRICT":"MOMBA","WARD":"CHILULUMO","STREET":"KAONGA","PLACES":"MISUMBI"},
{"REGION":"SONGWE","POSTCODE":"54409","DISTRICT":"MOMBA","WARD":"CHILULUMO","STREET":"KAONGA","PLACES":"NSALA"},
{"REGION":"SONGWE","POSTCODE":"54409","DISTRICT":"MOMBA","WARD":"CHILULUMO","STREET":"KAONGA","PLACES":"MWAKA"},
{"REGION":"SONGWE","POSTCODE":"54409","DISTRICT":"MOMBA","WARD":"CHILULUMO","STREET":"KAONGA","PLACES":"MASALAWE"},
{"REGION":"SONGWE","POSTCODE":"54409","DISTRICT":"MOMBA","WARD":"CHILULUMO","STREET":"NAMSINDE I","PLACES":"SINJILI"},
{"REGION":"SONGWE","POSTCODE":"54409","DISTRICT":"MOMBA","WARD":"CHILULUMO","STREET":"NAMSINDE I","PLACES":"SULUTU"},
{"REGION":"SONGWE","POSTCODE":"54409","DISTRICT":"MOMBA","WARD":"CHILULUMO","STREET":"NSANZYA","PLACES":"NSANZYA"},
{"REGION":"SONGWE","POSTCODE":"54409","DISTRICT":"MOMBA","WARD":"CHILULUMO","STREET":"NSANZYA","PLACES":"MALANDILO"},
{"REGION":"SONGWE","POSTCODE":"54410","DISTRICT":"MOMBA","WARD":"MYUNGA","STREET":"MYUNGA","PLACES":"MYUNGA"},
{"REGION":"SONGWE","POSTCODE":"54410","DISTRICT":"MOMBA","WARD":"MYUNGA","STREET":"MYUNGA","PLACES":"KAFUTI"},
{"REGION":"SONGWE","POSTCODE":"54410","DISTRICT":"MOMBA","WARD":"MYUNGA","STREET":"MPUI","PLACES":"MPUI"},
{"REGION":"SONGWE","POSTCODE":"54410","DISTRICT":"MOMBA","WARD":"MYUNGA","STREET":"MPUI","PLACES":"NTEKWE"},
{"REGION":"SONGWE","POSTCODE":"54410","DISTRICT":"MOMBA","WARD":"MYUNGA","STREET":"MPUI","PLACES":"MSUNGO"},
{"REGION":"SONGWE","POSTCODE":"54410","DISTRICT":"MOMBA","WARD":"MYUNGA","STREET":"MFUTO","PLACES":"MFUTO"},
{"REGION":"SONGWE","POSTCODE":"54410","DISTRICT":"MOMBA","WARD":"MYUNGA","STREET":"MFUTO","PLACES":"CHIPOMA"},
{"REGION":"SONGWE","POSTCODE":"54410","DISTRICT":"MOMBA","WARD":"MYUNGA","STREET":"MACHINDO","PLACES":"MACHINDO"},
{"REGION":"SONGWE","POSTCODE":"54410","DISTRICT":"MOMBA","WARD":"MYUNGA","STREET":"MACHINDO","PLACES":"KALOLENI"},
{"REGION":"SONGWE","POSTCODE":"54410","DISTRICT":"MOMBA","WARD":"MYUNGA","STREET":"MACHINDO","PLACES":"SWEPA"},
{"REGION":"SONGWE","POSTCODE":"54410","DISTRICT":"MOMBA","WARD":"MYUNGA","STREET":"NAMSINDE II","PLACES":"NAMSINDE"},
{"REGION":"SONGWE","POSTCODE":"54410","DISTRICT":"MOMBA","WARD":"MYUNGA","STREET":"NAMSINDE II","PLACES":"MUWANGA"},
{"REGION":"SONGWE","POSTCODE":"54410","DISTRICT":"MOMBA","WARD":"MYUNGA","STREET":"ISUNDA","PLACES":"ISUNDA"},
{"REGION":"SONGWE","POSTCODE":"54410","DISTRICT":"MOMBA","WARD":"MYUNGA","STREET":"ISUNDA","PLACES":"NTAWA"},
{"REGION":"SONGWE","POSTCODE":"54410","DISTRICT":"MOMBA","WARD":"MYUNGA","STREET":"ISUNDA","PLACES":"KAMBA"},
{"REGION":"SONGWE","POSTCODE":"54410","DISTRICT":"MOMBA","WARD":"MYUNGA","STREET":"ISUNDA","PLACES":"MITWE"},
{"REGION":"SONGWE","POSTCODE":"54410","DISTRICT":"MOMBA","WARD":"MYUNGA","STREET":"ISUNDA","PLACES":"KATETE"},
{"REGION":"SONGWE","POSTCODE":"54410","DISTRICT":"MOMBA","WARD":"MYUNGA","STREET":"LWASHO","PLACES":"LWASHO"},
{"REGION":"SONGWE","POSTCODE":"54410","DISTRICT":"MOMBA","WARD":"MYUNGA","STREET":"LWASHO","PLACES":"MOMBA"},
{"REGION":"SONGWE","POSTCODE":"54410","DISTRICT":"MOMBA","WARD":"MYUNGA","STREET":"LWASHO","PLACES":"CHIPANDIKO"},
{"REGION":"SONGWE","POSTCODE":"54410","DISTRICT":"MOMBA","WARD":"MYUNGA","STREET":"LWASHO","PLACES":"KATETE"},
{"REGION":"SONGWE","POSTCODE":"54410","DISTRICT":"MOMBA","WARD":"MYUNGA","STREET":"LWASHO","PLACES":"KASAKALANJE"},
{"REGION":"SONGWE","POSTCODE":"54411","DISTRICT":"MOMBA","WARD":"KAPELE","STREET":"KAPELE","PLACES":"MSUFINI"},
{"REGION":"SONGWE","POSTCODE":"54411","DISTRICT":"MOMBA","WARD":"KAPELE","STREET":"KAPELE","PLACES":"MANZESE"},
{"REGION":"SONGWE","POSTCODE":"54411","DISTRICT":"MOMBA","WARD":"KAPELE","STREET":"KAPELE","PLACES":"MBEYA"},
{"REGION":"SONGWE","POSTCODE":"54411","DISTRICT":"MOMBA","WARD":"KAPELE","STREET":"KAPELE","PLACES":"ZAIRE"},
{"REGION":"SONGWE","POSTCODE":"54411","DISTRICT":"MOMBA","WARD":"KAPELE","STREET":"CHIPUMPU","PLACES":"KAMSAMBA"},
{"REGION":"SONGWE","POSTCODE":"54411","DISTRICT":"MOMBA","WARD":"KAPELE","STREET":"CHIPUMPU","PLACES":"MTACHOKA"},
{"REGION":"SONGWE","POSTCODE":"54411","DISTRICT":"MOMBA","WARD":"KAPELE","STREET":"CHIPUMPU","PLACES":"MTAKUJA"},
{"REGION":"SONGWE","POSTCODE":"54411","DISTRICT":"MOMBA","WARD":"KAPELE","STREET":"CHIPUMPU","PLACES":"MATATIZO"},
{"REGION":"SONGWE","POSTCODE":"54411","DISTRICT":"MOMBA","WARD":"KAPELE","STREET":"NAMCHINKA","PLACES":"MLALO"},
{"REGION":"SONGWE","POSTCODE":"54411","DISTRICT":"MOMBA","WARD":"KAPELE","STREET":"NAMCHINKA","PLACES":"NAMCHINKA"},
{"REGION":"SONGWE","POSTCODE":"54411","DISTRICT":"MOMBA","WARD":"KAPELE","STREET":"NAMCHINKA","PLACES":"MYAKASI"},
{"REGION":"SONGWE","POSTCODE":"54411","DISTRICT":"MOMBA","WARD":"KAPELE","STREET":"NAMCHINKA","PLACES":"MAPATANO"},
{"REGION":"SONGWE","POSTCODE":"54411","DISTRICT":"MOMBA","WARD":"KAPELE","STREET":"NAMCHINKA","PLACES":"MAJENGO"},
{"REGION":"SONGWE","POSTCODE":"54411","DISTRICT":"MOMBA","WARD":"KAPELE","STREET":"NAMCHINKA","PLACES":"NDOLWA"},
{"REGION":"SONGWE","POSTCODE":"54411","DISTRICT":"MOMBA","WARD":"KAPELE","STREET":"NAMCHINKA","PLACES":"SADOCK"},
{"REGION":"SONGWE","POSTCODE":"54411","DISTRICT":"MOMBA","WARD":"KAPELE","STREET":"IYENDWE","PLACES":"KALWAMBU"},
{"REGION":"SONGWE","POSTCODE":"54411","DISTRICT":"MOMBA","WARD":"KAPELE","STREET":"IYENDWE","PLACES":"IPWESHA"},
{"REGION":"SONGWE","POSTCODE":"54411","DISTRICT":"MOMBA","WARD":"KAPELE","STREET":"IYENDWE","PLACES":"MSOKOLO"},
{"REGION":"SONGWE","POSTCODE":"54411","DISTRICT":"MOMBA","WARD":"KAPELE","STREET":"IYENDWE","PLACES":"MAGWELE"},
{"REGION":"SONGWE","POSTCODE":"54411","DISTRICT":"MOMBA","WARD":"KAPELE","STREET":"IYENDWE","PLACES":"IYENDWE"},
{"REGION":"SONGWE","POSTCODE":"54411","DISTRICT":"MOMBA","WARD":"KAPELE","STREET":"KASINDE","PLACES":"KAUKAMA"},
{"REGION":"SONGWE","POSTCODE":"54411","DISTRICT":"MOMBA","WARD":"KAPELE","STREET":"KASINDE","PLACES":"KASINDE"},
{"REGION":"SONGWE","POSTCODE":"54411","DISTRICT":"MOMBA","WARD":"KAPELE","STREET":"MSUNGWE","PLACES":"MSELEMWA"},
{"REGION":"SONGWE","POSTCODE":"54411","DISTRICT":"MOMBA","WARD":"KAPELE","STREET":"MSUNGWE","PLACES":"NAMNSALALA"},
{"REGION":"SONGWE","POSTCODE":"54411","DISTRICT":"MOMBA","WARD":"KAPELE","STREET":"MSUNGWE","PLACES":"MSUNGWE"},
{"REGION":"SONGWE","POSTCODE":"54411","DISTRICT":"MOMBA","WARD":"KAPELE","STREET":"MSUNGWE","PLACES":"MATETE"},
{"REGION":"SONGWE","POSTCODE":"54411","DISTRICT":"MOMBA","WARD":"KAPELE","STREET":"CHISITU","PLACES":"CHISITU KATI"},
{"REGION":"SONGWE","POSTCODE":"54411","DISTRICT":"MOMBA","WARD":"KAPELE","STREET":"CHISITU","PLACES":"KAMPALA"},
{"REGION":"SONGWE","POSTCODE":"54411","DISTRICT":"MOMBA","WARD":"KAPELE","STREET":"CHISITU","PLACES":"KAZI"},
{"REGION":"SONGWE","POSTCODE":"54411","DISTRICT":"MOMBA","WARD":"KAPELE","STREET":"CHISITU","PLACES":"CHISITU SHULENI"},
{"REGION":"SONGWE","POSTCODE":"54411","DISTRICT":"MOMBA","WARD":"KAPELE","STREET":"CHISITU","PLACES":"ONGELE"},
{"REGION":"SONGWE","POSTCODE":"54411","DISTRICT":"MOMBA","WARD":"KAPELE","STREET":"CHAFUMA","PLACES":"CHAFUMA KATI"},
{"REGION":"SONGWE","POSTCODE":"54411","DISTRICT":"MOMBA","WARD":"KAPELE","STREET":"CHAFUMA","PLACES":"CHIRASITU"},
{"REGION":"SONGWE","POSTCODE":"54411","DISTRICT":"MOMBA","WARD":"KAPELE","STREET":"CHAFUMA","PLACES":"CHINYIKA"},
{"REGION":"SONGWE","POSTCODE":"54411","DISTRICT":"MOMBA","WARD":"KAPELE","STREET":"CHAFUMA","PLACES":"NUYAKASI"},
{"REGION":"SONGWE","POSTCODE":"54411","DISTRICT":"MOMBA","WARD":"KAPELE","STREET":"CHAFUMA","PLACES":"CHAFUMA"},
{"REGION":"SONGWE","POSTCODE":"54412","DISTRICT":"MOMBA","WARD":"MKULWE","STREET":"MKULWE","PLACES":"KINAMWENE"},
{"REGION":"SONGWE","POSTCODE":"54412","DISTRICT":"MOMBA","WARD":"MKULWE","STREET":"MKULWE","PLACES":"NDOOLO"},
{"REGION":"SONGWE","POSTCODE":"54412","DISTRICT":"MOMBA","WARD":"MKULWE","STREET":"MKULWE","PLACES":"MPATE"},
{"REGION":"SONGWE","POSTCODE":"54412","DISTRICT":"MOMBA","WARD":"MKULWE","STREET":"MKULWE","PLACES":"NAMANYONJO"},
{"REGION":"SONGWE","POSTCODE":"54412","DISTRICT":"MOMBA","WARD":"MKULWE","STREET":"MKULWE","PLACES":"MKULWE KATI"},
{"REGION":"SONGWE","POSTCODE":"54412","DISTRICT":"MOMBA","WARD":"MKULWE","STREET":"ITELEFYA","PLACES":"ITELEFYA"},
{"REGION":"SONGWE","POSTCODE":"54412","DISTRICT":"MOMBA","WARD":"MKULWE","STREET":"ITELEFYA","PLACES":"MWANIEMBA"},
{"REGION":"SONGWE","POSTCODE":"54412","DISTRICT":"MOMBA","WARD":"MKULWE","STREET":"CHUO","PLACES":"CHUO"},
{"REGION":"SONGWE","POSTCODE":"54412","DISTRICT":"MOMBA","WARD":"MKULWE","STREET":"CHUO","PLACES":"NACHISITU"},
{"REGION":"SONGWE","POSTCODE":"54412","DISTRICT":"MOMBA","WARD":"MKULWE","STREET":"CHUO","PLACES":"NKATUMBO"},
{"REGION":"SONGWE","POSTCODE":"54412","DISTRICT":"MOMBA","WARD":"MKULWE","STREET":"MWENEEMBA","PLACES":"MWENEEMBA"},
{"REGION":"SONGWE","POSTCODE":"54412","DISTRICT":"MOMBA","WARD":"MKULWE","STREET":"MWENEEMBA","PLACES":"MAJENGO"},
{"REGION":"SONGWE","POSTCODE":"54413","DISTRICT":"MOMBA","WARD":"MPAPA","STREET":"MPAPA","PLACES":"MPAPA KATI"},
{"REGION":"SONGWE","POSTCODE":"54413","DISTRICT":"MOMBA","WARD":"MPAPA","STREET":"MPAPA","PLACES":"NAMBINZO"},
{"REGION":"SONGWE","POSTCODE":"54413","DISTRICT":"MOMBA","WARD":"MPAPA","STREET":"MPAPA","PLACES":"CHINYIWANDA"},
{"REGION":"SONGWE","POSTCODE":"54413","DISTRICT":"MOMBA","WARD":"MPAPA","STREET":"MPAPA","PLACES":"NAMAIMBA"},
{"REGION":"SONGWE","POSTCODE":"54413","DISTRICT":"MOMBA","WARD":"MPAPA","STREET":"MPAPA","PLACES":"NAMITOO"},
{"REGION":"SONGWE","POSTCODE":"54413","DISTRICT":"MOMBA","WARD":"MPAPA","STREET":"MASANYINTA","PLACES":"MASANYINTA KATI"},
{"REGION":"SONGWE","POSTCODE":"54413","DISTRICT":"MOMBA","WARD":"MPAPA","STREET":"MASANYINTA","PLACES":"NAMSINDE"},
{"REGION":"SONGWE","POSTCODE":"54413","DISTRICT":"MOMBA","WARD":"MPAPA","STREET":"MASANYINTA","PLACES":"KIPOKA"},
{"REGION":"SONGWE","POSTCODE":"54413","DISTRICT":"MOMBA","WARD":"MPAPA","STREET":"MASANYINTA","PLACES":"MZINDE"},
{"REGION":"SONGWE","POSTCODE":"54413","DISTRICT":"MOMBA","WARD":"MPAPA","STREET":"MASANYINTA","PLACES":"KILOMBERO"},
{"REGION":"SONGWE","POSTCODE":"54413","DISTRICT":"MOMBA","WARD":"MPAPA","STREET":"MASANYINTA","PLACES":"MYAKASI"},
{"REGION":"SONGWE","POSTCODE":"54413","DISTRICT":"MOMBA","WARD":"MPAPA","STREET":"KASANU","PLACES":"MWANJILA"},
{"REGION":"SONGWE","POSTCODE":"54413","DISTRICT":"MOMBA","WARD":"MPAPA","STREET":"KASANU","PLACES":"MKWAJUNI"},
{"REGION":"SONGWE","POSTCODE":"54413","DISTRICT":"MOMBA","WARD":"MPAPA","STREET":"KASANU","PLACES":"MALULU"},
{"REGION":"SONGWE","POSTCODE":"54413","DISTRICT":"MOMBA","WARD":"MPAPA","STREET":"KASANU","PLACES":"UCHINDI"},
{"REGION":"SONGWE","POSTCODE":"54413","DISTRICT":"MOMBA","WARD":"MPAPA","STREET":"KASANU","PLACES":"CHANG’OMBE"}
,
{"REGION":"SONGWE","POSTCODE":"54414","DISTRICT":"MOMBA","WARD":"NZOKA","STREET":"NZOKA","PLACES":"NZOKA"},
{"REGION":"SONGWE","POSTCODE":"54414","DISTRICT":"MOMBA","WARD":"NZOKA","STREET":"NZOKA","PLACES":"KANYIMBO"},
{"REGION":"SONGWE","POSTCODE":"54414","DISTRICT":"MOMBA","WARD":"NZOKA","STREET":"NZOKA","PLACES":"MANYOTO"},
{"REGION":"SONGWE","POSTCODE":"54414","DISTRICT":"MOMBA","WARD":"NZOKA","STREET":"NZOKA","PLACES":"CHIPANDA"},
{"REGION":"SONGWE","POSTCODE":"54414","DISTRICT":"MOMBA","WARD":"NZOKA","STREET":"IPATIKANA","PLACES":"IPATIKANA"},
{"REGION":"SONGWE","POSTCODE":"54414","DISTRICT":"MOMBA","WARD":"NZOKA","STREET":"IPATIKANA","PLACES":"MLELENGWA"},
{"REGION":"SONGWE","POSTCODE":"54414","DISTRICT":"MOMBA","WARD":"NZOKA","STREET":"MKUTANO","PLACES":"MKUTANO"},
{"REGION":"SONGWE","POSTCODE":"54414","DISTRICT":"MOMBA","WARD":"NZOKA","STREET":"MKUTANO","PLACES":"KASECHELA"},
{"REGION":"SONGWE","POSTCODE":"54414","DISTRICT":"MOMBA","WARD":"NZOKA","STREET":"MKUTANO","PLACES":"KAMISU"},
{"REGION":"SONGWE","POSTCODE":"54414","DISTRICT":"MOMBA","WARD":"NZOKA","STREET":"NAMTAMBALA","PLACES":"NAMTAMBALALA"},
{"REGION":"SONGWE","POSTCODE":"54414","DISTRICT":"MOMBA","WARD":"NZOKA","STREET":"NAMTAMBALA","PLACES":"KAKOZI"},
{"REGION":"SONGWE","POSTCODE":"54414","DISTRICT":"MOMBA","WARD":"NZOKA","STREET":"NAMTAMBALA","PLACES":"MENGO"},
{"REGION":"SONGWE","POSTCODE":"54414","DISTRICT":"MOMBA","WARD":"NZOKA","STREET":"NAMTAMBALA","PLACES":"NG’ONGO"}
,
{"REGION":"SONGWE","POSTCODE":"54414","DISTRICT":"MOMBA","WARD":"NZOKA","STREET":"CHILANGU","PLACES":"CHILANGU"},
{"REGION":"SONGWE","POSTCODE":"54414","DISTRICT":"MOMBA","WARD":"NZOKA","STREET":"CHILANGU","PLACES":"MALINGA"},
{"REGION":"SONGWE","POSTCODE":"54414","DISTRICT":"MOMBA","WARD":"NZOKA","STREET":"ITUMBA","PLACES":"ITUMBA"},
{"REGION":"SONGWE","POSTCODE":"54414","DISTRICT":"MOMBA","WARD":"NZOKA","STREET":"ITUMBA","PLACES":"NZWALO"},
{"REGION":"SONGWE","POSTCODE":"54414","DISTRICT":"MOMBA","WARD":"NZOKA","STREET":"ITUMBA","PLACES":"MPULU"},
{"REGION":"SONGWE","POSTCODE":"54414","DISTRICT":"MOMBA","WARD":"NZOKA","STREET":"ITUMBA","PLACES":"LALAUNDA"},
{"REGION":"SONGWE","POSTCODE":"54414","DISTRICT":"MOMBA","WARD":"NZOKA","STREET":"ITUMBA","PLACES":"CHITUMBI"},
{"REGION":"SONGWE","POSTCODE":"54415","DISTRICT":"MOMBA","WARD":"IKANA","STREET":"IKANA","PLACES":"IKANA"},
{"REGION":"SONGWE","POSTCODE":"54415","DISTRICT":"MOMBA","WARD":"IKANA","STREET":"IKANA","PLACES":"CHIPWA"},
{"REGION":"SONGWE","POSTCODE":"54415","DISTRICT":"MOMBA","WARD":"IKANA","STREET":"IKANA","PLACES":"MTAKUJA"},
{"REGION":"SONGWE","POSTCODE":"54415","DISTRICT":"MOMBA","WARD":"IKANA","STREET":"NAKAWALE","PLACES":"NAKAWALE KATI"},
{"REGION":"SONGWE","POSTCODE":"54415","DISTRICT":"MOMBA","WARD":"IKANA","STREET":"NAKAWALE","PLACES":"NAKAWALE (B)"},
{"REGION":"SONGWE","POSTCODE":"54415","DISTRICT":"MOMBA","WARD":"IKANA","STREET":"NAKAWALE","PLACES":"MAJENGO"},
{"REGION":"SONGWE","POSTCODE":"54415","DISTRICT":"MOMBA","WARD":"IKANA","STREET":"NAKAWALE","PLACES":"MAELA"},
{"REGION":"SONGWE","POSTCODE":"54415","DISTRICT":"MOMBA","WARD":"IKANA","STREET":"IPANGA","PLACES":"CHITOWA"},
{"REGION":"SONGWE","POSTCODE":"54415","DISTRICT":"MOMBA","WARD":"IKANA","STREET":"IPANGA","PLACES":"MLILANONDO"},
{"REGION":"SONGWE","POSTCODE":"54415","DISTRICT":"MOMBA","WARD":"IKANA","STREET":"IPANGA","PLACES":"KALOLI"},
{"REGION":"SONGWE","POSTCODE":"54415","DISTRICT":"MOMBA","WARD":"IKANA","STREET":"IPANGA","PLACES":"SAMBA"},
{"REGION":"SONGWE","POSTCODE":"54415","DISTRICT":"MOMBA","WARD":"IKANA","STREET":"IPANGA","PLACES":"IPANGA KATI."},
{"REGION":"SONGWE","POSTCODE":"54415","DISTRICT":"MOMBA","WARD":"IKANA","STREET":"NYENJELE","PLACES":"NYENJELE KATI"},
{"REGION":"SONGWE","POSTCODE":"54415","DISTRICT":"MOMBA","WARD":"IKANA","STREET":"NYENJELE","PLACES":"NYENJELE (B)"},
{"REGION":"SONGWE","POSTCODE":"54415","DISTRICT":"MOMBA","WARD":"IKANA","STREET":"NYENJELE","PLACES":"KAPATI"},
{"REGION":"SONGWE","POSTCODE":"54416","DISTRICT":"MOMBA","WARD":"MKOMBA","STREET":"MKOMBA","PLACES":"ILENGO"},
{"REGION":"SONGWE","POSTCODE":"54416","DISTRICT":"MOMBA","WARD":"MKOMBA","STREET":"MKOMBA","PLACES":"MKOMBA “A”"}
,
{"REGION":"SONGWE","POSTCODE":"54416","DISTRICT":"MOMBA","WARD":"MKOMBA","STREET":"MKOMBA","PLACES":"MKOMBA “B”"}
,
{"REGION":"SONGWE","POSTCODE":"54416","DISTRICT":"MOMBA","WARD":"MKOMBA","STREET":"MKOMBA","PLACES":"MKOMBA KATI"},
{"REGION":"SONGWE","POSTCODE":"54416","DISTRICT":"MOMBA","WARD":"MKOMBA","STREET":"MKOMBA","PLACES":"CHAMSOKA"},
{"REGION":"SONGWE","POSTCODE":"54416","DISTRICT":"MOMBA","WARD":"MKOMBA","STREET":"SILIWITI","PLACES":"SILIWITI 'A'"},
{"REGION":"SONGWE","POSTCODE":"54416","DISTRICT":"MOMBA","WARD":"MKOMBA","STREET":"SILIWITI","PLACES":"SILIWITI 'B'"},
{"REGION":"SONGWE","POSTCODE":"54416","DISTRICT":"MOMBA","WARD":"MKOMBA","STREET":"SILIWITI","PLACES":"FORODHANI"},
{"REGION":"SONGWE","POSTCODE":"54416","DISTRICT":"MOMBA","WARD":"MKOMBA","STREET":"SILIWITI","PLACES":"MKUYUNI"},
{"REGION":"SONGWE","POSTCODE":"54416","DISTRICT":"MOMBA","WARD":"MKOMBA","STREET":"SILIWITI","PLACES":"MPAKANI"},
{"REGION":"SONGWE","POSTCODE":"54416","DISTRICT":"MOMBA","WARD":"MKOMBA","STREET":"CHOLE","PLACES":"CHOLE"},
{"REGION":"SONGWE","POSTCODE":"54416","DISTRICT":"MOMBA","WARD":"MKOMBA","STREET":"CHOLE","PLACES":"MAONWA"},
{"REGION":"SONGWE","POSTCODE":"54416","DISTRICT":"MOMBA","WARD":"MKOMBA","STREET":"CHOLE","PLACES":"CHANG’OMBE"}
,
{"REGION":"SONGWE","POSTCODE":"54416","DISTRICT":"MOMBA","WARD":"MKOMBA","STREET":"CHOLE","PLACES":"MAJENGO"},
{"REGION":"SONGWE","POSTCODE":"54416","DISTRICT":"MOMBA","WARD":"MKOMBA","STREET":"CHOLE","PLACES":"MTAKUJA"},
{"REGION":"SONGWE","POSTCODE":"54416","DISTRICT":"MOMBA","WARD":"MKOMBA","STREET":"SANTE","PLACES":"SANTE KATI"},
{"REGION":"SONGWE","POSTCODE":"54416","DISTRICT":"MOMBA","WARD":"MKOMBA","STREET":"SANTE","PLACES":"NAMING’ONGO"}
,
{"REGION":"SONGWE","POSTCODE":"54416","DISTRICT":"MOMBA","WARD":"MKOMBA","STREET":"SANTE","PLACES":"TUNKO"},
{"REGION":"SONGWE","POSTCODE":"54416","DISTRICT":"MOMBA","WARD":"MKOMBA","STREET":"SANTE","PLACES":"MUWANGU"},
{"REGION":"SONGWE","POSTCODE":"54416","DISTRICT":"MOMBA","WARD":"MKOMBA","STREET":"SANTE","PLACES":"KAWENGA"},
{"REGION":"SONGWE","POSTCODE":"54416","DISTRICT":"MOMBA","WARD":"MKOMBA","STREET":"NTUNGWA","PLACES":"CHIULA"},
{"REGION":"SONGWE","POSTCODE":"54416","DISTRICT":"MOMBA","WARD":"MKOMBA","STREET":"NTUNGWA","PLACES":"CHANG’OMBE"}
,
{"REGION":"SONGWE","POSTCODE":"54416","DISTRICT":"MOMBA","WARD":"MKOMBA","STREET":"NTUNGWA","PLACES":"MAJENGO"},
{"REGION":"SONGWE","POSTCODE":"54416","DISTRICT":"MOMBA","WARD":"MKOMBA","STREET":"NTUNGWA","PLACES":"NTUNGWA KATI"},
{"REGION":"SONGWE","POSTCODE":"54416","DISTRICT":"MOMBA","WARD":"MKOMBA","STREET":"NTUNGWA","PLACES":"MBAO"},
{"REGION":"SONGWE","POSTCODE":"54417","DISTRICT":"MOMBA","WARD":"MAJENGO","STREET":"MAJENGO ‘A’","PLACES":""}
,
{"REGION":"SONGWE","POSTCODE":"54417","DISTRICT":"MOMBA","WARD":"MAJENGO","STREET":"MAJENGO ‘B’","PLACES":""}
,
{"REGION":"SONGWE","POSTCODE":"54417","DISTRICT":"MOMBA","WARD":"MAJENGO","STREET":"MAJENGO ‘C’","PLACES":""}
,
{"REGION":"SONGWE","POSTCODE":"54417","DISTRICT":"MOMBA","WARD":"MAJENGO","STREET":"MAJENGO MAPYA.","PLACES":""},
{"REGION":"SONGWE","POSTCODE":"54418","DISTRICT":"MOMBA","WARD":"MPANDE","STREET":"MPANDE KATI","PLACES":""},
{"REGION":"SONGWE","POSTCODE":"54418","DISTRICT":"MOMBA","WARD":"MPANDE","STREET":"MACHINJIONI","PLACES":""},
{"REGION":"SONGWE","POSTCODE":"54418","DISTRICT":"MOMBA","WARD":"MPANDE","STREET":"IPITO","PLACES":""},
{"REGION":"SONGWE","POSTCODE":"54418","DISTRICT":"MOMBA","WARD":"MPANDE","STREET":"MJI MWEMA","PLACES":""},
{"REGION":"SONGWE","POSTCODE":"54418","DISTRICT":"MOMBA","WARD":"MPANDE","STREET":"TAZARA","PLACES":""},
{"REGION":"SONGWE","POSTCODE":"54419","DISTRICT":"MOMBA","WARD":"CHAPWA","STREET":"CHAPWA","PLACES":""},
{"REGION":"SONGWE","POSTCODE":"54419","DISTRICT":"MOMBA","WARD":"CHAPWA","STREET":"IGAWA","PLACES":""},
{"REGION":"SONGWE","POSTCODE":"54419","DISTRICT":"MOMBA","WARD":"CHAPWA","STREET":"ISANZO","PLACES":""},
{"REGION":"SONGWE","POSTCODE":"54419","DISTRICT":"MOMBA","WARD":"CHAPWA","STREET":"MSAMPANIA","PLACES":""},
{"REGION":"SONGWE","POSTCODE":"54419","DISTRICT":"MOMBA","WARD":"CHAPWA","STREET":"KESELIA","PLACES":""},
{"REGION":"SONGWE","POSTCODE":"54420","DISTRICT":"MOMBA","WARD":"MAPOROMOKO","STREET":"SHULENI","PLACES":""},
{"REGION":"SONGWE","POSTCODE":"54420","DISTRICT":"MOMBA","WARD":"MAPOROMOKO","STREET":"MAGEUZI","PLACES":""},
{"REGION":"SONGWE","POSTCODE":"54420","DISTRICT":"MOMBA","WARD":"MAPOROMOKO","STREET":"MLIMANI","PLACES":""},
{"REGION":"SONGWE","POSTCODE":"54420","DISTRICT":"MOMBA","WARD":"MAPOROMOKO","STREET":"MAPOROMOKO","PLACES":""},
{"REGION":"SONGWE","POSTCODE":"54421","DISTRICT":"MOMBA","WARD":"KALOLENI","STREET":"NELLO","PLACES":""},
{"REGION":"SONGWE","POSTCODE":"54421","DISTRICT":"MOMBA","WARD":"KALOLENI","STREET":"KALOLENI","PLACES":""},
{"REGION":"SONGWE","POSTCODE":"54421","DISTRICT":"MOMBA","WARD":"KALOLENI","STREET":"DANIDA","PLACES":""},
{"REGION":"SONGWE","POSTCODE":"54421","DISTRICT":"MOMBA","WARD":"KALOLENI","STREET":"CUSTOM","PLACES":""},
{"REGION":"SONGWE","POSTCODE":"54421","DISTRICT":"MOMBA","WARD":"KALOLENI","STREET":"MIGOMBANI","PLACES":""},
{"REGION":"SONGWE","POSTCODE":"54422","DISTRICT":"MOMBA","WARD":"SOGEA","STREET":"SOGEA","PLACES":""},
{"REGION":"SONGWE","POSTCODE":"54422","DISTRICT":"MOMBA","WARD":"SOGEA","STREET":"JAKAYA","PLACES":""},
{"REGION":"SONGWE","POSTCODE":"54422","DISTRICT":"MOMBA","WARD":"SOGEA","STREET":"IKULU","PLACES":""},
{"REGION":"SONGWE","POSTCODE":"54422","DISTRICT":"MOMBA","WARD":"SOGEA","STREET":"HALF LONDON","PLACES":""},
{"REGION":"SONGWE","POSTCODE":"54423","DISTRICT":"MOMBA","WARD":"MAKAMBINI","STREET":"MAKAMBINI","PLACES":""},
{"REGION":"SONGWE","POSTCODE":"54423","DISTRICT":"MOMBA","WARD":"MAKAMBINI","STREET":"SOWETO","PLACES":""},
{"REGION":"SONGWE","POSTCODE":"54423","DISTRICT":"MOMBA","WARD":"MAKAMBINI","STREET":"KANANI","PLACES":""},
{"REGION":"SONGWE","POSTCODE":"54423","DISTRICT":"MOMBA","WARD":"MAKAMBINI","STREET":"TOKYO","PLACES":""},
{"REGION":"SONGWE","POSTCODE":"54424","DISTRICT":"MOMBA","WARD":"KATETE","STREET":"KATETE","PLACES":""},
{"REGION":"SONGWE","POSTCODE":"54424","DISTRICT":"MOMBA","WARD":"KATETE","STREET":"MLENDA","PLACES":""},
{"REGION":"SONGWE","POSTCODE":"54424","DISTRICT":"MOMBA","WARD":"KATETE","STREET":"NAMAZYANZYA","PLACES":""},
{"REGION":"SONGWE","POSTCODE":"54424","DISTRICT":"MOMBA","WARD":"KATETE","STREET":"NAKAUMBA","PLACES":""},
{"REGION":"SONGWE","POSTCODE":"54424","DISTRICT":"MOMBA","WARD":"KATETE","STREET":"FURA","PLACES":""},
{"REGION":"SONGWE","POSTCODE":"54425","DISTRICT":"MOMBA","WARD":"MPEMBA","STREET":"MPEMBA","PLACES":""},
{"REGION":"SONGWE","POSTCODE":"54425","DISTRICT":"MOMBA","WARD":"MPEMBA","STREET":"SEFU","PLACES":""},
{"REGION":"SONGWE","POSTCODE":"54425","DISTRICT":"MOMBA","WARD":"MPEMBA","STREET":"NANSELE","PLACES":""},
{"REGION":"SONGWE","POSTCODE":"54425","DISTRICT":"MOMBA","WARD":"MPEMBA","STREET":"KATENJELE","PLACES":""},
{"REGION":"SONGWE","POSTCODE":"54425","DISTRICT":"MOMBA","WARD":"MPEMBA","STREET":"KOKOTO","PLACES":""},
{"REGION":"SONGWE","POSTCODE":"54425","DISTRICT":"MOMBA","WARD":"MPEMBA","STREET":"NANDANGA","PLACES":""},
{"REGION":"SONGWE","POSTCODE":"54425","DISTRICT":"MOMBA","WARD":"MPEMBA","STREET":"MSINDE","PLACES":""},
{"REGION":"SONGWE","POSTCODE":"54426","DISTRICT":"MOMBA","WARD":"MUUNGANO","STREET":"MUUNGANO","PLACES":""},
{"REGION":"SONGWE","POSTCODE":"54426","DISTRICT":"MOMBA","WARD":"MUUNGANO","STREET":"SAYUNI","PLACES":""},
{"REGION":"SONGWE","POSTCODE":"54426","DISTRICT":"MOMBA","WARD":"MUUNGANO","STREET":"NAZARETI","PLACES":""},
{"REGION":"SONGWE","POSTCODE":"54426","DISTRICT":"MOMBA","WARD":"MUUNGANO","STREET":"MKOMBOZI","PLACES":""},
{"REGION":"SONGWE","POSTCODE":"54426","DISTRICT":"MOMBA","WARD":"MUUNGANO","STREET":"KISANGANI","PLACES":""},
{"REGION":"SONGWE","POSTCODE":"54427","DISTRICT":"MOMBA","WARD":"MWAKAKATI","STREET":"MWAKAKATI","PLACES":""},
{"REGION":"SONGWE","POSTCODE":"54427","DISTRICT":"MOMBA","WARD":"MWAKAKATI","STREET":"MALELANI","PLACES":""},
{"REGION":"SONGWE","POSTCODE":"54427","DISTRICT":"MOMBA","WARD":"MWAKAKATI","STREET":"SONGAMBELE","PLACES":""},
{"REGION":"SONGWE","POSTCODE":"54427","DISTRICT":"MOMBA","WARD":"MWAKAKATI","STREET":"GOROFANI","PLACES":""},
{"REGION":"SONGWE","POSTCODE":"54428","DISTRICT":"MOMBA","WARD":"CHIPAKA","STREET":"ZYAGWILA","PLACES":""},
{"REGION":"SONGWE","POSTCODE":"54428","DISTRICT":"MOMBA","WARD":"CHIPAKA","STREET":"MWL. NYERERE","PLACES":""},
{"REGION":"SONGWE","POSTCODE":"54428","DISTRICT":"MOMBA","WARD":"CHIPAKA","STREET":"KATETE","PLACES":""},
{"REGION":"SONGWE","POSTCODE":"54428","DISTRICT":"MOMBA","WARD":"CHIPAKA","STREET":"MSONGWA","PLACES":""},
{"REGION":"SONGWE","POSTCODE":"54428","DISTRICT":"MOMBA","WARD":"CHIPAKA","STREET":"CHIPAKA","PLACES":""},
{"REGION":"SONGWE","POSTCODE":"54429","DISTRICT":"MOMBA","WARD":"UWANJANI","STREET":"KILIMA HEWA","PLACES":""},
{"REGION":"SONGWE","POSTCODE":"54429","DISTRICT":"MOMBA","WARD":"UWANJANI","STREET":"MSASANI","PLACES":""},
{"REGION":"SONGWE","POSTCODE":"54429","DISTRICT":"MOMBA","WARD":"UWANJANI","STREET":"MBAGALA","PLACES":""},
{"REGION":"SONGWE","POSTCODE":"54429","DISTRICT":"MOMBA","WARD":"UWANJANI","STREET":"UWANJANI","PLACES":""}
]
