REGION,POSTCODE,DISTRICT,POSTCODE,WARD,POSTCODE,STREET,PLACES
DODOMA,41,"DODOMA
CBD",411,UHURU,41101,KIPANDE,
DODOMA,41,"DODOMA
CBD",411,UHURU,41101,MJI MPYA,
DODOMA,41,"DODOMA
CBD",411,UHURU,41101,UHURU,
DODOMA,41,"DODOMA
CBD",411,UHURU,41101,KATI,
DODOMA,41,"DODOMA
CBD",411,VIWANDANI,41102,KINYALI,
DODOMA,41,"DODOMA
CBD",411,VIWANDANI,41102,SAMORA,
DODOMA,41,"DODOMA
CBD",411,VIWANDANI,41102,MARIJANI,
DODOMA,41,"DODOMA
CBD",411,VIWANDANI,41102,BARUTI,
DODOMA,41,"DODOMA
CBD",411,VIWANDANI,41102,TOFIKI,
DODOMA,41,"DODOMA
CBD",411,MADUKANI,41103,KAMILI,
DODOMA,41,"DODOMA
CBD",411,MADUKANI,41103,JAMAL,
DODOMA,41,"DODOMA
CBD",411,MADUKANI,41103,MMASI,
DODOMA,41,"DODOMA
CBD",411,MADUKANI,41103,SULULU,
DODOMA,41,"DODOMA
CBD",411,MADUKANI,41103,RELINI,
DODOMA,41,"DODOMA
CBD",411,TAMBUKARELI,41104,RELI,
DODOMA,41,"DODOMA
CBD",411,TAMBUKARELI,41104,SALIMINI,
DODOMA,41,"DODOMA
CBD",411,TAMBUKARELI,41104,SECHELELA,
DODOMA,41,"DODOMA
CBD",411,TAMBUKARELI,41104,AMANI,
DODOMA,41,"DODOMA
CBD",411,MAKOLE,41105,CHIMULI,
DODOMA,41,"DODOMA
CBD",411,MAKOLE,41105,CHADULU 'B',
DODOMA,41,"DODOMA
CBD",411,MAKOLE,41105,MAKOLE,
DODOMA,41,"DODOMA
CBD",411,MAKOLE,41105,NATIONAL HOUSING,
DODOMA,41,"DODOMA
CBD",411,MAJENGO,41106,FATINA,
DODOMA,41,"DODOMA
CBD",411,MAJENGO,41106,MAUSI,
DODOMA,41,"DODOMA
CBD",411,MAJENGO,41106,MNYAMPALA,
DODOMA,41,"DODOMA
CBD",411,MAJENGO,41106,KITENGE,
DODOMA,41,"DODOMA
CBD",411,DODOMA MAKULU,41107,MEDELI,
DODOMA,41,"DODOMA
CBD",411,DODOMA MAKULU,41107,MWANGAZA,
DODOMA,41,"DODOMA
CBD",411,DODOMA MAKULU,41107,BWAWANI,
DODOMA,41,"DODOMA
CBD",411,DODOMA MAKULU,41107,NJEDENGWA EAST,
DODOMA,41,"DODOMA
CBD",411,DODOMA MAKULU,41107,NJEDENGWA WEST,
DODOMA,41,"DODOMA
CBD",411,DODOMA MAKULU,41107,MSANGALALE MASHARIKI,
DODOMA,41,"DODOMA
CBD",411,DODOMA MAKULU,41107,MSANGALALE MAGHARIBI,
DODOMA,41,"DODOMA
CBD",411,HAZINA,41108,KINYAMBWA,
DODOMA,41,"DODOMA
CBD",411,HAZINA,41108,MLEZI,
DODOMA,41,"DODOMA
CBD",411,HAZINA,41108,HAZINA,
DODOMA,41,"DODOMA
CBD",411,HAZINA,41108,ITEGA,
DODOMA,41,"DODOMA
CBD",411,CHAMWINO,41109,MWAJA,
DODOMA,41,"DODOMA
CBD",411,CHAMWINO,41109,SOKOINE,
DODOMA,41,"DODOMA
CBD",411,CHAMWINO,41109,NDUKA,
DODOMA,41,"DODOMA
CBD",411,CHAMWINO,41109,MAILIMBILI,
DODOMA,41,"DODOMA
CBD",411,KILIMANI,41110,KILIMANI,
DODOMA,41,"DODOMA
CBD",411,KILIMANI,41110,IMAGE,
DODOMA,41,"DODOMA
CBD",411,KILIMANI,41110,CHINYOYO,
DODOMA,41,"DODOMA
CBD",411,KILIMANI,41110,NYERERE,
DODOMA,41,"DODOMA
CBD",411,KIKUYU KASKAZINI,41111,KIKUYU MISSION,
DODOMA,41,"DODOMA
CBD",411,KIKUYU KASKAZINI,41111,KIKUYU,
DODOMA,41,"DODOMA
CBD",411,KIKUYU KASKAZINI,41111,KIGAMBONI,
DODOMA,41,"DODOMA
CBD",411,KIKUYU KASKAZINI,41111,HAZINA 'X',
DODOMA,41,"DODOMA
CBD",411,KIKUYU KASKAZINI,41111,ZAHANATI,
DODOMA,41,"DODOMA
CBD",411,KIKUYU KUSINI,41112,MKALAMA 'A',
DODOMA,41,"DODOMA
CBD",411,KIKUYU KUSINI,41112,MKALAMA 'B',
DODOMA,41,"DODOMA
CBD",411,KIKUYU KUSINI,41112,MAWENI,
DODOMA,41,"DODOMA
CBD",411,KIKUYU KUSINI,41112,MKUYUNI,
DODOMA,41,"DODOMA
CBD",411,KIKUYU KUSINI,41112,IMAGE,
DODOMA,41,"DODOMA
CBD",411,KIKUYU KUSINI,41112,MAGHOROFANI,
DODOMA,41,"DODOMA
CBD",411,MIYUJI,41113,MPAMAA,
DODOMA,41,"DODOMA
CBD",411,MIYUJI,41113,MIYUJI PROPER,
DODOMA,41,"DODOMA
CBD",411,MIYUJI,41113,MATHIAS,
DODOMA,41,"DODOMA
CBD",411,KIZOTA,41114,MKONONGO,
DODOMA,41,"DODOMA
CBD",411,KIZOTA,41114,RELINI,
DODOMA,41,"DODOMA
CBD",411,KIZOTA,41114,BWAWANI,
DODOMA,41,"DODOMA
CBD",411,KIZOTA,41114,SOKOINE,
DODOMA,41,"DODOMA
CBD",411,KIZOTA,41114,KISABUJE,
DODOMA,41,"DODOMA
CBD",411,KIZOTA,41114,MBUYUNI,
DODOMA,41,"DODOMA
CBD",411,"KIWANJA CHA
NDEGE",41115,OSTERBAY,
DODOMA,41,"DODOMA
CBD",411,"KIWANJA CHA
NDEGE",41115,MAKONGORO,
DODOMA,41,"DODOMA
CBD",411,"KIWANJA CHA
NDEGE",41115,MLIMWA,
DODOMA,41,"DODOMA
CBD",411,"KIWANJA CHA
NDEGE",41115,CHUO CHA MIPANGO,
DODOMA,41,"DODOMA
CBD",411,"KIWANJA CHA
NDEGE",41115,KIWANJA CHA NDEGE,
DODOMA,41,"DODOMA
CBD",411,"KIWANJA CHA
NDEGE",41115,MKWAJUNI,
DODOMA,41,"DODOMA
CBD",411,MKONZE,41116,CHIDACHI,
DODOMA,41,"DODOMA
CBD",411,MKONZE,41116,MUUNGANO,
DODOMA,41,"DODOMA
CBD",411,MKONZE,41116,MIGANGA,
DODOMA,41,"DODOMA
CBD",411,MKONZE,41116,CHINYIKA,
DODOMA,41,"DODOMA
CBD",411,MKONZE,41116,CHISICHILI,
DODOMA,41,"DODOMA
CBD",411,MKONZE,41116,NZINJE,
DODOMA,41,"DODOMA
CBD",411,MKONZE,41116,BWAWANI,
DODOMA,41,"DODOMA
CBD",411,MKONZE,41116,MUUNGANO,
DODOMA,41,"DODOMA
CBD",411,NKUHUNGU,41117,SALAMA,
DODOMA,41,"DODOMA
CBD",411,NKUHUNGU,41117,ITEGA,
DODOMA,41,"DODOMA
CBD",411,NKUHUNGU,41117,AMANI,
DODOMA,41,"DODOMA
CBD",411,NKUHUNGU,41117,BOCHELA,
DODOMA,41,"DODOMA
CBD",411,NKUHUNGU,41117,MTUBE,
DODOMA,41,"DODOMA
CBD",411,NKUHUNGU,41117,MUUNGANO,
DODOMA,41,"DODOMA
CBD",411,NKUHUNGU,41117,MNYAKONGO,
DODOMA,41,"DODOMA
CBD",411,IHUMWA,41118,CHILWANA,
DODOMA,41,"DODOMA
CBD",411,IHUMWA,41118,IHUMWA,
DODOMA,41,"DODOMA
CBD",411,IHUMWA,41118,CHANG'OMBE,
DODOMA,41,"DODOMA
CBD",411,NG'ONNG'ONHA,41119,NG’ONNG’ONHA,
DODOMA,41,"DODOMA
CBD",411,NG'ONNG'ONHA,41119,MAPINDUZI A,
DODOMA,41,"DODOMA
CBD",411,NG'ONNG'ONHA,41119,MAPINDUZI B,
DODOMA,41,"DODOMA
CBD",411,MATUMBULU,41120,MPUNGUZI ‘A’,KAWAWA
DODOMA,41,"DODOMA
CBD",411,MATUMBULU,41120,MPUNGUZI ‘A’,MWONGOZO
DODOMA,41,"DODOMA
CBD",411,MATUMBULU,41120,MPUNGUZI ‘A’,NYERERE
DODOMA,41,"DODOMA
CBD",411,MATUMBULU,41120,MATUMBULU A'',UKOMBOZI
DODOMA,41,"DODOMA
CBD",411,MATUMBULU,41120,MATUMBULU A'',KUSENHA
DODOMA,41,"DODOMA
CBD",411,MATUMBULU,41120,MATUMBULU A'',CHIKOLA
DODOMA,41,"DODOMA
CBD",411,MATUMBULU,41120,MATUMBULU A'',MGONWA
DODOMA,41,"DODOMA
CBD",411,MATUMBULU,41120,MATUMBULU A'',KAUNDA
DODOMA,41,"DODOMA
CBD",411,MATUMBULU,41120,MATUMBULU A'',MUUNGANO
DODOMA,41,DODOMA,412,MAKUTOPORA,41201,MCHEMWA,MAZENGO
DODOMA,41,DODOMA,412,MAKUTOPORA,41201,MCHEMWA,KAWAWA
DODOMA,41,DODOMA,412,MAKUTOPORA,41201,MCHEMWA,MAJENGO
DODOMA,41,DODOMA,412,MAKUTOPORA,41201,MCHEMWA,AZIMIO
DODOMA,41,DODOMA,412,MAKUTOPORA,41201,MCHEMWA,MBANDEE
DODOMA,41,DODOMA,412,MAKUTOPORA,41201,VEYULA,CHILUNGULU
DODOMA,41,DODOMA,412,MAKUTOPORA,41201,VEYULA,MJI MPYA
DODOMA,41,DODOMA,412,MAKUTOPORA,41201,VEYULA,MAKUTUPORA
DODOMA,41,DODOMA,412,MAKUTOPORA,41201,VEYULA,MUUNGANO
DODOMA,41,DODOMA,412,MAKUTOPORA,41201,VEYULA,MADUKANI
DODOMA,41,DODOMA,412,MAKUTOPORA,41201,VEYULA,NMYEMYANGA
DODOMA,41,DODOMA,412,MAKUTOPORA,41201,VEYULA,WEYULA
DODOMA,41,DODOMA,412,MAKUTOPORA,41201,VEYULA,SEKONDARI
DODOMA,41,DODOMA,412,IPALA,41202,IPALA A,AZIMIO
DODOMA,41,DODOMA,412,IPALA,41202,IPALA A,MWENGE
DODOMA,41,DODOMA,412,IPALA,41202,IPALA A,MAZENGO
DODOMA,41,DODOMA,412,IPALA,41202,IPALA A,MWINYI
DODOMA,41,DODOMA,412,IPALA,41202,IPALA A,KASABUJE
DODOMA,41,DODOMA,412,IPALA,41202,IPALA A,SOKOINE
DODOMA,41,DODOMA,412,IPALA,41202,IPALA B,KAWAWA
DODOMA,41,DODOMA,412,IPALA,41202,IPALA B,MKOMBOZI
DODOMA,41,DODOMA,412,IPALA,41202,IPALA B,SOKOINE
DODOMA,41,DODOMA,412,IPALA,41202,CHAHWA,AZIMIO
DODOMA,41,DODOMA,412,IPALA,41202,CHAHWA,MWONGOZO
DODOMA,41,DODOMA,412,IPALA,41202,CHAHWA,MUUNGANO
DODOMA,41,DODOMA,412,IPALA,41202,CHAHWA,KAMBARAGE
DODOMA,41,DODOMA,412,IPALA,41202,CHAHWA,JAMHURI
DODOMA,41,DODOMA,412,IPALA,41202,CHAHWA,MSEKWA
DODOMA,41,DODOMA,412,IPALA,41202,M/MAKULU,MAZENGO
DODOMA,41,DODOMA,412,IPALA,41202,M/MAKULU,NYERERE
DODOMA,41,DODOMA,412,IPALA,41202,M/MAKULU,MAKULU
DODOMA,41,DODOMA,412,IPALA,41202,M/MAKULU,LUSINDE
DODOMA,41,DODOMA,412,IPALA,41202,M/MAKULU,AZIMIO
DODOMA,41,DODOMA,412,IPALA,41202,M/MAKULU,MATELA
DODOMA,41,DODOMA,412,CHIHANGA,41203,CHIHANGA,UHURU
DODOMA,41,DODOMA,412,CHIHANGA,41203,CHIHANGA,MAZENGO
DODOMA,41,DODOMA,412,CHIHANGA,41203,CHIHANGA,MAENDELEO
DODOMA,41,DODOMA,412,CHIHANGA,41203,GAWAYE,JUHUDI
DODOMA,41,DODOMA,412,CHIHANGA,41203,GAWAYE,UMOJA
DODOMA,41,DODOMA,412,CHIHANGA,41203,GAWAYE,MSHIKAMANO
DODOMA,41,DODOMA,412,CHIHANGA,41203,GAWAYE,MUUNGANO
DODOMA,41,DODOMA,412,CHIHANGA,41203,GAWAYE,UKOMBOZI
DODOMA,41,DODOMA,412,CHIHANGA,41203,NZASA,MUUNGANO
DODOMA,41,DODOMA,412,CHIHANGA,41203,NZASA,LAKE MANYARA
DODOMA,41,DODOMA,412,CHIHANGA,41203,NZASA,CHAMWINO
DODOMA,41,DODOMA,412,CHIHANGA,41203,NZASA,NAKULU
DODOMA,41,DODOMA,412,CHIHANGA,41203,NZASA,SONGAMBELE
DODOMA,41,DODOMA,412,CHIHANGA,41203,NZASA,KILIMANJARO
DODOMA,41,DODOMA,412,CHIHANGA,41203,NZASA,CHISABI
DODOMA,41,DODOMA,412,CHIHANGA,41203,NZASA,UMOJA
DODOMA,41,DODOMA,412,CHIHANGA,41203,SONGAMBELE,MWINYI
DODOMA,41,DODOMA,412,CHIHANGA,41203,SONGAMBELE,MAZENGO
DODOMA,41,DODOMA,412,CHIHANGA,41203,SONGAMBELE,MUUNGANO
DODOMA,41,DODOMA,412,CHIHANGA,41203,SONGAMBELE,HALO
DODOMA,41,DODOMA,412,CHIHANGA,41203,SONGAMBELE,UHURU
DODOMA,41,DODOMA,412,CHIHANGA,41203,SONGAMBELE,ILANGA
DODOMA,41,DODOMA,412,"HOMBOLO
BWAWANI",41204,MKOYO,MWINYI
DODOMA,41,DODOMA,412,"HOMBOLO
BWAWANI",41204,MKOYO,SOKOINE
DODOMA,41,DODOMA,412,"HOMBOLO
BWAWANI",41204,MKOYO,CHIMWAGA
DODOMA,41,DODOMA,412,"HOMBOLO
BWAWANI",41204,MKOYO,MAZENGO
DODOMA,41,DODOMA,412,"HOMBOLO
BWAWANI",41204,MKOYO,MWONGOZO
DODOMA,41,DODOMA,412,"HOMBOLO
BWAWANI",41204,MKOYO,MALECELA
DODOMA,41,DODOMA,412,"HOMBOLO
BWAWANI",41204,MKOYO,NYERERE
DODOMA,41,DODOMA,412,"HOMBOLO
BWAWANI",41204,MKOYO,LUSINDE
DODOMA,41,DODOMA,412,"HOMBOLO
BWAWANI",41204,HOMBOLO BWAWANI A,
DODOMA,41,DODOMA,412,"HOMBOLO
BWAWANI",41204,KOLIMBA,
DODOMA,41,DODOMA,412,"HOMBOLO
BWAWANI",41204,HOMBOLO BWAWANI B,
DODOMA,41,DODOMA,412,MSALATO,41205,MSALATO 'A',
DODOMA,41,DODOMA,412,MSALATO,41205,MSALATO 'B',
DODOMA,41,DODOMA,412,MSALATO,41205,ZAPESI,MANYETO
DODOMA,41,DODOMA,412,KIKOMBO,41206,KIKOMBO,MAPINDUZI
DODOMA,41,DODOMA,412,KIKOMBO,41206,KIKOMBO,MUUNGANO
DODOMA,41,DODOMA,412,KIKOMBO,41206,KIKOMBO,AMANI
DODOMA,41,DODOMA,412,KIKOMBO,41206,KIKOMBO,NG'ANGA
DODOMA,41,DODOMA,412,KIKOMBO,41206,KIKOMBO,MNADANI
DODOMA,41,DODOMA,412,KIKOMBO,41206,KIKOMBO,KAWAWA
DODOMA,41,DODOMA,412,KIKOMBO,41206,KIKOMBO,BWAWANI
DODOMA,41,DODOMA,412,KIKOMBO,41206,KIKOMBO,MWONGOZO
DODOMA,41,DODOMA,412,KIKOMBO,41206,CHOLOLO,JAMHURI
DODOMA,41,DODOMA,412,KIKOMBO,41206,CHOLOLO,KAWAWA
DODOMA,41,DODOMA,412,KIKOMBO,41206,CHOLOLO,SIASA
DODOMA,41,DODOMA,412,KIKOMBO,41206,CHOLOLO,LUSINDE
DODOMA,41,DODOMA,412,KIKOMBO,41206,CHOLOLO,KIZOTA
DODOMA,41,DODOMA,412,KIKOMBO,41206,CHOLOLO,MUUNGANO
DODOMA,41,DODOMA,412,MTUMBA,41207,CHILWANA,
DODOMA,41,DODOMA,412,MTUMBA,41207,MTUMBA,CHIHEMBE
DODOMA,41,DODOMA,412,MTUMBA,41207,MTUMBA,LUPILO
DODOMA,41,DODOMA,412,MTUMBA,41207,MTUMBA,MGANDU
DODOMA,41,DODOMA,412,MTUMBA,41207,MTUMBA,MAGUNGU
DODOMA,41,DODOMA,412,MTUMBA,41207,MTUMBA,NHINHI
DODOMA,41,DODOMA,412,MTUMBA,41207,MTUMBA,MAJENGO MAPYA
DODOMA,41,DODOMA,412,MTUMBA,41207,VIKONJE,MWONGOZO
DODOMA,41,DODOMA,412,MTUMBA,41207,VIKONJE,MUUNGANO
DODOMA,41,DODOMA,412,MTUMBA,41207,VIKONJE,MAPINDUZI
DODOMA,41,DODOMA,412,MTUMBA,41207,VIKONJE,SOKOINE
DODOMA,41,DODOMA,412,MTUMBA,41207,VIKONJE,MAJENGO
DODOMA,41,DODOMA,412,MTUMBA,41207,VIKONJE,NYERERE
DODOMA,41,DODOMA,412,MTUMBA,41207,VIKONJE,KAWAWA
DODOMA,41,DODOMA,412,MTUMBA,41207,IHUMWA,CHANG'OMBE
DODOMA,41,DODOMA,412,MTUMBA,41207,IHUMWA,MBUGANI
DODOMA,41,DODOMA,412,MTUMBA,41207,IHUMWA,MISHENI
DODOMA,41,DODOMA,412,MTUMBA,41207,IHUMWA,MADUKANI
DODOMA,41,DODOMA,412,MTUMBA,41207,IHUMWA,STESHENI
DODOMA,41,DODOMA,412,MTUMBA,41207,IHUMWA,ZAHANATI
DODOMA,41,DODOMA,412,MTUMBA,41207,IHUMWA,MAGHARIBI NDACHI
DODOMA,41,DODOMA,412,MTUMBA,41207,IHUMWA,CHIDIDIMO BARABARA
DODOMA,41,DODOMA,412,MTUMBA,41207,IHUMWA,ILOLO
DODOMA,41,DODOMA,412,MTUMBA,41207,IHUMWA,SHULENI
DODOMA,41,DODOMA,412,ZUZU,41208,ZUZU,AZIMIO
DODOMA,41,DODOMA,412,ZUZU,41208,ZUZU,KAWAWA
DODOMA,41,DODOMA,412,ZUZU,41208,ZUZU,SOWETO
DODOMA,41,DODOMA,412,ZUZU,41208,ZUZU,MWENGE
DODOMA,41,DODOMA,412,ZUZU,41208,ZUZU,MBUYUNI
DODOMA,41,DODOMA,412,ZUZU,41208,ZUZU,MAZENGO
DODOMA,41,DODOMA,412,ZUZU,41208,CHIDIDIMO,MWONGOZO
DODOMA,41,DODOMA,412,ZUZU,41208,CHIDIDIMO,MAPINDUZI
DODOMA,41,DODOMA,412,ZUZU,41208,CHIDIDIMO,MWENGE
DODOMA,41,DODOMA,412,ZUZU,41208,CHIDIDIMO,SOKOINE A
DODOMA,41,DODOMA,412,ZUZU,41208,CHIDIDIMO,SOKOINE B
DODOMA,41,DODOMA,412,NALA,41209,NALA,BARAZANI
DODOMA,41,DODOMA,412,NALA,41209,NALA,CHINANGALI
DODOMA,41,DODOMA,412,NALA,41209,NALA,KIBAONI
DODOMA,41,DODOMA,412,NALA,41209,NALA,SEGU CHINI
DODOMA,41,DODOMA,412,NALA,41209,NALA,SEGU BWAWANI
DODOMA,41,DODOMA,412,NALA,41209,NALA,CHIHONI
DODOMA,41,DODOMA,412,NALA,41209,NALA,SEGU JUU
DODOMA,41,DODOMA,412,NALA,41209,NALA,CHIWONDO
DODOMA,41,DODOMA,412,NALA,41209,NALA,BELOO
DODOMA,41,DODOMA,412,NALA,41209,CHIGONGWE,MUUTU
DODOMA,41,DODOMA,412,NALA,41209,CHIGONGWE,OSTERBAY
DODOMA,41,DODOMA,412,NALA,41209,NGHAMBALA,MKOMBALA
DODOMA,41,DODOMA,412,NALA,41209,NGHAMBALA,HAMBALA
DODOMA,41,DODOMA,412,NALA,41209,MSEMBETA,MLUTU
DODOMA,41,DODOMA,412,NALA,41209,MSEMBETA,AZIMIO
DODOMA,41,DODOMA,412,MBABALA,41210,MBABALA A,BIHAWANA
DODOMA,41,DODOMA,412,MBABALA,41210,VILINDONI,ILOLO
DODOMA,41,DODOMA,412,MBABALA,41210,VILINDONI,VILINDONI
DODOMA,41,DODOMA,412,MBABALA,41210,VILINDONI,UBWAGALU
DODOMA,41,DODOMA,412,MBABALA,41210,VILINDONI,MSUNYANHE
DODOMA,41,DODOMA,412,MBABALA,41210,VILINDONI,SAMORA
DODOMA,41,DODOMA,412,MBABALA,41210,MBABALA B,NGUJI
DODOMA,41,DODOMA,412,MBABALA,41210,MBABALA B,MPHUSU
DODOMA,41,DODOMA,412,MBABALA,41210,MBABALA B,MWEGAMILE
DODOMA,41,DODOMA,412,MBABALA,41210,MBABALA B,CHITELECHE
DODOMA,41,DODOMA,412,MBABALA,41210,BIHAWANA,IWELEWELE
DODOMA,41,DODOMA,412,MBABALA,41210,BIHAWANA,CHIKOWA
DODOMA,41,DODOMA,412,MBABALA,41210,BIHAWANA,KIVUKONI
DODOMA,41,DODOMA,412,MBABALA,41210,BIHAWANA,USHELELE
DODOMA,41,DODOMA,412,MBABALA,41210,BIHAWANA,MWENGE
DODOMA,41,DODOMA,412,MBABALA,41210,CHIZOMOCHE,MSUTYE
DODOMA,41,DODOMA,412,MBABALA,41210,CHIZOMOCHE,NGHALANDA
DODOMA,41,DODOMA,412,MBABALA,41210,CHIZOMOCHE,NHUNDULU
DODOMA,41,DODOMA,412,MBABALA,41210,CHIZOMOCHE,MKOLA
DODOMA,41,DODOMA,412,MBALAWALA,41211,CHIHIKWA,
DODOMA,41,DODOMA,412,MBALAWALA,41211,CHIWONDO,
DODOMA,41,DODOMA,412,MBALAWALA,41211,MWEGAMILE,
DODOMA,41,DODOMA,412,MBALAWALA,41211,MBALAWALA,VINOLO
DODOMA,41,DODOMA,412,MBALAWALA,41211,MBALAWALA,MLEMU
DODOMA,41,DODOMA,412,MBALAWALA,41211,MBALAWALA,MATANGIZI
DODOMA,41,DODOMA,412,MBALAWALA,41211,MBALAWALA,TEMANKUKU
DODOMA,41,DODOMA,412,MBALAWALA,41211,MBALAWALA,CHINZANCHI
DODOMA,41,DODOMA,412,MBALAWALA,41211,LUGALA,AZIMIO
DODOMA,41,DODOMA,412,MBALAWALA,41211,LUGALA,ABOUD JUMBE
DODOMA,41,DODOMA,412,MBALAWALA,41211,LUGALA,CHAHIKWI
DODOMA,41,DODOMA,412,MBALAWALA,41211,LUGALA,KAWAWA
DODOMA,41,DODOMA,412,MBALAWALA,41211,LUGALA,CHIWONDO
DODOMA,41,DODOMA,412,MBALAWALA,41211,LUGALA,MWEGAMILE
DODOMA,41,DODOMA,412,MPUNGUZI,41212,MATUMBULU,UKOMBOZI
DODOMA,41,DODOMA,412,MPUNGUZI,41212,MATUMBULU,CHIKOLA
DODOMA,41,DODOMA,412,MPUNGUZI,41212,MATUMBULU,KAUNDA
DODOMA,41,DODOMA,412,MPUNGUZI,41212,MATUMBULU,MUUNGANO
DODOMA,41,DODOMA,412,MPUNGUZI,41212,MATUMBULU,KUSENHA
DODOMA,41,DODOMA,412,MPUNGUZI,41212,NKULABI,MKWAWA
DODOMA,41,DODOMA,412,MPUNGUZI,41212,NKULABI,KARUME
DODOMA,41,DODOMA,412,MPUNGUZI,41212,NKULABI,MAZENGO
DODOMA,41,DODOMA,412,MPUNGUZI,41212,NKULABI,MWONGOZO
DODOMA,41,DODOMA,412,MPUNGUZI,41212,MPUNGUZI A,NYERERE
DODOMA,41,DODOMA,412,MPUNGUZI,41212,MPUNGUZI A,KAWAWA
DODOMA,41,DODOMA,412,MPUNGUZI,41212,MPUNGUZI A,MPUNGUZI CENTER
DODOMA,41,DODOMA,412,MPUNGUZI,41212,MPUNGUZI A,MKWAWA
DODOMA,41,DODOMA,412,MPUNGUZI,41212,MPUNGUZI B,AZIMIO
DODOMA,41,DODOMA,412,MPUNGUZI,41212,MPUNGUZI B,SABASABA
DODOMA,41,DODOMA,412,MNADANI,41213,MBWANGA,
DODOMA,41,DODOMA,412,MNADANI,41214,MNADANI,
DODOMA,41,DODOMA,412,MNADANI,41215,NDACHI,
DODOMA,41,DODOMA,412,CHIGONGWE,41214,CHIGONGWE,
DODOMA,41,DODOMA,412,CHIGONGWE,41215,MSEMBETA,
DODOMA,41,DODOMA,412,CHIGONGWE,41216,NGH'AMBALA,
DODOMA,41,DODOMA,412,CHAHWA,41215,CHAHWA,
DODOMA,41,DODOMA,412,CHAHWA,41216,MAHOMA/MAKULU,
DODOMA,41,DODOMA,412,CHANG'OMBE,41216,CHANGOMBE JUU,
DODOMA,41,DODOMA,412,CHANG'OMBE,41216,CHILEWA,
DODOMA,41,DODOMA,412,CHANG'OMBE,41216,HAMVU,
DODOMA,41,DODOMA,412,CHANG'OMBE,41216,MAZENGO,
DODOMA,41,DODOMA,412,IPAGALA,41217,MLIMWA WEST,
DODOMA,41,DODOMA,412,IPAGALA,41217,MLIMWA WEST,
DODOMA,41,DODOMA,412,IPAGALA,41217,MLIMWA WEST,
DODOMA,41,DODOMA,412,IPAGALA,41217,MLIMWA WEST,
DODOMA,41,DODOMA,412,IPAGALA,41217,MLIMWA WEST,
DODOMA,41,DODOMA,412,IYUMBU,41218,IYUMBU,
DODOMA,41,DODOMA,412,IYUMBU,41219,UDOM,
DODOMA,41,DODOMA,412,NTYUKA,41219,NTYUKA,
DODOMA,41,DODOMA,412,NTYUKA,41220,CHIDACHI,
DODOMA,41,DODOMA,412,NZUGUNI,41220,NZUNGUNI,MACHALA
DODOMA,41,DODOMA,412,NZUGUNI,41220,NZUNGUNI,MISHENI
DODOMA,41,DODOMA,412,NZUGUNI,41220,NZUNGUNI,NYERERE
DODOMA,41,DODOMA,412,NZUGUNI,41220,NZUNGUNI,CHINYELE
DODOMA,41,DODOMA,412,NZUGUNI,41220,NZUNGUNI,MAPINDUZI
DODOMA,41,DODOMA,412,NZUGUNI,41220,NZUNGUNI,KAWAWA
DODOMA,41,DODOMA,412,NZUGUNI,41220,NZUNGUNI,KARUME
DODOMA,41,DODOMA,412,NZUGUNI,41220,NZUNGUNI,MACHIMBO
DODOMA,41,DODOMA,412,NZUGUNI,41220,NZUNGUNI,SOKOINE
DODOMA,41,DODOMA,412,NZUGUNI,41220,NZUNGUNI,SHULENI
DODOMA,41,DODOMA,412,NZUGUNI,41220,MAHOMANYIKA,MAZENGO
DODOMA,41,DODOMA,412,NZUGUNI,41220,MAHOMANYIKA,CHITA
DODOMA,41,DODOMA,412,NZUGUNI,41220,MAHOMANYIKA,KAWAWA
DODOMA,41,DODOMA,412,NZUGUNI,41220,MAHOMANYIKA,SOKOINE
DODOMA,41,DODOMA,412,NZUGUNI,41220,MAHOMANYIKA,LUSINDE
DODOMA,41,DODOMA,412,NZUGUNI,41220,MAHOMANYIKA,MUGOMOLE
DODOMA,41,DODOMA,412,NZUGUNI,41220,KITELELA,CHANG'OMBE
DODOMA,41,DODOMA,412,NZUGUNI,41220,KITELELA,LUSINDE
DODOMA,41,DODOMA,412,NZUGUNI,41220,KITELELA,IKONGOLO
DODOMA,41,DODOMA,412,NZUGUNI,41220,KITELELA,AMANI
DODOMA,41,DODOMA,412,NZUGUNI,41220,KITELELA,MAPINDUZI
DODOMA,41,DODOMA,412,NZUGUNI,41220,KITELELA,KARUME
DODOMA,41,DODOMA,412,HOMBOLO MAKULU,41221,ZEPISA A,SOKOINE
DODOMA,41,DODOMA,412,HOMBOLO MAKULU,41221,ZEPISA A,MAYETO
DODOMA,41,DODOMA,412,HOMBOLO MAKULU,41221,ZEPISA A,CHANZANGA
DODOMA,41,DODOMA,412,HOMBOLO MAKULU,41221,ZEPISA A,NGAYAGAYE
DODOMA,41,DODOMA,412,HOMBOLO MAKULU,41221,HOMBOLO MAKULU,MSISI
DODOMA,41,DODOMA,412,HOMBOLO MAKULU,41221,HOMBOLO MAKULU,NYIKA
DODOMA,41,DODOMA,412,HOMBOLO MAKULU,41221,HOMBOLO MAKULU,MISSION
DODOMA,41,DODOMA,412,HOMBOLO MAKULU,41221,HOMBOLO MAKULU,KANGALIMA
DODOMA,41,DODOMA,412,HOMBOLO MAKULU,41221,HOMBOLO MAKULU,KATI
DODOMA,41,DODOMA,412,HOMBOLO MAKULU,41221,HOMBOLO MAKULU,MGONANG'HOLONGO
DODOMA,41,DODOMA,412,HOMBOLO MAKULU,41221,HOMBOLO MAKULU,MASEYA
DODOMA,41,DODOMA,412,HOMBOLO MAKULU,41221,HOMBOLO MAKULU,MAYELO
DODOMA,41,DODOMA,412,HOMBOLO MAKULU,41221,HOMBOLO MAKULU,KINYAMI
DODOMA,41,BAHI,413,BAHI,41301,BAHI SOKONI,MADUKANI
DODOMA,41,BAHI,413,BAHI,41301,BAHI SOKONI,MNADANI
DODOMA,41,BAHI,413,BAHI,41301,BAHI SOKONI,MAGU
DODOMA,41,BAHI,413,BAHI,41301,BAHI SOKONI,KIBAONI
DODOMA,41,BAHI,413,BAHI,41301,BAHI SOKONI,SANDULI
DODOMA,41,BAHI,413,BAHI,41301,BAHI SOKONI,NKUHUNGU
DODOMA,41,BAHI,413,BAHI,41301,BAHI SOKONI,KICHANGANI
DODOMA,41,BAHI,413,BAHI,41301,BAHI SOKONI,NG’OBWA
DODOMA,41,BAHI,413,BAHI,41301,BAHI SOKONI,MIEMBENI
DODOMA,41,BAHI,413,BAHI,41301,BAHI SOKONI,MISSION
DODOMA,41,BAHI,413,BAHI,41301,BAHI SOKONI,MBUYUNI
DODOMA,41,BAHI,413,BAHI,41301,BAHI SOKONI,MWANACHUGU
DODOMA,41,BAHI,413,BAHI,41301,BAHI SOKONI,LALOI
DODOMA,41,BAHI,413,BAHI,41301,BAHI SOKONI,HOSPITALI
DODOMA,41,BAHI,413,BAHI,41301,BAHI SOKONI,KISALALO
DODOMA,41,BAHI,413,BAHI,41301,BAHI SOKONI,BWESETI
DODOMA,41,BAHI,413,BAHI,41301,BAHI SOKONI,CHIONE
DODOMA,41,BAHI,413,BAHI,41301,BAHI SOKONI,NGHAMBO
DODOMA,41,BAHI,413,BAHI,41301,UHELELA,MBWANGA
DODOMA,41,BAHI,413,BAHI,41301,UHELELA,NDEBESI
DODOMA,41,BAHI,413,BAHI,41301,UHELELA,UHELELA
DODOMA,41,BAHI,413,BAHI,41301,UHELELA,CHIWONDO
DODOMA,41,BAHI,413,BAHI,41301,UHELELA,MLOWA
DODOMA,41,BAHI,413,BAHI,41301,UHELELA,SEMBETI
DODOMA,41,BAHI,413,BAHI,41301,UHELELA,MSERE
DODOMA,41,BAHI,413,BAHI,41301,NAGULO BAHI,MATOPEE
DODOMA,41,BAHI,413,BAHI,41301,NAGULO BAHI,MPUJE A
DODOMA,41,BAHI,413,BAHI,41301,NAGULO BAHI,MPUJE B
DODOMA,41,BAHI,413,BAHI,41301,NAGULO BAHI,MSIGALA A
DODOMA,41,BAHI,413,BAHI,41301,NAGULO BAHI,MSIGALA B
DODOMA,41,BAHI,413,BAHI,41301,NAGULO BAHI,NYERERE
DODOMA,41,BAHI,413,BAHI,41301,NAGULO BAHI,MTAKUJA
DODOMA,41,BAHI,413,BAHI,41301,NAGULO BAHI,SAGALA
DODOMA,41,BAHI,413,BAHI,41301,NAGULO BAHI,SANTASA
DODOMA,41,BAHI,413,BAHI,41301,NAGULO BAHI,CHIREJEHO
DODOMA,41,BAHI,413,IBIHWA,41302,IBIHWA,JUHUDI
DODOMA,41,BAHI,413,IBIHWA,41302,IBIHWA,MWONGOZO
DODOMA,41,BAHI,413,IBIHWA,41302,IBIHWA,MAPINDUZI
DODOMA,41,BAHI,413,IBIHWA,41302,IBIHWA,UKOMBOZI
DODOMA,41,BAHI,413,IBIHWA,41302,IBIHWA,SOKOINE
DODOMA,41,BAHI,413,IBIHWA,41302,IBIHWA,KAWAWA
DODOMA,41,BAHI,413,IBIHWA,41302,IBIHWA,AZIMIO
DODOMA,41,BAHI,413,IBIHWA,41302,IBIHWA,MLIMANI
DODOMA,41,BAHI,413,IBIHWA,41302,IBIHWA,NYERERE A
DODOMA,41,BAHI,413,IBIHWA,41302,IBIHWA,NYERERE B
DODOMA,41,BAHI,413,IBIHWA,41302,IBIHWA,MWENGE
DODOMA,41,BAHI,413,IBIHWA,41302,MNKHOLA,MABATINI
DODOMA,41,BAHI,413,IBIHWA,41302,MNKHOLA,NYERERE
DODOMA,41,BAHI,413,IBIHWA,41302,MNKHOLA,BWAWANI A
DODOMA,41,BAHI,413,IBIHWA,41302,MNKHOLA,BWAWANI B
DODOMA,41,BAHI,413,IBIHWA,41302,MNKHOLA,MLIMANI A
DODOMA,41,BAHI,413,IBIHWA,41302,MNKHOLA,MLIMANI B
DODOMA,41,BAHI,413,IBIHWA,41302,MNKHOLA,KAWAWA
DODOMA,41,BAHI,413,ILINDI,41303,ILINDI,AZIMIO
DODOMA,41,BAHI,413,ILINDI,41303,ILINDI,MUUNGANO
DODOMA,41,BAHI,413,ILINDI,41303,ILINDI,MWONGOZO
DODOMA,41,BAHI,413,ILINDI,41303,ILINDI,MWENGE A
DODOMA,41,BAHI,413,ILINDI,41303,ILINDI,MWENGE B
DODOMA,41,BAHI,413,ILINDI,41303,ILINDI,TEYA
DODOMA,41,BAHI,413,ILINDI,41303,ILINDI,CHIMPINDU
DODOMA,41,BAHI,413,ILINDI,41303,ILINDI,MLIMANI
DODOMA,41,BAHI,413,ILINDI,41303,ILINDI,BONDENI
DODOMA,41,BAHI,413,ILINDI,41303,ILINDI,CHIMWELA
DODOMA,41,BAHI,413,ILINDI,41303,MINDOLA,AZIMIO
DODOMA,41,BAHI,413,ILINDI,41303,MINDOLA,MGUNGA
DODOMA,41,BAHI,413,ILINDI,41303,MINDOLA,UHURU
DODOMA,41,BAHI,413,ILINDI,41303,MINDOLA,KAWAWA
DODOMA,41,BAHI,413,ILINDI,41303,MINDOLA,MWALAMBALO
DODOMA,41,BAHI,413,ILINDI,41303,MINDOLA,MWENGE
DODOMA,41,BAHI,413,KIGWE,41304,KIGWE,MADUKANI
DODOMA,41,BAHI,413,KIGWE,41304,KIGWE,USANGUNI
DODOMA,41,BAHI,413,KIGWE,41304,KIGWE,TAMBUKARELI
DODOMA,41,BAHI,413,KIGWE,41304,KIGWE,CHEKELENI
DODOMA,41,BAHI,413,KIGWE,41304,KIGWE,MIEMBENI
DODOMA,41,BAHI,413,KIGWE,41304,KIGWE,HOSPITALI
DODOMA,41,BAHI,413,KIGWE,41304,KIGWE,MPOLEE
DODOMA,41,BAHI,413,KIGWE,41304,KIGWE,RELINI
DODOMA,41,BAHI,413,KIGWE,41304,KIGWE,KICHANGANI
DODOMA,41,BAHI,413,KIGWE,41304,KIGWE,CHIGANGO
DODOMA,41,BAHI,413,KIGWE,41304,KIGWE,MKANZE
DODOMA,41,BAHI,413,KIGWE,41304,MAPINDUZI,MTONI
DODOMA,41,BAHI,413,KIGWE,41304,MAPINDUZI,MKOROSHONI
DODOMA,41,BAHI,413,KIGWE,41304,MAPINDUZI,MBUYUNI
DODOMA,41,BAHI,413,KIGWE,41304,MAPINDUZI,CHILEJEHO
DODOMA,41,BAHI,413,KIGWE,41304,MAPINDUZI,UDINDAMUSI
DODOMA,41,BAHI,413,KIGWE,41304,MAPINDUZI,MKWAJUNI
DODOMA,41,BAHI,413,KIGWE,41304,MAPINDUZI,MSIMBEJENDA
DODOMA,41,BAHI,413,KIGWE,41304,MAPINDUZI,SEJESE
DODOMA,41,BAHI,413,MPAMAMTWA,41305,BAHI MAKULU,MSISI
DODOMA,41,BAHI,413,MPAMAMTWA,41305,BAHI MAKULU,MAPINDUZI
DODOMA,41,BAHI,413,MPAMAMTWA,41305,BAHI MAKULU,MWENGE
DODOMA,41,BAHI,413,MPAMAMTWA,41305,BAHI MAKULU,MHIMBILI
DODOMA,41,BAHI,413,MPAMAMTWA,41305,BAHI MAKULU,BWAWANI
DODOMA,41,BAHI,413,MPAMAMTWA,41305,BAHI MAKULU,MBOMBO
DODOMA,41,BAHI,413,MPAMAMTWA,41305,BAHI MAKULU,SUGUTA A
DODOMA,41,BAHI,413,MPAMAMTWA,41305,BAHI MAKULU,SUGUTA B
DODOMA,41,BAHI,413,MPAMAMTWA,41305,BAHI MAKULU,NDIMILA
DODOMA,41,BAHI,413,MPAMAMTWA,41305,MKAKATIKA,SOHOMBI
DODOMA,41,BAHI,413,MPAMAMTWA,41305,MKAKATIKA,NGOMANGO
DODOMA,41,BAHI,413,MPAMAMTWA,41305,MKAKATIKA,MIYUJI
DODOMA,41,BAHI,413,MPAMAMTWA,41305,MKAKATIKA,MADUKANI
DODOMA,41,BAHI,413,MPAMAMTWA,41305,MKAKATIKA,MIEMBENI
DODOMA,41,BAHI,413,MPAMAMTWA,41305,MKAKATIKA,MSECHE
DODOMA,41,BAHI,413,MPAMAMTWA,41305,MKAKATIKA,BWESETI
DODOMA,41,BAHI,413,MPAMAMTWA,41305,MKAKATIKA,MIYENGWE
DODOMA,41,BAHI,413,MPAMAMTWA,41305,MKAKATIKA,MLINGENI
DODOMA,41,BAHI,413,MPAMAMTWA,41305,MPAMANTWA,KANKALI
DODOMA,41,BAHI,413,MPAMAMTWA,41305,MPAMANTWA,MAKALE
DODOMA,41,BAHI,413,MPAMAMTWA,41305,MPAMANTWA,BARABARANI
DODOMA,41,BAHI,413,MPAMAMTWA,41305,MPAMANTWA,MIEMBENI
DODOMA,41,BAHI,413,MPAMAMTWA,41305,MPAMANTWA,UHELELA
DODOMA,41,BAHI,413,MPAMAMTWA,41305,MPAMANTWA,MBEFU
DODOMA,41,BAHI,413,MPAMAMTWA,41305,MPAMANTWA,CHILENGA
DODOMA,41,BAHI,413,MPAMAMTWA,41305,MPAMANTWA,NHINILA
DODOMA,41,BAHI,413,MPAMAMTWA,41305,MPAMANTWA,CHISWILI
DODOMA,41,BAHI,413,MPAMAMTWA,41305,MPAMANTWA,MAJENGO
DODOMA,41,BAHI,413,CHALI,41306,CHALI MAKULU,NZASA
DODOMA,41,BAHI,413,CHALI,41306,CHALI MAKULU,IKULU
DODOMA,41,BAHI,413,CHALI,41306,CHALI MAKULU,SOKOINE
DODOMA,41,BAHI,413,CHALI,41306,CHALI MAKULU,MJINI
DODOMA,41,BAHI,413,CHALI,41306,CHALI MAKULU,MAKOLE
DODOMA,41,BAHI,413,CHALI,41306,CHALI MAKULU,AZIMIO
DODOMA,41,BAHI,413,CHALI,41306,CHALI MAKULU,MWENGE
DODOMA,41,BAHI,413,CHALI,41306,CHALI MAKULU,MLODA
DODOMA,41,BAHI,413,CHALI,41306,CHALI MAKULU,MBUYUNI
DODOMA,41,BAHI,413,CHALI,41306,CHALI MAKULU,SAKALAWE
DODOMA,41,BAHI,413,CHALI,41306,CHALI IGONGO,AMANI
DODOMA,41,BAHI,413,CHALI,41306,CHALI IGONGO,MIEMBENI
DODOMA,41,BAHI,413,CHALI,41306,CHALI IGONGO,MANDELA
DODOMA,41,BAHI,413,CHALI,41306,CHALI IGONGO,MAKAO
DODOMA,41,BAHI,413,CHALI,41306,CHALI IGONGO,SAMORA
DODOMA,41,BAHI,413,CHALI,41306,CHALI IGONGO,NGUVUKAZI
DODOMA,41,BAHI,413,CHALI,41306,CHALI IGONGO,MUUNGANO
DODOMA,41,BAHI,413,CHALI,41306,CHALI IGONGO,SALUGAI
DODOMA,41,BAHI,413,CHALI,41306,CHALI IGONGO,ILUCHA
DODOMA,41,BAHI,413,CHALI,41306,CHALI ISANGHA,MJINI
DODOMA,41,BAHI,413,CHALI,41306,CHALI ISANGHA,CHAMWINO
DODOMA,41,BAHI,413,CHALI,41306,CHALI ISANGHA,MKWAJUNI
DODOMA,41,BAHI,413,CHALI,41306,CHALI ISANGHA,IMONYOLA
DODOMA,41,BAHI,413,CHALI,41306,CHALI ISANGHA,IKOLOTA
DODOMA,41,BAHI,413,CHALI,41306,CHALI ISANGHA,MTONI
DODOMA,41,BAHI,413,CHALI,41306,CHALI ISANGHA,MIEMBENI
DODOMA,41,BAHI,413,CHALI,41306,CHALI ISANGHA,MANZASE
DODOMA,41,BAHI,413,CHALI,41306,CHALI ISANGHA,CHIKUYU
DODOMA,41,BAHI,413,CHALI,41306,CHALI ISANGHA,WANJELEZA
DODOMA,41,BAHI,413,CHALI,41306,CHIKOPELO,AZIMIO
DODOMA,41,BAHI,413,CHALI,41306,CHIKOPELO,NGUVUKAZI
DODOMA,41,BAHI,413,CHALI,41306,CHIKOPELO,MWENGE
DODOMA,41,BAHI,413,CHALI,41306,CHIKOPELO,PUYA
DODOMA,41,BAHI,413,CHALI,41306,CHIKOPELO,BWAWANI
DODOMA,41,BAHI,413,CHALI,41306,CHIKOPELO,MUUNGANO
DODOMA,41,BAHI,413,CHALI,41306,CHIKOPELO,CHIHUNDICHE
DODOMA,41,BAHI,413,CHIKOLA,41307,CHIKOLA,MAKOMANJE
DODOMA,41,BAHI,413,CHIKOLA,41307,CHIKOLA,MISUWI A
DODOMA,41,BAHI,413,CHIKOLA,41307,CHIKOLA,MISUWI B
DODOMA,41,BAHI,413,CHIKOLA,41307,CHIKOLA,ISANGA A
DODOMA,41,BAHI,413,CHIKOLA,41307,CHIKOLA,ISANGA B
DODOMA,41,BAHI,413,CHIKOLA,41307,CHIKOLA,NGUJI A
DODOMA,41,BAHI,413,CHIKOLA,41307,CHIKOLA,NGUJI B
DODOMA,41,BAHI,413,CHIKOLA,41307,CHIKOLA,USHIRIKA
DODOMA,41,BAHI,413,CHIKOLA,41307,CHIKOLA,CHIJIHA
DODOMA,41,BAHI,413,CHIKOLA,41307,CHIKOLA,MPINGA
DODOMA,41,BAHI,413,CHIKOLA,41307,CHIMENDELI,CHIMENDELI
DODOMA,41,BAHI,413,CHIKOLA,41307,CHIMENDELI,MPOLI
DODOMA,41,BAHI,413,CHIKOLA,41307,CHIMENDELI,SUGUTA
DODOMA,41,BAHI,413,CHIKOLA,41307,CHIMENDELI,MABWE
DODOMA,41,BAHI,413,CHIKOLA,41307,CHIMENDELI,MHUJE
DODOMA,41,BAHI,413,CHIKOLA,41307,CHIMENDELI,UHILEJEHO
DODOMA,41,BAHI,413,CHIKOLA,41307,CHIMENDELI,NGONANDELE
DODOMA,41,BAHI,413,CHIKOLA,41307,CHIMENDELI,MBUGANI A
DODOMA,41,BAHI,413,CHIKOLA,41307,CHIMENDELI,MBUGANI B
DODOMA,41,BAHI,413,CHIKOLA,41307,CHIMENDELI,ILOLO
DODOMA,41,BAHI,413,CHIKOLA,41307,CHIMENDELI,MGANDU
DODOMA,41,BAHI,413,CHIKOLA,41307,CHIMENDELI,UGOMIYOMBE
DODOMA,41,BAHI,413,CHIKOLA,41307,CHIMENDELI,MSANGALALE
DODOMA,41,BAHI,413,CHIKOLA,41307,CHIMENDELI,MTAJENDA
DODOMA,41,BAHI,413,CHIKOLA,41307,CHIMENDELI,MABISI
DODOMA,41,BAHI,413,CHIKOLA,41307,CHIMENDELI,MBWELILI
DODOMA,41,BAHI,413,CHIKOLA,41307,NGHULUGANO,MANDELA
DODOMA,41,BAHI,413,CHIKOLA,41307,NGHULUGANO,MAJENGO
DODOMA,41,BAHI,413,CHIKOLA,41307,NGHULUGANO,SAMORA
DODOMA,41,BAHI,413,CHIKOLA,41307,NGHULUGANO,MALECHELA
DODOMA,41,BAHI,413,CHIKOLA,41307,NGHULUGANO,KOLIMBA
DODOMA,41,BAHI,413,CHIKOLA,41307,NGHULUGANO,ISANGHA
DODOMA,41,BAHI,413,CHIKOLA,41307,NGHULUGANO,KAWAWA
DODOMA,41,BAHI,413,CHIKOLA,41307,NGHULUGANO,MOI
DODOMA,41,BAHI,413,CHIKOLA,41307,NGHULUGANO,AZIMIO
DODOMA,41,BAHI,413,CHIPANGA,41308,CHIGULUKA,MTAMBALIZA A
DODOMA,41,BAHI,413,CHIPANGA,41308,CHIGULUKA,MTAMBALIZA B
DODOMA,41,BAHI,413,CHIPANGA,41308,CHIGULUKA,MAKOLE
DODOMA,41,BAHI,413,CHIPANGA,41308,CHIGULUKA,MABATINI
DODOMA,41,BAHI,413,CHIPANGA,41308,CHIGULUKA,ISANGA
DODOMA,41,BAHI,413,CHIPANGA,41308,CHIGULUKA,MJI MPYA
DODOMA,41,BAHI,413,CHIPANGA,41308,CHIPANGA A,KAWAWA
DODOMA,41,BAHI,413,CHIPANGA,41308,CHIPANGA A,AZIMIO
DODOMA,41,BAHI,413,CHIPANGA,41308,CHIPANGA A,NGUKAZI
DODOMA,41,BAHI,413,CHIPANGA,41308,CHIPANGA A,MANDALE
DODOMA,41,BAHI,413,CHIPANGA,41308,CHIPANGA A,KAGERA
DODOMA,41,BAHI,413,CHIPANGA,41308,CHIPANGA A,SAMORA
DODOMA,41,BAHI,413,CHIPANGA,41308,CHIPANGA A,MWENGE
DODOMA,41,BAHI,413,CHIPANGA,41308,CHIPANGA A,MTAKUJA
DODOMA,41,BAHI,413,CHIPANGA,41308,CHIPANGA B,NGUWILA
DODOMA,41,BAHI,413,CHIPANGA,41308,CHIPANGA B,CHILEMBO
DODOMA,41,BAHI,413,CHIPANGA,41308,CHIPANGA B,CHONDOWILE
DODOMA,41,BAHI,413,CHIPANGA,41308,CHIPANGA B,MSUWI
DODOMA,41,BAHI,413,CHIPANGA,41308,CHIPANGA B,BONDENI
DODOMA,41,BAHI,413,CHIPANGA,41308,CHIPANGA B,MKWAWA
DODOMA,41,BAHI,413,NONDWA,41309,NONDWA,IWUMBA
DODOMA,41,BAHI,413,NONDWA,41309,NONDWA,CHAMBI
DODOMA,41,BAHI,413,NONDWA,41309,NONDWA,ILOWELO
DODOMA,41,BAHI,413,NONDWA,41309,NONDWA,CHIFUNJA
DODOMA,41,BAHI,413,NONDWA,41309,NONDWA,SASAJILA
DODOMA,41,BAHI,413,NONDWA,41309,NONDWA,BWAWANI
DODOMA,41,BAHI,413,NONDWA,41309,ZEJELE,POLEPOLE
DODOMA,41,BAHI,413,NONDWA,41309,ZEJELE,BWAWANI
DODOMA,41,BAHI,413,NONDWA,41309,ZEJELE,JUHUDI
DODOMA,41,BAHI,413,NONDWA,41309,ZEJELE,MUUNGANO
DODOMA,41,BAHI,413,NONDWA,41309,ZEJELE,MTAKUJA A
DODOMA,41,BAHI,413,NONDWA,41309,ZEJELE,MTAKUJA B
DODOMA,41,BAHI,413,MPALANGA,41310,CHIDILO,CHIHUNDICHE
DODOMA,41,BAHI,413,MPALANGA,41310,CHIDILO,MPHULULU
DODOMA,41,BAHI,413,MPALANGA,41310,CHIDILO,NZUGUNI
DODOMA,41,BAHI,413,MPALANGA,41310,CHIDILO,UTANDICHE
DODOMA,41,BAHI,413,MPALANGA,41310,CHIDILO,CHIMAGAI
DODOMA,41,BAHI,413,MPALANGA,41310,NHOLI,NHOLI
DODOMA,41,BAHI,413,MPALANGA,41310,NHOLI,CHITELECHA
DODOMA,41,BAHI,413,MPALANGA,41310,NHOLI,HIMBO
DODOMA,41,BAHI,413,MPALANGA,41310,NHOLI,MUUNGANO
DODOMA,41,BAHI,413,MPALANGA,41310,NHOLI,MKOMBOLA
DODOMA,41,BAHI,413,MPALANGA,41310,MPALANGA,MNKOLA A
DODOMA,41,BAHI,413,MPALANGA,41310,MPALANGA,MNKOLA B
DODOMA,41,BAHI,413,MPALANGA,41310,MPALANGA,KAWAWA
DODOMA,41,BAHI,413,MPALANGA,41310,MPALANGA,MKHANYANGWA
DODOMA,41,BAHI,413,MPALANGA,41310,MPALANGA,SANZA
DODOMA,41,BAHI,413,MPALANGA,41310,MPALANGA,NG’AMBO
DODOMA,41,BAHI,413,MPALANGA,41310,MPALANGA,MAZENGO
DODOMA,41,BAHI,413,MPALANGA,41310,MPALANGA,SHULE
DODOMA,41,BAHI,413,MPALANGA,41310,MPALANGA,MAKULU A
DODOMA,41,BAHI,413,MPALANGA,41310,MPALANGA,MAKULU B
DODOMA,41,BAHI,413,LAMAITI,41311,BANKOLO,MAJENGO A
DODOMA,41,BAHI,413,LAMAITI,41311,BANKOLO,CHILALA
DODOMA,41,BAHI,413,LAMAITI,41311,BANKOLO,NGAMBALA
DODOMA,41,BAHI,413,LAMAITI,41311,BANKOLO,MAPAMBANO
DODOMA,41,BAHI,413,LAMAITI,41311,BANKOLO,MUUNGANO
DODOMA,41,BAHI,413,LAMAITI,41311,BANKOLO,KICHANGANI
DODOMA,41,BAHI,413,LAMAITI,41311,BANKOLO,MGOMOLE
DODOMA,41,BAHI,413,LAMAITI,41311,BANKOLO,MIONDO
DODOMA,41,BAHI,413,LAMAITI,41311,BANKOLO,CHEMCHEM
DODOMA,41,BAHI,413,LAMAITI,41311,BANKOLO,CHAMWINO
DODOMA,41,BAHI,413,LAMAITI,41311,BANKOLO,MBANDTO
DODOMA,41,BAHI,413,LAMAITI,41311,BANKOLO,MAJENGO  B
DODOMA,41,BAHI,413,LAMAITI,41311,BANKOLO,MNADANI
DODOMA,41,BAHI,413,LAMAITI,41311,LAMAITI,NGUJI A
DODOMA,41,BAHI,413,LAMAITI,41311,LAMAITI,NGUJI B
DODOMA,41,BAHI,413,LAMAITI,41311,LAMAITI,MUUNGANO
DODOMA,41,BAHI,413,LAMAITI,41311,LAMAITI,AZIMIO
DODOMA,41,BAHI,413,LAMAITI,41311,LAMAITI,MWONDO A
DODOMA,41,BAHI,413,LAMAITI,41311,LAMAITI,MWONDO BWAWANI
DODOMA,41,BAHI,413,LAMAITI,41311,LAMAITI,USHIRIKA A
DODOMA,41,BAHI,413,LAMAITI,41311,LAMAITI,USHIRIKA B
DODOMA,41,BAHI,413,LAMAITI,41311,LAMAITI,SHULENI
DODOMA,41,BAHI,413,LAMAITI,41311,LAMAITI,BOMBANI
DODOMA,41,BAHI,413,LAMAITI,41311,LAMAITI,NIJILI
DODOMA,41,BAHI,413,LAMAITI,41311,LAMAITI,MSESELA
DODOMA,41,BAHI,413,LAMAITI,41311,LAMAITI,CHAMWINO
DODOMA,41,BAHI,413,LAMAITI,41311,LAMAITI,MUHANZA
DODOMA,41,BAHI,413,LAMAITI,41311,LAMAITI,SASAJILA
DODOMA,41,BAHI,413,LAMAITI,41311,LUKALI,LUKALI A
DODOMA,41,BAHI,413,LAMAITI,41311,LUKALI,LUKALI B
DODOMA,41,BAHI,413,LAMAITI,41311,LUKALI,CHEMCHEM A
DODOMA,41,BAHI,413,LAMAITI,41311,LUKALI,CHEMCHEM B
DODOMA,41,BAHI,413,LAMAITI,41311,LUKALI,ANU
DODOMA,41,BAHI,413,LAMAITI,41311,LUKALI,NGHOWE
DODOMA,41,BAHI,413,LAMAITI,41311,LUKALI,NZENZELA
DODOMA,41,BAHI,413,LAMAITI,41311,LUKALI,TOBALI
DODOMA,41,BAHI,413,LAMAITI,41311,LUKALI,MPAMBAGA
DODOMA,41,BAHI,413,LAMAITI,41311,LUKALI,MLUNGU
DODOMA,41,BAHI,413,LAMAITI,41311,LUKALI,HUBU
DODOMA,41,BAHI,413,MAKANDA,41312,CHONDE,MBANDE
DODOMA,41,BAHI,413,MAKANDA,41312,CHONDE,MTAKUJA
DODOMA,41,BAHI,413,MAKANDA,41312,CHONDE,CHIBEFU
DODOMA,41,BAHI,413,MAKANDA,41312,CHONDE,NGOMELE
DODOMA,41,BAHI,413,MAKANDA,41312,CHONDE,TONGONIKO
DODOMA,41,BAHI,413,MAKANDA,41312,CHONDE,HABO
DODOMA,41,BAHI,413,MAKANDA,41312,CHONDE,CHIKUYU
DODOMA,41,BAHI,413,MAKANDA,41312,CHONDE,NG’AMBO
DODOMA,41,BAHI,413,MAKANDA,41312,CHONDE,CHONDE KATI
DODOMA,41,BAHI,413,MAKANDA,41312,CHONDE,MSANGA
DODOMA,41,BAHI,413,MAKANDA,41312,MAKANDA,MVUMI A
DODOMA,41,BAHI,413,MAKANDA,41312,MAKANDA,MVUMI B
DODOMA,41,BAHI,413,MAKANDA,41312,MAKANDA,KASELE
DODOMA,41,BAHI,413,MAKANDA,41312,MAKANDA,NKUNGUGU
DODOMA,41,BAHI,413,MAKANDA,41312,MAKANDA,TOBAYI
DODOMA,41,BAHI,413,MAKANDA,41312,MAKANDA,CHIWONDO
DODOMA,41,BAHI,413,MAKANDA,41312,MAKANDA,MAKANDA A
DODOMA,41,BAHI,413,MAKANDA,41312,MAKANDA,MAKANDA B
DODOMA,41,BAHI,413,MAKANDA,41312,MAKANDA,CHIDETE A
DODOMA,41,BAHI,413,MAKANDA,41312,MAKANDA,CHIDETE B
DODOMA,41,BAHI,413,MAKANDA,41312,MAKANDA,CHIKOLA
DODOMA,41,BAHI,413,MAKANDA,41312,MAKANDA,MAJILI
DODOMA,41,BAHI,413,MAKANDA,41312,MAKANDA,KABODI
DODOMA,41,BAHI,413,MSISI,41313,MCHITO,CHANG’OMBE
DODOMA,41,BAHI,413,MSISI,41313,MCHITO,TAIMO
DODOMA,41,BAHI,413,MSISI,41313,MCHITO,KATI
DODOMA,41,BAHI,413,MSISI,41313,MCHITO,MTAKUJA
DODOMA,41,BAHI,413,MSISI,41313,MCHITO,MWONGOZO
DODOMA,41,BAHI,413,MSISI,41313,MCHITO,CHEMCHEM
DODOMA,41,BAHI,413,MSISI,41313,MSISI,MAJENGO A
DODOMA,41,BAHI,413,MSISI,41313,MSISI,CHAMBULI
DODOMA,41,BAHI,413,MSISI,41313,MSISI,MLECHE
DODOMA,41,BAHI,413,MSISI,41313,MSISI,MHANGA A
DODOMA,41,BAHI,413,MSISI,41313,MSISI,MHANGA B
DODOMA,41,BAHI,413,MSISI,41313,MSISI,MABATINI
DODOMA,41,BAHI,413,MSISI,41313,MSISI,MAJENGO B
DODOMA,41,BAHI,413,MSISI,41313,MSISI,MSISI JUU
DODOMA,41,BAHI,413,MSISI,41313,MSISI,HUMBAYI
DODOMA,41,BAHI,413,MSISI,41313,MSISI,MNADANI
DODOMA,41,BAHI,413,MSISI,41313,KISIMA CHA NDEGE,MBUYUNI
DODOMA,41,BAHI,413,MSISI,41313,KISIMA CHA NDEGE,MISUWI
DODOMA,41,BAHI,413,MSISI,41313,KISIMA CHA NDEGE,MUUNGANO
DODOMA,41,BAHI,413,MSISI,41313,KISIMA CHA NDEGE,NYERERE
DODOMA,41,BAHI,413,MSISI,41313,KISIMA CHA NDEGE,MGOMOLE
DODOMA,41,BAHI,413,MSISI,41313,KISIMA CHA NDEGE,MLIMANI
DODOMA,41,BAHI,413,MSISI,41313,KISIMA CHA NDEGE,MAPINDUZI
DODOMA,41,BAHI,413,MSISI,41313,KISIMA CHA NDEGE,MTUNDURUNI
DODOMA,41,BAHI,413,MSISI,41313,KISIMA CHA NDEGE,MIEMBENI
DODOMA,41,BAHI,413,MSISI,41313,KISIMA CHA NDEGE,KAWAWA
DODOMA,41,BAHI,413,MSISI,41313,KISIMA CHA NDEGE,MASIMBA
DODOMA,41,BAHI,413,MSISI,41313,KISIMA CHA NDEGE,MREMA
DODOMA,41,BAHI,413,MSISI,41313,KISIMA CHA NDEGE,CHIWONDO
DODOMA,41,BAHI,413,MSISI,41313,KISIMA CHA NDEGE,BWAWANI
DODOMA,41,BAHI,413,MSISI,41313,KISIMA CHA NDEGE,MKOROSHINI
DODOMA,41,BAHI,413,MSISI,41313,KISIMA CHA NDEGE,CHIZAGA
DODOMA,41,BAHI,413,MSISI,41313,TINAI,CHITEGO
DODOMA,41,BAHI,413,MSISI,41313,TINAI,SOKOINE
DODOMA,41,BAHI,413,MSISI,41313,TINAI,ISANGHA
DODOMA,41,BAHI,413,MSISI,41313,TINAI,TINAI
DODOMA,41,BAHI,413,MSISI,41313,TINAI,LOBAYI
DODOMA,41,BAHI,413,MSISI,41313,TINAI,MLUNGU
DODOMA,41,BAHI,413,MUNDEMU,41314,CHILUNGULU,KANISANI A
DODOMA,41,BAHI,413,MUNDEMU,41314,CHILUNGULU,LONDONI
DODOMA,41,BAHI,413,MUNDEMU,41314,CHILUNGULU,MLIMANI
DODOMA,41,BAHI,413,MUNDEMU,41314,CHILUNGULU,UCHAGANI
DODOMA,41,BAHI,413,MUNDEMU,41314,CHILUNGULU,MSONGA
DODOMA,41,BAHI,413,MUNDEMU,41314,CHILUNGULU,MAPAMHA
DODOMA,41,BAHI,413,MUNDEMU,41314,CHILUNGULU,KISIMANI
DODOMA,41,BAHI,413,MUNDEMU,41314,CHILUNGULU,KANISANI B
DODOMA,41,BAHI,413,MUNDEMU,41314,CHILUNGULU,NGHULUNGANILWA
DODOMA,41,BAHI,413,MUNDEMU,41314,CHILUNGULU,BWAWANI
DODOMA,41,BAHI,413,MUNDEMU,41314,CHILUNGULU,NYHINILA
DODOMA,41,BAHI,413,MUNDEMU,41314,MUNDEMU,SHULENI
DODOMA,41,BAHI,413,MUNDEMU,41314,MUNDEMU,MATITU
DODOMA,41,BAHI,413,MUNDEMU,41314,MUNDEMU,BWAWANI
DODOMA,41,BAHI,413,MUNDEMU,41314,MUNDEMU,MADUKANI
DODOMA,41,BAHI,413,MUNDEMU,41314,MUNDEMU,HIMBO
DODOMA,41,BAHI,413,MUNDEMU,41314,MUNDEMU,MIKOROSHONI
DODOMA,41,BAHI,413,MUNDEMU,41314,MUNDEMU,LUGONGA
DODOMA,41,BAHI,413,MUNDEMU,41314,MUNDEMU,MASONENYI
DODOMA,41,BAHI,413,MUNDEMU,41314,MUNDEMU,NYERERE
DODOMA,41,BAHI,413,MUNDEMU,41314,MUNDEMU,MAJENGO MAPYA
DODOMA,41,BAHI,413,MUNDEMU,41314,NGUJI,CHINANGALI
DODOMA,41,BAHI,413,MUNDEMU,41314,NGUJI,NGUJI
DODOMA,41,BAHI,413,MUNDEMU,41314,NGUJI,CHANG’OMBE
DODOMA,41,BAHI,413,MUNDEMU,41314,NGUJI,NDACHI
DODOMA,41,BAHI,413,MUNDEMU,41314,NGUJI,CDA
DODOMA,41,BAHI,413,MUNDEMU,41314,NGUJI,MUNYAMALE
DODOMA,41,BAHI,413,MUNDEMU,41314,NGUJI,MSEJELELA
DODOMA,41,BAHI,413,MUNDEMU,41314,NGUJI,SOKOINE
DODOMA,41,BAHI,413,MUNDEMU,41314,NGUJI,FUADI
DODOMA,41,BAHI,413,MUNDEMU,41314,NGUJI,NGUJI BOMBANI
DODOMA,41,BAHI,413,ZANKA,41315,MAYAMAYA,NYERERE
DODOMA,41,BAHI,413,ZANKA,41315,MAYAMAYA,MTITAA
DODOMA,41,BAHI,413,ZANKA,41315,MAYAMAYA,LUSINDE
DODOMA,41,BAHI,413,ZANKA,41315,MAYAMAYA,CHIGONGO
DODOMA,41,BAHI,413,ZANKA,41315,MAYAMAYA,MKANDANIZE
DODOMA,41,BAHI,413,ZANKA,41315,MAYAMAYA,ZAMAHELO
DODOMA,41,BAHI,413,ZANKA,41315,MAYAMAYA,NJIAPANDA
DODOMA,41,BAHI,413,ZANKA,41315,MAYAMAYA,MTUNGUTU
DODOMA,41,BAHI,413,ZANKA,41315,MAYAMAYA,CHITERELELE
DODOMA,41,BAHI,413,ZANKA,41315,MAYAMAYA,MKONGONI
DODOMA,41,BAHI,413,ZANKA,41315,MKONDAI,KARUME
DODOMA,41,BAHI,413,ZANKA,41315,MKONDAI,KAWAWA
DODOMA,41,BAHI,413,ZANKA,41315,MKONDAI,NYERERE
DODOMA,41,BAHI,413,ZANKA,41315,MKONDAI,MAGOMA
DODOMA,41,BAHI,413,ZANKA,41315,MKONDAI,MAPINDUZI
DODOMA,41,BAHI,413,ZANKA,41315,MKONDAI,ZATI
DODOMA,41,BAHI,413,ZANKA,41315,MKONDAI,ZEYATO
DODOMA,41,BAHI,413,ZANKA,41315,MKONDAI,ZANKA
DODOMA,41,BAHI,413,ZANKA,41315,MKONDAI,AZIMIO
DODOMA,41,BAHI,413,ZANKA,41315,MKONDAI,KAWAWA
DODOMA,41,BAHI,413,ZANKA,41315,MKONDAI,NYERERE
DODOMA,41,BAHI,413,ZANKA,41315,ZANKA,LUSINDE
DODOMA,41,BAHI,413,ZANKA,41315,ZANKA,MNASE
DODOMA,41,BAHI,413,ZANKA,41315,ZANKA,LULUNDE
DODOMA,41,BAHI,413,ZANKA,41315,ZANKA,NG’AMBI
DODOMA,41,BAHI,413,CHIBELELA,41316,CHIBELELA,KUSILA
DODOMA,41,BAHI,413,CHIBELELA,41316,CHIBELELA,MALECELA
DODOMA,41,BAHI,413,CHIBELELA,41316,CHIBELELA,SOKOINE
DODOMA,41,BAHI,413,CHIBELELA,41316,CHIBELELA,SAMORA
DODOMA,41,BAHI,413,CHIBELELA,41316,CHIBELELA,LUSINDE
DODOMA,41,BAHI,413,CHIBELELA,41316,CHIBELELA,KAUNDA
DODOMA,41,BAHI,413,CHIBELELA,41316,CHIBELELA,KARUME
DODOMA,41,BAHI,413,CHIBELELA,41316,CHIBELELA,MAPINDUZI
DODOMA,41,BAHI,413,CHIBELELA,41316,CHIBELELA,NYERERE
DODOMA,41,BAHI,413,CHIBELELA,41316,CHIBELELA,KAWAWA
DODOMA,41,BAHI,413,CHIBELELA,41316,CHIBELELA,MAZENGO
DODOMA,41,BAHI,413,CHIBELELA,41316,CHIBELELA,JAMHURI
DODOMA,41,BAHI,413,CHIBELELA,41316,CHIBELELA,CHIMWANGA
DODOMA,41,BAHI,413,CHIBELELA,41316,CHIBELELA,KAUNDA B
DODOMA,41,BAHI,413,CHIBELELA,41316,ISANGHA,MAZENGO
DODOMA,41,BAHI,413,CHIBELELA,41316,ISANGHA,SAMORA
DODOMA,41,BAHI,413,CHIBELELA,41316,ISANGHA,JAMHURI
DODOMA,41,BAHI,413,CHIBELELA,41316,ISANGHA,KAWAWA
DODOMA,41,BAHI,413,CHIBELELA,41316,ISANGHA,NYERERE
DODOMA,41,BAHI,413,CHIBELELA,41316,ISANGHA,KAUNDA
DODOMA,41,BAHI,413,CHIBELELA,41316,ISANGHA,SABASABA
DODOMA,41,BAHI,413,CHIBELELA,41316,ISANGHA,AZIMIO
DODOMA,41,BAHI,413,CHIBELELA,41316,ISANGHA,MANDELA
DODOMA,41,BAHI,413,CHIBELELA,41316,ISANGHA,MWONGOZO
DODOMA,41,BAHI,413,IBUGULE,41317,IBUGULE,SASAJILA
DODOMA,41,BAHI,413,IBUGULE,41317,IBUGULE,MPEMBE
DODOMA,41,BAHI,413,IBUGULE,41317,IBUGULE,CHOGOMBWE
DODOMA,41,BAHI,413,IBUGULE,41317,IBUGULE,MGAHAWANI
DODOMA,41,BAHI,413,IBUGULE,41317,IBUGULE,ZAMBIA
DODOMA,41,BAHI,413,IBUGULE,41317,IBUGULE,MAJENGO A
DODOMA,41,BAHI,413,IBUGULE,41317,IBUGULE,MAJENGO B
DODOMA,41,BAHI,413,IBUGULE,41317,IBUGULE,MUUNGANO
DODOMA,41,BAHI,413,IBUGULE,41317,IBUGULE,SULYE
DODOMA,41,BAHI,413,IBUGULE,41317,NKHOME,KIKUYU
DODOMA,41,BAHI,413,IBUGULE,41317,NKHOME,MGABE
DODOMA,41,BAHI,413,IBUGULE,41317,NKHOME,MAHOMASENGA
DODOMA,41,BAHI,413,IBUGULE,41317,NKHOME,CHIGOGONGWE
DODOMA,41,BAHI,413,IBUGULE,41317,NKHOME,CHINOJE
DODOMA,41,BAHI,413,IBUGULE,41317,NKHOME,HOSPITALI
DODOMA,41,BAHI,413,IBUGULE,41317,MAPANGA,MAPANGA
DODOMA,41,BAHI,413,IBUGULE,41317,MAPANGA,ITITIMA
DODOMA,41,BAHI,413,IBUGULE,41317,MAPANGA,LWATU
DODOMA,41,BAHI,413,IBUGULE,41317,MAPANGA,CHITUMI
DODOMA,41,BAHI,413,IBUGULE,41317,MAPANGA,MAKULU
DODOMA,41,BAHI,413,IBUGULE,41317,MAPANGA,MCHEULA
DODOMA,41,BAHI,413,IBUGULE,41317,MAPANGA,CHINANGALI
DODOMA,41,BAHI,413,MTITAA,41318,MTITAA,LUSINDE
DODOMA,41,BAHI,413,MTITAA,41318,MTITAA,KARUME
DODOMA,41,BAHI,413,MTITAA,41318,MTITAA,ZAMBIA
DODOMA,41,BAHI,413,MTITAA,41318,MTITAA,MADUKANI
DODOMA,41,BAHI,413,MTITAA,41318,MTITAA,KAWAWA
DODOMA,41,BAHI,413,MTITAA,41318,MTITAA,NYERERE
DODOMA,41,BAHI,413,MTITAA,41318,MTITAA,KUSILA
DODOMA,41,BAHI,413,MTITAA,41318,MTITAA,MAHAKA
DODOMA,41,BAHI,413,MTITAA,41318,MTITAA,MATILANGA
DODOMA,41,BAHI,413,MTITAA,41318,NCHINILA,MUUNGANO
DODOMA,41,BAHI,413,MTITAA,41318,NCHINILA,KAUNDA
DODOMA,41,BAHI,413,MTITAA,41318,NCHINILA,MAZENGO
DODOMA,41,BAHI,413,MTITAA,41318,NCHINILA,KAWAWA
DODOMA,41,BAHI,413,MTITAA,41318,NCHINILA,MBUGANI
DODOMA,41,BAHI,413,MWITIKIRA,41319,MPHANGWE,MWENGE
DODOMA,41,BAHI,413,MWITIKIRA,41319,MPHANGWE,MUUNGANO
DODOMA,41,BAHI,413,MWITIKIRA,41319,MPHANGWE,KILIMO
DODOMA,41,BAHI,413,MWITIKIRA,41319,MPHANGWE,MLIMANI
DODOMA,41,BAHI,413,MWITIKIRA,41319,MPHANGWE,MAKAO MAKUU
DODOMA,41,BAHI,413,MWITIKIRA,41319,MPHANGWE,MKOMBILENGA
DODOMA,41,BAHI,413,MWITIKIRA,41319,MPHANGWE,MNARANI
DODOMA,41,BAHI,413,MWITIKIRA,41319,MWITIKIRA,MALECELA
DODOMA,41,BAHI,413,MWITIKIRA,41319,MWITIKIRA,MUUNGANO
DODOMA,41,BAHI,413,MWITIKIRA,41319,MWITIKIRA,ISANGA
DODOMA,41,BAHI,413,MWITIKIRA,41319,MWITIKIRA,MLIMANI
DODOMA,41,BAHI,413,MWITIKIRA,41319,MWITIKIRA,MGOMWA
DODOMA,41,BAHI,413,MWITIKIRA,41319,MWITIKIRA,MAKULU
DODOMA,41,BAHI,413,MWITIKIRA,41319,MWITIKIRA,CHINYIKA
DODOMA,41,BAHI,413,MWITIKIRA,41319,MWITIKIRA,MACHINJIONI
DODOMA,41,BAHI,413,MWITIKIRA,41319,MWITIKIRA,CHILANJILILA
DODOMA,41,BAHI,413,CHIFUTUKA,41320,CHIFUTUKA,UHURU
DODOMA,41,BAHI,413,CHIFUTUKA,41320,CHIFUTUKA,AZIMIO
DODOMA,41,BAHI,413,CHIFUTUKA,41320,CHIFUTUKA,MZALENDO
DODOMA,41,BAHI,413,CHIFUTUKA,41320,CHIFUTUKA,MUUNGANO
DODOMA,41,BAHI,413,CHIFUTUKA,41320,CHIFUTUKA,NYERERE
DODOMA,41,BAHI,413,CHIFUTUKA,41320,CHIFUTUKA,JUHUDI
DODOMA,41,BAHI,413,CHIFUTUKA,41320,CHIFUTUKA,SOWETO
DODOMA,41,BAHI,413,CHIFUTUKA,41320,CHIFUTUKA,IDODOMA
DODOMA,41,BAHI,413,CHIFUTUKA,41320,CHIFUTUKA,MWONGOZO
DODOMA,41,BAHI,413,CHIFUTUKA,41320,CHIFUTUKA,IKUMBUTU
DODOMA,41,BAHI,413,CHIFUTUKA,41320,CHIFUTUKA,MAGALIBWAA
DODOMA,41,BAHI,413,CHIFUTUKA,41320,CHIFUTUKA,NTUKULA
DODOMA,41,BAHI,413,CHIFUTUKA,41320,CHIFUTUKA,MDEMWA
DODOMA,41,BAHI,413,CHIFUTUKA,41320,MAGAGA,MSUMBUJI A
DODOMA,41,BAHI,413,CHIFUTUKA,41320,MAGAGA,MSUMBUJI B
DODOMA,41,BAHI,413,CHIFUTUKA,41320,MAGAGA,KAGERA A
DODOMA,41,BAHI,413,CHIFUTUKA,41320,MAGAGA,KAGERA B
DODOMA,41,BAHI,413,CHIFUTUKA,41320,MAGAGA,MSILILI
DODOMA,41,BAHI,413,CHIFUTUKA,41320,MAGAGA,MADAWI
DODOMA,41,BAHI,413,CHIFUTUKA,41320,IKUMBULU,KIBAONI
DODOMA,41,BAHI,413,CHIFUTUKA,41320,IKUMBULU,UZUNGUNI
DODOMA,41,BAHI,413,CHIFUTUKA,41320,IKUMBULU,MTAKUJA
DODOMA,41,BAHI,413,CHIFUTUKA,41320,IKUMBULU,MANDELA
DODOMA,41,BAHI,413,CHIFUTUKA,41320,IKUMBULU,MLIMANI
DODOMA,41,BAHI,413,CHIFUTUKA,41320,IKUMBULU,SOWETO
DODOMA,41,BAHI,413,MPINGA,41321,MPINGA,SONGAMBELE
DODOMA,41,BAHI,413,MPINGA,41321,MPINGA,CHAPAKAZI
DODOMA,41,BAHI,413,MPINGA,41321,MPINGA,KIGAMBONI
DODOMA,41,BAHI,413,MPINGA,41321,MPINGA,KIGWAMBUGA
DODOMA,41,BAHI,413,MPINGA,41321,MPINGA,CHEMCHEM
DODOMA,41,BAHI,413,MPINGA,41321,MPINGA,MWONGOZO
DODOMA,41,BAHI,413,MPINGA,41321,MPINGA,MAPAMBANO
DODOMA,41,BAHI,413,MPINGA,41321,MPINGA,MSEJERERA
DODOMA,41,BAHI,413,MPINGA,41321,MPINGA,MAPINDUZI
DODOMA,41,BAHI,413,MPINGA,41321,MPINGA,MAENDELEO
DODOMA,41,BAHI,413,MPINGA,41321,MPINGA,NYERERE
DODOMA,41,BAHI,413,MPINGA,41321,MPINGA,KIGAMBONI B'
DODOMA,41,BAHI,413,MPINGA,41321,MZOGOLE,MTAKUJA
DODOMA,41,BAHI,413,MPINGA,41321,MZOGOLE,KAWAWA
DODOMA,41,BAHI,413,MPINGA,41321,MZOGOLE,MKOMBOZI
DODOMA,41,BAHI,413,MPINGA,41321,MZOGOLE,MAPAMBANO
DODOMA,41,BAHI,413,MPINGA,41321,MZOGOLE,KARUME
DODOMA,41,BAHI,413,MPINGA,41321,MZOGOLE,MIPANGO
DODOMA,41,BAHI,413,MPINGA,41321,MZOGOLE,MAPINDUZI
DODOMA,41,BAHI,413,MPINGA,41321,MZOGOLE,KILIMANJARO
DODOMA,41,BAHI,413,MPINGA,41321,MZOGOLE,CHAPAKAZI A
DODOMA,41,BAHI,413,MPINGA,41321,MZOGOLE,CHAPAKAZI B
DODOMA,41,BAHI,413,MPINGA,41321,MZOGOLE,KIGAMBONI
DODOMA,41,BAHI,413,MPINGA,41321,MZOGOLE,KILIMANJARO
DODOMA,41,BAHI,413,MPINGA,41321,MZOGOLE,SULAJI
DODOMA,41,BAHI,413,MPINGA,41321,MZOGOLE,MLOWA
DODOMA,41,BAHI,413,MPINGA,41321,MZOGOLE,GULIONI
DODOMA,41,BAHI,413,MPINGA,41321,MZOGOLE,KIGAMBONI 'B'
DODOMA,41,BAHI,413,BABAYU,41322,ASANJE,SONGAMBELE
DODOMA,41,BAHI,413,BABAYU,41322,ASANJE,NYERERE
DODOMA,41,BAHI,413,BABAYU,41322,ASANJE,LUSINDE
DODOMA,41,BAHI,413,BABAYU,41322,ASANJE,MUUNGANO
DODOMA,41,BAHI,413,BABAYU,41322,BABAYU,APITI
DODOMA,41,BAHI,413,BABAYU,41322,BABAYU,KAWAWA A
DODOMA,41,BAHI,413,BABAYU,41322,BABAYU,KAWAWA B
DODOMA,41,BAHI,413,BABAYU,41322,BABAYU,MALECELA A
DODOMA,41,BAHI,413,BABAYU,41322,BABAYU,MALECELA B
DODOMA,41,BAHI,413,BABAYU,41322,BABAYU,MAPUNDUZI A
DODOMA,41,BAHI,413,BABAYU,41322,BABAYU,MAPINDUZI B
DODOMA,41,BAHI,413,BABAYU,41322,BABAYU,MWENGE
DODOMA,41,BAHI,413,BABAYU,41322,BABAYU,MSANGANI
DODOMA,41,BAHI,413,BABAYU,41322,BABAYU,DULUU
DODOMA,41,BAHI,413,BABAYU,41322,KONGOGO,KONGOGO MAKULU
DODOMA,41,BAHI,413,BABAYU,41322,KONGOGO,CHAMWINO
DODOMA,41,BAHI,413,BABAYU,41322,KONGOGO,MLUNGU
DODOMA,41,BAHI,413,BABAYU,41322,KONGOGO,KANISA A
DODOMA,41,BAHI,413,BABAYU,41322,KONGOGO,KANISA B
DODOMA,41,BAHI,413,BABAYU,41322,KONGOGO,CHITELELA
DODOMA,41,BAHI,413,BABAYU,41322,KONGOGO,MSASANI
DODOMA,41,BAHI,413,BABAYU,41322,KONGOGO,MKALAMA
DODOMA,41,BAHI,413,BABAYU,41322,KONGOGO,YABUBWA
DODOMA,41,BAHI,413,BABAYU,41322,KONGOGO,NZEJEZEJE
DODOMA,41,BAHI,413,BABAYU,41322,KONGOGO,MHANGA
DODOMA,41,BAHI,413,BABAYU,41322,KONGOGO,MGOONDO MAKULU
DODOMA,41,BAHI,413,BABAYU,41322,KONGOGO,SEJELI A
DODOMA,41,CHAMWINO,414,CHILONWA,41401,MAHAMA,NYERERE
DODOMA,41,CHAMWINO,414,CHILONWA,41401,MAHAMA,KAWAWA
DODOMA,41,CHAMWINO,414,CHILONWA,41401,MAHAMA,MLIMANI
DODOMA,41,CHAMWINO,414,CHILONWA,41401,MAHAMA,ABOUD JUMBE
DODOMA,41,CHAMWINO,414,CHILONWA,41401,MAHAMA,MWINYI
DODOMA,41,CHAMWINO,414,CHILONWA,41401,MAHAMA,JENGENI
DODOMA,41,CHAMWINO,414,CHILONWA,41401,MAHAMA,LUSINDE
DODOMA,41,CHAMWINO,414,CHILONWA,41401,MAHAMA,MGONGOLOFU
DODOMA,41,CHAMWINO,414,CHILONWA,41401,MAHAMA,NHONYA
DODOMA,41,CHAMWINO,414,CHILONWA,41401,MAHAMA,MUUNGANO
DODOMA,41,CHAMWINO,414,CHILONWA,41401,NZALI,MUUNGANO
DODOMA,41,CHAMWINO,414,CHILONWA,41401,NZALI,NYAGALU
DODOMA,41,CHAMWINO,414,CHILONWA,41401,NZALI,MWONGOZO
DODOMA,41,CHAMWINO,414,CHILONWA,41401,NZALI,KAMBARAGE
DODOMA,41,CHAMWINO,414,CHILONWA,41401,NZALI,MWENGE
DODOMA,41,CHAMWINO,414,CHILONWA,41401,NZALI,CHANG'OMBE
DODOMA,41,CHAMWINO,414,CHILONWA,41401,NZALI,AZIMIO
DODOMA,41,CHAMWINO,414,CHILONWA,41401,NZALI,CHIBWE
DODOMA,41,CHAMWINO,414,CHILONWA,41401,NZALI,NHAMBALIZA
DODOMA,41,CHAMWINO,414,CHILONWA,41401,NZALI,VIGANGA
DODOMA,41,CHAMWINO,414,CHILONWA,41401,NZALI,JAMHURI
DODOMA,41,CHAMWINO,414,CHILONWA,41401,NZALI,CHAPAKAZI
DODOMA,41,CHAMWINO,414,CHILONWA,41401,NZALI,NGUVU KAZI
DODOMA,41,CHAMWINO,414,CHILONWA,41401,NZALI,MAPINDUZI
DODOMA,41,CHAMWINO,414,BUIGIRI,41402,BUIGIRI,CHIKUYU A
DODOMA,41,CHAMWINO,414,BUIGIRI,41402,BUIGIRI,CHIKUYU B
DODOMA,41,CHAMWINO,414,BUIGIRI,41402,BUIGIRI,MAKULU A
DODOMA,41,CHAMWINO,414,BUIGIRI,41402,BUIGIRI,MAKULU B
DODOMA,41,CHAMWINO,414,BUIGIRI,41402,BUIGIRI,CHANG'OMBE
DODOMA,41,CHAMWINO,414,BUIGIRI,41402,BUIGIRI,MADUKANI
DODOMA,41,CHAMWINO,414,BUIGIRI,41402,BUIGIRI,MIKOROSHONI
DODOMA,41,CHAMWINO,414,BUIGIRI,41402,BUIGIRI,LUSINDE
DODOMA,41,CHAMWINO,414,BUIGIRI,41402,BUIGIRI,SONGAMBELE
DODOMA,41,CHAMWINO,414,BUIGIRI,41402,BUIGIRI,NHUNDULU
DODOMA,41,CHAMWINO,414,BUIGIRI,41402,BUIGIRI,KIVUKONI
DODOMA,41,CHAMWINO,414,BUIGIRI,41402,CHINANGALI II,MAKULU
DODOMA,41,CHAMWINO,414,BUIGIRI,41402,CHINANGALI II,AZIMIO
DODOMA,41,CHAMWINO,414,BUIGIRI,41402,CHINANGALI II,KAWAWA
DODOMA,41,CHAMWINO,414,BUIGIRI,41402,CHINANGALI II,MWONGOZO
DODOMA,41,CHAMWINO,414,BUIGIRI,41402,CHINANGALI II,UJAMAA
DODOMA,41,CHAMWINO,414,BUIGIRI,41402,CHINANGALI II,MUUNGANO A
DODOMA,41,CHAMWINO,414,BUIGIRI,41402,MWEGAMILE,NYERERE
DODOMA,41,CHAMWINO,414,BUIGIRI,41402,MWEGAMILE,MUUNGANO B
DODOMA,41,CHAMWINO,414,BUIGIRI,41402,MWEGAMILE,MAJENGO A
DODOMA,41,CHAMWINO,414,BUIGIRI,41402,MWEGAMILE,MAJENGO B
DODOMA,41,CHAMWINO,414,BUIGIRI,41402,MWEGAMILE,MWEGAMILE
DODOMA,41,CHAMWINO,414,MAJELEKO,41403,MAJELEKO,SONGAMBELE
DODOMA,41,CHAMWINO,414,MAJELEKO,41403,MAJELEKO,KAWAWA
DODOMA,41,CHAMWINO,414,MAJELEKO,41403,MAJELEKO,MWINYI
DODOMA,41,CHAMWINO,414,MAJELEKO,41403,MAJELEKO,MKAPA
DODOMA,41,CHAMWINO,414,MAJELEKO,41403,MAJELEKO,MUUNGANO
DODOMA,41,CHAMWINO,414,MAJELEKO,41403,MAJELEKO,HARAMBEE
DODOMA,41,CHAMWINO,414,MAJELEKO,41403,MAJELEKO,KIVUKONI
DODOMA,41,CHAMWINO,414,MAJELEKO,41403,MAJELEKO,MWONGOZO
DODOMA,41,CHAMWINO,414,MAJELEKO,41403,MAJELEKO,AZIMIO
DODOMA,41,CHAMWINO,414,MAJELEKO,41403,MBELEZUNGU,MLIMANI
DODOMA,41,CHAMWINO,414,MAJELEKO,41403,MBELEZUNGU,MBELEZUNGU A
DODOMA,41,CHAMWINO,414,MAJELEKO,41403,MBELEZUNGU,MBELEZUNGU B
DODOMA,41,CHAMWINO,414,MAJELEKO,41403,MBELEZUNGU,MANZILANZI A
DODOMA,41,CHAMWINO,414,MAJELEKO,41403,MBELEZUNGU,MANZILANZI B
DODOMA,41,CHAMWINO,414,MAJELEKO,41403,CHINANGALI I,MAHATA A
DODOMA,41,CHAMWINO,414,MAJELEKO,41403,CHINANGALI I,MAHATA B
DODOMA,41,CHAMWINO,414,MAJELEKO,41403,CHINANGALI I,LUSINDE A
DODOMA,41,CHAMWINO,414,MAJELEKO,41403,CHINANGALI I,LUSINDE B
DODOMA,41,CHAMWINO,414,MAJELEKO,41403,CHINANGALI I,SIASA
DODOMA,41,CHAMWINO,414,MAJELEKO,41403,CHINANGALI I,MSASANI
DODOMA,41,CHAMWINO,414,MAJELEKO,41403,CHINANGALI I,CHIBWE
DODOMA,41,CHAMWINO,414,MAJELEKO,41403,CHINANGALI I,KIGAMBONI
DODOMA,41,CHAMWINO,414,MAJELEKO,41403,CHINANGALI I,AZIMIO
DODOMA,41,CHAMWINO,414,MAJELEKO,41403,CHINANGALI I,BWAWANI
DODOMA,41,CHAMWINO,414,MAJELEKO,41403,CHINANGALI I,JUHUDI
DODOMA,41,CHAMWINO,414,MAJELEKO,41403,CHINANGALI I,KAWAWA
DODOMA,41,CHAMWINO,414,MAJELEKO,41403,,
DODOMA,41,CHAMWINO,414,MANCHALI,41404,MANCHALI 'B',SHULENI
DODOMA,41,CHAMWINO,414,MANCHALI,41404,MANCHALI 'B',MAKULU
DODOMA,41,CHAMWINO,414,MANCHALI,41404,MANCHALI 'B',BWAWANI
DODOMA,41,CHAMWINO,414,MANCHALI,41404,MANCHALI 'B',MNADANI
DODOMA,41,CHAMWINO,414,MANCHALI,41404,MANCHALI 'B',MINYINGA
DODOMA,41,CHAMWINO,414,MANCHALI,41404,MANCHALI 'B',MJI MPYA
DODOMA,41,CHAMWINO,414,MANCHALI,41404,MANCHALI 'A',CHIBWE
DODOMA,41,CHAMWINO,414,MANCHALI,41404,MANCHALI 'A',MBUYUNI
DODOMA,41,CHAMWINO,414,MANCHALI,41404,MANCHALI 'A',MKOKA
DODOMA,41,CHAMWINO,414,MANCHALI,41404,MANCHALI 'A',MAJENGO
DODOMA,41,CHAMWINO,414,MANCHALI,41404,CHALINZE,SONGAMBELE
DODOMA,41,CHAMWINO,414,MANCHALI,41404,CHALINZE,KAMBARAGE A
DODOMA,41,CHAMWINO,414,MANCHALI,41404,CHALINZE,KAMBARAGE B
DODOMA,41,CHAMWINO,414,MANCHALI,41404,CHALINZE,KAHAMA
DODOMA,41,CHAMWINO,414,MANCHALI,41404,CHALINZE,SOKOINE
DODOMA,41,CHAMWINO,414,MANCHALI,41404,CHALINZE,KARUME
DODOMA,41,CHAMWINO,414,MANCHALI,41404,CHALINZE,DARAJANI
DODOMA,41,CHAMWINO,414,MANCHALI,41404,BWAWANI,BWAWANI A
DODOMA,41,CHAMWINO,414,MANCHALI,41404,BWAWANI,BWAWANI B
DODOMA,41,CHAMWINO,414,MANCHALI,41404,WILUNZE,MAJENGO A
DODOMA,41,CHAMWINO,414,MANCHALI,41404,WILUNZE,MAJENGO B
DODOMA,41,CHAMWINO,414,MANCHALI,41404,WILUNZE,MUONDONI
DODOMA,41,CHAMWINO,414,MANCHALI,41404,WILUNZE,CAMP  A
DODOMA,41,CHAMWINO,414,MANCHALI,41404,WILUNZE,CAMP B
DODOMA,41,CHAMWINO,414,MANCHALI,41404,WILUNZE,MAKARAVATI A
DODOMA,41,CHAMWINO,414,MANCHALI,41404,WILUNZE,MAKARAVATI B
DODOMA,41,CHAMWINO,414,MANCHALI,41404,WILUNZE,MUONDONI B
DODOMA,41,CHAMWINO,414,MANCHALI,41404,WILUNZE,BWAWANI A
DODOMA,41,CHAMWINO,414,MANCHALI,41404,WILUNZE,BWAWANI B
DODOMA,41,CHAMWINO,414,MANCHALI,41404,WILUNZE,BARABARANI
DODOMA,41,CHAMWINO,414,MSANGA,41405,MSANGA,NHATI
DODOMA,41,CHAMWINO,414,MSANGA,41405,MSANGA,KOLONGO
DODOMA,41,CHAMWINO,414,MSANGA,41405,MSANGA,NYERERE
DODOMA,41,CHAMWINO,414,MSANGA,41405,MSANGA,CHIBIRITI
DODOMA,41,CHAMWINO,414,MSANGA,41405,MSANGA,MSENJE
DODOMA,41,CHAMWINO,414,MSANGA,41405,MSANGA,SAZIMA
DODOMA,41,CHAMWINO,414,MSANGA,41405,MSANGA,MANDELA
DODOMA,41,CHAMWINO,414,MSANGA,41405,MSANGA,SAMORA
DODOMA,41,CHAMWINO,414,MSANGA,41405,MSANGA,KIHAMPA
DODOMA,41,CHAMWINO,414,MSANGA,41405,MSANGA,LUSINDE
DODOMA,41,CHAMWINO,414,MSANGA,41405,KAWAWA,MWEGAMILE
DODOMA,41,CHAMWINO,414,MSANGA,41405,KAWAWA,MKOMBOLA
DODOMA,41,CHAMWINO,414,MSANGA,41405,KAWAWA,NYERERE
DODOMA,41,CHAMWINO,414,MSANGA,41405,KAWAWA,NHUNDULU
DODOMA,41,CHAMWINO,414,MSANGA,41405,KAWAWA,LUSINDE
DODOMA,41,CHAMWINO,414,MSANGA,41405,KAWAWA,JUMBE
DODOMA,41,CHAMWINO,414,MSANGA,41405,KAWAWA,MNHUMBULU A
DODOMA,41,CHAMWINO,414,MSANGA,41405,KAWAWA,MNHUMBULU B
DODOMA,41,CHAMWINO,414,MSANGA,41405,KAWAWA,SOKOINE
DODOMA,41,CHAMWINO,414,MSANGA,41405,KAWAWA,MATEMBE
DODOMA,41,CHAMWINO,414,MSAMALO,41406,MNASE,NYERERE
DODOMA,41,CHAMWINO,414,MSAMALO,41406,MNASE,SOKOINE
DODOMA,41,CHAMWINO,414,MSAMALO,41406,MNASE,LUSINDE
DODOMA,41,CHAMWINO,414,MSAMALO,41406,MNASE,KAWAWA
DODOMA,41,CHAMWINO,414,MSAMALO,41406,MNASE,MALECELA
DODOMA,41,CHAMWINO,414,MSAMALO,41406,MNASE,SUMAYE
DODOMA,41,CHAMWINO,414,MSAMALO,41406,MNASE,MAJENGO
DODOMA,41,CHAMWINO,414,MSAMALO,41406,MNASE,VIGONGO
DODOMA,41,CHAMWINO,414,MSAMALO,41406,MNASE,MUUNGANO
DODOMA,41,CHAMWINO,414,MSAMALO,41406,MLEBE,SONGAMBELE
DODOMA,41,CHAMWINO,414,MSAMALO,41406,MLEBE,MWONGOZO
DODOMA,41,CHAMWINO,414,MSAMALO,41406,MLEBE,AZIMIO
DODOMA,41,CHAMWINO,414,MSAMALO,41406,MLEBE,NYERERE
DODOMA,41,CHAMWINO,414,MSAMALO,41406,MLEBE,MKAPA
DODOMA,41,CHAMWINO,414,MSAMALO,41406,MLEBE,MWANGAZA
DODOMA,41,CHAMWINO,414,MSAMALO,41406,MLEBE,SUMAYE
DODOMA,41,CHAMWINO,414,MSAMALO,41406,MLEBE,KAWAWA
DODOMA,41,CHAMWINO,414,MSAMALO,41406,MLEBE,MAZENGO
DODOMA,41,CHAMWINO,414,MSAMALO,41406,MGUNGA,MWONGOZO
DODOMA,41,CHAMWINO,414,MSAMALO,41406,MGUNGA,IFUNDA
DODOMA,41,CHAMWINO,414,MSAMALO,41406,MGUNGA,MAJENGO MAPYA
DODOMA,41,CHAMWINO,414,MSAMALO,41406,MGUNGA,BWAWANI
DODOMA,41,CHAMWINO,414,MSAMALO,41406,MGUNGA,KAWAWA
DODOMA,41,CHAMWINO,414,MSAMALO,41406,MGUNGA,NYERERE
DODOMA,41,CHAMWINO,414,MSAMALO,41406,MGUNGA,LUSINDE
DODOMA,41,CHAMWINO,414,MSAMALO,41406,MGUNGA,MGONDO
DODOMA,41,CHAMWINO,414,MSAMALO,41406,MSAMALO,MNADANI
DODOMA,41,CHAMWINO,414,MSAMALO,41406,MSAMALO,MANDELA
DODOMA,41,CHAMWINO,414,MSAMALO,41406,MSAMALO,AZIMIO
DODOMA,41,CHAMWINO,414,MSAMALO,41406,MSAMALO,MALECELA
DODOMA,41,CHAMWINO,414,MSAMALO,41406,MSAMALO,SONGAMBELE
DODOMA,41,CHAMWINO,414,MSAMALO,41406,MSAMALO,KARUME
DODOMA,41,CHAMWINO,414,MSAMALO,41406,MSAMALO,SOKOINE
DODOMA,41,CHAMWINO,414,IKOWA,41407,IKOWA,MAKULU
DODOMA,41,CHAMWINO,414,IKOWA,41407,IKOWA,MAJENGO
DODOMA,41,CHAMWINO,414,IKOWA,41407,IKOWA,AZIMIO
DODOMA,41,CHAMWINO,414,IKOWA,41407,IKOWA,MAPINDUZI
DODOMA,41,CHAMWINO,414,IKOWA,41407,IKOWA,MWONGOZO
DODOMA,41,CHAMWINO,414,IKOWA,41407,IKOWA,KARUME
DODOMA,41,CHAMWINO,414,IKOWA,41407,IKOWA,MAZENGO
DODOMA,41,CHAMWINO,414,IKOWA,41407,IKOWA,IYUCHI
DODOMA,41,CHAMWINO,414,IKOWA,41407,IKOWA,KOLIMBA
DODOMA,41,CHAMWINO,414,IKOWA,41407,IKOWA,BWAWANI
DODOMA,41,CHAMWINO,414,IKOWA,41407,IKOWA,MUUNGANO
DODOMA,41,CHAMWINO,414,IKOWA,41407,IKOWA,KAZEMUGULU
DODOMA,41,CHAMWINO,414,IKOWA,41407,IKOWA,VIGANGA
DODOMA,41,CHAMWINO,414,IKOWA,41407,IKOWA,JAMHURI
DODOMA,41,CHAMWINO,414,IKOWA,41407,IKOWA,CHAPAKAZI
DODOMA,41,CHAMWINO,414,IKOWA,41407,IKOWA,NGUVUKAZI
DODOMA,41,CHAMWINO,414,IKOWA,41407,IKOWA,MAGEUZI
DODOMA,41,CHAMWINO,414,IKOWA,41407,IKOWA,UDINDE
DODOMA,41,CHAMWINO,414,IKOWA,41407,IKOWA,ISANGHA
DODOMA,41,CHAMWINO,414,IKOWA,41407,MAKOJA,MAGOMENI
DODOMA,41,CHAMWINO,414,IKOWA,41407,MAKOJA,MAPINDUZI
DODOMA,41,CHAMWINO,414,IKOWA,41407,MAKOJA,GONGOLAMBOTO
DODOMA,41,CHAMWINO,414,IKOWA,41407,MAKOJA,MUUNGANO
DODOMA,41,CHAMWINO,414,IKOWA,41407,MAKOJA,MAGEUZI A
DODOMA,41,CHAMWINO,414,IKOWA,41407,MAKOJA,MAGEUZI B
DODOMA,41,CHAMWINO,414,IKOWA,41407,MAKOJA,BUTIAMA
DODOMA,41,CHAMWINO,414,IKOWA,41407,MAKOJA,MAJENGO
DODOMA,41,CHAMWINO,414,IKOWA,41407,MAKOJA,MWONGOZO
DODOMA,41,CHAMWINO,414,IKOWA,41407,MAKOJA,CHINYIKA
DODOMA,41,CHAMWINO,414,IKOWA,41407,MAKOJA,NGUNJA
DODOMA,41,CHAMWINO,414,IKOWA,41407,MAKOJA,NHEMANO
DODOMA,41,CHAMWINO,414,MEMBE,41408,MEMBE,BWANZU
DODOMA,41,CHAMWINO,414,MEMBE,41408,MEMBE,CHIGANGO
DODOMA,41,CHAMWINO,414,MEMBE,41408,MEMBE,CHITYANGALE
DODOMA,41,CHAMWINO,414,MEMBE,41408,MEMBE,IKOYA
DODOMA,41,CHAMWINO,414,MEMBE,41408,MEMBE,MEMBE
DODOMA,41,CHAMWINO,414,MEMBE,41408,MEMBE,MKONJELA
DODOMA,41,CHAMWINO,414,MEMBE,41408,MEMBE,WALISA
DODOMA,41,CHAMWINO,414,MEMBE,41408,CHITABULI,TUBUA
DODOMA,41,CHAMWINO,414,MEMBE,41408,CHITABULI,WEZAMTIMA
DODOMA,41,CHAMWINO,414,MEMBE,41408,CHITABULI,IGAMBA
DODOMA,41,CHAMWINO,414,MEMBE,41408,MLIMWA,SHOSHO
DODOMA,41,CHAMWINO,414,MEMBE,41408,MLIMWA,WASWANGHA
DODOMA,41,CHAMWINO,414,MEMBE,41408,MLIMWA,MWIYENDAJE
DODOMA,41,CHAMWINO,414,MEMBE,41408,MLIMWA,JUMBE
DODOMA,41,CHAMWINO,414,MEMBE,41408,MLIMWA,KAWAWA
DODOMA,41,CHAMWINO,414,MEMBE,41408,MLIMWA,LUSINDE
DODOMA,41,CHAMWINO,414,MEMBE,41408,MLIMWA,MAOMBO
DODOMA,41,CHAMWINO,414,MEMBE,41408,MLIMWA,IKOLA
DODOMA,41,CHAMWINO,414,MEMBE,41408,MLIMWA,MAJENGO
DODOMA,41,CHAMWINO,414,MEMBE,41408,MLIMWA,MTUNGUCHOLE
DODOMA,41,CHAMWINO,414,DABALO,41409,"DABALO ""A'",KUSILA
DODOMA,41,CHAMWINO,414,DABALO,41409,"DABALO ""A'",NYERERE
DODOMA,41,CHAMWINO,414,DABALO,41409,"DABALO ""A'",LUSINDE
DODOMA,41,CHAMWINO,414,DABALO,41409,"DABALO ""A'",MAZENGO
DODOMA,41,CHAMWINO,414,DABALO,41409,"DABALO ""A'",IKOYA
DODOMA,41,CHAMWINO,414,DABALO,41409,"DABALO ""A'",KARUME
DODOMA,41,CHAMWINO,414,DABALO,41409,"DABALO ""A'",GANIKWA
DODOMA,41,CHAMWINO,414,DABALO,41409,"DABALO ""A'",MUUNGANO
DODOMA,41,CHAMWINO,414,DABALO,41409,"DABALO ""A'",IKOMBO
DODOMA,41,CHAMWINO,414,DABALO,41409,NAYU,NAYU MGOMWA
DODOMA,41,CHAMWINO,414,DABALO,41409,NAYU,NAYU RUVU
DODOMA,41,CHAMWINO,414,DABALO,41409,NAYU,KINYAMI
DODOMA,41,CHAMWINO,414,DABALO,41409,IGAMBA,MWINYI
DODOMA,41,CHAMWINO,414,DABALO,41409,IGAMBA,KAWAWA
DODOMA,41,CHAMWINO,414,DABALO,41409,IGAMBA,MLUMBANI
DODOMA,41,CHAMWINO,414,DABALO,41409,IGAMBA,MWENGE
DODOMA,41,CHAMWINO,414,DABALO,41409,IGAMBA,MALECELA
DODOMA,41,CHAMWINO,414,DABALO,41409,IGAMBA,MTUNGUCHOLE
DODOMA,41,CHAMWINO,414,DABALO,41409,IGAMBA,SILALE
DODOMA,41,CHAMWINO,414,DABALO,41409,CHIWONDO,KARUME
DODOMA,41,CHAMWINO,414,DABALO,41409,CHIWONDO,KAWAWA
DODOMA,41,CHAMWINO,414,DABALO,41409,CHIWONDO,MAJENGO
DODOMA,41,CHAMWINO,414,DABALO,41409,CHIWONDO,CHAPAKAZI
DODOMA,41,CHAMWINO,414,DABALO,41409,CHIWONDO,NGUTOTO
DODOMA,41,CHAMWINO,414,DABALO,41409,CHIWONDO,CHIKWAMA
DODOMA,41,CHAMWINO,414,DABALO,41409,CHIWONDO,MKOKA
DODOMA,41,CHAMWINO,414,DABALO,41409,CHIWONDO,MATANGA
DODOMA,41,CHAMWINO,414,DABALO,41409,MANYEMBA,IKULU
DODOMA,41,CHAMWINO,414,DABALO,41409,MANYEMBA,MAPINDUZI
DODOMA,41,CHAMWINO,414,DABALO,41409,MANYEMBA,MUUNGANO
DODOMA,41,CHAMWINO,414,DABALO,41409,MANYEMBA,AZIMIO
DODOMA,41,CHAMWINO,414,DABALO,41409,MANYEMBA,MTAKUJA
DODOMA,41,CHAMWINO,414,DABALO,41409,MANYEMBA,NYERERE
DODOMA,41,CHAMWINO,414,DABALO,41409,MANYEMBA,MBANDE
DODOMA,41,CHAMWINO,414,HANETI,41410,HANETI,SIASA
DODOMA,41,CHAMWINO,414,HANETI,41410,HANETI,SAMORA
DODOMA,41,CHAMWINO,414,HANETI,41410,HANETI,NYERERE
DODOMA,41,CHAMWINO,414,HANETI,41410,HANETI,JUHUDI
DODOMA,41,CHAMWINO,414,HANETI,41410,HANETI,SOKOINE
DODOMA,41,CHAMWINO,414,HANETI,41410,HANETI,MUUNGANO
DODOMA,41,CHAMWINO,414,HANETI,41410,HANETI,MTAKUJA
DODOMA,41,CHAMWINO,414,HANETI,41410,HANETI,BALANKANI
DODOMA,41,CHAMWINO,414,HANETI,41410,HANETI,KUNALO
DODOMA,41,CHAMWINO,414,HANETI,41410,HANETI,MWENGE
DODOMA,41,CHAMWINO,414,HANETI,41410,HANETI,MJI MPYA
DODOMA,41,CHAMWINO,414,HANETI,41410,HANETI,AZIMIO
DODOMA,41,CHAMWINO,414,HANETI,41410,HANETI,UKOMBOZI
DODOMA,41,CHAMWINO,414,HANETI,41410,HANETI,MBEBE
DODOMA,41,CHAMWINO,414,HANETI,41410,HANETI,CHIZAGA
DODOMA,41,CHAMWINO,414,HANETI,41410,HUMEKWA,MIEMBENI
DODOMA,41,CHAMWINO,414,HANETI,41410,HUMEKWA,VISIMANI
DODOMA,41,CHAMWINO,414,HANETI,41410,HUMEKWA,CHIBEFU
DODOMA,41,CHAMWINO,414,HANETI,41410,HUMEKWA,MNKOLA
DODOMA,41,CHAMWINO,414,HANETI,41410,HUMEKWA,LOBAITO
DODOMA,41,CHAMWINO,414,HANETI,41410,KWAHEMU,MAJENGO
DODOMA,41,CHAMWINO,414,HANETI,41410,KWAHEMU,MEMBE
DODOMA,41,CHAMWINO,414,HANETI,41410,KWAHEMU,MPAKANI A
DODOMA,41,CHAMWINO,414,HANETI,41410,KWAHEMU,MPAKANI B
DODOMA,41,CHAMWINO,414,HANETI,41410,KWAHEMU,SOITI
DODOMA,41,CHAMWINO,414,HANETI,41410,KWAHEMU,MLIMWA
DODOMA,41,CHAMWINO,414,HANETI,41410,MWIYENDAJE,MAKAMBAKU
DODOMA,41,CHAMWINO,414,HANETI,41410,MWIYENDAJE,AZIMIO
DODOMA,41,CHAMWINO,414,HANETI,41410,CHENENE,AZIMIO
DODOMA,41,CHAMWINO,414,HANETI,41410,CHENENE,KAWAWA
DODOMA,41,CHAMWINO,414,HANETI,41410,CHENENE,NYERERE
DODOMA,41,CHAMWINO,414,HANETI,41410,CHENENE,LUMUMBA
DODOMA,41,CHAMWINO,414,HANETI,41410,CHENENE,NYAHOTO
DODOMA,41,CHAMWINO,414,HANETI,41410,CHENENE,NJIAPANDA
DODOMA,41,CHAMWINO,414,HANETI,41410,CHENENE,LUSINDE
DODOMA,41,CHAMWINO,414,HANETI,41410,CHENENE,MALECELA
DODOMA,41,CHAMWINO,414,HANETI,41410,CHENENE,MAPINDUZI
DODOMA,41,CHAMWINO,414,HANETI,41410,CHENENE,MAZENGO
DODOMA,41,CHAMWINO,414,HANETI,41410,CHENENE,BOMBANI
DODOMA,41,CHAMWINO,414,ITISO,41411,ITISO,UHURU
DODOMA,41,CHAMWINO,414,ITISO,41411,ITISO,AZIMIO
DODOMA,41,CHAMWINO,414,ITISO,41411,ITISO,SONGAMBELE
DODOMA,41,CHAMWINO,414,ITISO,41411,ITISO,MTAKUJA
DODOMA,41,CHAMWINO,414,ITISO,41411,ITISO,CHINYAMI
DODOMA,41,CHAMWINO,414,ITISO,41411,ITISO,MATUNU
DODOMA,41,CHAMWINO,414,ITISO,41411,ITISO,BOTTI
DODOMA,41,CHAMWINO,414,ITISO,41411,IKOMBO,IKOMBO A
DODOMA,41,CHAMWINO,414,ITISO,41411,IKOMBO,IKOMBO B
DODOMA,41,CHAMWINO,414,ITISO,41411,IKOMBO,CHAPAKAZI
DODOMA,41,CHAMWINO,414,ITISO,41411,IKOMBO,JUHUDI
DODOMA,41,CHAMWINO,414,ITISO,41411,IKOMBO,MAENDELEO
DODOMA,41,CHAMWINO,414,ITISO,41411,MAPANGA,MAKULU A
DODOMA,41,CHAMWINO,414,ITISO,41411,MAPANGA,MAKULU B
DODOMA,41,CHAMWINO,414,ITISO,41411,MAPANGA,CHANGARAWE
DODOMA,41,CHAMWINO,414,ITISO,41411,MAPANGA,NZELENZE
DODOMA,41,CHAMWINO,414,ITISO,41411,MAPANGA,MNDITI
DODOMA,41,CHAMWINO,414,ITISO,41411,SOLOWU,NYERERE
DODOMA,41,CHAMWINO,414,ITISO,41411,SOLOWU,KAUNDA
DODOMA,41,CHAMWINO,414,ITISO,41411,SOLOWU,MOBUTU
DODOMA,41,CHAMWINO,414,ITISO,41411,SOLOWU,ABOUD JUMBE
DODOMA,41,CHAMWINO,414,ITISO,41411,SOLOWU,MJEZE
DODOMA,41,CHAMWINO,414,SEGALA,41412,SEGALA,BULU
DODOMA,41,CHAMWINO,414,SEGALA,41412,SEGALA,ISANGA
DODOMA,41,CHAMWINO,414,SEGALA,41412,SEGALA,MAJENGO
DODOMA,41,CHAMWINO,414,SEGALA,41412,SEGALA,SEGALA KATI
DODOMA,41,CHAMWINO,414,SEGALA,41412,SEGALA,MLEHA
DODOMA,41,CHAMWINO,414,SEGALA,41412,SEGALA,BOMBANI
DODOMA,41,CHAMWINO,414,SEGALA,41412,SEGALA,KATIKATI
DODOMA,41,CHAMWINO,414,SEGALA,41412,SEGALA,LUSINDE
DODOMA,41,CHAMWINO,414,SEGALA,41412,MALECELA,MPELA
DODOMA,41,CHAMWINO,414,SEGALA,41412,MALECELA,MALECELA
DODOMA,41,CHAMWINO,414,SEGALA,41412,IZAVA,KAWAWA
DODOMA,41,CHAMWINO,414,SEGALA,41412,IZAVA,KARUME
DODOMA,41,CHAMWINO,414,SEGALA,41412,IZAVA,CHANG'OMBE
DODOMA,41,CHAMWINO,414,SEGALA,41412,IZAVA,SONGAMBELE
DODOMA,41,CHAMWINO,414,SEGALA,41412,IZAVA,WALI
DODOMA,41,CHAMWINO,414,SEGALA,41412,KIMEJI,KIMEJI
DODOMA,41,CHAMWINO,414,SEGALA,41412,KIMEJI,MKANDAMIZE
DODOMA,41,CHAMWINO,414,SEGALA,41412,KIMEJI,JUHUDI
DODOMA,41,CHAMWINO,414,SEGALA,41412,KIMEJI,NAINI
DODOMA,41,CHAMWINO,414,SEGALA,41412,KIMEJI,CHANG'OMBE
DODOMA,41,CHAMWINO,414,SEGALA,41412,UMOJA,UMOJA
DODOMA,41,CHAMWINO,414,SEGALA,41412,UMOJA,DONGO
DODOMA,41,CHAMWINO,414,SEGALA,41412,UMOJA,GONGOLO
DODOMA,41,CHAMWINO,414,MVUMI MISHENI,41413,MVUMI MISHENI,KATI A
DODOMA,41,CHAMWINO,414,MVUMI MISHENI,41413,MVUMI MISHENI,KATI B
DODOMA,41,CHAMWINO,414,MVUMI MISHENI,41413,MVUMI MISHENI,MACELELA A
DODOMA,41,CHAMWINO,414,MVUMI MISHENI,41413,MVUMI MISHENI,MALECELA B
DODOMA,41,CHAMWINO,414,MVUMI MISHENI,41413,MVUMI MISHENI,SUDANI B   &   ZAMBIA B
DODOMA,41,CHAMWINO,414,MVUMI MISHENI,41413,CHIHEMBE,JAMHURI A
DODOMA,41,CHAMWINO,414,MVUMI MISHENI,41413,CHIHEMBE,JAMHURI B
DODOMA,41,CHAMWINO,414,MVUMI MISHENI,41413,CHIHEMBE,SUDAN A
DODOMA,41,CHAMWINO,414,MVUMI MISHENI,41413,CHIHEMBE,SUDANI B
DODOMA,41,CHAMWINO,414,MVUMI MISHENI,41413,CHIHEMBE,MTATANGWE
DODOMA,41,CHAMWINO,414,MVUMI MISHENI,41413,CHIHEMBE,MUUNGANO
DODOMA,41,CHAMWINO,414,MVUMI MISHENI,41413,CHIHEMBE,ZAMBIA A  &  ZAMBIA B
DODOMA,41,CHAMWINO,414,MVUMI MISHENI,41413,MITA,CAIRO A
DODOMA,41,CHAMWINO,414,MVUMI MISHENI,41413,MITA,CAIRO B
DODOMA,41,CHAMWINO,414,MVUMI MISHENI,41413,MITA,GHANA A
DODOMA,41,CHAMWINO,414,MVUMI MISHENI,41413,MITA,GHANA B
DODOMA,41,CHAMWINO,414,MVUMI MISHENI,41413,MITA,SALIMU
DODOMA,41,CHAMWINO,414,MVUMI MISHENI,41413,MITA,KIKWETE
DODOMA,41,CHAMWINO,414,MVUMI MISHENI,41413,NDEBWE,MALECELA
DODOMA,41,CHAMWINO,414,MVUMI MISHENI,41413,NDEBWE,LUSINDE
DODOMA,41,CHAMWINO,414,MVUMI MISHENI,41413,NDEBWE,KAUNDA
DODOMA,41,CHAMWINO,414,MVUMI MISHENI,41413,NDEBWE,SABASABA
DODOMA,41,CHAMWINO,414,MVUMI MISHENI,41413,NDEBWE,NYERERE
DODOMA,41,CHAMWINO,414,MVUMI MISHENI,41413,NDEBWE,MWINYI
DODOMA,41,CHAMWINO,414,MVUMI MISHENI,41413,NDEBWE,MWENGE
DODOMA,41,CHAMWINO,414,MVUMI MISHENI,41413,NDEBWE,AZIMIO
DODOMA,41,CHAMWINO,414,HANDALI,41414,HANDALI,MWINYI
DODOMA,41,CHAMWINO,414,HANDALI,41414,HANDALI,KAWAWA
DODOMA,41,CHAMWINO,414,HANDALI,41414,HANDALI,NYERERE
DODOMA,41,CHAMWINO,414,HANDALI,41414,HANDALI,MKAPA
DODOMA,41,CHAMWINO,414,HANDALI,41414,HANDALI,MAZENGO
DODOMA,41,CHAMWINO,414,HANDALI,41414,HANDALI,MWENGE
DODOMA,41,CHAMWINO,414,HANDALI,41414,HANDALI,KARUME
DODOMA,41,CHAMWINO,414,HANDALI,41414,HANDALI,CHISOLYA
DODOMA,41,CHAMWINO,414,HANDALI,41414,HANDALI,AZIMIO
DODOMA,41,CHAMWINO,414,HANDALI,41414,HANDALI,MAZAGA
DODOMA,41,CHAMWINO,414,HANDALI,41414,HANDALI,ILANJI
DODOMA,41,CHAMWINO,414,HANDALI,41414,HANDALI,KAMBARAGE
DODOMA,41,CHAMWINO,414,HANDALI,41414,HANDALI,KIKWETE
DODOMA,41,CHAMWINO,414,HANDALI,41414,MJELO,SOKOINE
DODOMA,41,CHAMWINO,414,HANDALI,41414,MJELO,MBOGONI
DODOMA,41,CHAMWINO,414,HANDALI,41414,MJELO,MSASANI
DODOMA,41,CHAMWINO,414,HANDALI,41414,MJELO,CHIMWAGA
DODOMA,41,CHAMWINO,414,HANDALI,41414,MJELO,MALECELA
DODOMA,41,CHAMWINO,414,HANDALI,41414,MJELO,LUSINDE
DODOMA,41,CHAMWINO,414,HANDALI,41414,MJELO,NGHANJE
DODOMA,41,CHAMWINO,414,HANDALI,41414,CHANHUMBA,ARUSHA
DODOMA,41,CHAMWINO,414,HANDALI,41414,CHANHUMBA,MALECELA
DODOMA,41,CHAMWINO,414,HANDALI,41414,CHANHUMBA,IRINGA
DODOMA,41,CHAMWINO,414,HANDALI,41414,CHANHUMBA,ILOLO
DODOMA,41,CHAMWINO,414,HANDALI,41414,CHANHUMBA,LUSINDE
DODOMA,41,CHAMWINO,414,HANDALI,41414,CHANHUMBA,CHANG'OMBE
DODOMA,41,CHAMWINO,414,HANDALI,41414,CHANHUMBA,KAWAWA
DODOMA,41,CHAMWINO,414,HANDALI,41414,CHANHUMBA,SANJILA
DODOMA,41,CHAMWINO,414,IDIFU,41415,IDIFU,KAWAWA
DODOMA,41,CHAMWINO,414,IDIFU,41415,IDIFU,LUSINDE
DODOMA,41,CHAMWINO,414,IDIFU,41415,IDIFU,CHIJIHA
DODOMA,41,CHAMWINO,414,IDIFU,41415,IDIFU,NYERERE
DODOMA,41,CHAMWINO,414,IDIFU,41415,IDIFU,MNAZI MMOJA
DODOMA,41,CHAMWINO,414,IDIFU,41415,IDIFU,CHISEYU
DODOMA,41,CHAMWINO,414,IDIFU,41415,IDIFU,CHINYIKA
DODOMA,41,CHAMWINO,414,IDIFU,41415,IDIFU,MSEJELELE
DODOMA,41,CHAMWINO,414,IDIFU,41415,IDIFU,MNYANGWE
DODOMA,41,CHAMWINO,414,IDIFU,41415,IDIFU,MUUNGANO
DODOMA,41,CHAMWINO,414,IDIFU,41415,IDIFU,MUGU
DODOMA,41,CHAMWINO,414,IDIFU,41415,IDIFU,NG'ANGA A
DODOMA,41,CHAMWINO,414,IDIFU,41415,IDIFU,NG'ANGA B
DODOMA,41,CHAMWINO,414,IDIFU,41415,IDIFU,SALABURE A
DODOMA,41,CHAMWINO,414,IDIFU,41415,IDIFU,SALABURE B
DODOMA,41,CHAMWINO,414,IDIFU,41415,MIGANGA,NZASA
DODOMA,41,CHAMWINO,414,IDIFU,41415,MIGANGA,KIVUKONI
DODOMA,41,CHAMWINO,414,IDIFU,41415,MIGANGA,MAUMI
DODOMA,41,CHAMWINO,414,IDIFU,41415,MIGANGA,KALOLENI
DODOMA,41,CHAMWINO,414,IDIFU,41415,MIGANGA,CHITOLOMELO
DODOMA,41,CHAMWINO,414,IDIFU,41415,MIGANGA,LUSINDE
DODOMA,41,CHAMWINO,414,IDIFU,41415,MIGANGA,KARUME
DODOMA,41,CHAMWINO,414,IDIFU,41415,MIGANGA,NYERERE
DODOMA,41,CHAMWINO,414,IDIFU,41415,MIGANGA,MTELEMKO
DODOMA,41,CHAMWINO,414,IDIFU,41415,MIGANGA,MUUNGANO
DODOMA,41,CHAMWINO,414,IDIFU,41415,MIGANGA,ZAMBIA
DODOMA,41,CHAMWINO,414,IDIFU,41415,MIGANGA,KAZANIA
DODOMA,41,CHAMWINO,414,IDIFU,41415,MIGANGA,MAPUTO
DODOMA,41,CHAMWINO,414,IGANDU,41416,IGANDU,MASAMAKI
DODOMA,41,CHAMWINO,414,IGANDU,41416,IGANDU,MAZENGO A
DODOMA,41,CHAMWINO,414,IGANDU,41416,IGANDU,MAZENGO B
DODOMA,41,CHAMWINO,414,IGANDU,41416,IGANDU,NYERERE A
DODOMA,41,CHAMWINO,414,IGANDU,41416,IGANDU,NYERERE B
DODOMA,41,CHAMWINO,414,IGANDU,41416,IGANDU,MALECELA A
DODOMA,41,CHAMWINO,414,IGANDU,41416,IGANDU,STATION
DODOMA,41,CHAMWINO,414,IGANDU,41416,IGANDU,MBAGALA
DODOMA,41,CHAMWINO,414,IGANDU,41416,IGANDU,DARAJANI
DODOMA,41,CHAMWINO,414,IGANDU,41416,IGANDU,UJAMAA
DODOMA,41,CHAMWINO,414,IGANDU,41416,CHIBWE,TAMBUKARELI A
DODOMA,41,CHAMWINO,414,IGANDU,41416,CHIBWE,TAMBUKARELI B
DODOMA,41,CHAMWINO,414,IGANDU,41416,CHIBWE,CHIBWE
DODOMA,41,CHAMWINO,414,IGANDU,41416,CHIBWE,KIBO
DODOMA,41,CHAMWINO,414,IGANDU,41416,CHIBWE,CHIHUNJE
DODOMA,41,CHAMWINO,414,IGANDU,41416,CHIBWE,MAWENZI
DODOMA,41,CHAMWINO,414,IGANDU,41416,CHIBWE,LUBEHO
DODOMA,41,CHAMWINO,414,IGANDU,41416,CHIMWAGA,KAWAWA A
DODOMA,41,CHAMWINO,414,IGANDU,41416,CHIMWAGA,KAWAWA B
DODOMA,41,CHAMWINO,414,IGANDU,41416,CHIMWAGA,MALECELA B
DODOMA,41,CHAMWINO,414,IGANDU,41416,CHIMWAGA,LUSINDE A
DODOMA,41,CHAMWINO,414,IGANDU,41416,CHIMWAGA,LUSINDE B
DODOMA,41,CHAMWINO,414,IGANDU,41416,CHIMWAGA,MUUNGANO
DODOMA,41,CHAMWINO,414,IGANDU,41416,CHIMWAGA,BWAWANI
DODOMA,41,CHAMWINO,414,IGANDU,41416,CHIMWAGA,MJI MPYA
DODOMA,41,CHAMWINO,414,IGANDU,41416,CHIMWAGA,KIKWETE
DODOMA,41,CHAMWINO,414,IGANDU,41416,CHIMWAGA,AZIMIO
DODOMA,41,CHAMWINO,414,MUUNGANO,41417,MUUNGANO,AZIMIO
DODOMA,41,CHAMWINO,414,MUUNGANO,41417,MUUNGANO,MAZENGO
DODOMA,41,CHAMWINO,414,MUUNGANO,41417,MUUNGANO,MANDELA
DODOMA,41,CHAMWINO,414,MUUNGANO,41417,MUUNGANO,MALECELA
DODOMA,41,CHAMWINO,414,MUUNGANO,41417,MUUNGANO,IYOYO
DODOMA,41,CHAMWINO,414,MUUNGANO,41417,MUUNGANO,NYERERE
DODOMA,41,CHAMWINO,414,MUUNGANO,41417,MUUNGANO,KAWAWA
DODOMA,41,CHAMWINO,414,MUUNGANO,41417,MUUNGANO,LUSINDE
DODOMA,41,CHAMWINO,414,MUUNGANO,41417,MUUNGANO,MABALANGU
DODOMA,41,CHAMWINO,414,MUUNGANO,41417,MUUNGANO,KAUNDA
DODOMA,41,CHAMWINO,414,MUUNGANO,41417,MUUNGANO,KOLIMBA
DODOMA,41,CHAMWINO,414,MUUNGANO,41417,MUUNGANO,NZEJELE A
DODOMA,41,CHAMWINO,414,MUUNGANO,41417,MUUNGANO,NZEJELE B
DODOMA,41,CHAMWINO,414,MUUNGANO,41417,MUUNGANO,CHIDOBWE
DODOMA,41,CHAMWINO,414,MUUNGANO,41417,MUUNGANO,MKOYO
DODOMA,41,CHAMWINO,414,MUUNGANO,41417,MZULA,NYERERE
DODOMA,41,CHAMWINO,414,MUUNGANO,41417,MZULA,NYAMAYAHASI
DODOMA,41,CHAMWINO,414,MUUNGANO,41417,MZULA,AZIMIO
DODOMA,41,CHAMWINO,414,MUUNGANO,41417,MZULA,MAZENGO
DODOMA,41,CHAMWINO,414,MUUNGANO,41417,MZULA,MKOMBOZI
DODOMA,41,CHAMWINO,414,MUUNGANO,41417,MZULA,CHIKANGA
DODOMA,41,CHAMWINO,414,MUUNGANO,41417,MZULA,MALECELA
DODOMA,41,CHAMWINO,414,MUUNGANO,41417,MZULA,MKAPA
DODOMA,41,CHAMWINO,414,MUUNGANO,41417,MZULA,HELINE
DODOMA,41,CHAMWINO,414,MUUNGANO,41417,MZULA,SOKOINE
DODOMA,41,CHAMWINO,414,MUUNGANO,41417,MZULA,KAWAWA
DODOMA,41,CHAMWINO,414,MUUNGANO,41417,MZULA,LUSINDE
DODOMA,41,CHAMWINO,414,MUUNGANO,41417,MZULA,UKALANZALA
DODOMA,41,CHAMWINO,414,MUUNGANO,41417,ILOLO,MAPINDUZI
DODOMA,41,CHAMWINO,414,MUUNGANO,41417,ILOLO,LUSINDE
DODOMA,41,CHAMWINO,414,MUUNGANO,41417,ILOLO,JAMHURI
DODOMA,41,CHAMWINO,414,MUUNGANO,41417,ILOLO,MAZENGO
DODOMA,41,CHAMWINO,414,MUUNGANO,41417,ILOLO,SABASABA
DODOMA,41,CHAMWINO,414,MUUNGANO,41417,ILOLO,MALECELA
DODOMA,41,CHAMWINO,414,MUUNGANO,41417,ILOLO,KIVUKONI
DODOMA,41,CHAMWINO,414,MUUNGANO,41417,ILOLO,BWAWANI
DODOMA,41,CHAMWINO,414,MUUNGANO,41417,ILOLO,SOKOINE
DODOMA,41,CHAMWINO,414,MUUNGANO,41417,ILOLO,MADARAKA
DODOMA,41,CHAMWINO,414,MUUNGANO,41417,ILOLO,NYERERE
DODOMA,41,CHAMWINO,414,MUUNGANO,41417,ILOLO,KISIMANI
DODOMA,41,CHAMWINO,414,MVUMI MAKULU,41418,MVUMI MAKULU,NYERERE
DODOMA,41,CHAMWINO,414,MVUMI MAKULU,41418,MVUMI MAKULU,MALECELA
DODOMA,41,CHAMWINO,414,MVUMI MAKULU,41418,MVUMI MAKULU,MAZENGO
DODOMA,41,CHAMWINO,414,MVUMI MAKULU,41418,MVUMI MAKULU,MKULIMA
DODOMA,41,CHAMWINO,414,MVUMI MAKULU,41418,MVUMI MAKULU,MIEMBENI
DODOMA,41,CHAMWINO,414,MVUMI MAKULU,41418,MVUMI MAKULU,JUHUDI
DODOMA,41,CHAMWINO,414,MVUMI MAKULU,41418,CHALULA,LUSINDE
DODOMA,41,CHAMWINO,414,MVUMI MAKULU,41418,CHALULA,MANDELA
DODOMA,41,CHAMWINO,414,MVUMI MAKULU,41418,CHALULA,KAWAWA
DODOMA,41,CHAMWINO,414,MVUMI MAKULU,41418,CHALULA,SUMAYI
DODOMA,41,CHAMWINO,414,MVUMI MAKULU,41418,CHALULA,CHALULA
DODOMA,41,CHAMWINO,414,MVUMI MAKULU,41418,CHALULA,KARUME
DODOMA,41,CHAMWINO,414,MVUMI MAKULU,41418,MAZENGO,MWONGOZO
DODOMA,41,CHAMWINO,414,MVUMI MAKULU,41418,MAZENGO,AZIMIO
DODOMA,41,CHAMWINO,414,MVUMI MAKULU,41418,MAZENGO,KOLIMBA
DODOMA,41,CHAMWINO,414,MVUMI MAKULU,41418,MAZENGO,MWINYI
DODOMA,41,CHAMWINO,414,MVUMI MAKULU,41418,MAZENGO,ELIMU
DODOMA,41,CHAMWINO,414,MVUMI MAKULU,41418,MAZENGO,MAENDELEO
DODOMA,41,CHAMWINO,414,FUFU,41419,FUFU,MUUNGANO
DODOMA,41,CHAMWINO,414,FUFU,41419,FUFU,MAPINDUZI
DODOMA,41,CHAMWINO,414,FUFU,41419,FUFU,MAJENGO
DODOMA,41,CHAMWINO,414,FUFU,41419,FUFU,GEZAULOLE
DODOMA,41,CHAMWINO,414,FUFU,41419,FUFU,MKWATANI
DODOMA,41,CHAMWINO,414,FUFU,41419,SULI,MLIMANI
DODOMA,41,CHAMWINO,414,FUFU,41419,SULI,MKAZAROHO
DODOMA,41,CHAMWINO,414,FUFU,41419,SULI,MBUYUNI
DODOMA,41,CHAMWINO,414,FUFU,41419,SULI,MJIMPYA
DODOMA,41,CHAMWINO,414,FUFU,41419,SULI,IKULU
DODOMA,41,CHAMWINO,414,FUFU,41419,SULI,MAKWAKA
DODOMA,41,CHAMWINO,414,IRINGA MVUMI,41420,IRINGA MVUMI MPYA,MAPINDUZI
DODOMA,41,CHAMWINO,414,IRINGA MVUMI,41420,IRINGA MVUMI MPYA,KAGERA
DODOMA,41,CHAMWINO,414,IRINGA MVUMI,41420,IRINGA MVUMI MPYA,KAWAWA
DODOMA,41,CHAMWINO,414,IRINGA MVUMI,41420,IRINGA MVUMI MPYA,MHOMVU
DODOMA,41,CHAMWINO,414,IRINGA MVUMI,41420,IRINGA MVUMI MPYA,CHAMWALI
DODOMA,41,CHAMWINO,414,IRINGA MVUMI,41420,IRINGA MVUMI MPYA,KAUNDA
DODOMA,41,CHAMWINO,414,IRINGA MVUMI,41420,IRINGA MVUMI MPYA,MTONI
DODOMA,41,CHAMWINO,414,IRINGA MVUMI,41420,IRINGA MVUMI MPYA,KANISANI
DODOMA,41,CHAMWINO,414,IRINGA MVUMI,41420,IRINGA MVUMI ZAMANI,LUSINDE
DODOMA,41,CHAMWINO,414,IRINGA MVUMI,41420,IRINGA MVUMI ZAMANI,SUZA
DODOMA,41,CHAMWINO,414,IRINGA MVUMI,41420,IRINGA MVUMI ZAMANI,NYERERE
DODOMA,41,CHAMWINO,414,IRINGA MVUMI,41420,IRINGA MVUMI ZAMANI,ZAMBIA
DODOMA,41,CHAMWINO,414,IRINGA MVUMI,41420,IRINGA MVUMI ZAMANI,KATI
DODOMA,41,CHAMWINO,414,IRINGA MVUMI,41420,IRINGA MVUMI ZAMANI,MAJENGO MAPYA
DODOMA,41,CHAMWINO,414,IRINGA MVUMI,41420,CHITA,CHIWANGA
DODOMA,41,CHAMWINO,414,IRINGA MVUMI,41420,CHITA,CHITA
DODOMA,41,CHAMWINO,414,IRINGA MVUMI,41420,CHITA,MKUTWA
DODOMA,41,CHAMWINO,414,IRINGA MVUMI,41420,CHITA,MBUHE
DODOMA,41,CHAMWINO,414,IRINGA MVUMI,41420,CHITA,JAMHURI
DODOMA,41,CHAMWINO,414,MAKANG'WA,41421,MAKANG'WA,MBEBE
DODOMA,41,CHAMWINO,414,MAKANG'WA,41421,MAKANG'WA,TUPA
DODOMA,41,CHAMWINO,414,MAKANG'WA,41421,MAKANG'WA,JAMHURI
DODOMA,41,CHAMWINO,414,MAKANG'WA,41421,MAKANG'WA,SASI
DODOMA,41,CHAMWINO,414,MAKANG'WA,41421,MAKANG'WA,CHIWANGA
DODOMA,41,CHAMWINO,414,MAKANG'WA,41421,MAKANG'WA,MADUMA
DODOMA,41,CHAMWINO,414,MAKANG'WA,41421,MAKANG'WA,MWINYI
DODOMA,41,CHAMWINO,414,MAKANG'WA,41421,MAKANG'WA,NYERERE
DODOMA,41,CHAMWINO,414,MAKANG'WA,41421,MAKANG'WA,MKAPA
DODOMA,41,CHAMWINO,414,MAKANG'WA,41421,MAKANG'WA,LUSINDE
DODOMA,41,CHAMWINO,414,MAKANG'WA,41421,MAKANG'WA,WIDUNGHA
DODOMA,41,CHAMWINO,414,MAKANG'WA,41421,CHIWONA,CHIWONA
DODOMA,41,CHAMWINO,414,MAKANG'WA,41421,CHIWONA,CHIPONZI
DODOMA,41,CHAMWINO,414,MAKANG'WA,41421,CHIWONA,BONDENI
DODOMA,41,CHAMWINO,414,MAKANG'WA,41421,CHIWONA,MUNGULU
DODOMA,41,CHAMWINO,414,MAKANG'WA,41421,CHIWONA,MABWE
DODOMA,41,CHAMWINO,414,MANZASE,41422,MANZASE,KATI
DODOMA,41,CHAMWINO,414,MANZASE,41422,MANZASE,MWINYI
DODOMA,41,CHAMWINO,414,MANZASE,41422,MANZASE,ARUSHA
DODOMA,41,CHAMWINO,414,MANZASE,41422,MANZASE,KAGERA
DODOMA,41,CHAMWINO,414,MANZASE,41422,MANZASE,SONGAMBELE
DODOMA,41,CHAMWINO,414,MANZASE,41422,MANZASE,NYERERE
DODOMA,41,CHAMWINO,414,MANZASE,41422,MANZASE,MAPINDUZI
DODOMA,41,CHAMWINO,414,MANZASE,41422,MANZASE,KATI B
DODOMA,41,CHAMWINO,414,MANZASE,41422,MANZASE,MLIMANI
DODOMA,41,CHAMWINO,414,MANZASE,41422,LUGALA,SAMORA
DODOMA,41,CHAMWINO,414,MANZASE,41422,LUGALA,AMANI
DODOMA,41,CHAMWINO,414,MANZASE,41422,LUGALA,KALEMBO
DODOMA,41,CHAMWINO,414,MANZASE,41422,LUGALA,MBANO
DODOMA,41,CHAMWINO,414,MANZASE,41422,SASAJILA,MAJENGO
DODOMA,41,CHAMWINO,414,MANZASE,41422,SASAJILA,NGHUMBI
DODOMA,41,CHAMWINO,414,MANZASE,41422,SASAJILA,AMANI
DODOMA,41,CHAMWINO,414,MANZASE,41422,SASAJILA,KATI
DODOMA,41,CHAMWINO,414,MANZASE,41422,SASAJILA,LUSINDE
DODOMA,41,CHAMWINO,414,MANZASE,41422,KAZAROHO,NYERERE
DODOMA,41,CHAMWINO,414,MANZASE,41422,KAZAROHO,SOKOINE
DODOMA,41,CHAMWINO,414,MANZASE,41422,KAZAROHO,KAZAROHO
DODOMA,41,CHAMWINO,414,MANZASE,41422,ILEWELO,ILEWELO
DODOMA,41,CHAMWINO,414,MANZASE,41422,ILEWELO,MALECELA
DODOMA,41,CHAMWINO,414,MANZASE,41422,ILEWELO,KAWAWA
DODOMA,41,CHAMWINO,414,MANZASE,41422,ILEWELO,SALANI
DODOMA,41,CHAMWINO,414,MANZASE,41422,ILEWELO,KILIMANI
DODOMA,41,CHAMWINO,414,MANZASE,41422,ILEWELO,MSECHE
DODOMA,41,CHAMWINO,414,MANZASE,41422,ILEWELO,KILIMO
DODOMA,41,CHAMWINO,414,MANZASE,41422,ILEWELO,MATAMBAZI
DODOMA,41,CHAMWINO,414,MLOWA BWAWANI,41423,MLOWA BWAWANI,MAJENGO
DODOMA,41,CHAMWINO,414,MLOWA BWAWANI,41423,MLOWA BWAWANI,KARUME
DODOMA,41,CHAMWINO,414,MLOWA BWAWANI,41423,MLOWA BWAWANI,SOLOI
DODOMA,41,CHAMWINO,414,MLOWA BWAWANI,41423,MLOWA BWAWANI,MALECELA
DODOMA,41,CHAMWINO,414,MLOWA BWAWANI,41423,MLOWA BWAWANI,MWENGE
DODOMA,41,CHAMWINO,414,MLOWA BWAWANI,41423,MLOWA BWAWANI,KAWAWA
DODOMA,41,CHAMWINO,414,MLOWA BWAWANI,41423,MLOWA BWAWANI,MILIMA MITATU
DODOMA,41,CHAMWINO,414,MLOWA BWAWANI,41423,MLOWA BWAWANI,KISIWANI A
DODOMA,41,CHAMWINO,414,MLOWA BWAWANI,41423,MLOWA BWAWANI,KISIWANI B
DODOMA,41,CHAMWINO,414,MLOWA BWAWANI,41423,MLOWA BWAWANI,ILOLO
DODOMA,41,CHAMWINO,414,MLOWA BWAWANI,41423,MLOWA BWAWANI,MUUNGANO
DODOMA,41,CHAMWINO,414,MLOWA BWAWANI,41423,MLOWA BWAWANI,NG'AMBO
DODOMA,41,CHAMWINO,414,MLOWA BWAWANI,41423,MLOWA BWAWANI,BONDENI
DODOMA,41,CHAMWINO,414,MLOWA BWAWANI,41423,MLOWA BWAWANI,WEZA
DODOMA,41,CHAMWINO,414,MLOWA BWAWANI,41423,MLOWA BWAWANI,MSECHE
DODOMA,41,CHAMWINO,414,MLOWA BWAWANI,41423,WILIKO,MUUNGANO
DODOMA,41,CHAMWINO,414,MLOWA BWAWANI,41423,WILIKO,SONGAMBELE
DODOMA,41,CHAMWINO,414,MLOWA BWAWANI,41423,WILIKO,MAPINDUZI
DODOMA,41,CHAMWINO,414,MLOWA BWAWANI,41423,WILIKO,KAUNDA
DODOMA,41,CHAMWINO,414,MLOWA BWAWANI,41423,WILIKO,MBANDE
DODOMA,41,CHAMWINO,414,MPWAYUNGU,41424,MPWAYUNGU,MUUNGANO
DODOMA,41,CHAMWINO,414,MPWAYUNGU,41424,MPWAYUNGU,AZIMIO
DODOMA,41,CHAMWINO,414,MPWAYUNGU,41424,MPWAYUNGU,TANZANIA A
DODOMA,41,CHAMWINO,414,MPWAYUNGU,41424,MPWAYUNGU,TANZANIA B
DODOMA,41,CHAMWINO,414,MPWAYUNGU,41424,MPWAYUNGU,MAKULU
DODOMA,41,CHAMWINO,414,MPWAYUNGU,41424,MPWAYUNGU,CHIDACHI
DODOMA,41,CHAMWINO,414,MPWAYUNGU,41424,MPWAYUNGU,MNONO
DODOMA,41,CHAMWINO,414,MPWAYUNGU,41424,MPWAYUNGU,IDUGALA
DODOMA,41,CHAMWINO,414,MPWAYUNGU,41424,MPWAYUNGU,NHONDOLE
DODOMA,41,CHAMWINO,414,MPWAYUNGU,41424,MPWAYUNGU,CHITELECHE
DODOMA,41,CHAMWINO,414,MPWAYUNGU,41424,CHIKOLA,CHIKOLA
DODOMA,41,CHAMWINO,414,MPWAYUNGU,41424,CHIKOLA,KALENGA
DODOMA,41,CHAMWINO,414,MPWAYUNGU,41424,CHIKOLA,CHINANGALI
DODOMA,41,CHAMWINO,414,MPWAYUNGU,41424,CHIKOLA,NCHELELEJE
DODOMA,41,CHAMWINO,414,MPWAYUNGU,41424,CHIKOLA,MCHICHI
DODOMA,41,CHAMWINO,414,MPWAYUNGU,41424,CHIKOLA,CHISELYA
DODOMA,41,CHAMWINO,414,MPWAYUNGU,41424,NAGULO -MWITIKIRA,NAGULO
DODOMA,41,CHAMWINO,414,MPWAYUNGU,41424,NAGULO -MWITIKIRA,NHATI A
DODOMA,41,CHAMWINO,414,MPWAYUNGU,41424,NAGULO -MWITIKIRA,NHATI B
DODOMA,41,CHAMWINO,414,MPWAYUNGU,41424,NAGULO -MWITIKIRA,NGANINA
DODOMA,41,CHAMWINO,414,MPWAYUNGU,41424,NAGULO -MWITIKIRA,NKANILIYE
DODOMA,41,CHAMWINO,414,MPWAYUNGU,41424,NAGULO -MWITIKIRA,SOMBE
DODOMA,41,CHAMWINO,414,MPWAYUNGU,41424,NAGULO -MWITIKIRA,SOMBETI
DODOMA,41,CHAMWINO,414,CHINUGULU,41425,CHINUGULU,MWONGOZO
DODOMA,41,CHAMWINO,414,CHINUGULU,41425,CHINUGULU,CHINYIKA
DODOMA,41,CHAMWINO,414,CHINUGULU,41425,CHINUGULU,SIASA NI KILIMO
DODOMA,41,CHAMWINO,414,CHINUGULU,41425,CHINUGULU,MWEGAMILE
DODOMA,41,CHAMWINO,414,CHINUGULU,41425,CHINUGULU,MALENGAMAKALI
DODOMA,41,CHAMWINO,414,CHINUGULU,41425,CHINUGULU,MJEHE
DODOMA,41,CHAMWINO,414,CHINUGULU,41425,MONDOMELA,MONDOMELA
DODOMA,41,CHAMWINO,414,CHINUGULU,41425,MONDOMELA,UKOMBOZI
DODOMA,41,CHAMWINO,414,CHINUGULU,41425,MONDOMELA,MAGEZI
DODOMA,41,CHAMWINO,414,CHINUGULU,41425,MONDOMELA,WILUGAJE
DODOMA,41,CHAMWINO,414,CHINUGULU,41425,MONDOMELA,MWENGE
DODOMA,41,CHAMWINO,414,CHINUGULU,41425,MONDOMELA,MTAKUJA
DODOMA,41,CHAMWINO,414,HUZI,41426,HUZI,AZIMIO
DODOMA,41,CHAMWINO,414,HUZI,41426,HUZI,KILIMO
DODOMA,41,CHAMWINO,414,HUZI,41426,HUZI,MWENGE
DODOMA,41,CHAMWINO,414,HUZI,41426,HUZI,CHAMWINO
DODOMA,41,CHAMWINO,414,HUZI,41426,HUZI,MLOWA
DODOMA,41,CHAMWINO,414,HUZI,41426,MUHEME,MUHEME
DODOMA,41,CHAMWINO,414,HUZI,41426,MUHEME,MAKULU
DODOMA,41,CHAMWINO,414,HUZI,41426,MUHEME,KICHANGANI
DODOMA,41,CHAMWINO,414,HUZI,41426,MUHEME,IBWE
DODOMA,41,CHAMWINO,414,HUZI,41426,MUHEME,MJI MPYA
DODOMA,41,CHAMWINO,414,HUZI,41426,MUHEME,MLIMANI
DODOMA,41,CHAMWINO,414,HUZI,41426,CHIFUKULO,MITIULAYA
DODOMA,41,CHAMWINO,414,HUZI,41426,CHIFUKULO,MAJENGO MAPYA
DODOMA,41,CHAMWINO,414,HUZI,41426,CHIFUKULO,MLIMANI
DODOMA,41,CHAMWINO,414,HUZI,41426,CHIFUKULO,BOMBANI
DODOMA,41,CHAMWINO,414,HUZI,41426,CHIFUKULO,MBUGANI
DODOMA,41,CHAMWINO,414,MANDA,41427,MANDA,SOKOINE
DODOMA,41,CHAMWINO,414,MANDA,41427,MANDA,SAMORA
DODOMA,41,CHAMWINO,414,MANDA,41427,MANDA,NYERERE
DODOMA,41,CHAMWINO,414,MANDA,41427,MANDA,MALECELA
DODOMA,41,CHAMWINO,414,MANDA,41427,MANDA,MAPINDUZI
DODOMA,41,CHAMWINO,414,MANDA,41427,MANDA,MAKOLE
DODOMA,41,CHAMWINO,414,MANDA,41427,MANDA,MUUNGANO
DODOMA,41,CHAMWINO,414,MANDA,41427,MANDA,MANDELA
DODOMA,41,CHAMWINO,414,MANDA,41427,ILANGALI,MLIMANI
DODOMA,41,CHAMWINO,414,MANDA,41427,ILANGALI,ILANGALI B
DODOMA,41,CHAMWINO,414,MANDA,41427,ILANGALI,MAFULUNGU
DODOMA,41,CHAMWINO,414,MANDA,41427,ILANGALI,KATI
DODOMA,41,CHAMWINO,414,MANDA,41427,ILANGALI,CHIKOMBO
DODOMA,41,CHAMWINO,414,MANDA,41427,ILANGALI,NAMBARI I
DODOMA,41,CHAMWINO,414,NGHAMBAKU,41428,NGHAMBAKU,AZIMIO
DODOMA,41,CHAMWINO,414,NGHAMBAKU,41428,NGHAMBAKU,MUUNGANO
DODOMA,41,CHAMWINO,414,NGHAMBAKU,41428,NGHAMBAKU,MAZENGO
DODOMA,41,CHAMWINO,414,NGHAMBAKU,41428,NGHAMBAKU,MJI MWEMA
DODOMA,41,CHAMWINO,414,NGHAMBAKU,41428,NGHAMBAKU,MAPUTE
DODOMA,41,CHAMWINO,414,NGHAMBAKU,41428,NGHAMBAKU,MWENGE
DODOMA,41,CHAMWINO,414,NGHAMBAKU,41428,NDOGOWE,MWENGE
DODOMA,41,CHAMWINO,414,NGHAMBAKU,41428,NDOGOWE,AZIMIO
DODOMA,41,CHAMWINO,414,NGHAMBAKU,41428,NDOGOWE,MUUNGANO
DODOMA,41,CHAMWINO,414,NGHAMBAKU,41428,NDOGOWE,MIONDO
DODOMA,41,CHAMWINO,414,NGHAMBAKU,41428,MLAZO,MLAZO
DODOMA,41,CHAMWINO,414,NGHAMBAKU,41428,MLAZO,IHIMBWA
DODOMA,41,CHAMWINO,414,NGHAMBAKU,41428,MLAZO,BAYAKATI
DODOMA,41,CHAMWINO,414,NGHAMBAKU,41428,MLAZO,MAHONGOLA
DODOMA,41,CHAMWINO,414,ZAJILWA,41430,ZAJILWA,MKUNUNGU
DODOMA,41,CHAMWINO,414,ZAJILWA,41430,ZAJILWA,MTAKUJA
DODOMA,41,CHAMWINO,414,ZAJILWA,41430,ZAJILWA,NGONGOLO
DODOMA,41,CHAMWINO,414,ZAJILWA,41430,ZAJILWA,MATUI
DODOMA,41,CHAMWINO,414,ZAJILWA,41430,ZAJILWA,KARUME
DODOMA,41,CHAMWINO,414,ZAJILWA,41430,ZAJILWA,NYERERE
DODOMA,41,CHAMWINO,414,ZAJILWA,41430,ZAJILWA,MSUNJIRIRE
DODOMA,41,CHAMWINO,414,ZAJILWA,41430,GWANDI,BWAWANI
DODOMA,41,CHAMWINO,414,ZAJILWA,41430,GWANDI,MATUI
DODOMA,41,CHAMWINO,414,ZAJILWA,41430,GWANDI,KAWAWA
DODOMA,41,CHAMWINO,414,ZAJILWA,41430,GWANDI,CHINANGALI
DODOMA,41,CHAMWINO,414,ZAJILWA,41430,GWANDI,MGOMOLE
DODOMA,41,CHAMWINO,414,ZAJILWA,41430,GWANDI,SIASA
DODOMA,41,CHAMWINO,414,ZAJILWA,41430,GWANDI,MAJENGO
DODOMA,41,CHAMWINO,414,ZAJILWA,41430,MAGUNGU,BOMBANI
DODOMA,41,CHAMWINO,414,ZAJILWA,41430,MAGUNGU,SIASA
DODOMA,41,CHAMWINO,414,ZAJILWA,41430,MAGUNGU,CHILEPANI
DODOMA,41,CHAMWINO,414,ZAJILWA,41430,MAGUNGU,MUNDITI
DODOMA,41,CHAMWINO,414,CHIBOLI,41431,CHIBOLI,NYERERE
DODOMA,41,CHAMWINO,414,CHIBOLI,41431,CHIBOLI,AZIMIO
DODOMA,41,CHAMWINO,414,CHIBOLI,41431,CHIBOLI,MAPINDUZI
DODOMA,41,CHAMWINO,414,CHIBOLI,41431,CHIBOLI,MLIMANI
DODOMA,41,CHAMWINO,414,CHIBOLI,41431,CHIBOLI,CHIFUTUKA
DODOMA,41,CHAMWINO,414,CHIBOLI,41431,CHIBOLI,MILIMA MITATU
DODOMA,41,CHAMWINO,414,CHIBOLI,41431,CHIBOLI,MVUGALA
DODOMA,41,CHAMWINO,414,CHIBOLI,41431,CHAMPUNDA,CHAMPUMBA
DODOMA,41,CHAMWINO,414,CHIBOLI,41431,CHAMPUNDA,MASOMORAI
DODOMA,41,CHAMWINO,414,CHIBOLI,41431,CHAMPUNDA,MVUGALA B
DODOMA,41,CHAMWINO,414,CHIBOLI,41431,CHAMPUNDA,AMANI
DODOMA,41,CHAMWINO,414,CHIBOLI,41431,CHAMPUNDA,KORONGONI
DODOMA,41,CHAMWINO,414,CHIBOLI,41431,NZASA,NZASA
DODOMA,41,CHAMWINO,414,CHIBOLI,41431,NZASA,BWAWANI
DODOMA,41,CHAMWINO,414,CHIBOLI,41431,NZASA,MILIMANI
DODOMA,41,CHAMWINO,414,CHIBOLI,41431,NZASA,ISECHE
DODOMA,41,CHAMWINO,414,LOJE,41432,LOJE,SAMORA
DODOMA,41,CHAMWINO,414,LOJE,41432,LOJE,MWINYI
DODOMA,41,CHAMWINO,414,LOJE,41432,LOJE,MKAPA
DODOMA,41,CHAMWINO,414,LOJE,41432,LOJE,UWANJA WA NDEGE
DODOMA,41,CHAMWINO,414,LOJE,41432,LOJE,KAWAWA
DODOMA,41,CHAMWINO,414,LOJE,41432,LOJE,KAUNDA A
DODOMA,41,CHAMWINO,414,LOJE,41432,LOJE,KAUNDA B
DODOMA,41,CHAMWINO,414,LOJE,41432,LOJE,CHIGULUKA
DODOMA,41,CHAMWINO,414,LOJE,41432,LOJE,NYERERE
DODOMA,41,CHAMWINO,414,LOJE,41432,LOJE,MUUNGANO A
DODOMA,41,CHAMWINO,414,LOJE,41432,LOJE,KARUME
DODOMA,41,CHAMWINO,414,LOJE,41432,LOJE,MALECELA
DODOMA,41,CHAMWINO,414,LOJE,41432,LOJE,MUUNGANO B
DODOMA,41,CHAMWINO,414,LOJE,41432,IGUNGULI,KOLIMBA
DODOMA,41,CHAMWINO,414,LOJE,41432,IGUNGULI,KARUME
DODOMA,41,CHAMWINO,414,LOJE,41432,IGUNGULI,MALECELA
DODOMA,41,CHAMWINO,414,LOJE,41432,IGUNGULI,KAWAWA
DODOMA,41,CHAMWINO,414,NHINHI,41433,NHINHI,BONDENI
DODOMA,41,CHAMWINO,414,NHINHI,41433,NHINHI,MSHIKAMANO
DODOMA,41,CHAMWINO,414,NHINHI,41433,NHINHI,MAPINDUZI
DODOMA,41,CHAMWINO,414,NHINHI,41433,NHINHI,MUUNGANO
DODOMA,41,CHAMWINO,414,NHINHI,41433,NHINHI,CHAPAKAZI
DODOMA,41,CHAMWINO,414,NHINHI,41433,NHINHI,AZIMIO
DODOMA,41,CHAMWINO,414,NHINHI,41433,NHINHI,MLIMANI
DODOMA,41,CHAMWINO,414,NHINHI,41433,NHINHI,WANGAMA
DODOMA,41,CHAMWINO,414,NHINHI,41433,NHINHI,MAZENGO
DODOMA,41,CHAMWINO,414,NHINHI,41433,NHINHI,SONGAMBELE
DODOMA,41,CHAMWINO,414,NHINHI,41433,NHINHI,MKAPA
DODOMA,41,CHAMWINO,414,NHINHI,41433,NHINHI,SUMAYE
DODOMA,41,CHAMWINO,414,NHINHI,41433,NHINHI,SOKOINE
DODOMA,41,CHAMWINO,414,NHINHI,41433,NHINHI,NYERERE
DODOMA,41,CHAMWINO,414,NHINHI,41433,NHINHI,MALECELA
DODOMA,41,CHAMWINO,414,NHINHI,41433,NHINHI,KILIMO
DODOMA,41,CHAMWINO,414,NHINHI,41433,NKWENDA,NYERERE
DODOMA,41,CHAMWINO,414,NHINHI,41433,NKWENDA,MUUNGANO
DODOMA,41,CHAMWINO,414,NHINHI,41433,NKWENDA,CHAPUCHAPU
DODOMA,41,CHAMWINO,414,NHINHI,41433,NKWENDA,KIVUKONI
DODOMA,41,CHAMWINO,414,NHINHI,41433,NKWENDA,MALECELA
DODOMA,41,CHAMWINO,414,NHINHI,41433,NKWENDA,AZIMIO
DODOMA,41,CHAMWINO,414,NHINHI,41433,NKWENDA,MKAPA
DODOMA,41,CHAMWINO,414,NHINHI,41433,NKWENDA,SUMAYE
DODOMA,41,CHAMWINO,414,CHAMWINO,41434,CHAMWINO,TALAMA
DODOMA,41,CHAMWINO,414,CHAMWINO,41434,CHAMWINO,MWONGOZO
DODOMA,41,CHAMWINO,414,CHAMWINO,41434,CHAMWINO,UMOJA
DODOMA,41,CHAMWINO,414,CHAMWINO,41434,CHAMWINO,MALECELA
DODOMA,41,CHAMWINO,414,CHAMWINO,41434,CHAMWINO,AZIMIO
DODOMA,41,CHAMWINO,414,CHAMWINO,41434,CHAMWINO,UKOMBOZI
DODOMA,41,CHAMWINO,414,CHAMWINO,41434,CHAMWINO,MAENDELEO
DODOMA,41,CHAMWINO,414,CHAMWINO,41434,CHAMWINO,KAMBARAGE
DODOMA,41,CHAMWINO,414,CHAMWINO,41434,CHAMWINO,MADUMA
DODOMA,41,CHAMWINO,414,CHAMWINO,41434,CHAMWINO,CHANG'OMBE
DODOMA,41,CHAMWINO,414,CHAMWINO,41434,CHAMWINO,MAPINDUZI
DODOMA,41,CHAMWINO,414,CHAMWINO,41434,CHAMWINO,SOKOINE
DODOMA,41,CHAMWINO,414,CHAMWINO,41434,CHAMWINO,MSHIKAMANO
DODOMA,41,CHAMWINO,414,CHAMWINO,41434,CHAMWINO,MPERA
DODOMA,41,CHAMWINO,414,NGHAHELEZE,41435,NGHAHELEZE,CHIBWE CHA MAMA
DODOMA,41,CHAMWINO,414,NGHAHELEZE,41435,NGHAHELEZE,KARUME A
DODOMA,41,CHAMWINO,414,NGHAHELEZE,41435,NGHAHELEZE,SOKOINE
DODOMA,41,CHAMWINO,414,NGHAHELEZE,41435,NGHAHELEZE,CHAMWINO A
DODOMA,41,CHAMWINO,414,NGHAHELEZE,41435,NGHAHELEZE,MIWONDO A
DODOMA,41,CHAMWINO,414,NGHAHELEZE,41435,NGHAHELEZE,CHINYIKA
DODOMA,41,CHAMWINO,414,NGHAHELEZE,41435,NGHAHELEZE,MTIMA
DODOMA,41,CHAMWINO,414,NGHAHELEZE,41435,NGHAHELEZE,WANGAMA
DODOMA,41,CHAMWINO,414,NGHAHELEZE,41435,NGHAHELEZE,KARUME B
DODOMA,41,CHAMWINO,414,NGHAHELEZE,41435,NGHAHELEZE,CHAMWINO B
DODOMA,41,CHAMWINO,414,NGHAHELEZE,41435,NGHAHELEZE,MIWONDO B
DODOMA,41,CHAMWINO,414,NGHAHELEZE,41435,NGHANJE,NYERERE A
DODOMA,41,CHAMWINO,414,NGHAHELEZE,41435,NGHANJE,LUSINDE A
DODOMA,41,CHAMWINO,414,NGHAHELEZE,41435,NGHANJE,AZIMIO
DODOMA,41,CHAMWINO,414,NGHAHELEZE,41435,NGHANJE,MALECELA A
DODOMA,41,CHAMWINO,414,NGHAHELEZE,41435,NGHANJE,NYERERE B
DODOMA,41,CHAMWINO,414,NGHAHELEZE,41435,NGHANJE,MALECELA B
DODOMA,41,CHAMWINO,414,NGHAHELEZE,41435,NGHANJE,LUSINDE B
DODOMA,41,CHAMWINO,414,NGHAHELEZE,41435,CHINOJE,ABOUD JUMBE
DODOMA,41,CHAMWINO,414,NGHAHELEZE,41435,CHINOJE,ADAMU SAPI
DODOMA,41,CHAMWINO,414,NGHAHELEZE,41435,CHINOJE,MWANANYAMALA
DODOMA,41,CHAMWINO,414,NGHAHELEZE,41435,CHINOJE,MAO
DODOMA,41,CHAMWINO,414,NGHAHELEZE,41435,CHINOJE,NDACHI
DODOMA,41,CHAMWINO,414,IKOMBOLINGA,41436,IKOMBOLINGA,MAZENGO
DODOMA,41,CHAMWINO,414,IKOMBOLINGA,41436,IKOMBOLINGA,JAMHURI
DODOMA,41,CHAMWINO,414,IKOMBOLINGA,41436,IKOMBOLINGA,MAPINDUZI
DODOMA,41,CHAMWINO,414,IKOMBOLINGA,41436,IKOMBOLINGA,KAWAWA
DODOMA,41,CHAMWINO,414,IKOMBOLINGA,41436,IKOMBOLINGA,SOKOINE
DODOMA,41,CHAMWINO,414,IKOMBOLINGA,41436,IKOMBOLINGA,KARUME
DODOMA,41,CHAMWINO,414,IKOMBOLINGA,41436,IKOMBOLINGA,CHAMANDA
DODOMA,41,CHAMWINO,414,IKOMBOLINGA,41436,IKOMBOLINGA,LUSINDE
DODOMA,41,CHAMWINO,414,IKOMBOLINGA,41436,IKOMBOLINGA,UHURU
DODOMA,41,CHAMWINO,414,IKOMBOLINGA,41436,IKOMBOLINGA,MUUNGANO
DODOMA,41,CHAMWINO,414,IKOMBOLINGA,41436,MGUBA,MAJENGO MAPYA
DODOMA,41,CHAMWINO,414,IKOMBOLINGA,41436,MGUBA,KAUNDA
DODOMA,41,CHAMWINO,414,IKOMBOLINGA,41436,MGUBA,NYERERE
DODOMA,41,CHAMWINO,414,IKOMBOLINGA,41436,MGUBA,KATI
DODOMA,41,CHAMWINO,414,IKOMBOLINGA,41436,MGUBA,MLIMANI
DODOMA,41,CHAMWINO,414,IKOMBOLINGA,41436,MGUBA,AMANI
DODOMA,41,CHAMWINO,414,IKOMBOLINGA,41436,MGUBA,MALECELA
DODOMA,41,CHAMWINO,414,"MLOWA
BARABARANI",41437,MLODA,MAILI MOJA
DODOMA,41,CHAMWINO,414,"MLOWA
BARABARANI",41437,MLODA,MBUYUNI
DODOMA,41,CHAMWINO,414,"MLOWA
BARABARANI",41437,MLODA,MKALAMA
DODOMA,41,CHAMWINO,414,"MLOWA
BARABARANI",41437,MLODA,MKONZE
DODOMA,41,CHAMWINO,414,"MLOWA
BARABARANI",41437,MLODA,NG'AMBO
DODOMA,41,CHAMWINO,414,"MLOWA
BARABARANI",41437,MLODA,MUUNGANO
DODOMA,41,CHAMWINO,414,"MLOWA
BARABARANI",41437,MLODA,MAUMI
DODOMA,41,CHAMWINO,414,"MLOWA
BARABARANI",41437,MLOWA BARABARANI,MALECELA
DODOMA,41,CHAMWINO,414,"MLOWA
BARABARANI",41437,MLOWA BARABARANI,SOKOINE
DODOMA,41,CHAMWINO,414,"MLOWA
BARABARANI",41437,MLOWA BARABARANI,CHIWANGA
DODOMA,41,CHAMWINO,414,"MLOWA
BARABARANI",41437,MLOWA BARABARANI,MAZENGO
DODOMA,41,CHAMWINO,414,"MLOWA
BARABARANI",41437,MLOWA BARABARANI,KAWAWA
DODOMA,41,CHAMWINO,414,"MLOWA
BARABARANI",41437,MLOWA BARABARANI,JOBU
DODOMA,41,CHAMWINO,414,"MLOWA
BARABARANI",41437,MLOWA B,MAGAGA
DODOMA,41,CHAMWINO,414,"MLOWA
BARABARANI",41437,MLOWA B,ABDU JUMBE
DODOMA,41,CHAMWINO,414,"MLOWA
BARABARANI",41437,MLOWA B,NYERERE A
DODOMA,41,CHAMWINO,414,"MLOWA
BARABARANI",41437,MLOWA B,NYERERE B
DODOMA,41,CHAMWINO,414,"MLOWA
BARABARANI",41437,MLOWA B,KIKWETE
DODOMA,41,CHAMWINO,414,"MLOWA
BARABARANI",41437,MLOWA B,TANESCO
DODOMA,41,CHAMWINO,414,"MLOWA
BARABARANI",41437,MLOWA B,MAPINDUZI
DODOMA,41,CHAMWINO,414,"MLOWA
BARABARANI",41437,MLOWA B,
DODOMA,41,KONGWA,415,KONGWA,41501,KONGWA,MJINI MASH A
DODOMA,41,KONGWA,415,KONGWA,41501,KONGWA,MJINI MASH B
DODOMA,41,KONGWA,415,KONGWA,41501,KONGWA,MJINI MAGH A
DODOMA,41,KONGWA,415,KONGWA,41501,KONGWA,MJIINI MAGH B
DODOMA,41,KONGWA,415,KONGWA,41501,KONGWA,MNYAKONGO SHULENI
DODOMA,41,KONGWA,415,KONGWA,41501,KONGWA,DODOMA ROAD
DODOMA,41,KONGWA,415,KONGWA,41501,KONGWA,CHIMLATA
DODOMA,41,KONGWA,415,KONGWA,41501,KONGWA,MORISHENI
DODOMA,41,KONGWA,415,KONGWA,41501,KONGWA,NGONGA
DODOMA,41,KONGWA,415,KONGWA,41501,KONGWA,MNASE
DODOMA,41,KONGWA,415,KONGWA,41501,KONGWA,MLANGA
DODOMA,41,KONGWA,415,KONGWA,41501,KONGWA,KONGWA MJINI
DODOMA,41,KONGWA,415,KONGWA,41501,KONGWA,VIGANGA
DODOMA,41,KONGWA,415,KONGWA,41501,KONGWA,MNYAKONGO KISIMANI
DODOMA,41,KONGWA,415,UGOGONI,41502,UGOGONI,"UGOGONI""A"""
DODOMA,41,KONGWA,415,UGOGONI,41502,UGOGONI,"UGOGONI""B"""
DODOMA,41,KONGWA,415,UGOGONI,41502,UGOGONI,MABALANGU
DODOMA,41,KONGWA,415,UGOGONI,41502,MAUTYA,CHAKWALE
DODOMA,41,KONGWA,415,UGOGONI,41502,MAUTYA,MAGUNGU
DODOMA,41,KONGWA,415,UGOGONI,41502,MAUTYA,CHANDAMA
DODOMA,41,KONGWA,415,UGOGONI,41502,MAUTYA B,MSULUWILE
DODOMA,41,KONGWA,415,UGOGONI,41502,MAUTYA B,MAGOMENI
DODOMA,41,KONGWA,415,UGOGONI,41502,MAUTYA B,BEREGE
DODOMA,41,KONGWA,415,UGOGONI,41502,IBWAGA,CHIBEGU
DODOMA,41,KONGWA,415,UGOGONI,41502,IBWAGA,MPALALA
DODOMA,41,KONGWA,415,UGOGONI,41502,IBWAGA,MBUYUNI
DODOMA,41,KONGWA,415,UGOGONI,41502,IBWAGA,AMANI
DODOMA,41,KONGWA,415,UGOGONI,41502,IBWAGA,SOWETO
DODOMA,41,KONGWA,415,UGOGONI,41502,IBWAGA,NGUJI-CHINANGALI
DODOMA,41,KONGWA,415,UGOGONI,41502,NGUJI,CHELWE
DODOMA,41,KONGWA,415,UGOGONI,41502,NGUJI,MAHANDA
DODOMA,41,KONGWA,415,UGOGONI,41502,NGUJI,MAKULU
DODOMA,41,KONGWA,415,UGOGONI,41502,NGUJI,MALUWE
DODOMA,41,KONGWA,415,UGOGONI,41502,CHIMOTOLO,CHIMOTOLO
DODOMA,41,KONGWA,415,UGOGONI,41502,CHIMOTOLO,MKWALA
DODOMA,41,KONGWA,415,UGOGONI,41502,CHIMOTOLO,MDINDE
DODOMA,41,KONGWA,415,UGOGONI,41502,MACHENJE,CHUNGU
DODOMA,41,KONGWA,415,UGOGONI,41502,MACHENJE,"MLANDIZI""A"""
DODOMA,41,KONGWA,415,UGOGONI,41502,MACHENJE,"MLANDIZI""B"""
DODOMA,41,KONGWA,415,UGOGONI,41502,MACHENJE,CHIMLATA
DODOMA,41,KONGWA,415,UGOGONI,41502,MACHENJE,"TANDIKA""A"""
DODOMA,41,KONGWA,415,UGOGONI,41502,MACHENJE,"TANDIKA""B"""
DODOMA,41,KONGWA,415,UGOGONI,41502,MACHENJE,CHANDAMA
DODOMA,41,KONGWA,415,UGOGONI,41502,MACHENJE,NHINILA
DODOMA,41,KONGWA,415,SAGARA,41503,SAGARA  A,KIBAONI A
DODOMA,41,KONGWA,415,SAGARA,41503,SAGARA  A,KIBAONI B
DODOMA,41,KONGWA,415,SAGARA,41503,SAGARA  A,CHAMWAKA
DODOMA,41,KONGWA,415,SAGARA,41503,SAGARA  A,MABALANGU
DODOMA,41,KONGWA,415,SAGARA,41503,SAGARA  A,KADYANGO
DODOMA,41,KONGWA,415,SAGARA,41503,SAGARA  A,SAIGONI
DODOMA,41,KONGWA,415,SAGARA,41503,SAGARA  A,CHAKWALE
DODOMA,41,KONGWA,415,SAGARA,41503,SAGARA  A,SOGONOI
DODOMA,41,KONGWA,415,SAGARA,41503,SAGARA  A,CHIKUDE
DODOMA,41,KONGWA,415,SAGARA,41503,SAGARA  B,MAHAKAMANI
DODOMA,41,KONGWA,415,SAGARA,41503,SAGARA  B,MLOGOLO
DODOMA,41,KONGWA,415,SAGARA,41503,SAGARA  B,SOGELEA
DODOMA,41,KONGWA,415,SAGARA,41503,SAGARA  B,IGOMBO
DODOMA,41,KONGWA,415,SAGARA,41503,IJAKA,KICHANGANI
DODOMA,41,KONGWA,415,SAGARA,41503,IJAKA,KILELENI
DODOMA,41,KONGWA,415,SAGARA,41503,IJAKA,MAKEWENI
DODOMA,41,KONGWA,415,SAGARA,41503,IJAKA,UZUNGUNI
DODOMA,41,KONGWA,415,SAGARA,41503,LAIKALA A,MKATA
DODOMA,41,KONGWA,415,SAGARA,41503,LAIKALA A,CHANG'OMBE
DODOMA,41,KONGWA,415,SAGARA,41503,LAIKALA A,MAKEWENI
DODOMA,41,KONGWA,415,SAGARA,41503,LAIKALA B,MLIMANI
DODOMA,41,KONGWA,415,SAGARA,41503,LAIKALA B,BONDENI
DODOMA,41,KONGWA,415,SAGARA,41503,LAIKALA B,MJIMWEMA
DODOMA,41,KONGWA,415,SAGARA,41503,MSINGISA,MAKAMBINI
DODOMA,41,KONGWA,415,SAGARA,41503,MSINGISA,KISIMANI
DODOMA,41,KONGWA,415,SAGARA,41503,MSINGISA,MBUYUNI
DODOMA,41,KONGWA,415,SAGARA,41503,MSINGISA,NGHWALE
DODOMA,41,KONGWA,415,IDUO,41504,IDUO,MLANDIZI
DODOMA,41,KONGWA,415,IDUO,41504,IDUO,MTAKUJA
DODOMA,41,KONGWA,415,IDUO,41504,IDUO,IDILO
DODOMA,41,KONGWA,415,IDUO,41504,IDUO,CHINANGALI
DODOMA,41,KONGWA,415,IDUO,41504,SUGUTA,UBUNGO
DODOMA,41,KONGWA,415,IDUO,41504,SUGUTA,CHANG'OMBE
DODOMA,41,KONGWA,415,IDUO,41504,SUGUTA,UNGUURODI
DODOMA,41,KONGWA,415,IDUO,41504,CHANG'OMBE,CHANG'OMBE
DODOMA,41,KONGWA,415,IDUO,41504,CHANG'OMBE,BWAWANI
DODOMA,41,KONGWA,415,IDUO,41504,CHANG'OMBE,MISHENI
DODOMA,41,KONGWA,415,IDUO,41504,CHANG'OMBE,CHINOLO
DODOMA,41,KONGWA,415,IDUO,41504,MASINYETI,GOLAN
DODOMA,41,KONGWA,415,IDUO,41504,MASINYETI,CHUMVICHUMVI
DODOMA,41,KONGWA,415,IDUO,41504,MASINYETI,MAKAMBINI
DODOMA,41,KONGWA,415,MLALI,41505,MLALI IYEGU,MJINI
DODOMA,41,KONGWA,415,MLALI,41505,MLALI IYEGU,VERTERNARY
DODOMA,41,KONGWA,415,MLALI,41505,MLALI IYEGU,MAPULO
DODOMA,41,KONGWA,415,MLALI,41505,MLALI IYEGU,KINANGALI
DODOMA,41,KONGWA,415,MLALI,41505,MLALI IYEGU,SHEYU
DODOMA,41,KONGWA,415,MLALI,41505,MLALI IYEGU,CHAMWINO
DODOMA,41,KONGWA,415,MLALI,41505,MLALI BONDENI,MIEMBENI
DODOMA,41,KONGWA,415,MLALI,41505,MLALI BONDENI,CHITULI
DODOMA,41,KONGWA,415,MLALI,41505,MLALI BONDENI,ROMANI CATHOLIC
DODOMA,41,KONGWA,415,MLALI,41505,MLALI BONDENI,MISSION
DODOMA,41,KONGWA,415,MLALI,41505,MLALI BONDENI,CHIBALAHWE
DODOMA,41,KONGWA,415,MLALI,41505,MLALI BONDENI,SHULENI
DODOMA,41,KONGWA,415,MLALI,41505,MLALI BONDENI,MNYANGWENI
DODOMA,41,KONGWA,415,MLALI,41505,IHANDA,NGHALONEKI
DODOMA,41,KONGWA,415,MLALI,41505,IHANDA,KANDAMIZA
DODOMA,41,KONGWA,415,MLALI,41505,IHANDA,CHANG'OMBE
DODOMA,41,KONGWA,415,CHAMKOROMA,41506,CHAMKOROMA,MHONGWA
DODOMA,41,KONGWA,415,CHAMKOROMA,41506,CHAMKOROMA,KITOVUNI
DODOMA,41,KONGWA,415,CHAMKOROMA,41506,CHAMKOROMA,SHULENI
DODOMA,41,KONGWA,415,CHAMKOROMA,41506,MAKOLE,MAKOLE JUU
DODOMA,41,KONGWA,415,CHAMKOROMA,41506,MAKOLE,MAKOLE KATI
DODOMA,41,KONGWA,415,CHAMKOROMA,41506,MAKOLE,KILIMO
DODOMA,41,KONGWA,415,CHAMKOROMA,41506,TUBUGWE KIBAONI,KIBAONI A
DODOMA,41,KONGWA,415,CHAMKOROMA,41506,TUBUGWE KIBAONI,KIBAONI B
DODOMA,41,KONGWA,415,CHAMKOROMA,41506,TUBUGWE KIBAONI,CHANG'OMBE
DODOMA,41,KONGWA,415,CHAMKOROMA,41506,TUBUGWE KIBAONI,BALAKALAU
DODOMA,41,KONGWA,415,CHAMKOROMA,41506,TUBUGWE KIBAONI,MADIZINI
DODOMA,41,KONGWA,415,CHAMKOROMA,41506,TUBUGWE JUU,NUGHUTU SHULENI
DODOMA,41,KONGWA,415,CHAMKOROMA,41506,TUBUGWE JUU,NUGHUTU KICHANGANI
DODOMA,41,KONGWA,415,CHAMKOROMA,41506,TUBUGWE JUU,MAJENGO
DODOMA,41,KONGWA,415,CHAMKOROMA,41506,MSETA,NYERERE
DODOMA,41,KONGWA,415,CHAMKOROMA,41506,MSETA,MHEMBA A
DODOMA,41,KONGWA,415,CHAMKOROMA,41506,MSETA,MHEMBA B
DODOMA,41,KONGWA,415,CHAMKOROMA,41506,MSETA,NGAO
DODOMA,41,KONGWA,415,CHAMKOROMA,41506,MSETA BONDENI,GODAUNI
DODOMA,41,KONGWA,415,CHAMKOROMA,41506,MSETA BONDENI,CHANG'OMBE
DODOMA,41,KONGWA,415,CHAMKOROMA,41506,MSETA BONDENI,SONGAMBELE
DODOMA,41,KONGWA,415,CHAMKOROMA,41506,MSETA BONDENI,CHICHENJE
DODOMA,41,KONGWA,415,CHAMKOROMA,41506,MANGHWETA,ZAIRE
DODOMA,41,KONGWA,415,CHAMKOROMA,41506,MANGHWETA,USALAMA
DODOMA,41,KONGWA,415,CHAMKOROMA,41506,MANGHWETA,AZIMIO
DODOMA,41,KONGWA,415,CHAMKOROMA,41506,MANGHWETA,CHANG'OMBE
DODOMA,41,KONGWA,415,CHAMKOROMA,41506,MANGHWETA,ILUNDI
DODOMA,41,KONGWA,415,PANDAMBILI,41507,PANDAMBILI'A',MNADANI
DODOMA,41,KONGWA,415,PANDAMBILI,41507,PANDAMBILI'A',MAJENGO
DODOMA,41,KONGWA,415,PANDAMBILI,41507,PANDAMBILI'A',NHEMBO
DODOMA,41,KONGWA,415,PANDAMBILI,41507,PANDAMBILI 'B',MAPOCHO
DODOMA,41,KONGWA,415,PANDAMBILI,41507,PANDAMBILI 'B',IKULU
DODOMA,41,KONGWA,415,PANDAMBILI,41507,PANDAMBILI 'B',MISSION
DODOMA,41,KONGWA,415,PANDAMBILI,41507,SILWA,SILWA
DODOMA,41,KONGWA,415,PANDAMBILI,41507,SILWA,CHIMEHE
DODOMA,41,KONGWA,415,PANDAMBILI,41507,SILWA,SHULENI
DODOMA,41,KONGWA,415,KIBAIGWA,41508,SILWA,KARUME
DODOMA,41,KONGWA,415,KIBAIGWA,41508,SILWA,NYERERE
DODOMA,41,KONGWA,415,KIBAIGWA,41508,SILWA,MAJENGO
DODOMA,41,KONGWA,415,KIBAIGWA,41508,SILWA,KAWAWA
DODOMA,41,KONGWA,415,KIBAIGWA,41508,SILWA,MPAKANI
DODOMA,41,KONGWA,415,KIBAIGWA,41508,SILWA,MSIMBAZI
DODOMA,41,KONGWA,415,KIBAIGWA,41508,SILWA,BEREGA
DODOMA,41,KONGWA,415,KIBAIGWA,41508,SILWA,CHANG'OMBE
DODOMA,41,KONGWA,415,KIBAIGWA,41508,SILWA,MWONGOZO
DODOMA,41,KONGWA,415,KIBAIGWA,41508,SILWA,KAZAMOYO
DODOMA,41,KONGWA,415,KIBAIGWA,41508,SILWA,MLIMWA
DODOMA,41,KONGWA,415,KIBAIGWA,41508,SILWA,SABASABA
DODOMA,41,KONGWA,415,KIBAIGWA,41508,SILWA,TANESCO
DODOMA,41,KONGWA,415,KIBAIGWA,41508,SILWA,LUFIKIRI
DODOMA,41,KONGWA,415,MTANANA,41509,MTANANA'A',NHALAWANDA
DODOMA,41,KONGWA,415,MTANANA,41509,MTANANA'A',NHYINYILA
DODOMA,41,KONGWA,415,MTANANA,41509,MTANANA'A',KAMBARAGE
DODOMA,41,KONGWA,415,MTANANA,41509,MTANANA'A',MBUYUNI
DODOMA,41,KONGWA,415,MTANANA,41509,MTANANA'A',MAJENGO
DODOMA,41,KONGWA,415,MTANANA,41509,MTANANA'B',BWAWANI
DODOMA,41,KONGWA,415,MTANANA,41509,MTANANA'B',TAMBUKARELI
DODOMA,41,KONGWA,415,MTANANA,41509,MTANANA'B',BWAGAMOYO
DODOMA,41,KONGWA,415,MTANANA,41509,MTANANA'B',MISSION
DODOMA,41,KONGWA,415,MTANANA,41509,MTANANA'B',AZIMIO
DODOMA,41,KONGWA,415,MTANANA,41509,NDALIBO,IKULU
DODOMA,41,KONGWA,415,MTANANA,41509,NDALIBO,MANZESE
DODOMA,41,KONGWA,415,MTANANA,41509,NDALIBO,CHAMWINO
DODOMA,41,KONGWA,415,MTANANA,41509,NDALIBO,CHINANGALI
DODOMA,41,KONGWA,415,MTANANA,41509,CHIGWINGWINGILI,MUUNGANO
DODOMA,41,KONGWA,415,MTANANA,41509,CHIGWINGWINGILI,MAZENGO
DODOMA,41,KONGWA,415,MTANANA,41509,CHIGWINGWINGILI,WISUZAJE
DODOMA,41,KONGWA,415,MTANANA,41509,SOITI,NGUZO
DODOMA,41,KONGWA,415,MTANANA,41509,SOITI,SOITI
DODOMA,41,KONGWA,415,MTANANA,41509,SOITI,SOGELEA
DODOMA,41,KONGWA,415,NJOGE,41510,NJOGE,MNASE
DODOMA,41,KONGWA,415,NJOGE,41510,NJOGE,MAGENGE
DODOMA,41,KONGWA,415,NJOGE,41510,NJOGE,IDODOMA
DODOMA,41,KONGWA,415,NJOGE,41510,HEMBAHEMBA,"HEMBAHEMBA ""A"""
DODOMA,41,KONGWA,415,NJOGE,41510,HEMBAHEMBA,"HEMBAHEMBA ""B"""
DODOMA,41,KONGWA,415,NJOGE,41510,HEMBAHEMBA,SHULENI
DODOMA,41,KONGWA,415,NJOGE,41510,HEMBAHEMBA,SOKONI
DODOMA,41,KONGWA,415,NJOGE,41510,HEMBAHEMBA,MPANDE
DODOMA,41,KONGWA,415,NJOGE,41510,MAKUTUPA,MPAKANI
DODOMA,41,KONGWA,415,NJOGE,41510,MAKUTUPA,MADUKANI
DODOMA,41,KONGWA,415,NJOGE,41510,MAKUTUPA,MTWATI
DODOMA,41,KONGWA,415,SEJELI,41511,SEJELI,MUUNGANO
DODOMA,41,KONGWA,415,SEJELI,41511,SEJELI,KISIMANI 'B'
DODOMA,41,KONGWA,415,SEJELI,41511,SEJELI,WEZAMTIMA
DODOMA,41,KONGWA,415,SEJELI,41511,SEJELI,KISIMANI 'A'
DODOMA,41,KONGWA,415,SEJELI,41511,SEJELI,MISSION
DODOMA,41,KONGWA,415,SEJELI,41511,MBANDE,KATI
DODOMA,41,KONGWA,415,SEJELI,41511,MBANDE,MANOMA
DODOMA,41,KONGWA,415,SEJELI,41511,MBANDE,KISIMANI
DODOMA,41,KONGWA,415,SEJELI,41511,MBANDE,JUHUDI
DODOMA,41,KONGWA,415,SEJELI,41511,MBANDE,BWANI
DODOMA,41,KONGWA,415,SEJELI,41511,VILUNDILO,MUUNGANO
DODOMA,41,KONGWA,415,SEJELI,41511,VILUNDILO,MLIMAGATA 'A'
DODOMA,41,KONGWA,415,SEJELI,41511,VILUNDILO,MLIMAGATA 'B'
DODOMA,41,KONGWA,415,SEJELI,41511,VILUNDILO,CHINANGALI
DODOMA,41,KONGWA,415,SEJELI,41511,MANUNGU,MANUNGU 'A'
DODOMA,41,KONGWA,415,SEJELI,41511,MANUNGU,MANUNGU 'B'
DODOMA,41,KONGWA,415,SEJELI,41511,MANUNGU,CHINYIKA 'A'
DODOMA,41,KONGWA,415,SEJELI,41511,MANUNGU,CHINYIKA 'B'
DODOMA,41,KONGWA,415,SEJELI,41511,MSUNJULILE (A),MAOMBO
DODOMA,41,KONGWA,415,SEJELI,41511,MSUNJULILE (A),MATENANDI
DODOMA,41,KONGWA,415,SEJELI,41511,MSUNJULILE (A),CHIBWE
DODOMA,41,KONGWA,415,SEJELI,41511,MSUNJULILE (A),KISIMANI
DODOMA,41,KONGWA,415,SEJELI,41511,MSUNJULILE (A),MKOKA
DODOMA,41,KONGWA,415,SEJELI,41511,MSUNJIILE (B),MASINDE
DODOMA,41,KONGWA,415,SEJELI,41511,MSUNJIILE (B),NJIDA
DODOMA,41,KONGWA,415,SEJELI,41511,MSUNJIILE (B),KIONDO
DODOMA,41,KONGWA,415,SEJELI,41511,MSUNJIILE (B),CHINANGALI
DODOMA,41,KONGWA,415,HOGORO,41512,BANYIBANYI,BWAWANI
DODOMA,41,KONGWA,415,HOGORO,41512,BANYIBANYI,"MKANDAMIZA""A"""
DODOMA,41,KONGWA,415,HOGORO,41512,BANYIBANYI,"MKANDAMIZA""B"""
DODOMA,41,KONGWA,415,HOGORO,41512,BANYIBANYI,MAJENGO
DODOMA,41,KONGWA,415,HOGORO,41512,BANYIBANYI,MBUYUNI
DODOMA,41,KONGWA,415,HOGORO,41512,BANYIBANYI,MAKULU
DODOMA,41,KONGWA,415,HOGORO,41512,BANYIBANYI,SOITI
DODOMA,41,KONGWA,415,HOGORO,41512,BANYIBANYI,MBODYOI
DODOMA,41,KONGWA,415,HOGORO,41512,BANYIBANYI,MAPINDUZI
DODOMA,41,KONGWA,415,HOGORO,41512,BANYIBANYI,MKOMBOLA
DODOMA,41,KONGWA,415,HOGORO,41512,HOGORO,IKULU
DODOMA,41,KONGWA,415,HOGORO,41512,HOGORO,WANGAMA
DODOMA,41,KONGWA,415,HOGORO,41512,HOGORO,MABULULU
DODOMA,41,KONGWA,415,HOGORO,41512,HOGORO,MAGUNGU
DODOMA,41,KONGWA,415,HOGORO,41512,HOGORO,CHALINZE
DODOMA,41,KONGWA,415,HOGORO,41512,HOGORO,NGATUNYI
DODOMA,41,KONGWA,415,HOGORO,41512,MKUTANI,MHOGORO
DODOMA,41,KONGWA,415,HOGORO,41512,MKUTANI,MKUNGUGU
DODOMA,41,KONGWA,415,HOGORO,41512,MKUTANI,ILOLO
DODOMA,41,KONGWA,415,HOGORO,41512,MKUTANI,KAMBARAGE
DODOMA,41,KONGWA,415,HOGORO,41512,MKUTANI,KILIMAMBOGO
DODOMA,41,KONGWA,415,HOGORO,41512,CHAMAE,MISSION
DODOMA,41,KONGWA,415,HOGORO,41512,CHAMAE,CHAMWINO
DODOMA,41,KONGWA,415,HOGORO,41512,CHAMAE,ZAIRE
DODOMA,41,KONGWA,415,HOGORO,41512,CHAMAE,MAGUBIKE
DODOMA,41,KONGWA,415,HOGORO,41512,CHAMAE,KAMBA
DODOMA,41,KONGWA,415,HOGORO,41512,NYERERE,NYERERE
DODOMA,41,KONGWA,415,HOGORO,41512,NYERERE,NJIDA
DODOMA,41,KONGWA,415,HOGORO,41512,NYERERE,CHANGALAWE
DODOMA,41,KONGWA,415,HOGORO,41512,NYERERE,MHINDI
DODOMA,41,KONGWA,415,HOGORO,41512,NYERERE,NGHOLE
DODOMA,41,KONGWA,415,MKOKA,41513,MKOKA,KAMBARAGE
DODOMA,41,KONGWA,415,MKOKA,41513,MKOKA,LENDEBESI
DODOMA,41,KONGWA,415,MKOKA,41513,MKOKA,MLOWA
DODOMA,41,KONGWA,415,MKOKA,41513,MKOKA,MBUYUNI
DODOMA,41,KONGWA,415,MKOKA,41513,MNUKU,MNUKU
DODOMA,41,KONGWA,415,MKOKA,41513,MNUKU,CHAMWINO
DODOMA,41,KONGWA,415,MKOKA,41513,MVUUNGULUMO,MVUUNGULUMO
DODOMA,41,KONGWA,415,MKOKA,41513,MVUUNGULUMO,MKOMBOZI
DODOMA,41,KONGWA,415,ZOISSA,41514,ZOISSA,SEGA
DODOMA,41,KONGWA,415,ZOISSA,41514,ZOISSA,MISSION
DODOMA,41,KONGWA,415,ZOISSA,41514,ZOISSA,ZOISSA
DODOMA,41,KONGWA,415,ZOISSA,41514,PINGALAME,CHANG'OMBE
DODOMA,41,KONGWA,415,ZOISSA,41514,PINGALAME,JIENDELEZE
DODOMA,41,KONGWA,415,ZOISSA,41514,PINGALAME,MUUNGANO
DODOMA,41,KONGWA,415,ZOISSA,41514,PINGALAME,SUBUGO
DODOMA,41,KONGWA,415,ZOISSA,41514,KINANGALI,MDUMILO
DODOMA,41,KONGWA,415,ZOISSA,41514,KINANGALI,MGONGOLOFU
DODOMA,41,KONGWA,415,ZOISSA,41514,KINANGALI,MIYENDEGE
DODOMA,41,KONGWA,415,ZOISSA,41514,KINANGALI,NDEBESI
DODOMA,41,KONGWA,415,CHITEGO,41515,CHITEGO,MISSION
DODOMA,41,KONGWA,415,CHITEGO,41515,CHITEGO,MATULI
DODOMA,41,KONGWA,415,CHITEGO,41515,CHITEGO,SUWI
DODOMA,41,KONGWA,415,CHITEGO,41515,CHITEGO,LEDONYO
DODOMA,41,KONGWA,415,CHITEGO,41515,CHITEGO,MDUMILO
DODOMA,41,KONGWA,415,CHITEGO,41515,MANYUSI,MANYUSI
DODOMA,41,KONGWA,415,CHITEGO,41515,MANYUSI,NDOGOWE
DODOMA,41,KONGWA,415,CHITEGO,41515,MANYUSI,SAYUNI
DODOMA,41,KONGWA,415,CHITEGO,41515,LEGANGA,LEGANGA
DODOMA,41,KONGWA,415,CHITEGO,41515,LEGANGA,SOKOINE
DODOMA,41,KONGWA,415,CHITEGO,41515,LEGANGA,MAZAGA
DODOMA,41,KONGWA,415,CHITEGO,41515,NGUTOTO,NGUTOTO
DODOMA,41,KONGWA,415,CHITEGO,41515,NGUTOTO,WANGAZI
DODOMA,41,KONGWA,415,CHITEGO,41515,NGUTOTO,MGOLOKA
DODOMA,41,KONGWA,415,CHITEGO,41515,NGUTOTO,MBIGILI
DODOMA,41,KONGWA,415,MATONGORO,41516,MATONGORO,MAJENGO
DODOMA,41,KONGWA,415,MATONGORO,41516,MATONGORO,MAPULOTI
DODOMA,41,KONGWA,415,MATONGORO,41516,MATONGORO,BONDENI
DODOMA,41,KONGWA,415,MATONGORO,41516,MATONGORO,GODAUNI
DODOMA,41,KONGWA,415,MATONGORO,41516,MLANJE,KAMBARAGE
DODOMA,41,KONGWA,415,MATONGORO,41516,MLANJE,CHINYIKA
DODOMA,41,KONGWA,415,MATONGORO,41516,MLANJE,CHANG'OMBE
DODOMA,41,KONGWA,415,MATONGORO,41516,MLANJE,WEZAMTIMA
DODOMA,41,KONGWA,415,MATONGORO,41516,NORINI,UWANJANI
DODOMA,41,KONGWA,415,MATONGORO,41516,NORINI,NHUGUTU
DODOMA,41,KONGWA,415,MATONGORO,41516,NORINI,SOKONI
DODOMA,41,KONGWA,415,MATONGORO,41516,NORINI,MBUGANI
DODOMA,41,KONGWA,415,MAKAWA,41517,MAKAWA,MAKAWA
DODOMA,41,KONGWA,415,MAKAWA,41517,MAKAWA,MAJENGO
DODOMA,41,KONGWA,415,MAKAWA,41517,MAKAWA,KISIMANI
DODOMA,41,KONGWA,415,MAKAWA,41517,MAKAWA,KIBAONI
DODOMA,41,KONGWA,415,MAKAWA,41517,MAGESENI,KIJIWENI
DODOMA,41,KONGWA,415,MAKAWA,41517,MAGESENI,WANGAMA
DODOMA,41,KONGWA,415,MAKAWA,41517,MAGESENI,UKAGULUNI
DODOMA,41,KONGWA,415,MAKAWA,41517,MAGESENI,LUKUGU
DODOMA,41,KONGWA,415,MAKAWA,41517,MAGESENI,BWAWANI
DODOMA,41,KONGWA,415,MAKAWA,41517,MUUNGANO,MUUNGANO
DODOMA,41,KONGWA,415,MAKAWA,41517,MUUNGANO,UKAGULUNI
DODOMA,41,KONGWA,415,MAKAWA,41517,MUUNGANO,MAPELEMEHE
DODOMA,41,KONGWA,415,MAKAWA,41517,SILALE,SILALE
DODOMA,41,KONGWA,415,MAKAWA,41517,SILALE,TAKALOYI
DODOMA,41,KONGWA,415,SONGAMBELE,41518,SONGAMBELE A,IBUMILA
DODOMA,41,KONGWA,415,SONGAMBELE,41518,SONGAMBELE A,MWONGOZO
DODOMA,41,KONGWA,415,SONGAMBELE,41518,SONGAMBELE A,MUUNGANO
DODOMA,41,KONGWA,415,SONGAMBELE,41518,SONGAMBELE B,MAKULU
DODOMA,41,KONGWA,415,SONGAMBELE,41518,SONGAMBELE B,KARUME
DODOMA,41,KONGWA,415,SONGAMBELE,41518,SONGAMBELE B,ISANGHA
DODOMA,41,KONGWA,415,SONGAMBELE,41518,SONGAMBELE B,CHINYIKA
DODOMA,41,KONGWA,415,SONGAMBELE,41518,SONGAMBELE B,MATULANGA
DODOMA,41,KONGWA,415,SONGAMBELE,41518,MASENHA,MASEHNA
DODOMA,41,KONGWA,415,SONGAMBELE,41518,MASENHA,CHANG'OMBE
DODOMA,41,KONGWA,415,SONGAMBELE,41518,MASENHA,NZAGA
DODOMA,41,KONGWA,415,SONGAMBELE,41518,MUUNGANO,CHIKOLE
DODOMA,41,KONGWA,415,SONGAMBELE,41518,MUUNGANO,TALAUSI
DODOMA,41,KONGWA,415,SONGAMBELE,41518,MUUNGANO,MNUKU
DODOMA,41,KONGWA,415,SONGAMBELE,41518,MATANGA,MATANGA 'A'
DODOMA,41,KONGWA,415,SONGAMBELE,41518,MATANGA,MATANGA 'B'
DODOMA,41,KONGWA,415,SONGAMBELE,41518,MATANGA,UBENANI
DODOMA,41,KONGWA,415,SONGAMBELE,41518,MATANGA,MAJENGO
DODOMA,41,KONGWA,415,NGHUMBI,41519,NGHUMBI,MADUKANI
DODOMA,41,KONGWA,415,NGHUMBI,41519,NGHUMBI,MAGUHA
DODOMA,41,KONGWA,415,NGHUMBI,41519,NGHUMBI,MANHUMBULU
DODOMA,41,KONGWA,415,NGHUMBI,41519,NGHUMBI,MBUYUNI
DODOMA,41,KONGWA,415,NGHUMBI,41519,NGHUMBI,MADIBWILA
DODOMA,41,KONGWA,415,NGHUMBI,41519,PEMBAMOTO,IKULU
DODOMA,41,KONGWA,415,NGHUMBI,41519,PEMBAMOTO,MHANGE
DODOMA,41,KONGWA,415,NGHUMBI,41519,PEMBAMOTO,MILAKANI
DODOMA,41,KONGWA,415,NGHUMBI,41519,PEMBAMOTO,MAJENGO MAPYA
DODOMA,41,KONGWA,415,NGHUMBI,41519,MBAGILWA,IYUTA
DODOMA,41,KONGWA,415,NGHUMBI,41519,MBAGILWA,MNHWANI
DODOMA,41,KONGWA,415,NGHUMBI,41519,MBAGILWA,MHONGWA
DODOMA,41,KONGWA,415,NGHUMBI,41519,MBAGILWA,MERUE
DODOMA,41,KONGWA,415,NGHUMBI,41519,MBAGILWA,NING'INA
DODOMA,41,KONGWA,415,NGHUMBI,41519,IYUMBWI,MBIGILI
DODOMA,41,KONGWA,415,NGHUMBI,41519,IYUMBWI,MADEGE
DODOMA,41,KONGWA,415,NGHUMBI,41519,IYUMBWI,KILIMANI
DODOMA,41,KONGWA,415,NGHUMBI,41519,IYUMBWI,MAKELELE
DODOMA,41,KONGWA,415,NGHUMBI,41519,IYUMBWI,NG'AMBO
DODOMA,41,KONGWA,415,LENJULU,41520,LENJULU,LENJULU A
DODOMA,41,KONGWA,415,LENJULU,41520,LENJULU,LENJULU B
DODOMA,41,KONGWA,415,LENJULU,41520,LENJULU,MAGENGE
DODOMA,41,KONGWA,415,LENJULU,41520,LENJULU,MADEMBWE
DODOMA,41,KONGWA,415,LENJULU,41520,LENJULU,BWAWANI
DODOMA,41,KONGWA,415,LENJULU,41520,LOBILO,SUGUTA MASH
DODOMA,41,KONGWA,415,LENJULU,41520,LOBILO,SUGUTA MAGH
DODOMA,41,KONGWA,415,LENJULU,41520,LOBILO,LOBILO MISSION
DODOMA,41,KONGWA,415,LENJULU,41520,LOBILO,LOBILO
DODOMA,41,KONGWA,415,LENJULU,41520,LOBILO,NGIYOKO
DODOMA,41,KONGWA,415,LENJULU,41520,MAJAWANGA,SHULENI
DODOMA,41,KONGWA,415,LENJULU,41520,MAJAWANGA,MLIMANI A
DODOMA,41,KONGWA,415,LENJULU,41520,MAJAWANGA,MLIMANI B
DODOMA,41,KONGWA,415,LENJULU,41520,MAJAWANGA,NDEBESI
DODOMA,41,KONGWA,415,LENJULU,41520,KITETO,SHULENI
DODOMA,41,KONGWA,415,LENJULU,41520,KITETO,MAJENGO
DODOMA,41,KONGWA,415,LENJULU,41520,KITETO,KONYEKI
DODOMA,41,KONGWA,415,LENJULU,41520,KITETO,NALAU
DODOMA,41,KONGWA,415,LENJULU,41520,KITETO,LUMILUMI
DODOMA,41,KONGWA,415,CHIWE,41521,CHIWE,CHIWE
DODOMA,41,KONGWA,415,CHIWE,41521,CHIWE,MHONI
DODOMA,41,KONGWA,415,CHIWE,41521,CHIWE,CHAMAWE
DODOMA,41,KONGWA,415,CHIWE,41521,CHIWE,MAINDI
DODOMA,41,KONGWA,415,CHIWE,41521,CHIWE,BWAWANI
DODOMA,41,KONGWA,415,CHIWE,41521,VIHINGO,UMASAINI
DODOMA,41,KONGWA,415,CHIWE,41521,VIHINGO,CHAMAWE
DODOMA,41,KONGWA,415,CHIWE,41521,VIHINGO,MAGOMENI
DODOMA,41,KONGWA,415,CHIWE,41521,VIHINGO,MANYATA
DODOMA,41,KONGWA,415,CHIWE,41521,MOLETI,MAPULO
DODOMA,41,KONGWA,415,CHIWE,41521,MOLETI,SEGA
DODOMA,41,KONGWA,415,CHIWE,41521,MOLETI,CHALANGWE
DODOMA,41,KONGWA,415,CHIWE,41521,MOLETI,VISUMI
DODOMA,41,KONGWA,415,CHIWE,41521,LENGAJI,MASUGULU
DODOMA,41,KONGWA,415,CHIWE,41521,LENGAJI,LENGAJI
DODOMA,41,KONGWA,415,CHIWE,41521,LENGAJI,CHANG'OMBE
DODOMA,41,KONGWA,415,CHIWE,41521,LENGAJI,IKULU
DODOMA,41,KONGWA,415,NGOMAI,41522,MANYATA,CHANG'OMBE  A
DODOMA,41,KONGWA,415,NGOMAI,41522,MANYATA,CHANG'OMBE  B
DODOMA,41,KONGWA,415,NGOMAI,41522,MANYATA,MCHIKICHI
DODOMA,41,KONGWA,415,NGOMAI,41522,NGOMAI,NGOMAI
DODOMA,41,KONGWA,415,NGOMAI,41522,NGOMAI,KAWAWA
DODOMA,41,KONGWA,415,NGOMAI,41522,NGOMAI,JUHUDI
DODOMA,41,KONGWA,415,NGOMAI,41522,SAIGONI,SAIGONI
DODOMA,41,KONGWA,415,NGOMAI,41522,SAIGONI,KILIMANI
DODOMA,41,KONGWA,415,NGOMAI,41522,CHILANJILINZI,CHILANJILINZI
DODOMA,41,KONGWA,415,NGOMAI,41522,CHILANJILINZI,VINOLO
DODOMA,41,MPWAPWA,416,MPWAPWA MJINI,41601,CHILANJILINZI,MPWAPWA MJINI
DODOMA,41,MPWAPWA,416,MPWAPWA MJINI,41601,CHILANJILINZI,MAJENGO
DODOMA,41,MPWAPWA,416,MPWAPWA MJINI,41601,CHILANJILINZI,KIKOMBO
DODOMA,41,MPWAPWA,416,MPWAPWA MJINI,41601,CHILANJILINZI,KOTTA
DODOMA,41,MPWAPWA,416,MPWAPWA MJINI,41601,CHILANJILINZI,NHC (NATIONAL HOUSE)
DODOMA,41,MPWAPWA,416,MPWAPWA MJINI,41601,CHILANJILINZI,NG'AMBO
DODOMA,41,MPWAPWA,416,MPWAPWA MJINI,41601,CHILANJILINZI,IGOVU
DODOMA,41,MPWAPWA,416,MPWAPWA MJINI,41601,CHILANJILINZI,UBENANI
DODOMA,41,MPWAPWA,416,MPWAPWA MJINI,41601,CHILANJILINZI,MIKOROSHONI
DODOMA,41,MPWAPWA,416,MPWAPWA MJINI,41601,CHILANJILINZI,MWANAKIANGA KUSINI
DODOMA,41,MPWAPWA,416,MPWAPWA MJINI,41601,CHILANJILINZI,MWANAKIANGA KATI
DODOMA,41,MPWAPWA,416,MPWAPWA MJINI,41601,CHILANJILINZI,MJI MPYA
DODOMA,41,MPWAPWA,416,MPWAPWA MJINI,41601,CHILANJILINZI,ILOLO
DODOMA,41,MPWAPWA,416,MPWAPWA MJINI,41601,CHILANJILINZI,MBUYUNI
DODOMA,41,MPWAPWA,416,MPWAPWA MJINI,41601,CHILANJILINZI,MAPINDUZI
DODOMA,41,MPWAPWA,416,MPWAPWA MJINI,41601,CHILANJILINZI,IBULILA
DODOMA,41,MPWAPWA,416,MPWAPWA MJINI,41601,CHILANJILINZI,MAKWEJA
DODOMA,41,MPWAPWA,416,MPWAPWA MJINI,41601,CHILANJILINZI,KWAMDIANGA
DODOMA,41,MPWAPWA,416,MAZAE,41602,MAZAE,MAZAE KATI
DODOMA,41,MPWAPWA,416,MAZAE,41602,MAZAE,CHAMNYE
DODOMA,41,MPWAPWA,416,MAZAE,41602,MAZAE,"VISELE ""A"""
DODOMA,41,MPWAPWA,416,MAZAE,41602,MAZAE,"VISELE ""B"""
DODOMA,41,MPWAPWA,416,MAZAE,41602,MAZAE,MINYINGA
DODOMA,41,MPWAPWA,416,MAZAE,41602,IDILO,IKULU
DODOMA,41,MPWAPWA,416,MAZAE,41602,IDILO,MINYINGA
DODOMA,41,MPWAPWA,416,MAZAE,41602,IDILO,MCHEULA
DODOMA,41,MPWAPWA,416,MAZAE,41602,IDILO,CHAMHAWI
DODOMA,41,MPWAPWA,416,MAZAE,41602,KISOKWE,SOSOLEKA
DODOMA,41,MPWAPWA,416,MAZAE,41602,KISOKWE,IKULU
DODOMA,41,MPWAPWA,416,MAZAE,41602,KISOKWE,CHANG'OMBE
DODOMA,41,MPWAPWA,416,MAZAE,41602,KISOKWE,NHINYILA
DODOMA,41,MPWAPWA,416,MAZAE,41602,KISOKWE,MISUNGWI
DODOMA,41,MPWAPWA,416,MAZAE,41602,KISOKWE,SALANDA
DODOMA,41,MPWAPWA,416,MAZAE,41602,KISOKWE,UKAGULUNI
DODOMA,41,MPWAPWA,416,MAZAE,41602,KISOKWE,BWAGALA
DODOMA,41,MPWAPWA,416,VING'HAWE,41603,VING'HAWE,HAZINA
DODOMA,41,MPWAPWA,416,VING'HAWE,41603,VING'HAWE,MKWATANI
DODOMA,41,MPWAPWA,416,VING'HAWE,41603,VING'HAWE,CHINANGALI
DODOMA,41,MPWAPWA,416,VING'HAWE,41603,VING'HAWE,NAMBA 30
DODOMA,41,MPWAPWA,416,VING'HAWE,41603,VING'HAWE,KILELENI
DODOMA,41,MPWAPWA,416,VING'HAWE,41603,VING'HAWE,MABALANGU
DODOMA,41,MPWAPWA,416,VING'HAWE,41603,VING'HAWE,CHINYIKA
DODOMA,41,MPWAPWA,416,VING'HAWE,41603,VING'HAWE,IHALA
DODOMA,41,MPWAPWA,416,VING'HAWE,41603,VING'HAWE,BEHELO
DODOMA,41,MPWAPWA,416,VING'HAWE,41603,VING'HAWE,SOKONI
DODOMA,41,MPWAPWA,416,VING'HAWE,41603,ISING'HU,"ISINGHU ""A"""
DODOMA,41,MPWAPWA,416,VING'HAWE,41603,ISING'HU,"ISINGHU ""B"""
DODOMA,41,MPWAPWA,416,VING'HAWE,41603,ISING'HU,MBUYUNI
DODOMA,41,MPWAPWA,416,VING'HAWE,41603,ISING'HU,KWAMSHANGOO
DODOMA,41,MPWAPWA,416,VING'HAWE,41603,ISING'HU,ILOLO KATI
DODOMA,41,MPWAPWA,416,VING'HAWE,41603,MANG'HANGU,KISALAWE
DODOMA,41,MPWAPWA,416,VING'HAWE,41603,MANG'HANGU,KAWAWA
DODOMA,41,MPWAPWA,416,VING'HAWE,41603,MANG'HANGU,"CHANG'OMBE ""A"""
DODOMA,41,MPWAPWA,416,VING'HAWE,41603,MANG'HANGU,"CHANG'OMBE ""B"""
DODOMA,41,MPWAPWA,416,GULWE,41604,GULWE,KILIMANI
DODOMA,41,MPWAPWA,416,GULWE,41604,GULWE,MAJENGO
DODOMA,41,MPWAPWA,416,GULWE,41604,GULWE,GENGETISA
DODOMA,41,MPWAPWA,416,GULWE,41604,GULWE,NG'AMBO
DODOMA,41,MPWAPWA,416,GULWE,41604,GULWE,CHAMHIMBI
DODOMA,41,MPWAPWA,416,GULWE,41604,GULWE,KIMELA
DODOMA,41,MPWAPWA,416,GULWE,41604,GULWE,PANDAMBILI
DODOMA,41,MPWAPWA,416,GULWE,41604,IYOMA,MAGOBEKO
DODOMA,41,MPWAPWA,416,GULWE,41604,IYOMA,CHANG'OMBE
DODOMA,41,MPWAPWA,416,GULWE,41604,IYOMA,CHAMSIMBE
DODOMA,41,MPWAPWA,416,GULWE,41604,IYOMA,MISSION
DODOMA,41,MPWAPWA,416,GULWE,41604,IYOMA,UGOGONI
DODOMA,41,MPWAPWA,416,GULWE,41604,CHISEYU,CHIZILANHEMO
DODOMA,41,MPWAPWA,416,GULWE,41604,CHISEYU,"CHAMPELA ""A"""
DODOMA,41,MPWAPWA,416,GULWE,41604,CHISEYU,"CHAMPELA ""B"""
DODOMA,41,MPWAPWA,416,GULWE,41604,CHISEYU,"MUUNGANO ""A"""
DODOMA,41,MPWAPWA,416,GULWE,41604,CHISEYU,"MUUNGANO ""B"""
DODOMA,41,MPWAPWA,416,KIMAGAI,41605,KIMAGAI,MINANGALI
DODOMA,41,MPWAPWA,416,KIMAGAI,41605,KIMAGAI,KIDWENYWA
DODOMA,41,MPWAPWA,416,KIMAGAI,41605,KIMAGAI,KIBAONI
DODOMA,41,MPWAPWA,416,KIMAGAI,41605,KIMAGAI,KITUONI
DODOMA,41,MPWAPWA,416,KIMAGAI,41605,KIMAGAI,CHANG'OMBE
DODOMA,41,MPWAPWA,416,KIMAGAI,41605,INZOMVU,ISUZAJE
DODOMA,41,MPWAPWA,416,KIMAGAI,41605,INZOMVU,NINDI
DODOMA,41,MPWAPWA,416,KIMAGAI,41605,INZOMVU,"CHANG'OMBE ""A"""
DODOMA,41,MPWAPWA,416,KIMAGAI,41605,INZOMVU,"CHANG'OMBE ""B"""
DODOMA,41,MPWAPWA,416,KIMAGAI,41605,INZOMVU,KICHANGANI
DODOMA,41,MPWAPWA,416,KIMAGAI,41605,INZOMVU,ILOLO
DODOMA,41,MPWAPWA,416,KIMAGAI,41605,INZOMVU,MAMBWEMATITU
DODOMA,41,MPWAPWA,416,KIMAGAI,41605,INZOMVU,SHULENI
DODOMA,41,MPWAPWA,416,BEREGE,41606,BEREGE,"CHISALE ""A"""
DODOMA,41,MPWAPWA,416,BEREGE,41606,BEREGE,"CHISALE ""B"""
DODOMA,41,MPWAPWA,416,BEREGE,41606,BEREGE,VINORO
DODOMA,41,MPWAPWA,416,BEREGE,41606,BEREGE,MAKWEME
DODOMA,41,MPWAPWA,416,BEREGE,41606,BEREGE,SELEZI
DODOMA,41,MPWAPWA,416,BEREGE,41606,CHIMANZA,MAHUBUHUBU
DODOMA,41,MPWAPWA,416,BEREGE,41606,CHIMANZA,MANGWE
DODOMA,41,MPWAPWA,416,BEREGE,41606,MZASE,MAZENGO
DODOMA,41,MPWAPWA,416,BEREGE,41606,MZASE,SONGAMBELE
DODOMA,41,MPWAPWA,416,BEREGE,41606,MZASE,CHIZINGA
DODOMA,41,MPWAPWA,416,BEREGE,41606,MZASE,CHAMWINO
DODOMA,41,MPWAPWA,416,BEREGE,41606,MZASE,CHISANGA
DODOMA,41,MPWAPWA,416,CHUNYU,41607,CHUNYU,"NGH'ONGWA ""A"""
DODOMA,41,MPWAPWA,416,CHUNYU,41607,CHUNYU,"NGH'ONGWA ""B"""
DODOMA,41,MPWAPWA,416,CHUNYU,41607,CHUNYU,MAKULU
DODOMA,41,MPWAPWA,416,CHUNYU,41607,CHUNYU,"CHALANGU ""A"""
DODOMA,41,MPWAPWA,416,CHUNYU,41607,CHUNYU,"CHALANGU ""B"""
DODOMA,41,MPWAPWA,416,CHUNYU,41607,CHUNYU,CHANG'OMBE
DODOMA,41,MPWAPWA,416,CHUNYU,41607,CHUNYU,IKULU
DODOMA,41,MPWAPWA,416,CHUNYU,41607,CHUNYU,MTAKUJA
DODOMA,41,MPWAPWA,416,CHUNYU,41607,CHUNYU,UZUNGUNI
DODOMA,41,MPWAPWA,416,CHUNYU,41607,MSAGALI,IRINGO
DODOMA,41,MPWAPWA,416,CHUNYU,41607,MSAGALI,SIMBAMTOTO
DODOMA,41,MPWAPWA,416,CHUNYU,41607,MSAGALI,KALOLENI
DODOMA,41,MPWAPWA,416,CHUNYU,41607,MSAGALI,ILOLO
DODOMA,41,MPWAPWA,416,CHUNYU,41607,MSAGALI,SONGAMBELE
DODOMA,41,MPWAPWA,416,CHUNYU,41607,PANDAMBILI,VIZAGA
DODOMA,41,MPWAPWA,416,CHUNYU,41607,PANDAMBILI,MAJENGO
DODOMA,41,MPWAPWA,416,CHUNYU,41607,PANDAMBILI,CHITULWA
DODOMA,41,MPWAPWA,416,CHUNYU,41607,PANDAMBILI,MLIMANI
DODOMA,41,MPWAPWA,416,CHUNYU,41607,DARAJANI,CHAMBULU
DODOMA,41,MPWAPWA,416,CHUNYU,41607,DARAJANI,DARAJANI
DODOMA,41,MPWAPWA,416,CHUNYU,41607,DARAJANI,LUZUMANI
DODOMA,41,MPWAPWA,416,CHUNYU,41607,DARAJANI,MANZILANZI
DODOMA,41,MPWAPWA,416,CHUNYU,41607,DARAJANI,LAISANGA
DODOMA,41,MPWAPWA,416,CHUNYU,41607,DARAJANI,MAJENGO MAPYA
DODOMA,41,MPWAPWA,416,CHUNYU,41607,DARAJANI,MAFICHILO
DODOMA,41,MPWAPWA,416,NGHAMBI,41608,NG'HAMBI,POZAMOYO
DODOMA,41,MPWAPWA,416,NGHAMBI,41608,NG'HAMBI,MGAE
DODOMA,41,MPWAPWA,416,NGHAMBI,41608,NG'HAMBI,MVAMIO
DODOMA,41,MPWAPWA,416,NGHAMBI,41608,NG'HAMBI,KAZANATI
DODOMA,41,MPWAPWA,416,NGHAMBI,41608,NG'HAMBI,MISSION
DODOMA,41,MPWAPWA,416,NGHAMBI,41608,NG'HAMBI,UPENDO
DODOMA,41,MPWAPWA,416,NGHAMBI,41608,MBUGANI,MBUNGANI
DODOMA,41,MPWAPWA,416,NGHAMBI,41608,MBUGANI,MGOMWA
DODOMA,41,MPWAPWA,416,NGHAMBI,41608,MBUGANI,ILOLO
DODOMA,41,MPWAPWA,416,NGHAMBI,41608,MBUGANI,NGUNGU
DODOMA,41,MPWAPWA,416,NGHAMBI,41608,MBUGANI,MPONDI
DODOMA,41,MPWAPWA,416,NGHAMBI,41608,MBUGANI,CHIMALIGO
DODOMA,41,MPWAPWA,416,NGHAMBI,41608,MBUGANI,AZIMIO
DODOMA,41,MPWAPWA,416,NGHAMBI,41608,KAZANIA,KAWAWA
DODOMA,41,MPWAPWA,416,NGHAMBI,41608,KAZANIA,KISIMANI
DODOMA,41,MPWAPWA,416,NGHAMBI,41608,KAZANIA,KARUME
DODOMA,41,MPWAPWA,416,NGHAMBI,41608,KAZANIA,CHANG'OMBE'' B''
DODOMA,41,MPWAPWA,416,NGHAMBI,41608,KAZANIA,MUUNGANO
DODOMA,41,MPWAPWA,416,NGHAMBI,41608,KAZANIA,MAJENGO
DODOMA,41,MPWAPWA,416,NGHAMBI,41608,KIEGEA,BONDENI
DODOMA,41,MPWAPWA,416,NGHAMBI,41608,KIEGEA,SHULENI
DODOMA,41,MPWAPWA,416,NGHAMBI,41608,KIEGEA,BUTIAMA
DODOMA,41,MPWAPWA,416,NGHAMBI,41608,KIEGEA,CHANG'OMBE 'A''
DODOMA,41,MPWAPWA,416,LUPETA,41609,LUPETA,MDAWINI
DODOMA,41,MPWAPWA,416,LUPETA,41609,LUPETA,LUPETA
DODOMA,41,MPWAPWA,416,LUPETA,41609,LUPETA,CHIBWECHANGULA
DODOMA,41,MPWAPWA,416,LUPETA,41609,LUPETA,CHANG'OMBE
DODOMA,41,MPWAPWA,416,LUPETA,41609,MAKUTUPA,IKULU
DODOMA,41,MPWAPWA,416,LUPETA,41609,MAKUTUPA,CHANG'OMBE
DODOMA,41,MPWAPWA,416,LUPETA,41609,MAKUTUPA,MAZAZA
DODOMA,41,MPWAPWA,416,LUPETA,41609,MAKUTUPA,MWANJIRI
DODOMA,41,MPWAPWA,416,LUPETA,41609,BUMILA,BUMILA KATI
DODOMA,41,MPWAPWA,416,LUPETA,41609,BUMILA,CHANG'OMBE
DODOMA,41,MPWAPWA,416,LUPETA,41609,BUMILA,UBENANI
DODOMA,41,MPWAPWA,416,LUPETA,41609,BUMILA,CHIHEMBE
DODOMA,41,MPWAPWA,416,CHITEMO,41610,CHITEMO,CHITEMO KATI
DODOMA,41,MPWAPWA,416,CHITEMO,41610,CHITEMO,MISHENI
DODOMA,41,MPWAPWA,416,CHITEMO,41610,CHITEMO,MTAKUJA JUU
DODOMA,41,MPWAPWA,416,CHITEMO,41610,CHITEMO,MTAKUJA CHINI
DODOMA,41,MPWAPWA,416,CHITEMO,41610,CHITEMO,LEGEZA MWENDO
DODOMA,41,MPWAPWA,416,CHITEMO,41610,CHITEMO,NHYINILA
DODOMA,41,MPWAPWA,416,CHITEMO,41610,CHITEMO,NZEBE
DODOMA,41,MPWAPWA,416,CHITEMO,41610,CHITEMO,ISANGH'A
DODOMA,41,MPWAPWA,416,CHITEMO,41610,NGALAMILO,NGALAMILO
DODOMA,41,MPWAPWA,416,CHITEMO,41610,NGALAMILO,MPONDI
DODOMA,41,MPWAPWA,416,CHITEMO,41610,NGALAMILO,NGHUDUKU
DODOMA,41,MPWAPWA,416,CHITEMO,41610,MKANANA,IKULU
DODOMA,41,MPWAPWA,416,CHITEMO,41610,MKANANA,CHAMWINO
DODOMA,41,MPWAPWA,416,CHITEMO,41610,MKANANA,MTAKUJA
DODOMA,41,MPWAPWA,416,CHITEMO,41610,MKANANA,MANDAMA
DODOMA,41,MPWAPWA,416,CHITEMO,41610,CHIBWEGERE,MUUNGANO
DODOMA,41,MPWAPWA,416,CHITEMO,41610,CHIBWEGERE,ISANG'HA
DODOMA,41,MPWAPWA,416,CHITEMO,41610,CHIBWEGERE,MAKAZIMAPYA
DODOMA,41,MPWAPWA,416,CHITEMO,41610,CHIBWEGERE,CHIGUKWE
DODOMA,41,MPWAPWA,416,CHITEMO,41610,CHIBWEGERE,KIBWEGERE
DODOMA,41,MPWAPWA,416,WOTTA,41611,MWANAWOTA,MAGUNGA
DODOMA,41,MPWAPWA,416,WOTTA,41611,MWANAWOTA,UWANJA WA NDEGE
DODOMA,41,MPWAPWA,416,WOTTA,41611,MWANAWOTA,MUANDA
DODOMA,41,MPWAPWA,416,WOTTA,41611,MWANAWOTA,MAJENGO MAPYA
DODOMA,41,MPWAPWA,416,WOTTA,41611,MWANAWOTA,IHANZA
DODOMA,41,MPWAPWA,416,WOTTA,41611,MWANAWOTA,MATONGA
DODOMA,41,MPWAPWA,416,WOTTA,41611,MWANAWOTA,MBANDE
DODOMA,41,MPWAPWA,416,WOTTA,41611,MWANAWOTA,MTALENJA
DODOMA,41,MPWAPWA,416,WOTTA,41611,MWANAWOTA,ISASAMAMBO
DODOMA,41,MPWAPWA,416,WOTTA,41611,MLUNGA,SHULENI
DODOMA,41,MPWAPWA,416,WOTTA,41611,MLUNGA,NGUZULE
DODOMA,41,MPWAPWA,416,WOTTA,41611,MLUNGA,CHINANGALI
DODOMA,41,MPWAPWA,416,WOTTA,41611,MLUNGA,HALALIZA
DODOMA,41,MPWAPWA,416,WOTTA,41611,MLUNGA,KILIMAHEWA
DODOMA,41,MPWAPWA,416,WOTTA,41611,MLUNGA,MTAKUJA
DODOMA,41,MPWAPWA,416,KINGITI,41612,KINGITI,SHULENI
DODOMA,41,MPWAPWA,416,KINGITI,41612,KINGITI,ILOLO
DODOMA,41,MPWAPWA,416,KINGITI,41612,KINGITI,IPONDELO
DODOMA,41,MPWAPWA,416,KINGITI,41612,KINGITI,ITUMBI
DODOMA,41,MPWAPWA,416,KINGITI,41612,KINGITI,LUHAMA
DODOMA,41,MPWAPWA,416,KINGITI,41612,KINGITI,MCHINYINHO
DODOMA,41,MPWAPWA,416,KINGITI,41612,LUKOLE,KATI
DODOMA,41,MPWAPWA,416,KINGITI,41612,LUKOLE,ZAHANATI
DODOMA,41,MPWAPWA,416,KINGITI,41612,LUKOLE,LUSIMBWE
DODOMA,41,MPWAPWA,416,KINGITI,41612,LUKOLE,SHULENI
DODOMA,41,MPWAPWA,416,KINGITI,41612,LUKOLE,MWILOWE
DODOMA,41,MPWAPWA,416,KINGITI,41612,LUKOLE,MAMAYANGU
DODOMA,41,MPWAPWA,416,KINGITI,41612,LUKOLE,MWONDO
DODOMA,41,MPWAPWA,416,KINGITI,41612,LUKOLE,MJEGWA
DODOMA,41,MPWAPWA,416,KIBAKWE,41613,KIBAKWE,MJINI JUU
DODOMA,41,MPWAPWA,416,KIBAKWE,41613,KIBAKWE,MJINI CHINI
DODOMA,41,MPWAPWA,416,KIBAKWE,41613,KIBAKWE,IKONGOLA
DODOMA,41,MPWAPWA,416,KIBAKWE,41613,KIBAKWE,KIKULUNGE
DODOMA,41,MPWAPWA,416,KIBAKWE,41613,KIBAKWE,IDUNDA
DODOMA,41,MPWAPWA,416,KIBAKWE,41613,CHAMTUMILE,IPERA
DODOMA,41,MPWAPWA,416,KIBAKWE,41613,CHAMTUMILE,MBUYAHELA
DODOMA,41,MPWAPWA,416,KIBAKWE,41613,CHAMTUMILE,CHIDODO
DODOMA,41,MPWAPWA,416,KIBAKWE,41613,CHAMTUMILE,CHAMTUMILE
DODOMA,41,MPWAPWA,416,KIBAKWE,41613,CHAMTUMILE,CHILENGA
DODOMA,41,MPWAPWA,416,KIBAKWE,41613,CHAMTUMILE,CHIDUMULE
DODOMA,41,MPWAPWA,416,KIBAKWE,41613,IYENGE,IPERA
DODOMA,41,MPWAPWA,416,KIBAKWE,41613,IYENGE,MTAKUJA
DODOMA,41,MPWAPWA,416,KIBAKWE,41613,IYENGE,MAJENGO
DODOMA,41,MPWAPWA,416,KIBAKWE,41613,IYENGE,"MABATINI ""A"""
DODOMA,41,MPWAPWA,416,KIBAKWE,41613,IYENGE,"MABATINI ""B"""
DODOMA,41,MPWAPWA,416,KIBAKWE,41613,IYENGE,"MASENA  ""A"""
DODOMA,41,MPWAPWA,416,KIBAKWE,41613,IYENGE,"MASENA  ""B"""
DODOMA,41,MPWAPWA,416,KIBAKWE,41613,IYENGE,MASWALA
DODOMA,41,MPWAPWA,416,GODEGODE,41614,GODEGODE,CHANG'OMBE
DODOMA,41,MPWAPWA,416,GODEGODE,41614,GODEGODE,TAMBUKARELI
DODOMA,41,MPWAPWA,416,GODEGODE,41614,GODEGODE,CHINYALANYALA
DODOMA,41,MPWAPWA,416,GODEGODE,41614,GODEGODE,"CHAMWINO ""A"""
DODOMA,41,MPWAPWA,416,GODEGODE,41614,GODEGODE,"CHAMWINO ""B"""
DODOMA,41,MPWAPWA,416,GODEGODE,41614,MGOMA,MGOMA IKILU
DODOMA,41,MPWAPWA,416,GODEGODE,41614,MGOMA,MASWALA
DODOMA,41,MPWAPWA,416,GODEGODE,41614,MZOGOLE,VIBELEWELE
DODOMA,41,MPWAPWA,416,GODEGODE,41614,MZOGOLE,MBIGILI
DODOMA,41,MPWAPWA,416,GODEGODE,41614,KISISI,"KISISI ""A"""
DODOMA,41,MPWAPWA,416,GODEGODE,41614,KISISI,"KISISI ""B"""
DODOMA,41,MPWAPWA,416,GODEGODE,41614,KISISI,GENGE TANO
DODOMA,41,MPWAPWA,416,GODEGODE,41614,KISISI,IKULU
DODOMA,41,MPWAPWA,416,GODEGODE,41614,KISISI,UHURU
DODOMA,41,MPWAPWA,416,GODEGODE,41614,KISISI,AMANI
DODOMA,41,MPWAPWA,416,MATOMONDO,41615,MBORI,MAZAZA
DODOMA,41,MPWAPWA,416,MATOMONDO,41615,MBORI,KALOLENI A
DODOMA,41,MPWAPWA,416,MATOMONDO,41615,MBORI,KALOLENI B
DODOMA,41,MPWAPWA,416,MATOMONDO,41615,MBORI,IKULU
DODOMA,41,MPWAPWA,416,MATOMONDO,41615,MBORI,MSUNJILILE
DODOMA,41,MPWAPWA,416,MATOMONDO,41615,MBORI,MATEMBENI
DODOMA,41,MPWAPWA,416,MATOMONDO,41615,MBORI,MABWEMAZERU
DODOMA,41,MPWAPWA,416,MATOMONDO,41615,TAMBI,SHULENI
DODOMA,41,MPWAPWA,416,MATOMONDO,41615,TAMBI,MBUYUNI
DODOMA,41,MPWAPWA,416,MATOMONDO,41615,TAMBI,MAJENGO
DODOMA,41,MPWAPWA,416,MATOMONDO,41615,TAMBI,IGUNGA
DODOMA,41,MPWAPWA,416,MATOMONDO,41615,TAMBI,MHAGWE
DODOMA,41,MPWAPWA,416,MATOMONDO,41615,TAMBI,CHANG'OMBE
DODOMA,41,MPWAPWA,416,PWAGA,41616,PWAGA,MKURURA
DODOMA,41,MPWAPWA,416,PWAGA,41616,PWAGA,IKULU
DODOMA,41,MPWAPWA,416,PWAGA,41616,PWAGA,CHANG'OMBE
DODOMA,41,MPWAPWA,416,PWAGA,41616,PWAGA,TANKINI
DODOMA,41,MPWAPWA,416,PWAGA,41616,PWAGA,MADIZINI A
DODOMA,41,MPWAPWA,416,PWAGA,41616,PWAGA,MADIZINI B
DODOMA,41,MPWAPWA,416,PWAGA,41616,PWAGA,SHULENI
DODOMA,41,MPWAPWA,416,PWAGA,41616,PWAGA,NGHONJE
DODOMA,41,MPWAPWA,416,PWAGA,41616,PWAGA,SONGAMBELE
DODOMA,41,MPWAPWA,416,PWAGA,41616,MASWALA,MTAKUJA
DODOMA,41,MPWAPWA,416,PWAGA,41616,MASWALA,KIJIWENI
DODOMA,41,MPWAPWA,416,PWAGA,41616,MASWALA,ILOLO
DODOMA,41,MPWAPWA,416,PWAGA,41616,MASWALA,SHULENI
DODOMA,41,MPWAPWA,416,PWAGA,41616,MINGUWI,MAKOLE
DODOMA,41,MPWAPWA,416,PWAGA,41616,MINGUWI,IKULU
DODOMA,41,MPWAPWA,416,PWAGA,41616,MINGUWI,MTAKUJA
DODOMA,41,MPWAPWA,416,PWAGA,41616,MINGUWI,CHANG'OMBE
DODOMA,41,MPWAPWA,416,PWAGA,41616,IDAHO,CHANG'OMBE
DODOMA,41,MPWAPWA,416,PWAGA,41616,IDAHO,MURUA
DODOMA,41,MPWAPWA,416,PWAGA,41616,IDAHO,MTAKUJA
DODOMA,41,MPWAPWA,416,PWAGA,41616,IDAHO,SONGAMBELE
DODOMA,41,MPWAPWA,416,PWAGA,41616,ITENDE,MBUYUNI
DODOMA,41,MPWAPWA,416,PWAGA,41616,ITENDE,CHEMCHEM
DODOMA,41,MPWAPWA,416,PWAGA,41616,ITENDE,MAJENGO
DODOMA,41,MPWAPWA,416,LUMUMA,41617,KITATI,KIJIWENI
DODOMA,41,MPWAPWA,416,LUMUMA,41617,KITATI,KATI
DODOMA,41,MPWAPWA,416,LUMUMA,41617,KITATI,CHANG'OMBE
DODOMA,41,MPWAPWA,416,LUMUMA,41617,MAFENE,MTAKUJA
DODOMA,41,MPWAPWA,416,LUMUMA,41617,MAFENE,KIVUKONI
DODOMA,41,MPWAPWA,416,LUMUMA,41617,MAFENE,KATI
DODOMA,41,MPWAPWA,416,LUMUMA,41617,MAFENE,NJIA PANDA
DODOMA,41,MPWAPWA,416,LUMUMA,41617,MAFENE,MAFUTO
DODOMA,41,MPWAPWA,416,LUMUMA,41617,LUFUSI,SONGAMBELE
DODOMA,41,MPWAPWA,416,LUMUMA,41617,LUFUSI,MBUYUNI
DODOMA,41,MPWAPWA,416,LUMUMA,41617,LUFUSI,MTAKUJA
DODOMA,41,MPWAPWA,416,LUHUNDWA,41618,LUHUNDWA,ILOLO
DODOMA,41,MPWAPWA,416,LUHUNDWA,41618,LUHUNDWA,SELUKA
DODOMA,41,MPWAPWA,416,LUHUNDWA,41618,LUHUNDWA,KIBAHA
DODOMA,41,MPWAPWA,416,LUHUNDWA,41618,LUHUNDWA,MATUGUTU
DODOMA,41,MPWAPWA,416,LUHUNDWA,41618,MPWANILA,ISEGA
DODOMA,41,MPWAPWA,416,LUHUNDWA,41618,MPWANILA,MIEMBENI
DODOMA,41,MPWAPWA,416,LUHUNDWA,41618,MPWANILA,AMANI
DODOMA,41,MPWAPWA,416,LUHUNDWA,41618,MPWANILA,KIJIWENI
DODOMA,41,MPWAPWA,416,LUHUNDWA,41618,KIDENGE,"GALANI ""A"""
DODOMA,41,MPWAPWA,416,LUHUNDWA,41618,KIDENGE,"GALANI ""B"""
DODOMA,41,MPWAPWA,416,LUHUNDWA,41618,KIDENGE,SHULENI
DODOMA,41,MPWAPWA,416,LUHUNDWA,41618,KIDENGE,MAJENGO
DODOMA,41,MPWAPWA,416,LUHUNDWA,41618,KIDENGE,NENZI
DODOMA,41,MPWAPWA,416,LUHUNDWA,41618,IKUYU,MTAKUJA
DODOMA,41,MPWAPWA,416,LUHUNDWA,41618,IKUYU,SONGAMBELE
DODOMA,41,MPWAPWA,416,LUHUNDWA,41618,IKUYU,CHANG'OMBE
DODOMA,41,MPWAPWA,416,LUHUNDWA,41618,IKUYU,ITALULA
DODOMA,41,MPWAPWA,416,LUHUNDWA,41618,IKUYU,"KIZILANZALA  ""A"""
DODOMA,41,MPWAPWA,416,LUHUNDWA,41618,IKUYU,"KIZILANZALA  ""B"""
DODOMA,41,MPWAPWA,416,LUHUNDWA,41618,MUUNGANO,ISOMANYUMBA
DODOMA,41,MPWAPWA,416,LUHUNDWA,41618,MUUNGANO,NDETE
DODOMA,41,MPWAPWA,416,LUHUNDWA,41618,MUUNGANO,ILEMBULA
DODOMA,41,MPWAPWA,416,LUHUNDWA,41618,MUUNGANO,IHOGOLO A'
DODOMA,41,MPWAPWA,416,LUHUNDWA,41618,MUUNGANO,IHOGOLO B'
DODOMA,41,MPWAPWA,416,MLUNDUZI,41619,CHINYIKA,MBIJE
DODOMA,41,MPWAPWA,416,MLUNDUZI,41619,CHINYIKA,IGOLE
DODOMA,41,MPWAPWA,416,MLUNDUZI,41619,CHINYIKA,MAJENGO
DODOMA,41,MPWAPWA,416,MLUNDUZI,41619,MLUNDUZI,CHIJEDU
DODOMA,41,MPWAPWA,416,MLUNDUZI,41619,MLUNDUZI,CHIYUJILA
DODOMA,41,MPWAPWA,416,MLUNDUZI,41619,MLUNDUZI,MLUNDUZI
DODOMA,41,MPWAPWA,416,MLUNDUZI,41619,CHINYANGH'UKU,CHIFWAMBA
DODOMA,41,MPWAPWA,416,MLUNDUZI,41619,CHINYANGH'UKU,NG'AMBO
DODOMA,41,MPWAPWA,416,MLUNDUZI,41619,CHINYANGH'UKU,CHIDIDIMO
DODOMA,41,MPWAPWA,416,MLUNDUZI,41619,CHINYANGH'UKU,SONGAMBELE
DODOMA,41,MPWAPWA,416,MLUNDUZI,41619,CHINYANGH'UKU,MISHENI
DODOMA,41,MPWAPWA,416,MLUNDUZI,41619,CHINYANGH'UKU,MBUYAJILA
DODOMA,41,MPWAPWA,416,MLUNDUZI,41619,CHINYANGH'UKU,WINZA
DODOMA,41,MPWAPWA,416,MLUNDUZI,41619,CHINYANGH'UKU,MUUNGANO
DODOMA,41,MPWAPWA,416,MLUNDUZI,41619,CHALUDEWA,CHANG'OMBE
DODOMA,41,MPWAPWA,416,MLUNDUZI,41619,CHALUDEWA,IKULU
DODOMA,41,MPWAPWA,416,MLUNDUZI,41619,CHALUDEWA,LIHOMELO
DODOMA,41,MPWAPWA,416,MLUNDUZI,41619,CHALUDEWA,VINOLO
DODOMA,41,MPWAPWA,416,MLUNDUZI,41619,CHALUDEWA,CHIHUNDICHE
DODOMA,41,MPWAPWA,416,MIMA,41620,MIMA,MAKULU
DODOMA,41,MPWAPWA,416,MIMA,41620,MIMA,MUUNGANO
DODOMA,41,MPWAPWA,416,MIMA,41620,MIMA,MATEMELO
DODOMA,41,MPWAPWA,416,MIMA,41620,MIMA,NYERERE
DODOMA,41,MPWAPWA,416,MIMA,41620,MIMA,ILEWELO
DODOMA,41,MPWAPWA,416,MIMA,41620,MIMA,MANDELA
DODOMA,41,MPWAPWA,416,MIMA,41620,MIMA,MAKAWILA
DODOMA,41,MPWAPWA,416,MIMA,41620,SAZIMA,ILOLO
DODOMA,41,MPWAPWA,416,MIMA,41620,SAZIMA,MABATINI
DODOMA,41,MPWAPWA,416,MIMA,41620,SAZIMA,MGOGO
DODOMA,41,MPWAPWA,416,MIMA,41620,SAZIMA,CHITUMBULA
DODOMA,41,MPWAPWA,416,MIMA,41620,SAZIMA,MKALAMA
DODOMA,41,MPWAPWA,416,MIMA,41620,SAZIMA,MAJENGO
DODOMA,41,MPWAPWA,416,MIMA,41620,SAZIMA,MAKUTUPA
DODOMA,41,MPWAPWA,416,MIMA,41620,SAZIMA,CHIHANGA
DODOMA,41,MPWAPWA,416,MIMA,41620,SAZIMA,CHIKOLA
DODOMA,41,MPWAPWA,416,MIMA,41620,SAZIMA,MSECHE
DODOMA,41,MPWAPWA,416,MIMA,41620,IGOJI I,SONGAMBELE
DODOMA,41,MPWAPWA,416,MIMA,41620,IGOJI I,MAKULU
DODOMA,41,MPWAPWA,416,MIMA,41620,IGOJI I,NYERERE
DODOMA,41,MPWAPWA,416,MIMA,41620,IGOJI I,MSOWELO
DODOMA,41,MPWAPWA,416,MIMA,41620,IGOJI I,SIMAI
DODOMA,41,MPWAPWA,416,RUDI,41621,CHILENDU,MNADANI
DODOMA,41,MPWAPWA,416,RUDI,41621,CHILENDU,UWANJA WA NDEGE
DODOMA,41,MPWAPWA,416,RUDI,41621,CHILENDU,DMP ANGLIKANA
DODOMA,41,MPWAPWA,416,RUDI,41621,CHILENDU,CHILALA
DODOMA,41,MPWAPWA,416,RUDI,41621,CHILENDU,CHIDAMA
DODOMA,41,MPWAPWA,416,RUDI,41621,CHILENDU,MANYEMBA
DODOMA,41,MPWAPWA,416,RUDI,41621,IGUNGA,"IGUNGA ""A"""
DODOMA,41,MPWAPWA,416,RUDI,41621,IGUNGA,"IGUNGA ""B"""
DODOMA,41,MPWAPWA,416,RUDI,41621,IGUNGA,"MADONGA ""A"""
DODOMA,41,MPWAPWA,416,RUDI,41621,IGUNGA,"MADONGA ""B"""
DODOMA,41,MPWAPWA,416,RUDI,41621,IGUNGA,NGHAMBALA
DODOMA,41,MPWAPWA,416,RUDI,41621,MTAMBA,SHULENI
DODOMA,41,MPWAPWA,416,RUDI,41621,MTAMBA,MSAMBACHAKA
DODOMA,41,MPWAPWA,416,RUDI,41621,MTAMBA,MAWENI
DODOMA,41,MPWAPWA,416,RUDI,41621,MTAMBA,CHANGAMGANGA
DODOMA,41,MPWAPWA,416,RUDI,41621,MTAMBA,ABDUL JUMBE
DODOMA,41,MPWAPWA,416,RUDI,41621,SINGONHALI,NYALUMBA
DODOMA,41,MPWAPWA,416,RUDI,41621,SINGONHALI,KICHANGANI
DODOMA,41,MPWAPWA,416,RUDI,41621,SINGONHALI,MISSION
DODOMA,41,MPWAPWA,416,RUDI,41621,SINGONHALI,MAPINDUZI
DODOMA,41,MPWAPWA,416,RUDI,41621,SINGONHALI,MTAKUJA
DODOMA,41,MPWAPWA,416,RUDI,41621,SINGONHALI,MGANHI
DODOMA,41,MPWAPWA,416,RUDI,41621,SINGONHALI,MKOFA
DODOMA,41,MPWAPWA,416,RUDI,41621,SINGONHALI,KIBORIANI
DODOMA,41,MPWAPWA,416,RUDI,41621,SINGONHALI,MSELE
DODOMA,41,MPWAPWA,416,RUDI,41621,IRAMBA,MUWONDO
DODOMA,41,MPWAPWA,416,RUDI,41621,IRAMBA,SHULENI
DODOMA,41,MPWAPWA,416,RUDI,41621,IRAMBA,CHAKATI
DODOMA,41,MPWAPWA,416,RUDI,41621,IRAMBA,MSELE
DODOMA,41,MPWAPWA,416,RUDI,41621,IRAMBA,CHAMADEJE
DODOMA,41,MPWAPWA,416,MASSA,41622,CHOGOLA,MASSA
DODOMA,41,MPWAPWA,416,MASSA,41622,CHOGOLA,IKUKA
DODOMA,41,MPWAPWA,416,MASSA,41622,CHOGOLA,MADONG'HA
DODOMA,41,MPWAPWA,416,MASSA,41622,CHOGOLA,LUDEGE
DODOMA,41,MPWAPWA,416,MASSA,41622,CHOGOLA,TEMBELIMONGA
DODOMA,41,MPWAPWA,416,MASSA,41622,MAKOSE,ILOLO CHINI
DODOMA,41,MPWAPWA,416,MASSA,41622,MAKOSE,LUTWINA
DODOMA,41,MPWAPWA,416,MASSA,41622,MAKOSE,IGALULA
DODOMA,41,MPWAPWA,416,MASSA,41622,MAKOSE,ILOLO KATI
DODOMA,41,MPWAPWA,416,MASSA,41622,MKOLEKO,IGUNGA
DODOMA,41,MPWAPWA,416,MASSA,41622,MKOLEKO,MAJENGO
DODOMA,41,MPWAPWA,416,MASSA,41622,MKOLEKO,SANGASI
DODOMA,41,MPWAPWA,416,MASSA,41622,MKOLEKO,MABATINI
DODOMA,41,MPWAPWA,416,MASSA,41622,WINZA,"LUDEGE  ""A"""
DODOMA,41,MPWAPWA,416,MASSA,41622,WINZA,"LUDEGE  ""B"""
DODOMA,41,MPWAPWA,416,MASSA,41622,WINZA,"MWONDO  ""A"""
DODOMA,41,MPWAPWA,416,MASSA,41622,WINZA,"MWONDO  ""B"""
DODOMA,41,MPWAPWA,416,MASSA,41622,WINZA,CHAMAHOGOLA
DODOMA,41,MPWAPWA,416,MASSA,41622,WINZA,MLAMA
DODOMA,41,MPWAPWA,416,MASSA,41622,WINZA,UPONDA
DODOMA,41,MPWAPWA,416,MASSA,41622,NJIA PANDA,MAJENGO MAPYA
DODOMA,41,MPWAPWA,416,MASSA,41622,NJIA PANDA,ILULA
DODOMA,41,MPWAPWA,416,MASSA,41622,NJIA PANDA,SONGAMBELE
DODOMA,41,MPWAPWA,416,MASSA,41622,NJIA PANDA,MTAKUJA
DODOMA,41,MPWAPWA,416,MBUGA,41623,MBUGA,MAUA
DODOMA,41,MPWAPWA,416,MBUGA,41623,MBUGA,MAJENGO
DODOMA,41,MPWAPWA,416,MBUGA,41623,MBUGA,ITETEMA JUU
DODOMA,41,MPWAPWA,416,MBUGA,41623,MBUGA,MAFEMELA
DODOMA,41,MPWAPWA,416,MBUGA,41623,MBUGA,MAHANDASI
DODOMA,41,MPWAPWA,416,MBUGA,41623,MBUGA,MJI MPYA
DODOMA,41,MPWAPWA,416,MBUGA,41623,KIZI,IKULU
DODOMA,41,MPWAPWA,416,MBUGA,41623,KIZI,MSUFINI
DODOMA,41,MPWAPWA,416,MBUGA,41623,KIZI,IGEDE
DODOMA,41,MPWAPWA,416,MBUGA,41623,KIZI,CHANG'OMBE
DODOMA,41,MPWAPWA,416,MBUGA,41623,IGULUWI,SONGAMBELE
DODOMA,41,MPWAPWA,416,MBUGA,41623,IGULUWI,ITULAHUMBA
DODOMA,41,MPWAPWA,416,MBUGA,41623,IGULUWI,ISALASI
DODOMA,41,MPWAPWA,416,MBUGA,41623,IGULUWI,IWANGINYI
DODOMA,41,MPWAPWA,416,IPERA,41624,KINUSI,AIR PORT
DODOMA,41,MPWAPWA,416,IPERA,41624,KINUSI,VIKUNDI
DODOMA,41,MPWAPWA,416,IPERA,41624,KINUSI,IPERA
DODOMA,41,MPWAPWA,416,IPERA,41624,KINUSI,TOWN STAR
DODOMA,41,MPWAPWA,416,IPERA,41624,KINUSI,TANGINI
DODOMA,41,MPWAPWA,416,IPERA,41624,KINUSI,MAJENGO
DODOMA,41,MPWAPWA,416,IPERA,41624,KINUSI,MTAKUJA
DODOMA,41,MPWAPWA,416,IPERA,41624,KIKUYU,RWANDA
DODOMA,41,MPWAPWA,416,IPERA,41624,KIKUYU,MWINYI
DODOMA,41,MPWAPWA,416,IPERA,41624,KIKUYU,SOKOINE
DODOMA,41,MPWAPWA,416,IPERA,41624,KIKUYU,MKWAWA
DODOMA,41,MPWAPWA,416,IPERA,41624,KIKUYU,NYERERE
DODOMA,41,MPWAPWA,416,IPERA,41624,MSAGALI,IRINGO
DODOMA,41,MPWAPWA,416,IPERA,41624,MSAGALI,SIMBAMTOTO
DODOMA,41,MPWAPWA,416,IPERA,41624,MSAGALI,KALOLENI
DODOMA,41,MPWAPWA,416,IPERA,41624,MSAGALI,ILOLO
DODOMA,41,MPWAPWA,416,IPERA,41624,MSAGALI,LUZUMANI
DODOMA,41,MPWAPWA,416,IPERA,41624,MSAGALI,MAFICHILO
DODOMA,41,MPWAPWA,416,IPERA,41624,MSAGALI,SONGAMBELE
DODOMA,41,MPWAPWA,416,IPERA,41624,DARAJANI,CHAMBULU
DODOMA,41,MPWAPWA,416,IPERA,41624,DARAJANI,DARAJANI
DODOMA,41,MPWAPWA,416,IPERA,41624,DARAJANI,MANZILANZI
DODOMA,41,MPWAPWA,416,IPERA,41624,DARAJANI,LAISANGA
DODOMA,41,MPWAPWA,416,IPERA,41624,DARAJANI,MAJENGO MAPYA
DODOMA,41,MPWAPWA,416,IPERA,41624,DARAJANI,ISOLIWAYA  A
DODOMA,41,MPWAPWA,416,IPERA,41624,DARAJANI,ISOLIWAYA B
DODOMA,41,MPWAPWA,416,IWONDO,41625,IGOJI II,KAUNDA
DODOMA,41,MPWAPWA,416,IWONDO,41625,IGOJI II,MAPINDUZI
DODOMA,41,MPWAPWA,416,IWONDO,41625,IGOJI II,KAWAWA
DODOMA,41,MPWAPWA,416,IWONDO,41625,IGOJI II,MLOWA
DODOMA,41,MPWAPWA,416,IWONDO,41625,IGOJI II,"NYERERE ""A"""
DODOMA,41,MPWAPWA,416,IWONDO,41625,IGOJI II,LUMUMBA ''A''
DODOMA,41,MPWAPWA,416,IWONDO,41625,IGOJI II,LUMUMBA ''B''
DODOMA,41,MPWAPWA,416,IWONDO,41625,IGOJI II,"NYERERE ""B"""
DODOMA,41,MPWAPWA,416,IWONDO,41625,IGOJI II,SOKOINE
DODOMA,41,MPWAPWA,416,IWONDO,41625,IWONDO,MBUYUNI
DODOMA,41,MPWAPWA,416,IWONDO,41625,IWONDO,MJINI
DODOMA,41,MPWAPWA,416,IWONDO,41625,IWONDO,NGHAMBALA
DODOMA,41,MPWAPWA,416,IWONDO,41625,IWONDO,CHILANJILILO
DODOMA,41,MPWAPWA,416,IWONDO,41625,IWONDO,SONGOLA
DODOMA,41,MPWAPWA,416,IWONDO,41625,IWONDO,MUUNGANO
DODOMA,41,MPWAPWA,416,IWONDO,41625,IWONDO,BONDENI
DODOMA,41,MPWAPWA,416,IWONDO,41625,IWONDO,WANGAMA
DODOMA,41,MPWAPWA,416,IWONDO,41625,IWONDO,MLIMANI
DODOMA,41,MPWAPWA,416,IWONDO,41625,CHAMANDA,MATAE
DODOMA,41,MPWAPWA,416,IWONDO,41625,CHAMANDA,MAPINDUZI
DODOMA,41,MPWAPWA,416,IWONDO,41625,CHAMANDA,MADUKANI
DODOMA,41,MPWAPWA,416,IWONDO,41625,CHAMANDA,MUUNGANO
DODOMA,41,MPWAPWA,416,IWONDO,41625,CHAMANDA,MAKULU
DODOMA,41,MPWAPWA,416,IWONDO,41625,CHAMANDA,NYERERE
DODOMA,41,MPWAPWA,416,LUFU,41626,LUFU,ILALA
DODOMA,41,MPWAPWA,416,LUFU,41626,LUFU,SONGAMBELE
DODOMA,41,MPWAPWA,416,LUFU,41626,LUFU,ILEMBULA
DODOMA,41,MPWAPWA,416,LUFU,41626,LUFU,MAKETE
DODOMA,41,MPWAPWA,416,LUFU,41626,LUFU,MTAKUJA
DODOMA,41,MPWAPWA,416,LUFU,41626,LUFU,MKWAWA
DODOMA,41,MPWAPWA,416,LUFU,41626,MLIMO,WANGAMA
DODOMA,41,MPWAPWA,416,LUFU,41626,MLIMO,INYEKWA
DODOMA,41,MPWAPWA,416,LUFU,41626,MLIMO,NGUNGA
DODOMA,41,MPWAPWA,416,LUFU,41626,GOMUHUNGILE,IDILO
DODOMA,41,MPWAPWA,416,LUFU,41626,GOMUHUNGILE,MATONGORO
DODOMA,41,MPWAPWA,416,LUFU,41626,GOMUHUNGILE,IKULU
DODOMA,41,MPWAPWA,416,GALIGALI,41627,GALIGALI,IZUMBAWANU
DODOMA,41,MPWAPWA,416,GALIGALI,41627,GALIGALI,NGHULUHE
DODOMA,41,MPWAPWA,416,GALIGALI,41627,GALIGALI,IWANGINYI
DODOMA,41,MPWAPWA,416,GALIGALI,41627,GALIGALI,MLOWA
DODOMA,41,MPWAPWA,416,GALIGALI,41627,GALIGALI,MFWILO
DODOMA,41,MPWAPWA,416,GALIGALI,41627,GALIGALI,DIBULILO
DODOMA,41,MPWAPWA,416,GALIGALI,41627,GALIGALI,LUGOLOFU
DODOMA,41,MPWAPWA,416,GALIGALI,41627,MATONYA,IDETE
DODOMA,41,MPWAPWA,416,GALIGALI,41627,MATONYA,IHWA
DODOMA,41,MPWAPWA,416,GALIGALI,41627,MATONYA,KIHEKA
DODOMA,41,MPWAPWA,416,GALIGALI,41627,MATONYA,MGOLOLO
DODOMA,41,MPWAPWA,416,GALIGALI,41627,MATONYA,MNG'ANG'A
DODOMA,41,MPWAPWA,416,GALIGALI,41627,MATONYA,UGEWA
DODOMA,41,MPWAPWA,416,MALOLO,41628,MALOLO,MANZESE
DODOMA,41,MPWAPWA,416,MALOLO,41628,MALOLO,MSASANI
DODOMA,41,MPWAPWA,416,MALOLO,41628,MALOLO,DAR ES SALAAM
DODOMA,41,MPWAPWA,416,MALOLO,41628,MALOLO,KIHESA
DODOMA,41,MPWAPWA,416,MALOLO,41628,MALOLO,KIWINDI
DODOMA,41,MPWAPWA,416,MALOLO,41628,IDODOMA,NGONGOLO
DODOMA,41,MPWAPWA,416,MALOLO,41628,IDODOMA,MASENGELI
DODOMA,41,MPWAPWA,416,MALOLO,41628,IDODOMA,KICHANGANI
DODOMA,41,MPWAPWA,416,MALOLO,41628,IDODOMA,MJIMWEMA
DODOMA,41,MPWAPWA,416,MALOLO,41628,IDODOMA,UGANDA
DODOMA,41,MPWAPWA,416,MALOLO,41628,NZUGILO,LUFITA
DODOMA,41,MPWAPWA,416,MALOLO,41628,NZUGILO,NGALAMILO
DODOMA,41,MPWAPWA,416,MALOLO,41628,NZUGILO,KILANGALI
DODOMA,41,MPWAPWA,416,MALOLO,41628,NZUGILO,NYAMAMBA
DODOMA,41,MPWAPWA,416,MTERA,41629,KISIMA,IHALA
DODOMA,41,MPWAPWA,416,MTERA,41629,KISIMA,MTAWANI
DODOMA,41,MPWAPWA,416,MTERA,41629,MSANGAMBUYA,NGURUKA
DODOMA,41,MPWAPWA,416,MTERA,41629,MSANGAMBUYA,ILOLO
DODOMA,41,MPWAPWA,416,MTERA,41629,MSANGAMBUYA,MAJENGO
DODOMA,41,MPWAPWA,416,MTERA,41629,MTERA,JAMHURI
DODOMA,41,MPWAPWA,416,MTERA,41629,MTERA,UWANJA WA NDEGE
DODOMA,41,MPWAPWA,416,MTERA,41629,MTERA,"CHAMDUMBWI ""A"""
DODOMA,41,MPWAPWA,416,MTERA,41629,MTERA,"CHAMDUMBWI ""B"""
DODOMA,41,MPWAPWA,416,MTERA,41629,MTERA,CHINYIKA
DODOMA,41,MPWAPWA,416,MTERA,41629,MTERA,CHUNGU
DODOMA,41,MPWAPWA,416,MTERA,41629,MTERA,SHULENI
DODOMA,41,MPWAPWA,416,MTERA,41629,MTERA,NYERERE
DODOMA,41,MPWAPWA,416,MTERA,41629,CHIBWEGERE,MBOLIMBOLI
DODOMA,41,MPWAPWA,416,MTERA,41629,CHIBWEGERE,MAJIMAJI
DODOMA,41,MPWAPWA,416,MTERA,41629,CHIBWEGERE,SONGAMBELE
DODOMA,41,MPWAPWA,416,CHIPOGORO,41630,CHIPOGORO,AZIMIO
DODOMA,41,MPWAPWA,416,CHIPOGORO,41630,CHIPOGORO,JUHUDI
DODOMA,41,MPWAPWA,416,CHIPOGORO,41630,CHIPOGORO,MAENDELEO
DODOMA,41,MPWAPWA,416,CHIPOGORO,41630,CHIPOGORO,MKOMBOZI
DODOMA,41,MPWAPWA,416,CHIPOGORO,41630,CHIPOGORO,MUUNGANO
DODOMA,41,MPWAPWA,416,CHIPOGORO,41630,CHINOJE,JITEGEMEE
DODOMA,41,MPWAPWA,416,CHIPOGORO,41630,CHINOJE,UHURU
DODOMA,41,MPWAPWA,416,CHIPOGORO,41630,CHINOJE,AMANI
DODOMA,41,MPWAPWA,416,CHIPOGORO,41630,CHINOJE,CHAMAPELA
DODOMA,41,MPWAPWA,416,CHIPOGORO,41630,MUUNGANO,ITUNDU
DODOMA,41,MPWAPWA,416,CHIPOGORO,41630,MUUNGANO,MGULUKA
DODOMA,41,MPWAPWA,416,CHIPOGORO,41630,MUUNGANO,IYUHWA
DODOMA,41,MPWAPWA,416,CHIPOGORO,41630,WIYENZELE,MAJENGO
DODOMA,41,MPWAPWA,416,CHIPOGORO,41630,WIYENZELE,MPWADEKO
DODOMA,41,MPWAPWA,416,CHIPOGORO,41630,WIYENZELE,CHIGANDU
DODOMA,41,MPWAPWA,416,CHIPOGORO,41630,WIYENZELE,KIBAONI
DODOMA,41,MPWAPWA,416,CHIPOGORO,41630,WIYENZELE,MABEHO
DODOMA,41,MPWAPWA,416,CHIPOGORO,41630,CHAMSISILI A,"CHAMSISILI ""B"""
DODOMA,41,MPWAPWA,416,CHIPOGORO,41630,CHAMSISILI A,KIGAMBONI
DODOMA,41,MPWAPWA,416,CHIPOGORO,41630,CHAMSISILI A,MKOMBOZI
DODOMA,41,MPWAPWA,416,CHIPOGORO,41630,CHAMSISILI A,UHURU
DODOMA,41,MPWAPWA,416,CHIPOGORO,41630,CHAMSISILI A,TUANZE
DODOMA,41,MPWAPWA,416,CHIPOGORO,41630,SELUKA,MIYENGWENI
DODOMA,41,MPWAPWA,416,CHIPOGORO,41630,SELUKA,SHULENI
DODOMA,41,MPWAPWA,416,CHIPOGORO,41630,SELUKA,MBUYUNI
DODOMA,41,MPWAPWA,416,CHIPOGORO,41630,SELUKA,OFISINI
DODOMA,41,MPWAPWA,416,CHIPOGORO,41630,NYABU,CHITOPE
DODOMA,41,MPWAPWA,416,CHIPOGORO,41630,NYABU,SOKOINE
DODOMA,41,MPWAPWA,416,CHIPOGORO,41630,NYABU,MAJENGO
DODOMA,41,MPWAPWA,416,CHIPOGORO,41630,NYABU,AZIMIO
DODOMA,41,MPWAPWA,416,MLEMBULE,41631,MLEMBULE,IKULU
DODOMA,41,MPWAPWA,416,MLEMBULE,41631,MLEMBULE,MANYATA
DODOMA,41,MPWAPWA,416,MLEMBULE,41631,MLEMBULE,MAFUTO
DODOMA,41,MPWAPWA,416,MLEMBULE,41631,NDUGA,MISHENI
DODOMA,41,MPWAPWA,416,MLEMBULE,41631,NDUGA,KIDONGOCHEKUNDU
DODOMA,41,MPWAPWA,416,MLEMBULE,41631,NDUGA,CHIFUA
DODOMA,41,MPWAPWA,416,MLEMBULE,41631,MAJAMI,MAKUTANO
DODOMA,41,MPWAPWA,416,MLEMBULE,41631,MAJAMI,MELUE
DODOMA,41,MPWAPWA,416,MLEMBULE,41631,MAJAMI,MILEMELE
DODOMA,41,MPWAPWA,416,MLEMBULE,41631,MWENZELE,CHINANGALI
DODOMA,41,MPWAPWA,416,MLEMBULE,41631,MWENZELE,BONDENI
DODOMA,41,MPWAPWA,416,MLEMBULE,41631,MWENZELE,MISHENI
DODOMA,41,MPWAPWA,416,MLEMBULE,41631,MWENZELE,MBUYUNI
DODOMA,41,MPWAPWA,416,MLEMBULE,41631,NANA,MATEMBO
DODOMA,41,MPWAPWA,416,MLEMBULE,41631,NANA,NGESE
DODOMA,41,MPWAPWA,416,MLEMBULE,41631,NANA,SHULENI
DODOMA,41,MPWAPWA,416,MLEMBULE,41631,NAMBA 30,AMANI
DODOMA,41,MPWAPWA,416,MLEMBULE,41631,NAMBA 31,SANGANDUNGHU
DODOMA,41,MPWAPWA,416,MLEMBULE,41631,NAMBA 32,MLENGA
DODOMA,41,MPWAPWA,416,WANGI,41632,WANGI,SONGAMBELE
DODOMA,41,MPWAPWA,416,WANGI,41632,WANGI,MTAMBA
DODOMA,41,MPWAPWA,416,WANGI,41632,WANGI,MAKOLOLO
DODOMA,41,MPWAPWA,416,WANGI,41632,WANGI,WANGI
DODOMA,41,MPWAPWA,416,WANGI,41632,NYANDU,NYANDU
DODOMA,41,MPWAPWA,416,WANGI,41632,NYANDU,IDETE
DODOMA,41,MPWAPWA,416,WANGI,41632,NYANDU,ILOLO
DODOMA,41,MPWAPWA,416,WANGI,41632,NYANDU,CHOGUE
DODOMA,41,MPWAPWA,416,WANGI,41632,NYANDU,ITOLAMILO
DODOMA,41,MPWAPWA,416,WANGI,41632,LWIHOMELO,MWANGAZA
DODOMA,41,MPWAPWA,416,WANGI,41632,LWIHOMELO,IBAMPA
DODOMA,41,MPWAPWA,416,WANGI,41632,LWIHOMELO,ILEMBULE
DODOMA,41,MPWAPWA,416,WANGI,41632,LWIHOMELO,MTAMBA
DODOMA,41,MPWAPWA,416,WANGI,41632,LWIHOMELO,LUGALO
DODOMA,41,MPWAPWA,416,WANGI,41632,LWIHOMELO,IDANDA
DODOMA,41,MPWAPWA,416,WANGI,41632,LWIHOMELO,ULEWA
DODOMA,41,MPWAPWA,416,WANGI,41632,KIDABAGA,ITENGULE
DODOMA,41,MPWAPWA,416,WANGI,41632,KIDABAGA,LUGUNGA
DODOMA,41,MPWAPWA,416,WANGI,41632,KIDABAGA,KIMULI
DODOMA,41,MPWAPWA,416,WANGI,41632,KIDABAGA,KIDABAGA
DODOMA,41,MPWAPWA,416,MANG'ALIZA,41633,KILAMBO,KILAMBO
DODOMA,41,MPWAPWA,416,MANG'ALIZA,41633,KILAMBO,KAWAWA ''B''
DODOMA,41,MPWAPWA,416,MANG'ALIZA,41633,MANG'ALIZA,KAMBARAGE
DODOMA,41,MPWAPWA,416,MANG'ALIZA,41633,MANG'ALIZA,"KAWAWA ""A"""
DODOMA,41,MPWAPWA,416,MANG'ALIZA,41633,MANG'ALIZA,MKWAWA
DODOMA,41,MPWAPWA,416,MANG'ALIZA,41633,MATULI,SOKOINE
DODOMA,41,MPWAPWA,416,MANG'ALIZA,41633,MATULI,MTAKUJA
DODOMA,41,MPWAPWA,416,MANG'ALIZA,41633,MATULI,MHIGITI
DODOMA,41,KONDOA,417,KONDOA MJINI,41701,MNARANI,
DODOMA,41,KONDOA,417,KONDOA MJINI,41701,TURA,
DODOMA,41,KONDOA,417,KONDOA MJINI,41701,MININGANI,
DODOMA,41,KONDOA,417,KONDOA MJINI,41701,TUMBELO,
DODOMA,41,KONDOA,417,KONDOA MJINI,41701,MAJI YA SHAMBA,
DODOMA,41,KONDOA,417,KONDOA MJINI,41701,KICHANGANI,
DODOMA,41,KONDOA,417,SURUKE,41702,MULUA,
DODOMA,41,KONDOA,417,SURUKE,41702,AUSIA,
DODOMA,41,KONDOA,417,SURUKE,41702,TUNGUFU,
DODOMA,41,KONDOA,417,KINGALE,41703,CHEMCHEM,
DODOMA,41,KONDOA,417,KINGALE,41703,KINGALE,
DODOMA,41,KONDOA,417,KINGALE,41703,MSUI,
DODOMA,41,KONDOA,417,KINGALE,41703,TAMPORI,
DODOMA,41,KONDOA,417,KINGALE,41703,IYOLI,
DODOMA,41,KONDOA,417,KINGALE,41703,KWAMTWARA,
DODOMA,41,KONDOA,417,KOLO,41704,KOLO,
DODOMA,41,KONDOA,417,KOLO,41704,KOLO ‘ B’,
DODOMA,41,KONDOA,417,KOLO,41704,CHOKA,
DODOMA,41,KONDOA,417,KOLO,41704,GUBALI,
DODOMA,41,KONDOA,417,KOLO,41704,HACHWI,
DODOMA,41,KONDOA,417,KILIMANI,41705,KILIMANI,
DODOMA,41,KONDOA,417,KILIMANI,41705,BICHA,
DODOMA,41,KONDOA,417,KILIMANI,41705,DAMAI,
DODOMA,41,KONDOA,417,KILIMANI,41705,WISIKWANTISI,
DODOMA,41,KONDOA,417,KILIMANI,41705,UKUNKU,
DODOMA,41,KONDOA,417,CHEMCHEM,41706,CHEMCHEM,
DODOMA,41,KONDOA,417,CHEMCHEM,41707,KWAPAKACHA,
DODOMA,41,KONDOA,417,CHEMCHEM,41708,IBONI,
DODOMA,41,KONDOA,417,CHEMCHEM,41709,UBEMBENI,
DODOMA,41,KONDOA,417,THAWI,41707,THAWI MADUKANI,MADUKANI
DODOMA,41,KONDOA,417,THAWI,41707,THAWI MADUKANI,NJIA PANDA
DODOMA,41,KONDOA,417,THAWI,41707,THAWI MADUKANI,MSOKIO
DODOMA,41,KONDOA,417,THAWI,41707,THAWI MADUKANI,PUMPU
DODOMA,41,KONDOA,417,THAWI,41707,THAWI MADUKANI,GAARA  “E”
DODOMA,41,KONDOA,417,THAWI,41707,THAWI MADUKANI,GAARA  “F”
DODOMA,41,KONDOA,417,THAWI,41707,THAWI JUU,THAWI JUU
DODOMA,41,KONDOA,417,THAWI,41707,THAWI JUU,KWASOROLABO
DODOMA,41,KONDOA,417,THAWI,41707,THAWI JUU,KANGAA
DODOMA,41,KONDOA,417,THAWI,41707,THAWI JUU,KWA SANDA
DODOMA,41,KONDOA,417,THAWI,41707,THAWI JUU,KWA DANGI
DODOMA,41,KONDOA,417,THAWI,41707,SAKAMI,MWONGOZO
DODOMA,41,KONDOA,417,THAWI,41707,SAKAMI,GIGITA
DODOMA,41,KONDOA,417,THAWI,41707,SAKAMI,CHACHAFA
DODOMA,41,KONDOA,417,THAWI,41707,SAKAMI,DARABI
DODOMA,41,KONDOA,417,THAWI,41707,SAKAMI,BUBU
DODOMA,41,KONDOA,417,THAWI,41707,SAKAMI,KWAMADEBE
DODOMA,41,KONDOA,417,THAWI,41707,SAKAMI,KOLONDADU
DODOMA,41,KONDOA,417,THAWI,41707,SAKAMI,KWAHAPI
DODOMA,41,KONDOA,417,THAWI,41707,SAKAMI,MATANGALIMO
DODOMA,41,KONDOA,417,THAWI,41707,SAKAMI,GAARA
DODOMA,41,KONDOA,417,THAWI,41707,SAKAMI,CHOKA
DODOMA,41,KONDOA,417,THAWI,41707,SAKAMI,GONGO
DODOMA,41,KONDOA,417,SOERA,41708,BUKULU,ALAGWA
DODOMA,41,KONDOA,417,SOERA,41708,BUKULU,KAMBI YA FISI
DODOMA,41,KONDOA,417,SOERA,41708,BUKULU,BUKULU  ‘A’
DODOMA,41,KONDOA,417,SOERA,41708,BUKULU,BUKULU  ‘B’
DODOMA,41,KONDOA,417,SOERA,41708,HUMAI,HUMAI SHULENI
DODOMA,41,KONDOA,417,SOERA,41708,HUMAI,HUMAI KATI
DODOMA,41,KONDOA,417,SOERA,41708,HUMAI,ISABE MAZIWANI
DODOMA,41,KONDOA,417,SOERA,41708,KWADINU,KWADINU
DODOMA,41,KONDOA,417,SOERA,41708,KWADINU,LUSANGI
DODOMA,41,KONDOA,417,SOERA,41708,KWADINU,AMAONSI
DODOMA,41,KONDOA,417,SOERA,41708,KWADINU,CHANGAKISA
DODOMA,41,KONDOA,417,SOERA,41708,SOERA,SOERA KATI
DODOMA,41,KONDOA,417,SOERA,41708,SOERA,KWAPINGA
DODOMA,41,KONDOA,417,SOERA,41708,SOERA,MADINA
DODOMA,41,KONDOA,417,SOERA,41708,SOERA,MARAMANDIMO
DODOMA,41,KONDOA,417,MNENIA,41709,MNENIA,MAGUI
DODOMA,41,KONDOA,417,MNENIA,41709,MNENIA,MSIKITINI
DODOMA,41,KONDOA,417,MNENIA,41709,MNENIA,MSUFINI
DODOMA,41,KONDOA,417,MNENIA,41709,MNENIA,MSUI
DODOMA,41,KONDOA,417,MNENIA,41709,MNENIA,MSIA UTI
DODOMA,41,KONDOA,417,MNENIA,41709,MNENIA,REST HOUSE
DODOMA,41,KONDOA,417,MNENIA,41709,ITUNDWI,BAURA
DODOMA,41,KONDOA,417,MNENIA,41709,ITUNDWI,USALWI
DODOMA,41,KONDOA,417,MNENIA,41709,ITUNDWI,ITUNDWI
DODOMA,41,KONDOA,417,MNENIA,41709,ITUNDWI,CHEKE
DODOMA,41,KONDOA,417,MNENIA,41709,ITUNDWI,CHANG’OMBE
DODOMA,41,KONDOA,417,MNENIA,41709,ITUNDWI,MIKOROSHINI
DODOMA,41,KONDOA,417,MNENIA,41709,FILIMO,KWASORI
DODOMA,41,KONDOA,417,MNENIA,41709,FILIMO,OFISINI
DODOMA,41,KONDOA,417,MNENIA,41709,FILIMO,DARABI
DODOMA,41,KONDOA,417,MNENIA,41709,FILIMO,MIEMBENI
DODOMA,41,KONDOA,417,MNENIA,41709,BAMBARE,KIWANJA CHA MBUNI
DODOMA,41,KONDOA,417,MNENIA,41709,BAMBARE,SENDEMI
DODOMA,41,KONDOA,417,MNENIA,41709,BAMBARE,KIBANDANI
DODOMA,41,KONDOA,417,MNENIA,41709,BAMBARE,GAYU
DODOMA,41,KONDOA,417,MASANGE,41710,MASANGE,MASANGE A
DODOMA,41,KONDOA,417,MASANGE,41710,MASANGE,MAIDIWI KATI
DODOMA,41,KONDOA,417,MASANGE,41710,MASANGE,TEMEKE
DODOMA,41,KONDOA,417,MASANGE,41710,MASANGE,LUFUTWI
DODOMA,41,KONDOA,417,MASANGE,41710,MASANGE,MAJENGO
DODOMA,41,KONDOA,417,MASANGE,41710,KWAYONDU,CHAWASI
DODOMA,41,KONDOA,417,MASANGE,41710,KWAYONDU,OFISINI
DODOMA,41,KONDOA,417,MASANGE,41710,KWAYONDU,CHAKWE
DODOMA,41,KONDOA,417,KIKILO,41711,ORORIMO,MASHINENI
DODOMA,41,KONDOA,417,KIKILO,41711,ORORIMO,ORORIMO
DODOMA,41,KONDOA,417,KIKILO,41711,ORORIMO,UZUNGUNI
DODOMA,41,KONDOA,417,KIKILO,41711,ORORIMO,ENDAMOSHI
DODOMA,41,KONDOA,417,KIKILO,41711,KIKILO KATI,MSUI
DODOMA,41,KONDOA,417,KIKILO,41711,KIKILO KATI,CHANG’OMBE
DODOMA,41,KONDOA,417,KIKILO,41711,KIKILO KATI,BONDENI
DODOMA,41,KONDOA,417,KIKILO,41711,KIKILO KATI,BUBU
DODOMA,41,KONDOA,417,KIKILO,41711,KIKILO KATI,KIKILO KATI
DODOMA,41,KONDOA,417,KIKILO,41711,KIKILO KATI,MWEMBENI
DODOMA,41,KONDOA,417,KIKILO,41711,KWAHENGWA,SWAHILI
DODOMA,41,KONDOA,417,KIKILO,41711,KWAHENGWA,KILOMBERO
DODOMA,41,KONDOA,417,KIKILO,41711,KWAHENGWA,MSASANI
DODOMA,41,KONDOA,417,KIKILO,41711,KWAHENGWA,MABATINI
DODOMA,41,KONDOA,417,KIKILO,41711,KWAHENGWA,HANANG’
DODOMA,41,KONDOA,417,KIKILO,41711,KWAHENGWA,KWAHENGWA
DODOMA,41,KONDOA,417,KIKILO,41711,KWAHENGWA,SHULENI
DODOMA,41,KONDOA,417,KIKILO,41711,KWAHENGWA,KAGERA
DODOMA,41,KONDOA,417,KIKILO,41711,BERABERA,MADUKANI
DODOMA,41,KONDOA,417,KIKILO,41711,BERABERA,KICHANGANI
DODOMA,41,KONDOA,417,KIKILO,41711,BERABERA,ILANZIMO
DODOMA,41,KONDOA,417,KIKILO,41711,BERABERA,KWATUFA
DODOMA,41,KONDOA,417,KIKILO,41711,BERABERA,CHEMCHEM
DODOMA,41,KONDOA,417,KIKILO,41711,BERABERA,KISIWANI
DODOMA,41,KONDOA,417,KIKILO,41711,BERABERA,MBUYUNI
DODOMA,41,KONDOA,417,KIKILO,41711,BERABERA,HAFETO
DODOMA,41,KONDOA,417,KIKILO,41711,KIRERECHANG’OMBE,NKUNGULU
DODOMA,41,KONDOA,417,KIKILO,41711,KIRERECHANG’OMBE,AUSIA
DODOMA,41,KONDOA,417,KIKILO,41711,KIRERECHANG’OMBE,KIRERECHANG’OMBE
DODOMA,41,KONDOA,417,KISESE,41712,KISESE-DISA,DISA MITAONI
DODOMA,41,KONDOA,417,KISESE,41712,KISESE-DISA,MITATI
DODOMA,41,KONDOA,417,KISESE,41712,KISESE-DISA,MIGUNGANI
DODOMA,41,KONDOA,417,KISESE,41712,KISESE-DISA,MCHAFUKOGE
DODOMA,41,KONDOA,417,KISESE,41712,KISESE-DISA,MITATIKWAMANGIRI
DODOMA,41,KONDOA,417,KISESE,41712,MAPINDUZI,MAPINDUZI
DODOMA,41,KONDOA,417,KISESE,41712,MAPINDUZI,IDUNDWI
DODOMA,41,KONDOA,417,KISESE,41712,MAPINDUZI,NGULUVIRI
DODOMA,41,KONDOA,417,KISESE,41712,KISESE - SAUNA,SAUNA KATI
DODOMA,41,KONDOA,417,KISESE,41712,KISESE - SAUNA,CHANG’OMBE
DODOMA,41,KONDOA,417,KISESE,41712,KISESE - SAUNA,GONGO
DODOMA,41,KONDOA,417,KISESE,41712,MADISA,MADISA ‘A’
DODOMA,41,KONDOA,417,KISESE,41712,MADISA,MADISA  ‘B’
DODOMA,41,KONDOA,417,KISESE,41712,MADISA,TANGUSRA
DODOMA,41,KONDOA,417,KISESE,41712,ATTA,ATTA – SHULENI
DODOMA,41,KONDOA,417,KISESE,41712,ATTA,IYENJERE
DODOMA,41,KONDOA,417,KISESE,41712,ATTA,ATTA KWAMARIRI
DODOMA,41,KONDOA,417,KISESE,41712,ATTA,MAJENGO
DODOMA,41,KONDOA,417,KIKORE,41713,KIKORE,USWAHILINI
DODOMA,41,KONDOA,417,KIKORE,41713,KIKORE,MARUNDE
DODOMA,41,KONDOA,417,KIKORE,41713,KIKORE,BURUNGENI
DODOMA,41,KONDOA,417,KIKORE,41713,MKURUMUZI,DARAJANI
DODOMA,41,KONDOA,417,KIKORE,41713,MKURUMUZI,CHEMCHEM
DODOMA,41,KONDOA,417,KIKORE,41713,MADEGE,MADEGE ‘A’
DODOMA,41,KONDOA,417,KIKORE,41713,MADEGE,MADEGE  ‘B’
DODOMA,41,KONDOA,417,KIKORE,41713,HURUI,MUUNGANO ‘A’
DODOMA,41,KONDOA,417,KIKORE,41713,HURUI,GETAKULU
DODOMA,41,KONDOA,417,KIKORE,41713,HURUI,MSHIKAMANO
DODOMA,41,KONDOA,417,KIKORE,41713,MITATI,MITATI KATI
DODOMA,41,KONDOA,417,KIKORE,41713,MITATI,NKAJIA
DODOMA,41,KONDOA,417,KIKORE,41713,MITATI,MIHEMBETI
DODOMA,41,KONDOA,417,KIKORE,41713,MITATI,DACHENCHE
DODOMA,41,KONDOA,417,KIKORE,41713,MITATI,KIROROMA
DODOMA,41,KONDOA,417,KIKORE,41713,MITATI,CHANG’OMBE
DODOMA,41,KONDOA,417,PAHI,41714,PAHI,KIBAONI
DODOMA,41,KONDOA,417,PAHI,41714,PAHI,MARUMBA
DODOMA,41,KONDOA,417,PAHI,41714,PAHI,MATIBWI
DODOMA,41,KONDOA,417,PAHI,41714,PAHI,MUYA
DODOMA,41,KONDOA,417,PAHI,41714,PAHI,NKUNDUSI
DODOMA,41,KONDOA,417,PAHI,41714,IKOVA,IKOVA JUU
DODOMA,41,KONDOA,417,PAHI,41714,IKOVA,IKOVA CHINI
DODOMA,41,KONDOA,417,PAHI,41714,IKOVA,MKEKENA
DODOMA,41,KONDOA,417,PAHI,41714,IKOVA,MAJENGO
DODOMA,41,KONDOA,417,PAHI,41714,SALARE,ITOHA
DODOMA,41,KONDOA,417,PAHI,41714,SALARE,UBONDI
DODOMA,41,KONDOA,417,PAHI,41714,SALARE,SALARE KATI
DODOMA,41,KONDOA,417,PAHI,41714,SALARE,ILALA
DODOMA,41,KONDOA,417,PAHI,41714,POTEA,BOLISA
DODOMA,41,KONDOA,417,PAHI,41714,POTEA,CHANKANGA
DODOMA,41,KONDOA,417,PAHI,41714,POTEA,KIJAJI
DODOMA,41,KONDOA,417,PAHI,41714,POTEA,LUNDA
DODOMA,41,KONDOA,417,PAHI,41714,KITEO,KIBAONI
DODOMA,41,KONDOA,417,PAHI,41714,KITEO,MARUMBA
DODOMA,41,KONDOA,417,PAHI,41714,KITEO,MATIBWI
DODOMA,41,KONDOA,417,PAHI,41714,KITEO,MUYA
DODOMA,41,KONDOA,417,BUMBUTA,41715,BUMBUTA,BUMBUTA  ‘A’
DODOMA,41,KONDOA,417,BUMBUTA,41715,BUMBUTA,SINJO
DODOMA,41,KONDOA,417,BUMBUTA,41715,BUMBUTA,GUBALI
DODOMA,41,KONDOA,417,BUMBUTA,41715,MKUNDULU,MKUNDULU KATI
DODOMA,41,KONDOA,417,BUMBUTA,41715,MKUNDULU,MKUNDULU MASHARIKI
DODOMA,41,KONDOA,417,BUMBUTA,41715,MKUNDULU,MKUNDULU MAGHARIBI
DODOMA,41,KONDOA,417,BUMBUTA,41715,MKUNDULU,BUMBUTA ‘B’
DODOMA,41,KONDOA,417,BUMBUTA,41715,MAUNO,PIRIRI
DODOMA,41,KONDOA,417,BUMBUTA,41715,MAUNO,MAWELI
DODOMA,41,KONDOA,417,BUMBUTA,41715,MAUNO,NANAKWI
DODOMA,41,KONDOA,417,BUMBUTA,41715,MAUNO,MAUNO KATI
DODOMA,41,KONDOA,417,BUMBUTA,41715,MAUNO,MARIPU KATI
DODOMA,41,KONDOA,417,BUMBUTA,41715,MAUNO,MIDUWAWI
DODOMA,41,KONDOA,417,BUMBUTA,41715,MAUNO,SEPWA
DODOMA,41,KONDOA,417,BUMBUTA,41715,MAHONGO,MAHONGO SHULENI
DODOMA,41,KONDOA,417,BUMBUTA,41715,MAHONGO,MAHONGO KATI
DODOMA,41,KONDOA,417,BUMBUTA,41715,MAHONGO,MAKORI
DODOMA,41,KONDOA,417,BUSI,41716,BUSI,MADUKANI
DODOMA,41,KONDOA,417,BUSI,41716,BUSI,MAJENGO
DODOMA,41,KONDOA,417,BUSI,41716,BUSI,MBUYUNI
DODOMA,41,KONDOA,417,BUSI,41716,BUSI,MATANGA
DODOMA,41,KONDOA,417,BUSI,41716,BUSI,BARAZANI
DODOMA,41,KONDOA,417,BUSI,41716,BUSI,KWARIJI
DODOMA,41,KONDOA,417,BUSI,41716,BUSI,KWAKAMBI
DODOMA,41,KONDOA,417,BUSI,41716,ISUSUMYA,UKUMBU
DODOMA,41,KONDOA,417,BUSI,41716,ISUSUMYA,ISUSUMYA KATI
DODOMA,41,KONDOA,417,BUSI,41716,ISUSUMYA,ISUSUMYA B
DODOMA,41,KONDOA,417,BUSI,41716,IHARI,IHARI KATI
DODOMA,41,KONDOA,417,BUSI,41716,IHARI,CHANG’OMBE
DODOMA,41,KONDOA,417,BUSI,41716,IHARI,KINDURI
DODOMA,41,KONDOA,417,KALAMBA,41717,KALAMBA CHINI,BUSI
DODOMA,41,KONDOA,417,KALAMBA,41717,KALAMBA CHINI,ITONGWI
DODOMA,41,KONDOA,417,KALAMBA,41717,KALAMBA CHINI,FOE
DODOMA,41,KONDOA,417,KALAMBA,41717,KALAMBA CHINI,GORONYA
DODOMA,41,KONDOA,417,KALAMBA,41717,KALAMBA CHINI,MAKIRYA
DODOMA,41,KONDOA,417,KALAMBA,41717,KALAMBA CHINI,BONGA
DODOMA,41,KONDOA,417,KALAMBA,41717,KALAMBA CHINI,KALAMBA CHINI
DODOMA,41,KONDOA,417,KALAMBA,41717,KALAMBA JUU,KALAMBA JUU
DODOMA,41,KONDOA,417,KALAMBA,41717,KALAMBA JUU,MAHANDI
DODOMA,41,KONDOA,417,KALAMBA,41717,KALAMBA JUU,USIRWI
DODOMA,41,KONDOA,417,KALAMBA,41717,KALAMBA JUU,MANYASI
DODOMA,41,KONDOA,417,KALAMBA,41717,KALAMBA JUU,GONGA
DODOMA,41,KONDOA,417,KALAMBA,41717,HEBI CHINI,ISARI
DODOMA,41,KONDOA,417,KALAMBA,41717,HEBI CHINI,ITURI
DODOMA,41,KONDOA,417,KALAMBA,41717,HEBI CHINI,MAHANDI
DODOMA,41,KONDOA,417,KALAMBA,41717,HEBI CHINI,MASUKU
DODOMA,41,KONDOA,417,KALAMBA,41717,HEBI CHINI,SANKA
DODOMA,41,KONDOA,417,KALAMBA,41717,HEBI CHINI,WAKI
DODOMA,41,KONDOA,417,KALAMBA,41717,HEBI CHINI,BONGOMA
DODOMA,41,KONDOA,417,KALAMBA,41717,HEBI JUU,CHAMPENA
DODOMA,41,KONDOA,417,KALAMBA,41717,HEBI JUU,CHAWIA
DODOMA,41,KONDOA,417,KALAMBA,41717,HEBI JUU,MLONGIA
DODOMA,41,KONDOA,417,KALAMBA,41717,BAURA,BONGA
DODOMA,41,KONDOA,417,KALAMBA,41717,BAURA,CHIVI
DODOMA,41,KONDOA,417,KALAMBA,41717,BAURA,CHAMPIMBI
DODOMA,41,KONDOA,417,KALAMBA,41717,BAURA,DIRI
DODOMA,41,KONDOA,417,KALAMBA,41717,BAURA,ITAMYA
DODOMA,41,KONDOA,417,KALAMBA,41717,BAURA,NYALU
DODOMA,41,KONDOA,417,KALAMBA,41717,BAURA,BAURA
DODOMA,41,KONDOA,417,KALAMBA,41717,BAURA,USARU
DODOMA,41,KONDOA,417,KALAMBA,41717,LOO,KIHALE
DODOMA,41,KONDOA,417,KALAMBA,41717,LOO,LUSANGI
DODOMA,41,KONDOA,417,KALAMBA,41717,LOO,HOROO
DODOMA,41,KONDOA,417,KALAMBA,41717,LOO,KUNAI
DODOMA,41,KONDOA,417,KALAMBA,41717,LOO,KIDONGO CHEUSI
DODOMA,41,KONDOA,417,KALAMBA,41717,LOO,SEGA
DODOMA,41,KONDOA,417,KALAMBA,41717,LOO,BIRIDAI
DODOMA,41,KONDOA,417,KALAMBA,41717,LOO,URIMBWI
DODOMA,41,KONDOA,417,KALAMBA,41717,LOO,LOO
DODOMA,41,KONDOA,417,HAUBI,41718,NTOMOKO,NKAJIA
DODOMA,41,KONDOA,417,HAUBI,41718,NTOMOKO,FAI
DODOMA,41,KONDOA,417,HAUBI,41718,NTOMOKO,HOHORI
DODOMA,41,KONDOA,417,HAUBI,41718,NTOMOKO,MATEMI
DODOMA,41,KONDOA,417,HAUBI,41718,NTOMOKO,KIKURI
DODOMA,41,KONDOA,417,HAUBI,41718,MAFAI,LUSANGI
DODOMA,41,KONDOA,417,HAUBI,41718,MAFAI,KIRITI
DODOMA,41,KONDOA,417,HAUBI,41718,MAFAI,ISEYA
DODOMA,41,KONDOA,417,HAUBI,41718,MAFAI,NJEWA
DODOMA,41,KONDOA,417,HAUBI,41718,HAUBI,GAYU
DODOMA,41,KONDOA,417,HAUBI,41718,HAUBI,MSEDI
DODOMA,41,KONDOA,417,HAUBI,41718,HAUBI,HAUBI MAZIWANI
DODOMA,41,KONDOA,417,HAUBI,41718,HAUBI,HASU
DODOMA,41,KONDOA,417,HAUBI,41718,HAUBI,TALAMBO
DODOMA,41,KONDOA,417,HAUBI,41718,MWISANGA,MWISANGA
DODOMA,41,KONDOA,417,HAUBI,41718,MWISANGA,MEMBE
DODOMA,41,KONDOA,417,HAUBI,41718,MWISANGA,MAJUU
DODOMA,41,KONDOA,417,HAUBI,41718,MWISANGA,KINKANKA
DODOMA,41,KONDOA,417,HAUBI,41718,MWISANGA,PUNGI
DODOMA,41,KONDOA,417,HAUBI,41718,MWISANGA,SORO
DODOMA,41,KONDOA,417,HAUBI,41718,MWISANGA,KUUTA
DODOMA,41,KONDOA,417,HAUBI,41718,MWISANGA,CHIKALURI
DODOMA,41,KONDOA,417,KWADELO,41719,KWADELO,MJINI
DODOMA,41,KONDOA,417,KWADELO,41719,KWADELO,UMBOJA
DODOMA,41,KONDOA,417,KWADELO,41719,KWADELO,SERYA
DODOMA,41,KONDOA,417,KWADELO,41719,BOMA YA NG’OMBE,BOMA YA NG’OMBE
DODOMA,41,KONDOA,417,KWADELO,41719,BOMA YA NG’OMBE,MBOWI
DODOMA,41,KONDOA,417,KWADELO,41719,BOMA YA NG’OMBE,KIHOGOLO
DODOMA,41,KONDOA,417,KWADELO,41719,MAKIRINYA,FOE
DODOMA,41,KONDOA,417,KWADELO,41719,MAKIRINYA,IRENDI ‘A’
DODOMA,41,KONDOA,417,KWADELO,41719,MAKIRINYA,IRENDI  ‘B’
DODOMA,41,KONDOA,417,KWADELO,41719,MAKIRINYA,KWAICHIRIFI
DODOMA,41,KONDOA,417,KWADELO,41719,MAKIRINYA,KWAMPICHI
DODOMA,41,KONDOA,417,KWADELO,41719,MAKIRINYA,KIBAYA
DODOMA,41,KONDOA,417,KWADELO,41719,KIRERECHANG’OMBE,NKUNGULU
DODOMA,41,KONDOA,417,KWADELO,41719,KIRERECHANG’OMBE,AUSIA
DODOMA,41,KONDOA,417,ITASWI,41720,ITASWI,KICHANGACHUI
DODOMA,41,KONDOA,417,ITASWI,41720,ITASWI,UGOGONI
DODOMA,41,KONDOA,417,ITASWI,41720,ITASWI,BWAWANI
DODOMA,41,KONDOA,417,ITASWI,41720,ITASWI,IRESI KATI
DODOMA,41,KONDOA,417,ITASWI,41720,ITASWI,USALARI
DODOMA,41,KONDOA,417,ITASWI,41720,ITASWI,LOKOMO
DODOMA,41,KONDOA,417,ITASWI,41720,ITASWI,IRESI
DODOMA,41,KONDOA,417,ITASWI,41720,CHUBI,MTAKUJA
DODOMA,41,KONDOA,417,ITASWI,41720,CHUBI,HUMAI
DODOMA,41,KONDOA,417,ITASWI,41720,CHUBI,KWAMBULA
DODOMA,41,KONDOA,417,ITASWI,41720,HAIRE,CHANG’OMBE
DODOMA,41,KONDOA,417,ITASWI,41720,HAIRE,KWADINU
DODOMA,41,KONDOA,417,ITASWI,41720,HAIRE,LUGANGI
DODOMA,41,KONDOA,417,ITASWI,41720,HAIRE,MSANTU
DODOMA,41,KONDOA,417,ITASWI,41720,KISAKI,KISAKI KATI
DODOMA,41,KONDOA,417,ITASWI,41720,KISAKI,UGOGONI
DODOMA,41,KONDOA,417,ITASWI,41720,KISAKI,MSANTU
DODOMA,41,KONDOA,417,ITOLOLO,41721,ITOLOLO,MSIKITINI
DODOMA,41,KONDOA,417,ITOLOLO,41721,ITOLOLO,SHULENI
DODOMA,41,KONDOA,417,ITOLOLO,41721,MKEKENA,KIMUNDA
DODOMA,41,KONDOA,417,ITOLOLO,41721,MKEKENA,LUVAI
DODOMA,41,KONDOA,417,ITOLOLO,41721,MKEKENA,MKEKENA KATI
DODOMA,41,KONDOA,417,ITOLOLO,41721,MKEKENA,BWAWANI
DODOMA,41,KONDOA,417,ITOLOLO,41721,MACHINJONI,KWAMARETA
DODOMA,41,KONDOA,417,ITOLOLO,41721,MACHINJONI,KIVULINI
DODOMA,41,KONDOA,417,ITOLOLO,41721,MONGOLO,MONGOLO
DODOMA,41,KONDOA,417,ITOLOLO,41721,MONGOLO,GUBALI
DODOMA,41,KONDOA,417,ITOLOLO,41721,MONGOLO,MALOYA
DODOMA,41,KONDOA,417,ITOLOLO,41721,KANDAGA,MTAKUJA
DODOMA,41,KONDOA,417,ITOLOLO,41721,KANDAGA,KIJIWENI
DODOMA,41,KONDOA,417,ITOLOLO,41721,KANDAGA,BUMBURI YAHE
DODOMA,41,KONDOA,417,KINYASI,41722,KINYASI KATI,KINYASI KATI
DODOMA,41,KONDOA,417,KINYASI,41722,KINYASI KATI,KINYASI BWAWANI
DODOMA,41,KONDOA,417,KINYASI,41722,KINYASI KATI,MAFUNGA
DODOMA,41,KONDOA,417,KINYASI,41722,KINYASI KATI,IRONGORIRU
DODOMA,41,KONDOA,417,KINYASI,41722,KINYASI MAJENGO,LUSAKA
DODOMA,41,KONDOA,417,KINYASI,41722,KINYASI MAJENGO,KWAMBWEVE
DODOMA,41,KONDOA,417,KINYASI,41722,KINYASI MAJENGO,MAWASILIANO
DODOMA,41,KONDOA,417,KINYASI,41722,KINYASI MAJENGO,NYANJARI
DODOMA,41,KONDOA,417,KINYASI,41722,IKENGWA,IRONGORA MAKALA
DODOMA,41,KONDOA,417,KINYASI,41722,IKENGWA,SHULENI
DODOMA,41,KONDOA,417,KINYASI,41722,ISONGOLO,ISONGOLO
DODOMA,41,KONDOA,417,HONDOMAIRO,41723,HONDOMAIRO,HONDOMAIRO
DODOMA,41,KONDOA,417,HONDOMAIRO,41723,HONDOMAIRO,TANGUSAE
DODOMA,41,KONDOA,417,HONDOMAIRO,41723,HONDOMAIRO,DORASI
DODOMA,41,KONDOA,417,HONDOMAIRO,41723,HONDOMAIRO,KAMAME
DODOMA,41,KONDOA,417,HONDOMAIRO,41723,MWEMBENI,HUMAY
DODOMA,41,KONDOA,417,HONDOMAIRO,41723,MWEMBENI,GUMAHITI
DODOMA,41,KONDOA,417,HONDOMAIRO,41723,MWEMBENI,MORONGO
DODOMA,41,KONDOA,417,HONDOMAIRO,41723,MWEMBENI,DARABI
DODOMA,41,KONDOA,417,HONDOMAIRO,41723,MWEMBENI,AMAHWANTI
DODOMA,41,KONDOA,417,HONDOMAIRO,41723,MWEMBENI,ATA
DODOMA,41,KONDOA,417,HONDOMAIRO,41723,MTIRYANGWI,MTIRYANGWI
DODOMA,41,KONDOA,417,HONDOMAIRO,41723,MTIRYANGWI,KILIMANI
DODOMA,41,KONDOA,417,HONDOMAIRO,41723,MTIRYANGWI,DUMI
DODOMA,41,KONDOA,417,HONDOMAIRO,41723,MTIRYANGWI,SINGIDA
DODOMA,41,KONDOA,417,HONDOMAIRO,41723,MTIRYANGWI,MARIDADI
DODOMA,41,KONDOA,417,HONDOMAIRO,41723,MTIRYANGWI,KWAHAMBURI
DODOMA,41,KONDOA,417,HONDOMAIRO,41723,MTIRYANGWI,KAMBI YA FISI
DODOMA,41,KONDOA,417,HONDOMAIRO,41723,MTIRYANGWI,PWAAMU
DODOMA,41,KONDOA,417,HONDOMAIRO,41723,MTIRYANGWI,WALAIMO
DODOMA,41,KONDOA,417,HONDOMAIRO,41723,MTIRYANGWI,MAJENGO
DODOMA,41,KONDOA,417,HONDOMAIRO,41723,MTIRYANGWI,DENDESAA
DODOMA,41,KONDOA,417,HONDOMAIRO,41723,MTIRYANGWI,ISARI
DODOMA,41,KONDOA,417,HONDOMAIRO,41723,MTIRYANGWI,MCHOYA
DODOMA,41,KONDOA,417,HONDOMAIRO,41723,KISESE - SAUNA,SAUNA KATI
DODOMA,41,KONDOA,417,HONDOMAIRO,41723,KISESE - SAUNA,CHANG’OMBE
DODOMA,41,KONDOA,417,HONDOMAIRO,41723,KISESE - SAUNA,GONGO
DODOMA,41,KONDOA,417,HONDOMAIRO,41723,KISESE - SAUNA,UNJEJI
DODOMA,41,KONDOA,417,BEREKO,41724,BEREKO,BEREKO MJINI
DODOMA,41,KONDOA,417,BEREKO,41724,BEREKO,YARAWAK
DODOMA,41,KONDOA,417,BEREKO,41724,BEREKO,KURASINI
DODOMA,41,KONDOA,417,BEREKO,41724,BEREKO,LWAMBANO
DODOMA,41,KONDOA,417,BEREKO,41724,BEREKO,NONDI
DODOMA,41,KONDOA,417,BEREKO,41724,PUHI,UFINYANZI
DODOMA,41,KONDOA,417,BEREKO,41724,PUHI,KARIAKOO
DODOMA,41,KONDOA,417,BEREKO,41724,PUHI,PUHI CHINI
DODOMA,41,KONDOA,417,BEREKO,41724,PUHI,DISOMA KANISANI
DODOMA,41,KONDOA,417,BEREKO,41724,PUHI,DISOMA KATI
DODOMA,41,KONDOA,417,BEREKO,41724,PUHI,DISOMA MKUYUNI
DODOMA,41,KONDOA,417,BEREKO,41724,PUHI,MNADANI
DODOMA,41,KONDOA,417,SALANKA,41725,SALANKA,SALANKA KATI
DODOMA,41,KONDOA,417,SALANKA,41725,SALANKA,KIKORE
DODOMA,41,KONDOA,417,SALANKA,41725,SALANKA,MAZIWANI
DODOMA,41,KONDOA,417,SALANKA,41725,SALANKA,KWAKITEREU
DODOMA,41,KONDOA,417,SALANKA,41725,SALANKA,MAKAFA SHULENI
DODOMA,41,KONDOA,417,SALANKA,41725,SALANKA,KWADELO
DODOMA,41,KONDOA,417,SALANKA,41725,SALANKA,KWACHULI JUU
DODOMA,41,KONDOA,417,SALANKA,41725,SALANKA,KWACHULI CHINI
DODOMA,41,KONDOA,417,SALANKA,41725,MASAWI,HADO
DODOMA,41,KONDOA,417,SALANKA,41725,MASAWI,KICHANGANI
DODOMA,41,KONDOA,417,SALANKA,41725,MASAWI,KISIWANI
DODOMA,41,KONDOA,417,SALANKA,41725,LEMBO,LEMBO
DODOMA,41,KONDOA,417,SALANKA,41725,LEMBO,KIBAONI
DODOMA,41,KONDOA,417,SALANKA,41725,LEMBO,MAKAO MAPYA
DODOMA,41,KONDOA,417,SALANKA,41725,ALAGWA,ALAGWA
DODOMA,41,KONDOA,417,SALANKA,41725,ALAGWA,MNADANI
DODOMA,41,KONDOA,417,SALANKA,41725,ALAGWA,KURASINI
DODOMA,41,KONDOA,417,KEIKEI,41726,KEIKEI,MAGEBUTA
DODOMA,41,KONDOA,417,KEIKEI,41726,KEIKEI,STENDI
DODOMA,41,KONDOA,417,KEIKEI,41726,KEIKEI,MATUNENI
DODOMA,41,KONDOA,417,KEIKEI,41726,KEIKEI TANGINI,TANGINI A
DODOMA,41,KONDOA,417,KEIKEI,41726,KEIKEI TANGINI,TANGINI B
DODOMA,41,KONDOA,417,KEIKEI,41726,KEIKEI TANGINI,DABILI A
DODOMA,41,KONDOA,417,KEIKEI,41726,KEIKEI TANGINI,DABILI B
DODOMA,41,KONDOA,417,KEIKEI,41726,KEIKEI TANGINI,KIPORYO
DODOMA,41,KONDOA,417,KEIKEI,41726,SAMBWA,NTOJO
DODOMA,41,KONDOA,417,KEIKEI,41726,SAMBWA,WOMBA
DODOMA,41,KONDOA,417,KEIKEI,41726,SAMBWA,MNADANI
DODOMA,41,KONDOA,417,KEIKEI,41726,SAMBWA,SAMBWA CHINI
DODOMA,41,KONDOA,417,KEIKEI,41726,SAMBWA,SAMBWA JUU
DODOMA,41,KONDOA,417,KEIKEI,41726,SAMBWA,MIDUWAWI
DODOMA,41,KONDOA,417,KEIKEI,41726,IDINDIRI,MITANGINI
DODOMA,41,KONDOA,417,KEIKEI,41726,IDINDIRI,DUKURA
DODOMA,41,KONDOA,417,KEIKEI,41726,IDINDIRI,BWAWANI
DODOMA,41,KONDOA,417,KEIKEI,41726,IDINDIRI,KATIKATI (MBUGANI)
DODOMA,41,KONDOA,417,KEIKEI,41726,KISONDOKO,KISONDOKO
DODOMA,41,KONDOA,417,KEIKEI,41726,KISONDOKO,LUMBENEC
DODOMA,41,KONDOA,417,KEIKEI,41726,KISONDOKO,MASASI
DODOMA,41,KONDOA,417,KEIKEI,41726,KISONDOKO,MSUMBIJI
DODOMA,41,KONDOA,417,SERYA,41727,MONGOROMA,
DODOMA,41,KONDOA,417,SERYA,41727,MUNGURI,
DODOMA,41,KONDOA,417,SERYA,41727,SERYA,
DODOMA,41,KONDOA,417,SERYA,41727,CHANDIMO,
DODOMA,41,KONDOA,417,BOLISA,41728,BOLISA,
DODOMA,41,KONDOA,417,BOLISA,41728,POISI,
DODOMA,41,KONDOA,417,BOLISA,41728,ITISO,
DODOMA,41,KONDOA,417,CHANGAA,41729,KWAMAFUNCHI,MTAKUJA
DODOMA,41,KONDOA,417,CHANGAA,41729,KWAMAFUNCHI,MTUKULA
DODOMA,41,KONDOA,417,CHANGAA,41729,KWAMAFUNCHI,ERA
DODOMA,41,KONDOA,417,CHANGAA,41729,CHANGAA,CHAMWINO
DODOMA,41,KONDOA,417,CHANGAA,41729,CHANGAA,MACHOMBE
DODOMA,41,KONDOA,417,CHANGAA,41729,CHANGAA,ARAMI
DODOMA,41,KONDOA,417,CHANGAA,41729,CHANGAA,SONGAMBELE
DODOMA,41,KONDOA,417,CHANGAA,41729,CHANGAA,SEKONDARI
DODOMA,41,KONDOA,417,CHANGAA,41729,CHANGAA,ABULAYI
DODOMA,41,KONDOA,417,CHANGAA,41729,CHANGAA,ITASWI
DODOMA,41,KONDOA,417,CHANGAA,41729,CHANGAA,MTAKUJA
DODOMA,41,KONDOA,417,CHANGAA,41729,CHANGAA,ARA
DODOMA,41,KONDOA,417,CHANGAA,41729,CHOLOLO,ZAHANATI
DODOMA,41,KONDOA,417,CHANGAA,41729,CHOLOLO,KUNDUCHI
DODOMA,41,KONDOA,417,CHANGAA,41729,CHOLOLO,CHANG’OMBE
DODOMA,41,KONDOA,417,CHANGAA,41729,CHOLOLO,
DODOMA,41,CHEMBA,418,CHEMBA,41801,CHEMBA,BOMBANI
DODOMA,41,CHEMBA,418,CHEMBA,41801,CHEMBA,SHULENI
DODOMA,41,CHEMBA,418,CHEMBA,41801,CHEMBA,GWAIBA
DODOMA,41,CHEMBA,418,CHEMBA,41801,CHAMBALO,MBUGANI
DODOMA,41,CHEMBA,418,CHEMBA,41801,CHAMBALO,TANGINI
DODOMA,41,CHEMBA,418,CHEMBA,41801,CHAMBALO,SHULENI
DODOMA,41,CHEMBA,418,CHEMBA,41801,CHAMBALO,MORA
DODOMA,41,CHEMBA,418,CHEMBA,41801,CHAMBALO,SARARA
DODOMA,41,CHEMBA,418,CHEMBA,41801,KAMBI YA NYASA,KAMBI YA NYASA
DODOMA,41,CHEMBA,418,CHEMBA,41801,KAMBI YA NYASA,MORONGIA
DODOMA,41,CHEMBA,418,CHEMBA,41801,KAMBI YA NYASA,NKUNDUSI
DODOMA,41,CHEMBA,418,CHANDAMA,41802,CHANDAMA,GALA
DODOMA,41,CHEMBA,418,CHANDAMA,41802,CHANDAMA,CHANG’OMBE
DODOMA,41,CHEMBA,418,CHANDAMA,41802,CHANDAMA,LUSANGI
DODOMA,41,CHEMBA,418,CHANDAMA,41802,CHANDAMA,MADUKANI A
DODOMA,41,CHEMBA,418,CHANDAMA,41802,CHANDAMA,MADUKANI B
DODOMA,41,CHEMBA,418,CHANDAMA,41802,MAPANGO,MSUMBIJI
DODOMA,41,CHEMBA,418,CHANDAMA,41802,MAPANGO,MADUKANI
DODOMA,41,CHEMBA,418,CHANDAMA,41802,MAPANGO,KIVUKONI
DODOMA,41,CHEMBA,418,CHANDAMA,41802,MAPANGO,MARANGU
DODOMA,41,CHEMBA,418,CHANDAMA,41802,MAPANGO,KWA KIMURU
DODOMA,41,CHEMBA,418,CHANDAMA,41802,MAPANGO,KWA KIMURI
DODOMA,41,CHEMBA,418,CHANDAMA,41802,MAPANGO,KISONKERA
DODOMA,41,CHEMBA,418,CHANDAMA,41802,MPENDO,ISUSUMYA
DODOMA,41,CHEMBA,418,CHANDAMA,41802,MPENDO,BANDARI BASI
DODOMA,41,CHEMBA,418,CHANDAMA,41802,MPENDO,BONDENI KWALESI
DODOMA,41,CHEMBA,418,CHANDAMA,41802,MPENDO,NKABABA
DODOMA,41,CHEMBA,418,CHANDAMA,41802,MPENDO,KIBAIGWA
DODOMA,41,CHEMBA,418,MRIJO,41803,MRIJO CHINI,MAJENGO
DODOMA,41,CHEMBA,418,MRIJO,41803,MRIJO CHINI,POLISI
DODOMA,41,CHEMBA,418,MRIJO,41803,MRIJO CHINI,CHANG’OMBE A
DODOMA,41,CHEMBA,418,MRIJO,41803,MRIJO CHINI,CHANG’OMBE B
DODOMA,41,CHEMBA,418,MRIJO,41803,MRIJO JUU,BARABARANI
DODOMA,41,CHEMBA,418,MRIJO,41803,MRIJO JUU,CHANG’OMBE
DODOMA,41,CHEMBA,418,MRIJO,41803,MRIJO JUU,MANYATA
DODOMA,41,CHEMBA,418,MRIJO,41803,MRIJO JUU,MOMBASA
DODOMA,41,CHEMBA,418,MRIJO,41803,MRIJO JUU,USALWI
DODOMA,41,CHEMBA,418,MRIJO,41803,MRIJO JUU,URIANI
DODOMA,41,CHEMBA,418,MRIJO,41803,MRIJO JUU,UHAMIAJI
DODOMA,41,CHEMBA,418,MRIJO,41803,NKULARI,CHANG’OMBE
DODOMA,41,CHEMBA,418,MRIJO,41803,NKULARI,ISUSUMYA
DODOMA,41,CHEMBA,418,MRIJO,41803,NKULARI,NKULARI MJINI
DODOMA,41,CHEMBA,418,MRIJO,41803,MAGASA,MAGASA MJINI
DODOMA,41,CHEMBA,418,MRIJO,41803,MAGASA,MAGASA KATI
DODOMA,41,CHEMBA,418,MRIJO,41803,MAGASA,KANDAMIZA
DODOMA,41,CHEMBA,418,MRIJO,41803,ISUSUMYA,BUSI
DODOMA,41,CHEMBA,418,MRIJO,41803,ISUSUMYA,CHANG’OMBE
DODOMA,41,CHEMBA,418,MRIJO,41803,ISUSUMYA,ISUSUMYA MJINI
DODOMA,41,CHEMBA,418,MRIJO,41803,OLBOROTI,GODOWN
DODOMA,41,CHEMBA,418,MRIJO,41803,OLBOROTI,BOMBANI
DODOMA,41,CHEMBA,418,MRIJO,41803,OLBOROTI,MSUFINI
DODOMA,41,CHEMBA,418,MRIJO,41803,OLBOROTI,JITENGENI
DODOMA,41,CHEMBA,418,MRIJO,41803,KALOLENI,SONGAMBELE
DODOMA,41,CHEMBA,418,MRIJO,41803,KALOLENI,KANDAMIZA
DODOMA,41,CHEMBA,418,MRIJO,41803,KALOLENI,CHAMWINO
DODOMA,41,CHEMBA,418,MRIJO,41803,KALOLENI,MSASANI
DODOMA,41,CHEMBA,418,MRIJO,41804,GOIMA,MONGIMO
DODOMA,41,CHEMBA,418,GOIMA,41804,GOIMA,MAGANDI
DODOMA,41,CHEMBA,418,GOIMA,41804,GOIMA,KIALE
DODOMA,41,CHEMBA,418,GOIMA,41804,GOIMA,KAKIRI
DODOMA,41,CHEMBA,418,GOIMA,41804,GOIMA,SWAI/DINDA
DODOMA,41,CHEMBA,418,GOIMA,41804,GOIMA,DEAMO
DODOMA,41,CHEMBA,418,GOIMA,41804,GOIMA,DARABA
DODOMA,41,CHEMBA,418,GOIMA,41804,MAKAMAKA,MBUYUNI
DODOMA,41,CHEMBA,418,GOIMA,41804,MAKAMAKA,BWAWANI
DODOMA,41,CHEMBA,418,GOIMA,41804,MAKAMAKA,MSENEKA
DODOMA,41,CHEMBA,418,GOIMA,41804,MAKAMAKA,PAMPAYI
DODOMA,41,CHEMBA,418,GOIMA,41804,IGUNGA,AIMABU
DODOMA,41,CHEMBA,418,GOIMA,41804,IGUNGA,USILWU
DODOMA,41,CHEMBA,418,GOIMA,41804,IGUNGA,ISIMABU
DODOMA,41,CHEMBA,418,GOIMA,41804,IGUNGA,LUGUGU
DODOMA,41,CHEMBA,418,GOIMA,41804,IGUNGA,ISUSUMYA
DODOMA,41,CHEMBA,418,GOIMA,41804,MIRAMBO,KONGO
DODOMA,41,CHEMBA,418,GOIMA,41804,MIRAMBO,IJARI
DODOMA,41,CHEMBA,418,GOIMA,41804,MIRAMBO,KONDIMO
DODOMA,41,CHEMBA,418,GOIMA,41804,MIRAMBO,MASANGE
DODOMA,41,CHEMBA,418,GOIMA,41804,MIRAMBO,SONGEA
DODOMA,41,CHEMBA,418,GOIMA,41804,JENJELUSE,MJINI
DODOMA,41,CHEMBA,418,GOIMA,41804,JENJELUSE,UGANDA
DODOMA,41,CHEMBA,418,GOIMA,41804,JENJELUSE,BAMAI
DODOMA,41,CHEMBA,418,GOIMA,41804,JENJELUSE,CHEKERENI
DODOMA,41,CHEMBA,418,GOIMA,41804,JENJELUSE,CHENGERE
DODOMA,41,CHEMBA,418,PARANGA,41805,KELEMA BALAI,CHANG’OMBE
DODOMA,41,CHEMBA,418,PARANGA,41805,KELEMA BALAI,MLIMANI
DODOMA,41,CHEMBA,418,PARANGA,41805,KELEMA BALAI,OFISI MASHARIKI
DODOMA,41,CHEMBA,418,PARANGA,41805,KELEMA BALAI,MUSI
DODOMA,41,CHEMBA,418,PARANGA,41805,KELEMA MASHARIKI,MSUI
DODOMA,41,CHEMBA,418,PARANGA,41805,KELEMA MASHARIKI,OFISI MASHARIKI
DODOMA,41,CHEMBA,418,PARANGA,41805,KELEMA MASHARIKI,IRENDI
DODOMA,41,CHEMBA,418,PARANGA,41805,PARANGA,MIEMBENI
DODOMA,41,CHEMBA,418,PARANGA,41805,PARANGA,MASAINI
DODOMA,41,CHEMBA,418,PARANGA,41805,PARANGA,GALANI
DODOMA,41,CHEMBA,418,PARANGA,41805,PARANGA,TUTANI
DODOMA,41,CHEMBA,418,PARANGA,41805,ISINI,CHANG’OMBE
DODOMA,41,CHEMBA,418,PARANGA,41805,ISINI,SHULENI
DODOMA,41,CHEMBA,418,PARANGA,41805,ISINI,OFISINI
DODOMA,41,CHEMBA,418,PARANGA,41805,SORI,SORI KATI
DODOMA,41,CHEMBA,418,PARANGA,41805,SORI,SORI SHAKA
DODOMA,41,CHEMBA,418,PARANGA,41805,SORI,MDUWAWI
DODOMA,41,CHEMBA,418,PARANGA,41805,SORI,CHETA
DODOMA,41,CHEMBA,418,PARANGA,41805,SORI,MASARI
DODOMA,41,CHEMBA,418,PARANGA,41805,CHEKU ‘B’,KIRUMBA
DODOMA,41,CHEMBA,418,PARANGA,41805,CHEKU ‘B’,MDUWAWI
DODOMA,41,CHEMBA,418,PARANGA,41805,CHEKU ‘B’,KWAWINTO
DODOMA,41,CHEMBA,418,PARANGA,41805,CHEKU ‘B’,MTUNGUMO
DODOMA,41,CHEMBA,418,PARANGA,41805,CHEKU ‘A',KWAWINTO
DODOMA,41,CHEMBA,418,PARANGA,41805,CHEKU ‘A',MBUGANI
DODOMA,41,CHEMBA,418,PARANGA,41805,CHEKU ‘A',OBALI
DODOMA,41,CHEMBA,418,PARANGA,41805,CHEKU ‘A',IRENDI
DODOMA,41,CHEMBA,418,PARANGA,41805,KELEMA KUU,KELEMA KUU
DODOMA,41,CHEMBA,418,PARANGA,41805,KELEMA KUU,KELEMA KATI
DODOMA,41,CHEMBA,418,PARANGA,41805,KELEMA KUU,NDOROBONI
DODOMA,41,CHEMBA,418,GWANDI,41806,GWANDI,GWANDI KATI
DODOMA,41,CHEMBA,418,GWANDI,41806,GWANDI,KIMBO GOLO
DODOMA,41,CHEMBA,418,GWANDI,41806,GWANDI,UGOGONI
DODOMA,41,CHEMBA,418,GWANDI,41806,GWANDI,BOMBANI
DODOMA,41,CHEMBA,418,GWANDI,41806,ROFATI,SHULENI
DODOMA,41,CHEMBA,418,GWANDI,41806,ROFATI,"MNIGAMBA
/CHANG’OMBE"
DODOMA,41,CHEMBA,418,GWANDI,41806,ROFATI,WEKENSEE
DODOMA,41,CHEMBA,418,GWANDI,41806,ROFATI,MAJENGO
DODOMA,41,CHEMBA,418,GWANDI,41806,MUUNGANO,MIGAMBA
DODOMA,41,CHEMBA,418,GWANDI,41806,MUUNGANO,UGANI
DODOMA,41,CHEMBA,418,GWANDI,41806,MUUNGANO,ZAHAWE
DODOMA,41,CHEMBA,418,FARKWA,41807,FARKWA,MISSION
DODOMA,41,CHEMBA,418,FARKWA,41807,FARKWA,BOMBANI
DODOMA,41,CHEMBA,418,FARKWA,41807,FARKWA,BARAZANI
DODOMA,41,CHEMBA,418,FARKWA,41807,BUGENIKA,KWADELO
DODOMA,41,CHEMBA,418,FARKWA,41807,BUGENIKA,CHAMWINO
DODOMA,41,CHEMBA,418,FARKWA,41807,BUGENIKA,DABIA
DODOMA,41,CHEMBA,418,FARKWA,41807,BUGENIKA,MBUYUNI
DODOMA,41,CHEMBA,418,FARKWA,41807,BUGENIKA,MIYONZI
DODOMA,41,CHEMBA,418,FARKWA,41807,BUBUTOLE,SAWE
DODOMA,41,CHEMBA,418,FARKWA,41807,BUBUTOLE,KICHANGANI
DODOMA,41,CHEMBA,418,FARKWA,41807,GONGA,GONGA CHINI
DODOMA,41,CHEMBA,418,FARKWA,41807,GONGA,MSANGA
DODOMA,41,CHEMBA,418,FARKWA,41807,GONGA,KITOBO
DODOMA,41,CHEMBA,418,FARKWA,41807,GONGA,SHULENI
DODOMA,41,CHEMBA,418,FARKWA,41807,GONGA CHINI,MOLONGISE
DODOMA,41,CHEMBA,418,FARKWA,41807,GONGA CHINI,QASTAWASE
DODOMA,41,CHEMBA,418,FARKWA,41807,GONGA CHINI,UMBAGE
DODOMA,41,CHEMBA,418,FARKWA,41807,DONSEE,BWAWANI
DODOMA,41,CHEMBA,418,FARKWA,41807,DONSEE,KAGERA
DODOMA,41,CHEMBA,418,FARKWA,41807,DONSEE,AMANI
DODOMA,41,CHEMBA,418,FARKWA,41807,DONSEE,MYOMBONI
DODOMA,41,CHEMBA,418,FARKWA,41807,MOMBOSE,MOMBOSE BARABARANI
DODOMA,41,CHEMBA,418,FARKWA,41807,MOMBOSE,MOMBOSE SHULENI
DODOMA,41,CHEMBA,418,KWAMTORO,41808,KWAMTORO,MIREMBE
DODOMA,41,CHEMBA,418,KWAMTORO,41808,KWAMTORO,SUGUDA
DODOMA,41,CHEMBA,418,KWAMTORO,41808,KWAMTORO,KULUSI
DODOMA,41,CHEMBA,418,KWAMTORO,41808,KWAMTORO,SINGIDA ROAD
DODOMA,41,CHEMBA,418,KWAMTORO,41808,KWAMTORO,MNADANI
DODOMA,41,CHEMBA,418,KWAMTORO,41808,KWAMTORO,MATONGONI
DODOMA,41,CHEMBA,418,KWAMTORO,41808,MSERA,MANASE
DODOMA,41,CHEMBA,418,KWAMTORO,41808,MSERA,MSERA KATI
DODOMA,41,CHEMBA,418,KWAMTORO,41808,MSERA,THOKOMA
DODOMA,41,CHEMBA,418,KWAMTORO,41808,PORO BANGUMA,BANGUMA SHULENI
DODOMA,41,CHEMBA,418,KWAMTORO,41808,PORO BANGUMA,NAMIE
DODOMA,41,CHEMBA,418,KWAMTORO,41808,PORO BANGUMA,KONKITA
DODOMA,41,CHEMBA,418,KWAMTORO,41808,PORO BANGUMA,PORO KATI
DODOMA,41,CHEMBA,418,KWAMTORO,41808,PORO BANGUMA,MANJOLE
DODOMA,41,CHEMBA,418,KWAMTORO,41808,PORO BANGUMA,MAATA
DODOMA,41,CHEMBA,418,KWAMTORO,41808,PORO BANGUMA,NNAWA
DODOMA,41,CHEMBA,418,KWAMTORO,41808,PORO BANGUMA,WARIMBA
DODOMA,41,CHEMBA,418,KWAMTORO,41808,KURIO,DODOMASE
DODOMA,41,CHEMBA,418,KWAMTORO,41808,KURIO,NJIAPANDA
DODOMA,41,CHEMBA,418,KWAMTORO,41808,KURIO,MULEBA
DODOMA,41,CHEMBA,418,KWAMTORO,41808,KURIO,KURIO KATI
DODOMA,41,CHEMBA,418,KWAMTORO,41808,KURIO,MNAZI MMOJA
DODOMA,41,CHEMBA,418,KWAMTORO,41808,KURIO,KURIO KASKAZINI
DODOMA,41,CHEMBA,418,KWAMTORO,41808,KURIO,TUMBELO
DODOMA,41,CHEMBA,418,KWAMTORO,41808,KURIO,TAMKA
DODOMA,41,CHEMBA,418,KWAMTORO,41808,NDOROBONI,NDOROBONI KATI
DODOMA,41,CHEMBA,418,KWAMTORO,41808,NDOROBONI,MAUZI
DODOMA,41,CHEMBA,418,KWAMTORO,41808,MIALO,KUNDESE
DODOMA,41,CHEMBA,418,KWAMTORO,41808,MIALO,MIALO
DODOMA,41,CHEMBA,418,KWAMTORO,41808,MIALO,MKINKI
DODOMA,41,CHEMBA,418,LALTA,41809,ILASEE,DOYO
DODOMA,41,CHEMBA,418,LALTA,41809,ILASEE,ILASEE KATI
DODOMA,41,CHEMBA,418,LALTA,41809,ILASEE,URUMIA
DODOMA,41,CHEMBA,418,LALTA,41809,MAGAMBUA,BWAWANI
DODOMA,41,CHEMBA,418,LALTA,41809,MAGAMBUA,JANGWANI
DODOMA,41,CHEMBA,418,LALTA,41809,MAGAMBUA,MIYOMBONI
DODOMA,41,CHEMBA,418,LALTA,41809,MAGAMBUA,BARAZANI
DODOMA,41,CHEMBA,418,LALTA,41809,MANANTU,WAMBURA
DODOMA,41,CHEMBA,418,LALTA,41809,MANANTU,MUGAMBE
DODOMA,41,CHEMBA,418,LALTA,41809,MANANTU,KWILILISE
DODOMA,41,CHEMBA,418,LALTA,41809,MANANTU,GENDARU
DODOMA,41,CHEMBA,418,LALTA,41809,MANANTU,IRENDI B
DODOMA,41,CHEMBA,418,LALTA,41809,WAIRO,WAIRO SHULENI
DODOMA,41,CHEMBA,418,LALTA,41809,WAIRO,UKOMBOZI
DODOMA,41,CHEMBA,418,LALTA,41809,WAIRO,BWAWANI
DODOMA,41,CHEMBA,418,LALTA,41809,WAIRO,WAIRO KATI
DODOMA,41,CHEMBA,418,OVADA,41810,MENGU,BOGHO
DODOMA,41,CHEMBA,418,OVADA,41810,MENGU,BORO
DODOMA,41,CHEMBA,418,OVADA,41810,MENGU,LELIMA
DODOMA,41,CHEMBA,418,OVADA,41810,MENGU,MEKENTOSE
DODOMA,41,CHEMBA,418,OVADA,41810,MENGU,LEBASEE
DODOMA,41,CHEMBA,418,OVADA,41810,BAABA,SHULENI
DODOMA,41,CHEMBA,418,OVADA,41810,BAABA,MARUNGA
DODOMA,41,CHEMBA,418,OVADA,41810,BAABA,MENDO
DODOMA,41,CHEMBA,418,OVADA,41810,BAABA,GOIMBA
DODOMA,41,CHEMBA,418,OVADA,41810,BAABA,KASAWE
DODOMA,41,CHEMBA,418,OVADA,41810,BAABA,SANGASE
DODOMA,41,CHEMBA,418,OVADA,41810,OVADA,MIYOMBONI
DODOMA,41,CHEMBA,418,OVADA,41810,OVADA,TWISNA
DODOMA,41,CHEMBA,418,OVADA,41810,OVADA,PAMBA
DODOMA,41,CHEMBA,418,OVADA,41810,OVADA,KILIMBA A
DODOMA,41,CHEMBA,418,OVADA,41810,OVADA,KILIMBA B
DODOMA,41,CHEMBA,418,OVADA,41810,OVADA,MANAKWA
DODOMA,41,CHEMBA,418,OVADA,41810,OVADA,GAYA
DODOMA,41,CHEMBA,418,OVADA,41810,OVADA,MBEYA
DODOMA,41,CHEMBA,418,OVADA,41810,OVADA,BOMBANI
DODOMA,41,CHEMBA,418,OVADA,41810,OVADA,MALA
DODOMA,41,CHEMBA,418,OVADA,41810,OVADA,SWEKI
DODOMA,41,CHEMBA,418,OVADA,41810,DINAE,JENJELUSE
DODOMA,41,CHEMBA,418,OVADA,41810,DINAE,MIEMBENI
DODOMA,41,CHEMBA,418,OVADA,41810,DINAE,WATIMA
DODOMA,41,CHEMBA,418,OVADA,41810,DINAE,KULUSI
DODOMA,41,CHEMBA,418,SANZAWA,41811,GUMBU,GUMBU KATI
DODOMA,41,CHEMBA,418,SANZAWA,41811,GUMBU,DEDU
DODOMA,41,CHEMBA,418,SANZAWA,41811,GUMBU,NANAYE/NAWASE
DODOMA,41,CHEMBA,418,SANZAWA,41811,GUMBU,TONKOLO
DODOMA,41,CHEMBA,418,SANZAWA,41811,GUMBU,CHORO
DODOMA,41,CHEMBA,418,SANZAWA,41811,MOTO,MOTO KATI
DODOMA,41,CHEMBA,418,SANZAWA,41811,MOTO,HUDUMA
DODOMA,41,CHEMBA,418,SANZAWA,41811,MOTO,WARIMBA
DODOMA,41,CHEMBA,418,SANZAWA,41811,MOTO,TISAPO
DODOMA,41,CHEMBA,418,SANZAWA,41811,MOTO,MANGASTA
DODOMA,41,CHEMBA,418,SANZAWA,41811,GUNGI,GUNGI KATI
DODOMA,41,CHEMBA,418,SANZAWA,41811,GUNGI,IRAMBA
DODOMA,41,CHEMBA,418,SANZAWA,41811,GUNGI,OMBAGE
DODOMA,41,CHEMBA,418,SANZAWA,41811,GUNGI,NTHAKATA
DODOMA,41,CHEMBA,418,SANZAWA,41811,GUNGI,MAJENGO
DODOMA,41,CHEMBA,418,SANZAWA,41811,SANZAWA,KONGWA
DODOMA,41,CHEMBA,418,SANZAWA,41811,SANZAWA,MAMBU
DODOMA,41,CHEMBA,418,SANZAWA,41811,SANZAWA,CHEREJEHO
DODOMA,41,CHEMBA,418,SANZAWA,41811,SANZAWA,AFASEE
DODOMA,41,CHEMBA,418,SANZAWA,41811,SANZAWA,BOKOTA
DODOMA,41,CHEMBA,418,SANZAWA,41811,SANZAWA,SONGAMBELE
DODOMA,41,CHEMBA,418,SANZAWA,41811,SANZAWA,UMBURE
DODOMA,41,CHEMBA,418,SANZAWA,41811,SANZAWA,BIRISE KATI
DODOMA,41,CHEMBA,418,SANZAWA,41811,SANZAWA,T'SWARO
DODOMA,41,CHEMBA,418,MPENDO,41812,MPENDO,NKANDE
DODOMA,41,CHEMBA,418,MPENDO,41812,MPENDO,MPENDO KATI
DODOMA,41,CHEMBA,418,MPENDO,41812,MPENDO,NOBILA
DODOMA,41,CHEMBA,418,MPENDO,41812,MPENDO,LEMESI
DODOMA,41,CHEMBA,418,MPENDO,41812,MPENDO,NZASA
DODOMA,41,CHEMBA,418,MPENDO,41812,MAGUNGU,MAGUNGU KATI
DODOMA,41,CHEMBA,418,MPENDO,41812,MAGUNGU,MAMBAKA   A
DODOMA,41,CHEMBA,418,MPENDO,41812,MAGUNGU,MAMBAKA   B
DODOMA,41,CHEMBA,418,MPENDO,41812,MAGUNGU,ZALANGA
DODOMA,41,CHEMBA,418,MPENDO,41812,HAMIA,HAMIA A
DODOMA,41,CHEMBA,418,MPENDO,41812,HAMIA,HAMIA B
DODOMA,41,CHEMBA,418,MPENDO,41812,HAMIA,HAMIA KATI
DODOMA,41,CHEMBA,418,MPENDO,41812,HAMIA,ZEZENGWARO
DODOMA,41,CHEMBA,418,MPENDO,41812,HAMIA,TOBAI
DODOMA,41,CHEMBA,418,MPENDO,41812,HAMIA,KIDONGO BASI
DODOMA,41,CHEMBA,418,MPENDO,41812,KUBI,KUBI
DODOMA,41,CHEMBA,418,MPENDO,41812,KUBI,MAMBAKA
DODOMA,41,CHEMBA,418,MPENDO,41812,KUBI,MPONDI
DODOMA,41,CHEMBA,418,MAKORONGO,41813,MAKORONGO,MAKONGORO A
DODOMA,41,CHEMBA,418,MAKORONGO,41813,MAKORONGO,MAKONGORO B
DODOMA,41,CHEMBA,418,MAKORONGO,41813,MAKORONGO,NAANTE
DODOMA,41,CHEMBA,418,MAKORONGO,41813,MAKORONGO,WENKENSE
DODOMA,41,CHEMBA,418,MAKORONGO,41813,MAKORONGO,SANZAWA
DODOMA,41,CHEMBA,418,MAKORONGO,41813,KHUBUNKO,SENGESEE
DODOMA,41,CHEMBA,418,MAKORONGO,41813,KHUBUNKO,ERENZESEE
DODOMA,41,CHEMBA,418,MAKORONGO,41813,KHUBUNKO,BASKO
DODOMA,41,CHEMBA,418,MAKORONGO,41813,MAZIWA,KUNISEE
DODOMA,41,CHEMBA,418,MAKORONGO,41813,MAZIWA,GUNGA
DODOMA,41,CHEMBA,418,MAKORONGO,41813,MAZIWA,GEDISEE
DODOMA,41,CHEMBA,418,MAKORONGO,41813,MAZIWA,MAZIWA SHULENI
DODOMA,41,CHEMBA,418,MAKORONGO,41813,MAZIWA,MALAMANDA
DODOMA,41,CHEMBA,418,MONDO,41814,MONDO,ARAA KATI
DODOMA,41,CHEMBA,418,MONDO,41814,MONDO,ARAA MKUNJO
DODOMA,41,CHEMBA,418,MONDO,41814,MONDO,PAMPUKA
DODOMA,41,CHEMBA,418,MONDO,41814,DAKI,DAKI CHINI
DODOMA,41,CHEMBA,418,MONDO,41814,DAKI,DAKI JUU
DODOMA,41,CHEMBA,418,MONDO,41814,DAKI,ELELE
DODOMA,41,CHEMBA,418,MONDO,41814,WAIDA,WAIDA KATI
DODOMA,41,CHEMBA,418,MONDO,41814,WAIDA,KUNAYO
DODOMA,41,CHEMBA,418,MONDO,41814,WAIDA,BAMBAYE
DODOMA,41,CHEMBA,418,MONDO,41814,WAIDA,SHALI JUU
DODOMA,41,CHEMBA,418,MONDO,41814,PONGAI,PONGAI JUU
DODOMA,41,CHEMBA,418,MONDO,41814,PONGAI,PONGAI KATI
DODOMA,41,CHEMBA,418,MONDO,41814,PONGAI,PONGAI CHINI
DODOMA,41,CHEMBA,418,DALAI,41815,DALAI,LUVAI
DODOMA,41,CHEMBA,418,DALAI,41815,DALAI,CHANG’OMBE
DODOMA,41,CHEMBA,418,DALAI,41815,DALAI,WAMGAIRO
DODOMA,41,CHEMBA,418,DALAI,41815,DALAI,MGUNGANI
DODOMA,41,CHEMBA,418,DALAI,41815,TANDALA,WOMBE
DODOMA,41,CHEMBA,418,DALAI,41815,TANDALA,URINGWI
DODOMA,41,CHEMBA,418,DALAI,41815,TANDALA,HOLWI
DODOMA,41,CHEMBA,418,DALAI,41815,NJOENI MUONE,NJOENI MUONE
DODOMA,41,CHEMBA,418,DALAI,41815,NJOENI MUONE,ILOLWI
DODOMA,41,CHEMBA,418,DALAI,41815,NJOENI MUONE,UWINWI
DODOMA,41,CHEMBA,418,DALAI,41815,NJOENI MUONE,KIBAONI
DODOMA,41,CHEMBA,418,DALAI,41815,ITIRIKWI,ITIRIKWI
DODOMA,41,CHEMBA,418,DALAI,41815,ITIRIKWI,KIFUKULWA
DODOMA,41,CHEMBA,418,DALAI,41815,ITIRIKWI,ITAMYA
DODOMA,41,CHEMBA,418,DALAI,41815,MTAKUJA,MBUGANI
DODOMA,41,CHEMBA,418,DALAI,41815,MTAKUJA,RUFUTWI
DODOMA,41,CHEMBA,418,DALAI,41815,MTAKUJA,RUSANGI
DODOMA,41,CHEMBA,418,DALAI,41815,MTAKUJA,MCHEMWA
DODOMA,41,CHEMBA,418,DALAI,41815,PIHO,SARARA
DODOMA,41,CHEMBA,418,DALAI,41815,PIHO,KWAMAJALA
DODOMA,41,CHEMBA,418,DALAI,41815,KELEMA MAZIWANI,AMITI
DODOMA,41,CHEMBA,418,DALAI,41815,KELEMA MAZIWANI,CHIMI
DODOMA,41,CHEMBA,418,DALAI,41815,KELEMA MAZIWANI,KITAKI
DODOMA,41,CHEMBA,418,DALAI,41815,KELEMA MAZIWANI,DARAJANI
DODOMA,41,CHEMBA,418,DALAI,41815,KELEMA MAZIWANI,CHOKOBAI
DODOMA,41,CHEMBA,418,DALAI,41815,KELEMA MAZIWANI,BWAWANI
DODOMA,41,CHEMBA,418,DALAI,41815,KELEMA MAZIWANI,MKOROSHINI
DODOMA,41,CHEMBA,418,JANGALO,41816,JANGALO,MADUKANI
DODOMA,41,CHEMBA,418,JANGALO,41816,JANGALO,CHAKUKU
DODOMA,41,CHEMBA,418,JANGALO,41816,JANGALO,KIVUKONI
DODOMA,41,CHEMBA,418,JANGALO,41816,JANGALO,MSIA
DODOMA,41,CHEMBA,418,JANGALO,41816,JANGALO,CHANG’OMBE
DODOMA,41,CHEMBA,418,JANGALO,41816,JANGALO,CHANIKA
DODOMA,41,CHEMBA,418,JANGALO,41816,MLONGIA,BUSTANI
DODOMA,41,CHEMBA,418,JANGALO,41816,MLONGIA,BANDA NGOZI
DODOMA,41,CHEMBA,418,JANGALO,41816,MLONGIA,ISUSUMYA
DODOMA,41,CHEMBA,418,JANGALO,41816,MLONGIA,NGARIBA
DODOMA,41,CHEMBA,418,JANGALO,41816,MLONGIA,TANGINI
DODOMA,41,CHEMBA,418,JANGALO,41816,MLONGIA,MTAKUJA
DODOMA,41,CHEMBA,418,JANGALO,41816,MLONGIA,SOKOINE
DODOMA,41,CHEMBA,418,JANGALO,41816,ITOLWA,MACHAKOSI
DODOMA,41,CHEMBA,418,JANGALO,41816,ITOLWA,ITOLWA
DODOMA,41,CHEMBA,418,JANGALO,41816,ITOLWA,MWADUI
DODOMA,41,CHEMBA,418,JANGALO,41816,ITOLWA,KIBAKU
DODOMA,41,CHEMBA,418,JANGALO,41816,ITOLWA,RUVAI
DODOMA,41,CHEMBA,418,JANGALO,41816,ITOLWA,MATEMBO
DODOMA,41,CHEMBA,418,JANGALO,41816,CHEMKA,CHEMKA
DODOMA,41,CHEMBA,418,JANGALO,41816,CHEMKA,NGWAMBI
DODOMA,41,CHEMBA,418,JANGALO,41816,CHEMKA,WISI
DODOMA,41,CHEMBA,418,JANGALO,41816,CHEMKA,CHANG’OMBE
DODOMA,41,CHEMBA,418,JANGALO,41816,CHEMKA,KWAMGOHI
DODOMA,41,CHEMBA,418,JANGALO,41816,CHEMKA,LUSINDI
DODOMA,41,CHEMBA,418,CHURUKU,41817,CHURUKU,MADUKANI
DODOMA,41,CHEMBA,418,CHURUKU,41817,CHURUKU,KWA MSAMI
DODOMA,41,CHEMBA,418,CHURUKU,41817,CHURUKU,CHANG’OMBE A
DODOMA,41,CHEMBA,418,CHURUKU,41817,CHURUKU,CHANG’OMBE B
DODOMA,41,CHEMBA,418,CHURUKU,41817,CHURUKU,UGANDA
DODOMA,41,CHEMBA,418,CHURUKU,41817,JINJO,JINJO KATI
DODOMA,41,CHEMBA,418,CHURUKU,41817,JINJO,MAJENGO MAPYA
DODOMA,41,CHEMBA,418,CHURUKU,41817,JINJO,CHANG’OMBE
DODOMA,41,CHEMBA,418,CHURUKU,41817,JINJO,MWINYAMWIRI
DODOMA,41,CHEMBA,418,CHURUKU,41817,KINKIMA,LUSANGI
DODOMA,41,CHEMBA,418,CHURUKU,41817,KINKIMA,UGANDA
DODOMA,41,CHEMBA,418,CHURUKU,41817,KINKIMA,BAGAMOYO
DODOMA,41,CHEMBA,418,CHURUKU,41817,KINKIMA,MASHINENI
DODOMA,41,CHEMBA,418,CHURUKU,41817,KINKIMA,MBUGANI
DODOMA,41,CHEMBA,418,CHURUKU,41817,KINKIMA,ISUSUMYA
DODOMA,41,CHEMBA,418,CHURUKU,41817,KINKIMA,CHEKA NAO
DODOMA,41,CHEMBA,418,MSAADA,41818,MSAADA,KIVUKONI
DODOMA,41,CHEMBA,418,MSAADA,41818,MSAADA,KIJIWENI
DODOMA,41,CHEMBA,418,MSAADA,41818,MSAADA,MSAADA A
DODOMA,41,CHEMBA,418,MSAADA,41818,MSAADA,MSAADA B
DODOMA,41,CHEMBA,418,MSAADA,41818,SONGAMBELE,SONGAMBELE
DODOMA,41,CHEMBA,418,MSAADA,41818,SONGAMBELE,MANDELA
DODOMA,41,CHEMBA,418,MSAADA,41818,SONGAMBELE,CHAMBURI
DODOMA,41,CHEMBA,418,MSAADA,41818,MACHIGA,MACHIGA SHULENI
DODOMA,41,CHEMBA,418,MSAADA,41818,MACHIGA,MACHINGA MJINI
DODOMA,41,CHEMBA,418,MSAADA,41818,CHANGAMKA,BINAURI
DODOMA,41,CHEMBA,418,MSAADA,41818,CHANGAMKA,MNANGARI
DODOMA,41,CHEMBA,418,MSAADA,41818,CHANGAMKA,CHANGAMKA MJINI
DODOMA,41,CHEMBA,418,MSAADA,41818,CHANGAMKA,CHANGAMKA SHULENI
DODOMA,41,CHEMBA,418,MSAADA,41818,MAJENGO MAPYA,MAJENGO’A’
DODOMA,41,CHEMBA,418,MSAADA,41818,MAJENGO MAPYA,MAJENGO’B’
DODOMA,41,CHEMBA,418,SONGOLO,41819,SONGOLO,CHANG’OMBE
DODOMA,41,CHEMBA,418,SONGOLO,41819,SONGOLO,CHAMBURIKA
DODOMA,41,CHEMBA,418,SONGOLO,41819,SONGOLO,KINDO
DODOMA,41,CHEMBA,418,SONGOLO,41819,SONGOLO,KWAMADEBE
DODOMA,41,CHEMBA,418,SONGOLO,41819,MADAHA,MADAHA
DODOMA,41,CHEMBA,418,SONGOLO,41819,MADAHA,MALARIA
DODOMA,41,CHEMBA,418,SONGOLO,41819,MADAHA,KWADURIA
DODOMA,41,CHEMBA,418,SONGOLO,41819,HAMAI,UGANDA
DODOMA,41,CHEMBA,418,SONGOLO,41819,HAMAI,ZAMBIA
DODOMA,41,CHEMBA,418,SONGOLO,41819,HAMAI,CHANG’OMBE
DODOMA,41,CHEMBA,418,SONGOLO,41819,CHIOLI,CHIOLI
DODOMA,41,CHEMBA,418,SONGOLO,41819,CHIOLI,MANYATA
DODOMA,41,CHEMBA,418,SONGOLO,41819,CHIOLI,RADIO ONE
DODOMA,41,CHEMBA,418,SONGOLO,41819,CHIOLI,KINANDA
DODOMA,41,CHEMBA,418,SOYA,41820,SOYA,MADUKANI
DODOMA,41,CHEMBA,418,SOYA,41820,SOYA,MIEMBENI
DODOMA,41,CHEMBA,418,SOYA,41820,SOYA,KWALUPINDE
DODOMA,41,CHEMBA,418,SOYA,41820,SOYA,UZUNGUNI
DODOMA,41,CHEMBA,418,SOYA,41820,CHANG’OMBE,CHANG’OMBE
DODOMA,41,CHEMBA,418,SOYA,41820,CHANG’OMBE,MAJENGO
DODOMA,41,CHEMBA,418,SOYA,41820,CHANG’OMBE,LUSANGI
DODOMA,41,CHEMBA,418,SOYA,41820,CHANG’OMBE,UKANYI
DODOMA,41,CHEMBA,418,SOYA,41820,CHANG’OMBE,MIGUNGANI JUU
DODOMA,41,CHEMBA,418,SOYA,41820,MAGANDI,MAGANDI  A
DODOMA,41,CHEMBA,418,SOYA,41820,MAGANDI,MAGANDI  B
DODOMA,41,CHEMBA,418,SOYA,41820,MAGANDI,MSASU
DODOMA,41,CHEMBA,418,SOYA,41820,MBARADA,MBARADA   A
DODOMA,41,CHEMBA,418,SOYA,41820,MBARADA,MBARADA    B
DODOMA,41,CHEMBA,418,SOYA,41820,MBARADA,NTOMOKO
DODOMA,41,CHEMBA,418,KIMAHA,41821,MWAILANJE,MANGAZIGO
DODOMA,41,CHEMBA,418,KIMAHA,41821,MWAILANJE,CHANG’OMBE
DODOMA,41,CHEMBA,418,KIMAHA,41821,MWAILANJE,MADUKANI
DODOMA,41,CHEMBA,418,KIMAHA,41821,MWAILANJE,BUNZUKO
DODOMA,41,CHEMBA,418,KIMAHA,41821,MWAILANJE,IRAKI
DODOMA,41,CHEMBA,418,KIMAHA,41821,MWAILANJE,MBUGANI
DODOMA,41,CHEMBA,418,KIMAHA,41821,MWAIKISABE,BWAWANI
DODOMA,41,CHEMBA,418,KIMAHA,41821,MWAIKISABE,MAJENGO
DODOMA,41,CHEMBA,418,KIMAHA,41821,MWAIKISABE,PAMANDA
DODOMA,41,CHEMBA,418,KIMAHA,41821,MWAIKISABE,CHANG’OMBE
DODOMA,41,CHEMBA,418,KIMAHA,41821,MWAIKISABE,LUGOBA
DODOMA,41,CHEMBA,418,KIMAHA,41821,CHUKURUMA,KINANGARI
DODOMA,41,CHEMBA,418,KIMAHA,41821,CHUKURUMA,MAJENGO
DODOMA,41,CHEMBA,418,KIMAHA,41821,CHUKURUMA,KIVUKONI
DODOMA,41,CHEMBA,418,KIMAHA,41821,CHUKURUMA,KOLOMBIRI
DODOMA,41,CHEMBA,418,KIMAHA,41821,CHUKURUMA,MADUKANI
DODOMA,41,CHEMBA,418,KIMAHA,41821,WISUZAJE,MTAKUJA
DODOMA,41,CHEMBA,418,KIMAHA,41821,WISUZAJE,MASAINI
DODOMA,41,CHEMBA,418,KIMAHA,41821,WISUZAJE,MADUKANI
DODOMA,41,CHEMBA,418,KIMAHA,41821,WISUZAJE,ZINJE
DODOMA,41,CHEMBA,418,KIDOKA,41822,KIDOKA,SHULENI
DODOMA,41,CHEMBA,418,KIDOKA,41822,KIDOKA,MAKARAMA
DODOMA,41,CHEMBA,418,KIDOKA,41822,KIDOKA,KIMAMBO
DODOMA,41,CHEMBA,418,KIDOKA,41822,KIDOKA,UKOMBOZI
DODOMA,41,CHEMBA,418,KIDOKA,41822,OMBIRI,CHUKURUNI
DODOMA,41,CHEMBA,418,KIDOKA,41822,OMBIRI,KAFAO
DODOMA,41,CHEMBA,418,KIDOKA,41822,OMBIRI,KAPETA
DODOMA,41,CHEMBA,418,KIDOKA,41822,OMBIRI,MOROKA
DODOMA,41,CHEMBA,418,KIDOKA,41822,MUUNGANO,CHANG’OMBE
DODOMA,41,CHEMBA,418,KIDOKA,41822,MUUNGANO,RALEHI
DODOMA,41,CHEMBA,418,KIDOKA,41822,MUUNGANO,KANDA YA KATI
DODOMA,41,CHEMBA,418,KIDOKA,41822,MUUNGANO,KAACHINI
DODOMA,41,CHEMBA,418,KIDOKA,41822,PANGALUA,AMANI
DODOMA,41,CHEMBA,418,KIDOKA,41822,PANGALUA,MUUNGANO
DODOMA,41,CHEMBA,418,KIDOKA,41822,PANGALUA,IGARE
DODOMA,41,CHEMBA,418,BABAYU,41823,BABAYU,BABAYU
DODOMA,41,CHEMBA,418,BABAYU,41823,BABAYU,MUHANGA
DODOMA,41,CHEMBA,418,BABAYU,41823,BABAYU,MNASE
DODOMA,41,CHEMBA,418,BABAYU,41823,BABAYU,WENKENSEE
DODOMA,41,CHEMBA,418,BABAYU,41823,MASIMBA,MSIMBA  A
DODOMA,41,CHEMBA,418,BABAYU,41823,MASIMBA,MASIMBA  B
DODOMA,41,CHEMBA,418,BABAYU,41823,MASIMBA,MNASE     A
DODOMA,41,CHEMBA,418,BABAYU,41823,MASIMBA,MHANGA
DODOMA,41,CHEMBA,418,BABAYU,41823,CHASE,CHASE SHULENI
DODOMA,41,CHEMBA,418,BABAYU,41823,CHASE,DALAI
DODOMA,41,CHEMBA,418,BABAYU,41823,CHASE,NAANTE
DODOMA,41,CHEMBA,418,BABAYU,41823,CHASE,DOLEE
DODOMA,41,CHEMBA,418,BABAYU,41823,CHASE,ZIHAWA
DODOMA,41,CHEMBA,418,BABAYU,41823,CHINYIKA,CHINYIKA
DODOMA,41,CHEMBA,418,BABAYU,41823,CHINYIKA,MAJENGO
DODOMA,41,CHEMBA,418,BABAYU,41823,CHINYIKA,HUBU
DODOMA,41,CHEMBA,418,BABAYU,41823,CHINYIKA,ZEZENGWALO
DODOMA,41,CHEMBA,418,TUMBAKOSE,41824,TUMBAKOSE,SHULENI
DODOMA,41,CHEMBA,418,TUMBAKOSE,41824,TUMBAKOSE,MADEBE
DODOMA,41,CHEMBA,418,TUMBAKOSE,41824,TUMBAKOSE,MBUGANI KIMPOKA
DODOMA,41,CHEMBA,418,TUMBAKOSE,41824,TUMBAKOSE,KIYOLI
DODOMA,41,CHEMBA,418,TUMBAKOSE,41824,HAWELO,HAWELO SHULENI
DODOMA,41,CHEMBA,418,TUMBAKOSE,41824,HAWELO,ZAWEZE MGOMORE
DODOMA,41,CHEMBA,418,TUMBAKOSE,41824,HAWELO,MIYOMBONI A
DODOMA,41,CHEMBA,418,TUMBAKOSE,41824,HAWELO,MIYOMBONI B
DODOMA,41,CHEMBA,418,TUMBAKOSE,41824,HUMEKWA,HUMEKWA KATI
DODOMA,41,CHEMBA,418,TUMBAKOSE,41824,HUMEKWA,MLIMANI
DODOMA,41,CHEMBA,418,TUMBAKOSE,41824,HUMEKWA,MGOMORE
DODOMA,41,CHEMBA,418,TUMBAKOSE,41824,HUMEKWA,MIYOMBONI NGUJI
DODOMA,41,CHEMBA,418,KINYAMSHINDO,41825,JOGOLO,DUREE
DODOMA,41,CHEMBA,418,KINYAMSHINDO,41825,JOGOLO,MAREBU
DODOMA,41,CHEMBA,418,KINYAMSHINDO,41825,JOGOLO,BOMBANI
DODOMA,41,CHEMBA,418,KINYAMSHINDO,41825,KINYAMSINDO,DARAJANI
DODOMA,41,CHEMBA,418,KINYAMSHINDO,41825,KINYAMSINDO,KOMORO
DODOMA,41,CHEMBA,418,KINYAMSHINDO,41825,KINYAMSINDO,MSUMBIJI
DODOMA,41,CHEMBA,418,KINYAMSHINDO,41825,KINYAMSINDO,MPAKANI
DODOMA,41,CHEMBA,418,KINYAMSHINDO,41825,KINYAMSINDO,AFUMA
DODOMA,41,CHEMBA,418,KINYAMSHINDO,41825,KINYAMSINDO,KHATSAA
DODOMA,41,CHEMBA,418,KINYAMSHINDO,41825,TAKWA,MNADANI
DODOMA,41,CHEMBA,418,KINYAMSHINDO,41825,TAKWA,KIPINGIRI
DODOMA,41,CHEMBA,418,KINYAMSHINDO,41825,TAKWA,MIYOMBONI
DODOMA,41,CHEMBA,418,KINYAMSHINDO,41825,TAKWA,BOMBANI
DODOMA,41,CHEMBA,418,LAHODA,41826,LAHODA,MYOMBONI
DODOMA,41,CHEMBA,418,LAHODA,41826,LAHODA,BWAWANI
DODOMA,41,CHEMBA,418,LAHODA,41826,LAHODA,MBUGANI MASHARIKI
DODOMA,41,CHEMBA,418,LAHODA,41826,LAHODA,MBUGANI MAGHARIBI
DODOMA,41,CHEMBA,418,LAHODA,41826,LAHODA,MIEMBENI
DODOMA,41,CHEMBA,418,LAHODA,41826,HANDA,MBUGANI
DODOMA,41,CHEMBA,418,LAHODA,41826,HANDA,MKOLAHANJE
DODOMA,41,CHEMBA,418,LAHODA,41826,HANDA,MNANG’ANA
DODOMA,41,CHEMBA,418,LAHODA,41826,HANDA,ILALA  ‘ A’
DODOMA,41,CHEMBA,418,LAHODA,41826,HANDA,ILALA    ‘B’
DODOMA,41,CHEMBA,418,LAHODA,41826,KISANDE,MATUMBO
DODOMA,41,CHEMBA,418,LAHODA,41826,KISANDE,SHAURI MOYO
DODOMA,41,CHEMBA,418,LAHODA,41826,KISANDE,MAHIMBA
