REGION,POSTCODE,DISTRICT,POSTCODE,WARD,POSTCODE,STREET,PLACES
GEITA,30,GEITA,301,KALANGALALA,30101,NYERERE ROAD,
GEITA,30,GEITA,301,KALANGALALA,30101,NYANZA,
GEITA,30,GEITA,301,KALANGALALA,30101,MSALALA ROAD,
GEITA,30,GEITA,301,KALANGALALA,30101,MISSION,
GEITA,30,GEITA,301,KALANGALALA,30101,KIVUKONI,
GEITA,30,GEITA,301,KALANGALALA,30101,MBUNGANI,
GEITA,30,GEITA,301,KALANGALALA,30101,KATOMA,
GEITA,30,GEITA,301,KALANGALALA,30101,LWENGE,
GEITA,30,GEITA,301,KALANGALALA,30101,UJAMAA,
GEITA,30,GEITA,301,KALANGALALA,30101,TAMBUKA RELI,
GEITA,30,GEITA,301,KALANGALALA,30101,MKOANI,
GEITA,30,GEITA,301,KAMHANGA,30102,KISHINDA,SENTA
GEITA,30,GEITA,301,KAMHANGA,30102,KISHINDA,NG'WABAGIKULU
GEITA,30,GEITA,301,KAMHANGA,30102,KISHINDA,IKAMAJA
GEITA,30,GEITA,301,KAMHANGA,30102,KISHINDA,"BUKUMBI ""A"""
GEITA,30,GEITA,301,KAMHANGA,30102,KISHINDA,"BUKUMBI ""B"""
GEITA,30,GEITA,301,KAMHANGA,30102,KISHINDA,"NYANZUMULA ""A"""
GEITA,30,GEITA,301,KAMHANGA,30102,KISHINDA,"NYANZUMLA ""B"""
GEITA,30,GEITA,301,KAMHANGA,30102,KAMHANGA,SENTA
GEITA,30,GEITA,301,KAMHANGA,30102,KAMHANGA,NG’WANGIKA
GEITA,30,GEITA,301,KAMHANGA,30102,KAMHANGA,KABUYANGE
GEITA,30,GEITA,301,KAMHANGA,30102,KAMHANGA,NYALUMAMBO
GEITA,30,GEITA,301,KAMHANGA,30102,KAMHANGA,NG'WABALUHI
GEITA,30,GEITA,301,KAMHANGA,30102,KAMHANGA,ILAGAJA
GEITA,30,GEITA,301,KAMHANGA,30102,MKOLANI II,SENTA
GEITA,30,GEITA,301,KAMHANGA,30102,MKOLANI II,SEKAGI “A”
GEITA,30,GEITA,301,KAMHANGA,30102,MKOLANI II,SEKAGI “B”
GEITA,30,GEITA,301,KAMHANGA,30102,MKOLANI II,NYANDEKWA
GEITA,30,GEITA,301,KAMHANGA,30102,MKOLANI II,KISIWANI “A”
GEITA,30,GEITA,301,KAMHANGA,30102,MKOLANI II,KISIWANI “B”
GEITA,30,GEITA,301,KAMHANGA,30102,MKOLANI II,NYAMISESE “A”
GEITA,30,GEITA,301,KAMHANGA,30102,MKOLANI II,NYAMISESE “B”
GEITA,30,GEITA,301,KAMHANGA,30102,MKOLANI II,IGALIHYA “A”
GEITA,30,GEITA,301,KAMHANGA,30102,MKOLANI II,IGALIHYA “B”
GEITA,30,GEITA,301,KAMHANGA,30102,ISAMILO,MLIMANI
GEITA,30,GEITA,301,KAMHANGA,30102,ISAMILO,MWABASABI
GEITA,30,GEITA,301,KAMHANGA,30102,ISAMILO,ISENI
GEITA,30,GEITA,301,KAMHANGA,30102,ISAMILO,SENTA
GEITA,30,GEITA,301,KASAMWA,30103,KABUYOMBO,SENTA
GEITA,30,GEITA,301,KASAMWA,30103,N.M.C,SENTA
GEITA,30,GEITA,301,KASAMWA,30103,KASAMWA,SENTA
GEITA,30,GEITA,301,KASAMWA,30103,NYAKAHONGOLA,SENTA
GEITA,30,GEITA,301,KASAMWA,30103,KIGOMA ROAD,SENTA
GEITA,30,GEITA,301,KASAMWA,30103,NYAMPA,SENTA
GEITA,30,GEITA,301,KASAMWA,30103,NYABUBELE,SENTA
GEITA,30,GEITA,301,KASAMWA,30103,NYAMAHUNA,SENTA
GEITA,30,GEITA,301,KASAMWA,30103,KASAMWA,SENTA
GEITA,30,GEITA,301,IHANAMILO,30104,IKULWA,SENTA
GEITA,30,GEITA,301,IHANAMILO,30104,WIGEMBYA,SENTA
GEITA,30,GEITA,301,IHANAMILO,30104,NYAKAHENGELE,SENTA
GEITA,30,GEITA,301,IHANAMILO,30104,IGENGE,NYAKAHENGELE B
GEITA,30,GEITA,301,IHANAMILO,30104,IGENGE,MLEHE
GEITA,30,GEITA,301,IHANAMILO,30104,IGENGE,SENTA
GEITA,30,GEITA,301,IHANAMILO,30104,IGENGE,MISESE
GEITA,30,GEITA,301,IHANAMILO,30104,BUNEGEZI,BUGANDO
GEITA,30,GEITA,301,IHANAMILO,30104,BUNEGEZI,MWABASABI
GEITA,30,GEITA,301,IHANAMILO,30104,BUNEGEZI,MISESE
GEITA,30,GEITA,301,IHANAMILO,30104,BUNEGEZI,SENTA
GEITA,30,GEITA,301,NYAKAMWAGA,30105,NYAKAMWAGA,KISOMOKO “A”
GEITA,30,GEITA,301,NYAKAMWAGA,30105,NYAKAMWAGA,KISOMOKO “B”
GEITA,30,GEITA,301,NYAKAMWAGA,30105,NYAKAMWAGA,KATOBOLWA
GEITA,30,GEITA,301,NYAKAMWAGA,30105,NYAKAMWAGA,IBANDA
GEITA,30,GEITA,301,NYAKAMWAGA,30105,NYAKAMWAGA,GENGESABA
GEITA,30,GEITA,301,NYAKAMWAGA,30105,KASHISHI,KASHISHI  SENTA
GEITA,30,GEITA,301,NYAKAMWAGA,30105,KASHISHI,MWAMBA
GEITA,30,GEITA,301,NYAKAMWAGA,30105,KASHISHI,DARAJANI
GEITA,30,GEITA,301,NYAKAMWAGA,30105,IHEMELO,GENGENANE
GEITA,30,GEITA,301,NYAKAMWAGA,30105,IHEMELO,MWABASABI
GEITA,30,GEITA,301,NYAKAMWAGA,30105,IHEMELO,SHIGEMELO
GEITA,30,GEITA,301,NYAKAMWAGA,30105,BUFUNDA,GENGETANO
GEITA,30,GEITA,301,NYAKAMWAGA,30105,BUFUNDA,BUFUNDA
GEITA,30,GEITA,301,NYAKAMWAGA,30105,BUFUNDA,IGALAMO
GEITA,30,GEITA,301,NYAKAMWAGA,30105,BUFUNDA,NYAMUSWA
GEITA,30,GEITA,301,NYAKAMWAGA,30105,KASUNGAMILE,BUTENDA
GEITA,30,GEITA,301,NYAKAMWAGA,30105,KASUNGAMILE,KASUNGAMILE SENTA
GEITA,30,GEITA,301,NYAKAMWAGA,30105,KASUNGAMILE,NYABULOLO “A”
GEITA,30,GEITA,301,NYAKAMWAGA,30105,KASUNGAMILE,NYABULOLO “B”
GEITA,30,GEITA,301,NYAKAMWAGA,30105,BUYAGU,BUYAGU KATI
GEITA,30,GEITA,301,NYAKAMWAGA,30105,BUYAGU,"BUYAGU ""B"""
GEITA,30,GEITA,301,NYAKAMWAGA,30105,BUYAGU,BUYAGU STOO
GEITA,30,GEITA,301,NYAKAMWAGA,30105,BUYAGU,SONGAMBELE
GEITA,30,GEITA,301,NYAKAMWAGA,30105,BUGALAHINGA,ILYAMCHELE
GEITA,30,GEITA,301,NYAKAMWAGA,30105,BUGALAHINGA,IBISABAGENI
GEITA,30,GEITA,301,NYAKAMWAGA,30105,BUGALAHINGA,NG'WABASABI
GEITA,30,GEITA,301,NYAKAMWAGA,30105,IPONYAMAKALAI,IBONDO
GEITA,30,GEITA,301,NYAKAMWAGA,30105,IPONYAMAKALAI,IPONYAMAKALAI SENTA
GEITA,30,GEITA,301,NYAKAMWAGA,30105,IPONYAMAKALAI,KASENI
GEITA,30,GEITA,301,NYAKAMWAGA,30105,IPONYAMAKALAI,IZUNYA
GEITA,30,GEITA,301,MTAKUJA,30106,MPONVU,
GEITA,30,GEITA,301,MTAKUJA,30106,SAMINA,
GEITA,30,GEITA,301,MTAKUJA,30106,KASENI,
GEITA,30,GEITA,301,MTAKUJA,30106,MBABANI,
GEITA,30,GEITA,301,MTAKUJA,30106,BWIHEGULE,
GEITA,30,GEITA,301,MTAKUJA,30106,KOMPAUNDI,
GEITA,30,GEITA,301,MTAKUJA,30106,NYAMALEMBO,
GEITA,30,GEITA,301,KAGU,30107,KAGU,SENTA
GEITA,30,GEITA,301,KAGU,30107,KAGU,MBOGWA
GEITA,30,GEITA,301,KAGU,30107,KAGU,MLALO
GEITA,30,GEITA,301,KAGU,30107,KAGU,CHANKUNGU
GEITA,30,GEITA,301,KAGU,30107,BUHANGIZI,CHIKAGATI
GEITA,30,GEITA,301,KAGU,30107,BUHANGIZI,MRAMANI
GEITA,30,GEITA,301,KAGU,30107,BUHANGIZI,BUHANGIZI
GEITA,30,GEITA,301,KAGU,30107,BUHANGIZI,LUKOBE
GEITA,30,GEITA,301,KAGU,30107,LWEMO,SENTA
GEITA,30,GEITA,301,KAGU,30107,LWEMO,LUCHILAMITI
GEITA,30,GEITA,301,KAGU,30107,LWEMO,CHABUHA
GEITA,30,GEITA,301,KAGU,30107,LWEMO,KIZEMO
GEITA,30,GEITA,301,KAGU,30107,LWEMO,MBUGANI
GEITA,30,GEITA,301,KAGU,30107,NYAMIGANA,KIVUKONI
GEITA,30,GEITA,301,KAGU,30107,NYAMIGANA,SHILABELA
GEITA,30,GEITA,301,KAGU,30107,NYAMIGANA,UJAMAA
GEITA,30,GEITA,301,LUBANGA,30108,LUBANGA,NYAKATUNDU
GEITA,30,GEITA,301,LUBANGA,30108,LUBANGA,LUNZELELE
GEITA,30,GEITA,301,LUBANGA,30108,LUBANGA,LUBANGA SENTA
GEITA,30,GEITA,301,LUBANGA,30108,LUBANGA,NG'WABATEMBA
GEITA,30,GEITA,301,LUBANGA,30108,LUBANGA,IZUNYA
GEITA,30,GEITA,301,LUBANGA,30108,LUBANGA,BULUGALA
GEITA,30,GEITA,301,LUBANGA,30108,MTAKUJA II,NKALWA
GEITA,30,GEITA,301,LUBANGA,30108,MTAKUJA II,BUKILIGULU
GEITA,30,GEITA,301,LUBANGA,30108,MTAKUJA II,ISADUKILO
GEITA,30,GEITA,301,LUBANGA,30108,MTAKUJA II,NG’WAMITILWA
GEITA,30,GEITA,301,LUBANGA,30108,MTAKUJA II,MWATULOLE
GEITA,30,GEITA,301,LUBANGA,30108,NG’WABAGALU,MIGOMBANI
GEITA,30,GEITA,301,LUBANGA,30108,NG’WABAGALU,MIEMBENI
GEITA,30,GEITA,301,LUBANGA,30108,NG’WABAGALU,NG’WAGIMAGI
GEITA,30,GEITA,301,LUBANGA,30108,MWAMITILWA,MWAMITILWA SENTA
GEITA,30,GEITA,301,LUBANGA,30108,MWAMITILWA,ITULANGATA
GEITA,30,GEITA,301,LUBANGA,30108,MWAMITILWA,ILYAMCHELE
GEITA,30,GEITA,301,LUBANGA,30108,MWAMITILWA,MAJENGO
GEITA,30,GEITA,301,LUBANGA,30108,MWAMITILWA,MISHENI
GEITA,30,GEITA,301,LUBANGA,30108,IGAKA,NYAKATUNDU
GEITA,30,GEITA,301,LUBANGA,30108,IGAKA,IGINYA
GEITA,30,GEITA,301,LUBANGA,30108,IGAKA,NG’WAMATUMBA
GEITA,30,GEITA,301,BULELA,30109,BULELA,MADUKANI
GEITA,30,GEITA,301,BULELA,30109,BULELA,BUNGWE
GEITA,30,GEITA,301,BULELA,30109,BULELA,NYAMPAKAWE
GEITA,30,GEITA,301,BULELA,30109,BULELA,SHULENI
GEITA,30,GEITA,301,BULELA,30109,NYASEKE,MADUKANI
GEITA,30,GEITA,301,BULELA,30109,NYASEKE,KATI
GEITA,30,GEITA,301,BULELA,30109,NYASEKE,IGWATA
GEITA,30,GEITA,301,BULELA,30109,GAMASHI,BUBALA
GEITA,30,GEITA,301,BULELA,30109,GAMASHI,LUBUNGO
GEITA,30,GEITA,301,BULELA,30109,GAMASHI,NYAMPANAGA
GEITA,30,GEITA,301,NYAMALIMBE,30110,NYAMALIMBE,ISHIMBA
GEITA,30,GEITA,301,NYAMALIMBE,30110,NYAMALIMBE,IPONYABUKULA
GEITA,30,GEITA,301,NYAMALIMBE,30110,NYAMALIMBE,SOMELI
GEITA,30,GEITA,301,NYAMALIMBE,30110,NYAMIGOGO,NYAMIVUBA
GEITA,30,GEITA,301,NYAMALIMBE,30110,NYAMIGOGO,NYAMINAZI
GEITA,30,GEITA,301,NYAMALIMBE,30110,NYAMIGOGO,LUBANDANI
GEITA,30,GEITA,301,NYAMALIMBE,30110,BUZANAKI,MAKANDA
GEITA,30,GEITA,301,NYAMALIMBE,30110,BUZANAKI,BUKAYAGA
GEITA,30,GEITA,301,NYAMALIMBE,30110,BUZANAKI,BUBENDE
GEITA,30,GEITA,301,NYAMALIMBE,30110,LWAMWIZO,MTAKUJA
GEITA,30,GEITA,301,NYAMALIMBE,30110,LWAMWIZO,SONGAMBELE
GEITA,30,GEITA,301,NYAMALIMBE,30110,NYANG’HANGA,SHITONGE
GEITA,30,GEITA,301,NYAMALIMBE,30110,NYANG’HANGA,NYAKATO
GEITA,30,GEITA,301,NYAMALIMBE,30110,NYANG’HANGA,MLIMANI
GEITA,30,GEITA,301,KAMENA,30111,KAMENA,MWANZA
GEITA,30,GEITA,301,KAMENA,30111,KAMENA,SHINYANGA
GEITA,30,GEITA,301,KAMENA,30111,KAMENA,SHIMUKA
GEITA,30,GEITA,301,KAMENA,30111,KAMENA,ARUSHA
GEITA,30,GEITA,301,KAMENA,30111,KAMENA,BUKOBA
GEITA,30,GEITA,301,KAMENA,30111,KAMENA,MUSOMA
GEITA,30,GEITA,301,KAMENA,30111,KAMENA,IYOGELO
GEITA,30,GEITA,301,KAMENA,30111,IMALAMPAKA,SONGAMBELE
GEITA,30,GEITA,301,KAMENA,30111,IMALAMPAKA,MLIMANI
GEITA,30,GEITA,301,KAMENA,30111,IMALAMPAKA,MLANDA
GEITA,30,GEITA,301,KAMENA,30111,IMALAMPAKA,IGOKELO
GEITA,30,GEITA,301,KAMENA,30111,IMALAMPAKA,MTAKUJA
GEITA,30,GEITA,301,KAMENA,30111,IMALAMPAKA,KIVUKONI
GEITA,30,GEITA,301,KAMENA,30111,NDELEMA,MWABUKI
GEITA,30,GEITA,301,KAMENA,30111,NDELEMA,KAGERA
GEITA,30,GEITA,301,KAMENA,30111,NDELEMA,NG’WABALIMI
GEITA,30,GEITA,301,KAMENA,30111,NDELEMA,KAGUNGA
GEITA,30,GEITA,301,KAMENA,30111,NDELEMA,MAJENGO MAPYA
GEITA,30,GEITA,301,KAMENA,30111,NYASHIHIMA,NG’WABALIMI
GEITA,30,GEITA,301,KAMENA,30111,NYASHIHIMA,SHINYANGA
GEITA,30,GEITA,301,KAMENA,30111,NYASHIHIMA,GEITA
GEITA,30,GEITA,301,KAMENA,30111,NYASHIHIMA,MWADUI
GEITA,30,GEITA,301,BUSANDA,30112,BUSANDA,NYAMBALE
GEITA,30,GEITA,301,BUSANDA,30112,BUSANDA,NYAKABENGWE
GEITA,30,GEITA,301,BUSANDA,30112,BUSANDA,NYAMTUNDU
GEITA,30,GEITA,301,BUSANDA,30112,BUSANDA,ISENGE
GEITA,30,GEITA,301,BUSANDA,30112,SHILUNGULE,ZAHANATI
GEITA,30,GEITA,301,BUSANDA,30112,SHILUNGULE,ELIMU
GEITA,30,GEITA,301,BUSANDA,30112,SHILUNGULE,SOZIBUYE
GEITA,30,GEITA,301,BUSANDA,30112,MSASA,SENTA
GEITA,30,GEITA,301,BUSANDA,30112,MSASA,LWAKAKOMBE
GEITA,30,GEITA,301,BUSANDA,30112,MSASA,IZENGABOYEYE
GEITA,30,GEITA,301,BUSANDA,30112,MSASA,NYANTIKA
GEITA,30,GEITA,301,BUSANDA,30112,LUBANDA,BUTEGAMATWI
GEITA,30,GEITA,301,BUSANDA,30112,LUBANDA,NYANTANDALA
GEITA,30,GEITA,301,BUSANDA,30112,LUBANDA,LUBANDA
GEITA,30,GEITA,301,BUSANDA,30112,LUBANDA,KAWE
GEITA,30,GEITA,301,KATORO,30113,LUBANDA,MLIMANI
GEITA,30,GEITA,301,KATORO,30113,LUBANDA,KADUDA SENTA
GEITA,30,GEITA,301,KATORO,30113,LUBANDA,UZALISHAJI
GEITA,30,GEITA,301,KATORO,30113,LUBANDA,NG'WABASABI
GEITA,30,GEITA,301,KATORO,30113,LUBANDA,NYIHUMBA
GEITA,30,GEITA,301,KATORO,30113,LUBANDA,BUYOGA
GEITA,30,GEITA,301,KATORO,30113,LUBANDA,KATORO SENTA
GEITA,30,GEITA,301,KATORO,30113,LUBANDA,KABAHELELE
GEITA,30,GEITA,301,KATORO,30113,LUBANDA,BULENGAHASI
GEITA,30,GEITA,301,KATORO,30113,LUBANDA,MNADANI
GEITA,30,GEITA,301,KATORO,30113,LUBANDA,LUTOZO
GEITA,30,GEITA,301,KATORO,30113,LUBANDA,MTONI
GEITA,30,GEITA,301,KATORO,30113,LUBANDA,MTAKUJA
GEITA,30,GEITA,301,KATORO,30113,LUBANDA,IBOZYAMAGIGO
GEITA,30,GEITA,301,NYAKAGOMBA,30114,ISIMA,MBOGWE
GEITA,30,GEITA,301,NYAKAGOMBA,30114,ISIMA,LUBANGA
GEITA,30,GEITA,301,NYAKAGOMBA,30114,ISIMA,NYAKASOMA
GEITA,30,GEITA,301,NYAKAGOMBA,30114,ISIMA,MUYENZE
GEITA,30,GEITA,301,NYAKAGOMBA,30114,LUHUHA,LUHUHA
GEITA,30,GEITA,301,NYAKAGOMBA,30114,LUHUHA,ISENI
GEITA,30,GEITA,301,NYAKAGOMBA,30114,LUHUHA,NYAMASENGE
GEITA,30,GEITA,301,NYAKAGOMBA,30114,LUHUHA,CHANGWA
GEITA,30,GEITA,301,NYAKAGOMBA,30114,MWENEGEZA,ELIMU
GEITA,30,GEITA,301,NYAKAGOMBA,30114,MWENEGEZA,MWENEGEZA
GEITA,30,GEITA,301,NYAKAGOMBA,30114,MWENEGEZA,KAHONGOLA
GEITA,30,GEITA,301,NYAKAGOMBA,30114,MWENEGEZA,KIZIBA
GEITA,30,GEITA,301,NYAKAGOMBA,30114,NYAKAGOMBA,NYAKAGOMBA
GEITA,30,GEITA,301,NYAKAGOMBA,30114,NYAKAGOMBA,CCM
GEITA,30,GEITA,301,NYAKAGOMBA,30114,NYAKAGOMBA,NYANGILI
GEITA,30,GEITA,301,NYAKAGOMBA,30114,NYAKAGOMBA,NYASEMBE
GEITA,30,GEITA,301,NYAKAGOMBA,30114,NYAKAGOMBA,BWESULE
GEITA,30,GEITA,301,CHIGUNGA,30115,CHIGUNGA,SENTA
GEITA,30,GEITA,301,CHIGUNGA,30115,CHIGUNGA,BUYANGE
GEITA,30,GEITA,301,CHIGUNGA,30115,CHIGUNGA,NYAKASWA
GEITA,30,GEITA,301,CHIGUNGA,30115,KABUGOZO,NYAFUBA
GEITA,30,GEITA,301,CHIGUNGA,30115,KABUGOZO,KABUGOZO
GEITA,30,GEITA,301,CHIGUNGA,30115,KABUGOZO,KAGONDO
GEITA,30,GEITA,301,CHIGUNGA,30115,KABUGOZO,IYENZE
GEITA,30,GEITA,301,CHIGUNGA,30115,NYAKAFULO,NYAKAFULO “A”
GEITA,30,GEITA,301,CHIGUNGA,30115,NYAKAFULO,NYAKAFULO “B”
GEITA,30,GEITA,301,CHIGUNGA,30115,NYAKAFULO,ISANZU
GEITA,30,GEITA,301,NYACHILULUMA,30116,NYACHILULUMA,NYACHILULUMA KATI
GEITA,30,GEITA,301,NYACHILULUMA,30116,NYACHILULUMA,NYAGUHWA
GEITA,30,GEITA,301,NYACHILULUMA,30116,NYACHILULUMA,MLUMBA
GEITA,30,GEITA,301,NYACHILULUMA,30116,NYAKASENYA,NYAKASENYA “B”
GEITA,30,GEITA,301,NYACHILULUMA,30116,NYAKASENYA,MAKATANI
GEITA,30,GEITA,301,NYACHILULUMA,30116,NYAKASENYA,SONGAMBELE
GEITA,30,GEITA,301,NYACHILULUMA,30116,NYAKASENYA,IMALAMAWAZO
GEITA,30,GEITA,301,NYACHILULUMA,30116,NYAKASENYA,NYAKASENYA “A”
GEITA,30,GEITA,301,NYACHILULUMA,30116,NYAKASENYA,LWELEZI
GEITA,30,GEITA,301,NYACHILULUMA,30116,KAGEYE,BARABARA KUU
GEITA,30,GEITA,301,NYACHILULUMA,30116,KAGEYE,SENTA
GEITA,30,GEITA,301,NYACHILULUMA,30116,KAGEYE,LWELEZI
GEITA,30,GEITA,301,NYACHILULUMA,30116,CHIKOBE,MITUNDU
GEITA,30,GEITA,301,NYACHILULUMA,30116,CHIKOBE,SENTA
GEITA,30,GEITA,301,NYACHILULUMA,30116,CHIKOBE,CHEMAMBA
GEITA,30,GEITA,301,NYACHILULUMA,30116,CHIKOBE,MAJENGO
GEITA,30,GEITA,301,BUKONDO,30117,BUKONDO,SENTA
GEITA,30,GEITA,301,BUKONDO,30117,BUKONDO,BULELA
GEITA,30,GEITA,301,BUKONDO,30117,BUKONDO,KABANGA
GEITA,30,GEITA,301,BUKONDO,30117,BUKONDO,MREMA
GEITA,30,GEITA,301,BUKONDO,30117,NYANSALALA,MAJENGO
GEITA,30,GEITA,301,BUKONDO,30117,NYANSALALA,BWANGA
GEITA,30,GEITA,301,BUKONDO,30117,NYANSALALA,KIZILAMAFUKA
GEITA,30,GEITA,301,BUKONDO,30117,BUSAKA,SENTA
GEITA,30,GEITA,301,BUKONDO,30117,BUSAKA,IZENGABASUMBA
GEITA,30,GEITA,301,BUKONDO,30117,BUSAKA,CHIKULA
GEITA,30,GEITA,301,BUKONDO,30117,CHANKOLONGO,SHULENI
GEITA,30,GEITA,301,BUKONDO,30117,CHANKOLONGO,MTAKUJA
GEITA,30,GEITA,301,BUKONDO,30117,CHANKOLONGO,MITUNDU
GEITA,30,GEITA,301,BUKONDO,30117,LULAMA,KISIMANI ROAD
GEITA,30,GEITA,301,BUKONDO,30117,LULAMA,ELIMU
GEITA,30,GEITA,301,BUKONDO,30117,KITIGIRI,NG’WABASABI
GEITA,30,GEITA,301,BUKONDO,30117,KITIGIRI,NG’WALOLELA
GEITA,30,GEITA,301,SENGA,30118,BULIGI,CCM
GEITA,30,GEITA,301,SENGA,30118,BULIGI,MSILALE
GEITA,30,GEITA,301,SENGA,30118,BULIGI,MUUNGANO
GEITA,30,GEITA,301,SENGA,30118,BULIGI,SONGAMBELE
GEITA,30,GEITA,301,SENGA,30118,CHANIKA,CHANIKA
GEITA,30,GEITA,301,SENGA,30118,CHANIKA,NYABUHURI
GEITA,30,GEITA,301,SENGA,30118,KASENI,KASENI A
GEITA,30,GEITA,301,SENGA,30118,KASENI,KASENI “B”
GEITA,30,GEITA,301,SENGA,30118,KASENI,NYABUCHINDU
GEITA,30,GEITA,301,SENGA,30118,SENGA,KIVUKONI
GEITA,30,GEITA,301,SENGA,30118,SENGA,NYERERE ROAD
GEITA,30,GEITA,301,SENGA,30118,SENGA,"SENGA 'B"""
GEITA,30,GEITA,301,SENGA,30118,SENGA,IDOSELO
GEITA,30,GEITA,301,SENGA,30118,SENGA,MTAKUJA
GEITA,30,GEITA,301,SENGA,30118,SENGA,LWENAZI
GEITA,30,GEITA,301,NKOME,30119,NKOME,SENTA
GEITA,30,GEITA,301,NKOME,30119,NKOME,NYAMANG’ALA
GEITA,30,GEITA,301,NKOME,30119,NKOME,MSUFINI
GEITA,30,GEITA,301,NKOME,30119,NKOME,JAKALANDA
GEITA,30,GEITA,301,NKOME,30119,NYAMALELE,NYAMALELE
GEITA,30,GEITA,301,NKOME,30119,NYAMALELE,NYAMALELE SENTA
GEITA,30,GEITA,301,NKOME,30119,NYAMALELE,KAHENDANGALO
GEITA,30,GEITA,301,NKOME,30119,MHARAMBA,MHARAMBA SENTA
GEITA,30,GEITA,301,NKOME,30119,MHARAMBA,NYAMBAYA KATI
GEITA,30,GEITA,301,NKOME,30119,MHARAMBA,KASTAM
GEITA,30,GEITA,301,NKOME,30119,MHARAMBA,BUGONDE
GEITA,30,GEITA,301,NKOME,30119,IHUMILO,IHUMILO
GEITA,30,GEITA,301,NKOME,30119,IHUMILO,MCHANGANI
GEITA,30,GEITA,301,NKOME,30119,IHUMILO,MAKATANI
GEITA,30,GEITA,301,NKOME,30119,MNYALA,MNYALA
GEITA,30,GEITA,301,NKOME,30119,MNYALA,ISULA
GEITA,30,GEITA,301,NKOME,30119,MNYALA,MAKURUGUSI
GEITA,30,GEITA,301,NZERA(NZELA),30120,IGATE,NG’WABASABI
GEITA,30,GEITA,301,NZERA(NZELA),30120,IGATE,IGATE
GEITA,30,GEITA,301,NZERA(NZELA),30120,IGATE,ELIMU
GEITA,30,GEITA,301,NZERA(NZELA),30120,NZERA,MHENGELE
GEITA,30,GEITA,301,NZERA(NZELA),30120,NZERA,MISHENI
GEITA,30,GEITA,301,NZERA(NZELA),30120,NZERA,LUKELEGE
GEITA,30,GEITA,301,NZERA(NZELA),30120,NZERA,KISESA
GEITA,30,GEITA,301,NZERA(NZELA),30120,BUGANDO,SHULENI
GEITA,30,GEITA,301,NZERA(NZELA),30120,BUGANDO,UZINZANI
GEITA,30,GEITA,301,NZERA(NZELA),30120,BUGANDO,GONA
GEITA,30,GEITA,301,NZERA(NZELA),30120,SUNGUSIRA,SUNGUSIRA
GEITA,30,GEITA,301,NZERA(NZELA),30120,SUNGUSIRA,FULWE
GEITA,30,GEITA,301,NZERA(NZELA),30120,SUNGUSIRA,SHILABELA
GEITA,30,GEITA,301,BUKOLI,30121,BUGOGO,BUGOGO “A”
GEITA,30,GEITA,301,BUKOLI,30121,BUGOGO,BUGOGO “B”
GEITA,30,GEITA,301,BUKOLI,30121,BUGOGO,KAYENZE “A”
GEITA,30,GEITA,301,BUKOLI,30121,BUGOGO,KAYENZE “B”
GEITA,30,GEITA,301,BUKOLI,30121,BUGOGO,SHILUNGULE
GEITA,30,GEITA,301,BUKOLI,30121,BUGOGO,BUZIBILA
GEITA,30,GEITA,301,BUKOLI,30121,NTONO,SENTA
GEITA,30,GEITA,301,BUKOLI,30121,NTONO,BULEKA
GEITA,30,GEITA,301,BUKOLI,30121,NTONO,BULANGALE
GEITA,30,GEITA,301,BUKOLI,30121,NTONO,KANYAMGEMBE
GEITA,30,GEITA,301,BUKOLI,30121,NTONO,BUTEGELEJA
GEITA,30,GEITA,301,BUKOLI,30121,NTONO,ILELEMA
GEITA,30,GEITA,301,BUKOLI,30121,NTONO,ITIMPA
GEITA,30,GEITA,301,BUKOLI,30121,IKINA,MZALENDO
GEITA,30,GEITA,301,BUKOLI,30121,IKINA,MWAMANYILI
GEITA,30,GEITA,301,BUKOLI,30121,IKINA,MWENDAPOLE
GEITA,30,GEITA,301,BUKOLI,30121,IHEGA,SENTA
GEITA,30,GEITA,301,BUKOLI,30121,IHEGA,NYAMALIMBE
GEITA,30,GEITA,301,BUKOLI,30121,IHEGA,BUKOBA
GEITA,30,GEITA,301,BUKOLI,30121,IHEGA,SHIYANZA
GEITA,30,GEITA,301,BUKOLI,30121,IHEGA,NYANGULUGULU
GEITA,30,GEITA,301,NYARUGUSU,30122,"BUSOLWA ""B""",TOLOGO
GEITA,30,GEITA,301,NYARUGUSU,30122,"BUSOLWA ""B""",LUKALAKATA
GEITA,30,GEITA,301,NYARUGUSU,30122,"BUSOLWA ""B""",NYASALE
GEITA,30,GEITA,301,NYARUGUSU,30122,NYARUGUSU,C.C.M
GEITA,30,GEITA,301,NYARUGUSU,30122,NYARUGUSU,ZAHANATI
GEITA,30,GEITA,301,NYARUGUSU,30122,NYARUGUSU,MSIKITI “A’
GEITA,30,GEITA,301,NYARUGUSU,30122,NYARUGUSU,MWABAGENI
GEITA,30,GEITA,301,NYARUGUSU,30122,MAWEMERU,MZALENDO
GEITA,30,GEITA,301,NYARUGUSU,30122,MAWEMERU,MGOMBANI
GEITA,30,GEITA,301,NYARUGUSU,30122,MAWEMERU,MAKANISANI
GEITA,30,GEITA,301,NYARUGUSU,30122,MAWEMERU,KANYALU
GEITA,30,GEITA,301,NYARUGUSU,30122,MAWEMERU,LUKAYA
GEITA,30,GEITA,301,NYARUGUSU,30122,ZIWANI,ZIWANI
GEITA,30,GEITA,301,NYARUGUSU,30122,ZIWANI,MGONGONJE
GEITA,30,GEITA,301,NYARUGUSU,30122,ZIWANI,UMOJA
GEITA,30,GEITA,301,NYARUGUSU,30122,ZIWANI,AMANI
GEITA,30,GEITA,301,NYARUGUSU,30122,ZIWANI,SALAMA
GEITA,30,GEITA,301,NYARUGUSU,30122,ZIWANI,USHIRIKA
GEITA,30,GEITA,301,NYARUGUSU,30122,ILILIKA,NG'WANG'HALANGA
GEITA,30,GEITA,301,NYARUGUSU,30122,ILILIKA,KIOMBOI
GEITA,30,GEITA,301,NYARUGUSU,30122,ILILIKA,ILILIKA
GEITA,30,GEITA,301,NYARUGUSU,30122,ILILIKA,MWABASABI
GEITA,30,GEITA,301,LWAMGASA,30123,LWAMGASA,IMALANGUZU
GEITA,30,GEITA,301,LWAMGASA,30123,LWAMGASA,C.C.M.
GEITA,30,GEITA,301,LWAMGASA,30123,LWAMGASA,ELIMU
GEITA,30,GEITA,301,LWAMGASA,30123,LWAMGASA,NYAKAYENZE
GEITA,30,GEITA,301,LWAMGASA,30123,LWAMGASA,ISINGILO
GEITA,30,GEITA,301,LWAMGASA,30123,ILANGASIKA,C.C.M.
GEITA,30,GEITA,301,LWAMGASA,30123,ILANGASIKA,ILYAMCHELE
GEITA,30,GEITA,301,LWAMGASA,30123,KILOMBERO I,NYAMSENGA
GEITA,30,GEITA,301,LWAMGASA,30123,KILOMBERO I,MGULUKO
GEITA,30,GEITA,301,LWAMGASA,30123,KILOMBERO I,ISENI
GEITA,30,GEITA,301,LWAMGASA,30123,KILOMBERO II,ELIMU
GEITA,30,GEITA,301,LWAMGASA,30123,KILOMBERO II,ILOGABUTAMU
GEITA,30,GEITA,301,LWAMGASA,30123,KILOMBERO II,IZENGWABAGENI
GEITA,30,GEITA,301,LWAMGASA,30123,KILOMBERO II,BUGOMA
GEITA,30,GEITA,301,LWAMGASA,30123,BUZIBA,VUMILIA
GEITA,30,GEITA,301,LWAMGASA,30123,BUZIBA,LUKILI
GEITA,30,GEITA,301,LWAMGASA,30123,BUZIBA,SONGAMBELE
GEITA,30,GEITA,301,LWAMGASA,30123,BUZIBA,IMALAMAWAZO
GEITA,30,GEITA,301,LWAMGASA,30123,BUZIBA,KILOLELI
GEITA,30,GEITA,301,LWAMGASA,30123,BUZIBA,SENTA KATI
GEITA,30,GEITA,301,KASEME,30124,KASEME A,MABAMBA
GEITA,30,GEITA,301,KASEME,30124,KASEME A,ELIMU
GEITA,30,GEITA,301,KASEME,30124,KASEME A,ISUNGANGH'HOLO
GEITA,30,GEITA,301,KASEME,30124,KASEME A,MTUKULA
GEITA,30,GEITA,301,KASEME,30124,KASEME A,BUSEGEJA
GEITA,30,GEITA,301,KASEME,30124,KASEME A,NYAMTONDO
GEITA,30,GEITA,301,KASEME,30124,KASESA,NG’AMBO
GEITA,30,GEITA,301,KASEME,30124,KASESA,MLIMANI
GEITA,30,GEITA,301,KASEME,30124,KASESA,MBUGANI
GEITA,30,GEITA,301,KASEME,30124,KASESA,IDOSELO
GEITA,30,GEITA,301,KASEME,30124,KASESA,KANGOBALE
GEITA,30,GEITA,301,KASEME,30124,KATANGALO,MZILO
GEITA,30,GEITA,301,KASEME,30124,KATANGALO,IBOZYAMAGIGO
GEITA,30,GEITA,301,KASEME,30124,KATANGALO,IPONELO
GEITA,30,GEITA,301,KASEME,30124,MUNEKEZI,NYAMISEBEI
GEITA,30,GEITA,301,KASEME,30124,MUNEKEZI,AFYA
GEITA,30,GEITA,301,KASEME,30124,MUNEKEZI,BIASHARA
GEITA,30,GEITA,301,KASEME,30124,MUNEKEZI,TEMBO
GEITA,30,GEITA,301,BUTOBELA,30125,BUTOBELA,ISELAMAGAZI
GEITA,30,GEITA,301,BUTOBELA,30125,BUTOBELA,MTENDELE
GEITA,30,GEITA,301,BUTOBELA,30125,BUTOBELA,NYAKAGWE A
GEITA,30,GEITA,301,BUTOBELA,30125,NYAKAGWE,BAGAZA
GEITA,30,GEITA,301,BUTOBELA,30125,NYAKAGWE,SHINGA
GEITA,30,GEITA,301,BUTOBELA,30125,SHAHENDE,SHAHENDE
GEITA,30,GEITA,301,BUTOBELA,30125,SHAHENDE,BUKAMWA
GEITA,30,GEITA,301,BUTOBELA,30125,MHANDE,MHANDE
GEITA,30,GEITA,301,BUTOBELA,30125,MHANDE,IMALASEKO
GEITA,30,GEITA,301,BUTOBELA,30125,NYANGH’OMANGO,NYANG’HOMANGO
GEITA,30,GEITA,301,BUTOBELA,30125,NYANGH’OMANGO,NYASEKI
GEITA,30,GEITA,301,BUJULA,30126,MDUHANI,KALEMELO
GEITA,30,GEITA,301,BUJULA,30126,MDUHANI,MDUHANI
GEITA,30,GEITA,301,BUJULA,30126,NGULA,MTAKUJA
GEITA,30,GEITA,301,BUJULA,30126,NGULA,NG’WABASABI
GEITA,30,GEITA,301,BUJULA,30126,BUJULA,NYAKASANZIBA
GEITA,30,GEITA,301,BUJULA,30126,BUJULA,BUJULA
GEITA,30,GEITA,301,BUJULA,30126,NYAMIBOGA,NYAMIBOGA
GEITA,30,GEITA,301,BUJULA,30126,NYAMIBOGA,NHUBA
GEITA,30,GEITA,301,BUJULA,30126,NYAMIBOGA,MTUKULA
GEITA,30,GEITA,301,NYAMIGOTA,30127,NYAMIBOGA,ELIMU
GEITA,30,GEITA,301,NYAMIGOTA,30127,NYAMIBOGA,SONGAMBELE
GEITA,30,GEITA,301,NYAMIGOTA,30127,NYAMIBOGA,IBISABAGENI
GEITA,30,GEITA,301,NYAMIGOTA,30127,NYAMIBOGA,MWEMBENI
GEITA,30,GEITA,301,NYAMIGOTA,30127,NYAMIBOGA,CHIBINGO
GEITA,30,GEITA,301,NYAMIGOTA,30127,NYAMIBOGA,NYANTIKA
GEITA,30,GEITA,301,NYAMIGOTA,30127,NYAMIBOGA,SONGWE “A”
GEITA,30,GEITA,301,NYAMIGOTA,30127,NYAMIBOGA,SONGWE “B”
GEITA,30,GEITA,301,NYAMIGOTA,30127,NYAMIBOGA,NYAMAKELYA
GEITA,30,GEITA,301,NYAMIGOTA,30127,NYAMIBOGA,"KOMBESI ""A"""
GEITA,30,GEITA,301,NYAMIGOTA,30127,NYAMIBOGA,"KOMBESI ""B"""
GEITA,30,GEITA,301,NYAMIGOTA,30127,NYAMIBOGA,NYAMASENGE
GEITA,30,GEITA,301,NYAMIGOTA,30127,NYAMIBOGA,IZENGWABAGENI
GEITA,30,GEITA,301,NYAMIGOTA,30127,NYAMIBOGA,MABAMBA
GEITA,30,GEITA,301,NYAMIGOTA,30127,NYAMIBOGA,MLIMANI
GEITA,30,GEITA,301,NYAMIGOTA,30127,NYAMIBOGA,MAENDELEO
GEITA,30,GEITA,301,NYAMIGOTA,30127,NYAMIBOGA,JEMBEMALI
GEITA,30,GEITA,301,NYAMIGOTA,30127,NYAMIBOGA,UHURU
GEITA,30,GEITA,301,NYAMIGOTA,30127,NYAMIBOGA,LUNAJI
GEITA,30,GEITA,301,NYANGUKU,30128,KAKONDA,
GEITA,30,GEITA,301,NYANGUKU,30128,NYAKATO,
GEITA,30,GEITA,301,NYANGUKU,30128,NYANGUKU,BUJINGWA
GEITA,30,GEITA,301,NYANGUKU,30128,NYANGUKU,IBOJA
GEITA,30,GEITA,301,NYANGUKU,30128,NYANGUKU,SENTA
GEITA,30,GEITA,301,NYANGUKU,30128,NYANGUKU,SONGAMBELE
GEITA,30,GEITA,301,NYANGUKU,30128,MWAGIMAGI,MWAGIMAGI
GEITA,30,GEITA,301,NYANGUKU,30128,MWAGIMAGI,ITEMELO
GEITA,30,GEITA,301,NYANGUKU,30128,MWAGIMAGI,ISEBANDA
GEITA,30,GEITA,301,NYANGUKU,30128,SHINAMWENDA,SENTA
GEITA,30,GEITA,301,NYANGUKU,30128,SHINAMWENDA,LUSHIMA
GEITA,30,GEITA,301,NYANGUKU,30128,SHINAMWENDA,LUFIJI
GEITA,30,GEITA,301,BUNG'WANGOKO,30129,BUNG'WANGOKO,BUNG'WANGOKO
GEITA,30,GEITA,301,BUNG'WANGOKO,30129,BUNG'WANGOKO,KAYENZE
GEITA,30,GEITA,301,BUNG'WANGOKO,30129,BUNG'WANGOKO,SHILABELA
GEITA,30,GEITA,301,BUNG'WANGOKO,30129,BUNG'WANGOKO,NG'WALWIGI
GEITA,30,GEITA,301,BUNG'WANGOKO,30129,CHABULONGO,IBISABAGENI
GEITA,30,GEITA,301,BUNG'WANGOKO,30129,CHABULONGO,CHABULONGO
GEITA,30,GEITA,301,BUNG'WANGOKO,30129,CHABULONGO,MKOBA
GEITA,30,GEITA,301,BUNG'WANGOKO,30129,CHABULONGO,BULIMA
GEITA,30,GEITA,301,BUNG'WANGOKO,30129,MSHINDE,ELIMU
GEITA,30,GEITA,301,BUNG'WANGOKO,30129,MSHINDE,BUZANAKI
GEITA,30,GEITA,301,BUNG'WANGOKO,30129,MSHINDE,KAKOLA
GEITA,30,GEITA,301,BUGALAMA,30130,BUGALAMA,SENTA
GEITA,30,GEITA,301,BUGALAMA,30130,BUGALAMA,BUGALAMA
GEITA,30,GEITA,301,BUGALAMA,30130,BUGALAMA,NG’WAMASHIKI
GEITA,30,GEITA,301,BUGALAMA,30130,BUGALAMA,ITEJAMBUTURA
GEITA,30,GEITA,301,BUGALAMA,30130,BUGALAMA,NYALUHAMA
GEITA,30,GEITA,301,BUGALAMA,30130,LWENGE,NYALUHAMA
GEITA,30,GEITA,301,BUGALAMA,30130,LWENGE,SENTA
GEITA,30,GEITA,301,BUGALAMA,30130,LWENGE,LWINAZI
GEITA,30,GEITA,301,BUGALAMA,30130,LWENGE,KABUMBA
GEITA,30,GEITA,301,BUGALAMA,30130,LWENGE,NYAMIKOMA
GEITA,30,GEITA,301,BUGALAMA,30130,KIFUFU,BUGIGAGIGA
GEITA,30,GEITA,301,BUGALAMA,30130,KIFUFU,NG’WABALOGI
GEITA,30,GEITA,301,BUGALAMA,30130,KIFUFU,NYANG’HWALE
GEITA,30,GEITA,301,BUGALAMA,30130,KIFUFU,IBAKAMOTO
GEITA,30,GEITA,301,BUGALAMA,30130,KIFUFU,NYAMIKOMA
GEITA,30,GEITA,301,BUGALAMA,30130,MISRI,NJIA PANDA
GEITA,30,GEITA,301,BUGALAMA,30130,MISRI,SENTA
GEITA,30,GEITA,301,BUGALAMA,30130,MISRI,IGALULA
GEITA,30,GEITA,301,BUGALAMA,30130,MISRI,NG’WALOLELA
GEITA,30,GEITA,301,BUGALAMA,30130,MISRI,NYANZAGA
GEITA,30,GEITA,301,ISULWABUTUNDWE,30131,ISULWABUTUNDWE,IBILIBISHI
GEITA,30,GEITA,301,ISULWABUTUNDWE,30131,ISULWABUTUNDWE,IGOKELO
GEITA,30,GEITA,301,ISULWABUTUNDWE,30131,ISULWABUTUNDWE,ISADUKILO
GEITA,30,GEITA,301,ISULWABUTUNDWE,30131,IBISABAGENI,BUKUMBI
GEITA,30,GEITA,301,ISULWABUTUNDWE,30131,IBISABAGENI,KABULABUNYASI
GEITA,30,GEITA,301,ISULWABUTUNDWE,30131,IBISABAGENI,BEDA
GEITA,30,GEITA,301,ISULWABUTUNDWE,30131,IBISABAGENI,NYENYE
GEITA,30,GEITA,301,ISULWABUTUNDWE,30131,NYAKADUHA,KIJIWENI
GEITA,30,GEITA,301,ISULWABUTUNDWE,30131,NYAKADUHA,NYAKAHAMA
GEITA,30,GEITA,301,ISULWABUTUNDWE,30131,NYAKADUHA,KABAMBA
GEITA,30,GEITA,301,ISULWABUTUNDWE,30131,NYAKADUHA,IBALANI
GEITA,30,GEITA,301,ISULWABUTUNDWE,30131,BULENGEDI,BULENGEDI
GEITA,30,GEITA,301,ISULWABUTUNDWE,30131,BULENGEDI,BUSAGALA
GEITA,30,GEITA,301,BUGULULA,30132,BUGULULA,SENTA
GEITA,30,GEITA,301,BUGULULA,30132,BUGULULA,MWALOLELA
GEITA,30,GEITA,301,BUGULULA,30132,BUGULULA,KANYANGE
GEITA,30,GEITA,301,BUGULULA,30132,BUGULULA,MIGOMBANI
GEITA,30,GEITA,301,BUGULULA,30132,BUGULULA,KIGOMA
GEITA,30,GEITA,301,BUGULULA,30132,ISABILO,KIZIBA
GEITA,30,GEITA,301,BUGULULA,30132,ISABILO,IMALANGUZU
GEITA,30,GEITA,301,BUGULULA,30132,ISABILO,MABATINI
GEITA,30,GEITA,301,BUGULULA,30132,ISABILO,ITANGA
GEITA,30,GEITA,301,BUGULULA,30132,KASOTA,SENTA
GEITA,30,GEITA,301,BUGULULA,30132,KASOTA,MLIMANI
GEITA,30,GEITA,301,BUGULULA,30132,KASOTA,LUTALE
GEITA,30,GEITA,301,BUGULULA,30132,KASOTA,MAKANISANI
GEITA,30,GEITA,301,BUGULULA,30132,KASOTA,MAGHARIBI
GEITA,30,GEITA,301,BUGULULA,30132,NYANSALWA ' A'',SENTA
GEITA,30,GEITA,301,BUGULULA,30132,NYANSALWA ' A'',MWAMBAO
GEITA,30,GEITA,301,BUGULULA,30132,NYANSALWA ' A'',MWEMBENI
GEITA,30,GEITA,301,BUGULULA,30132,NYANSALWA ' A'',LUKILINI
GEITA,30,GEITA,301,BUGULULA,30132,NYANSALWA ' A'',MBUGANI
GEITA,30,GEITA,301,BUGULULA,30132,NYAMILYANGO,SHULENI
GEITA,30,GEITA,301,BUGULULA,30132,NYAMILYANGO,SENTA
GEITA,30,GEITA,301,BUGULULA,30132,NYAMILYANGO,MISHENI
GEITA,30,GEITA,301,BUGULULA,30132,NYAMILYANGO,LUTALE
GEITA,30,GEITA,301,KATOMA,30133,KATOMA,KATOMA SENTA
GEITA,30,GEITA,301,KATOMA,30133,KATOMA,KISOJI
GEITA,30,GEITA,301,KATOMA,30133,KATOMA,CHANG'OMBE
GEITA,30,GEITA,301,KATOMA,30133,KATOMA,MATAHO
GEITA,30,GEITA,301,KATOMA,30133,KATOMA,LUCHILI
GEITA,30,GEITA,301,KATOMA,30133,NYAMBAYA,"NYAMBAYA"" A"""
GEITA,30,GEITA,301,KATOMA,30133,NYAMBAYA,NYAMANORO
GEITA,30,GEITA,301,KATOMA,30133,NYAMBAYA,ILEMELA
GEITA,30,GEITA,301,KATOMA,30133,ITALE,ITALE SENTA
GEITA,30,GEITA,301,KATOMA,30133,ITALE,MLIMANI
GEITA,30,GEITA,301,KATOMA,30133,ITALE,MWALONI
GEITA,30,GEITA,301,KATOMA,30133,NYAKAZEZE,NYAKAZEZE SENTA
GEITA,30,GEITA,301,KATOMA,30133,NYAKAZEZE,LUKOBAKOBE
GEITA,30,GEITA,301,KATOMA,30133,NYAKAZEZE,ILOGANZALA
GEITA,30,GEITA,301,LWENZERA,30134,IDOSELO,IDOSELO
GEITA,30,GEITA,301,LWENZERA,30134,IDOSELO,KATOMA
GEITA,30,GEITA,301,LWENZERA,30134,IDOSELO,BUKUNGU
GEITA,30,GEITA,301,LWENZERA,30134,IDOSELO,BWEYA
GEITA,30,GEITA,301,LWENZERA,30134,BWEYA,NYALUZUGUTI
GEITA,30,GEITA,301,LWENZERA,30134,BWEYA,BWEYA
GEITA,30,GEITA,301,LWENZERA,30134,BWEYA,MIEMBENI
GEITA,30,GEITA,301,LWENZERA,30134,BWEYA,MIBANGANI
GEITA,30,GEITA,301,LWENZERA,30134,LWENZERA,SENTA
GEITA,30,GEITA,301,LWENZERA,30134,LWENZERA,LUTELANGOMA
GEITA,30,GEITA,301,LWENZERA,30134,LWENZERA,MWABASABI
GEITA,30,GEITA,301,LWENZERA,30134,LWENZERA,CHENZUMLA
GEITA,30,GEITA,301,LWENZERA,30134,NYARUBANGA,SENTA
GEITA,30,GEITA,301,LWENZERA,30134,NYARUBANGA,NYALUBANGA
GEITA,30,GEITA,301,LWENZERA,30134,NYARUBANGA,BUCHELA
GEITA,30,GEITA,301,LWENZERA,30134,NYARUBANGA,MAKANISANI
GEITA,30,GEITA,301,KAKUBILO,30135,KAKUBILO,KAKUBILO
GEITA,30,GEITA,301,KAKUBILO,30135,KAKUBILO,MAZWANGA
GEITA,30,GEITA,301,KAKUBILO,30135,KAKUBILO,USHASHINI
GEITA,30,GEITA,301,KAKUBILO,30135,KAKUBILO,MISHENI
GEITA,30,GEITA,301,KAKUBILO,30135,KAKUBILO,MHENGELE
GEITA,30,GEITA,301,KAKUBILO,30135,KIKWETE,KIKWETE
GEITA,30,GEITA,301,KAKUBILO,30135,KIKWETE,IBANDA
GEITA,30,GEITA,301,KAKUBILO,30135,KIKWETE,SENTA
GEITA,30,GEITA,301,KAKUBILO,30135,KIKWETE,IKIGIJO
GEITA,30,GEITA,301,KAKUBILO,30135,KIKWETE,KAMBARAGE
GEITA,30,GEITA,301,KAKUBILO,30135,NYABALASANA,NYABALASANA
GEITA,30,GEITA,301,KAKUBILO,30135,NYABALASANA,MABABI
GEITA,30,GEITA,301,KAKUBILO,30135,NYABALASANA,MWEMBENI
GEITA,30,GEITA,301,KAKUBILO,30135,NYABALASANA,MASUMVE
GEITA,30,GEITA,301,KAKUBILO,30135,KABAYOLE,KABAYOLE
GEITA,30,GEITA,301,KAKUBILO,30135,KABAYOLE,KABONDO
GEITA,30,GEITA,301,KAKUBILO,30135,KABAYOLE,MISRI
GEITA,30,GEITA,301,KAKUBILO,30135,KABAYOLE,SHILABELA
GEITA,30,GEITA,301,KAKUBILO,30135,KABAYOLE,KARUME
GEITA,30,GEITA,301,KAKUBILO,30135,LUHARA,KAFUNZO
GEITA,30,GEITA,301,KAKUBILO,30135,LUHARA,MSUFINI
GEITA,30,GEITA,301,KAKUBILO,30135,LUHARA,LUHARA KATI
GEITA,30,GEITA,301,KAKUBILO,30135,LUHARA,NYANGUKU
GEITA,30,GEITA,301,NYALWANZAJA,30136,NYALWANZAJA,MOROGORO
GEITA,30,GEITA,301,NYALWANZAJA,30136,NYALWANZAJA,MSUMBIJI
GEITA,30,GEITA,301,NYALWANZAJA,30136,NYALWANZAJA,MTAKUJA
GEITA,30,GEITA,301,NYALWANZAJA,30136,NYALWANZAJA,GEITA
GEITA,30,GEITA,301,NYALWANZAJA,30136,NYALWANZAJA,KANYALU
GEITA,30,GEITA,301,NYALWANZAJA,30136,NYALWANZAJA,DODOMA
GEITA,30,GEITA,301,NYALWANZAJA,30136,LISHE,MISUNGWI
GEITA,30,GEITA,301,NYALWANZAJA,30136,LISHE,UKIRIGURU
GEITA,30,GEITA,301,NYALWANZAJA,30136,LISHE,KWIMBA
GEITA,30,GEITA,301,NYALWANZAJA,30136,LISHE,PEMBA
GEITA,30,GEITA,301,NYALWANZAJA,30136,BUSHISHI,MAJIMAJI
GEITA,30,GEITA,301,NYALWANZAJA,30136,BUSHISHI,UKIRIGURU
GEITA,30,GEITA,301,NYALWANZAJA,30136,BUSHISHI,MABATINI
GEITA,30,GEITA,301,NYALWANZAJA,30136,BUSHISHI,MASWA
GEITA,30,GEITA,301,NYALWANZAJA,30136,NYABULOLO,CHAMABANDA
GEITA,30,GEITA,301,NYALWANZAJA,30136,NYABULOLO,KAYENZE
GEITA,30,GEITA,301,NYALWANZAJA,30136,NYABULOLO,MTAKUJA
GEITA,30,GEITA,301,NYALWANZAJA,30136,NYABULOLO,KANYALU
GEITA,30,GEITA,301,NYALWANZAJA,30136,NYABULOLO,MIJINGA
GEITA,30,GEITA,301,NYARUYEYE,30137,IKANDILO,IKANDILO
GEITA,30,GEITA,301,NYARUYEYE,30137,IKANDILO,IMALANZALA
GEITA,30,GEITA,301,NYARUYEYE,30137,IKANDILO,MANDELA
GEITA,30,GEITA,301,NYARUYEYE,30137,IKANDILO,TUJIKWAMUE
GEITA,30,GEITA,301,NYARUYEYE,30137,"MHAMA ""B""",LWINA
GEITA,30,GEITA,301,NYARUYEYE,30137,"MHAMA ""B""",SENGA
GEITA,30,GEITA,301,NYARUYEYE,30137,"MHAMA ""B""",IVUNVUMILA
GEITA,30,GEITA,301,NYARUYEYE,30137,"MHAMA ""B""",MHAMA
GEITA,30,GEITA,301,NYARUYEYE,30137,NYARUYEYE,SONGAMBELE
GEITA,30,GEITA,301,NYARUYEYE,30137,NYARUYEYE,AZIMIO
GEITA,30,GEITA,301,NYARUYEYE,30137,NYARUYEYE,NYARUYEYE “A”
GEITA,30,GEITA,301,NYARUYEYE,30137,NYARUYEYE,NYARUYEYE “B”
GEITA,30,GEITA,301,NYARUYEYE,30137,NYARUYEYE,MTAKUJA
GEITA,30,GEITA,301,NYARUYEYE,30137,WIGO,ILELEMA
GEITA,30,GEITA,301,NYARUYEYE,30137,WIGO,WIGO “A”
GEITA,30,GEITA,301,NYARUYEYE,30137,WIGO,WIGO “B”
GEITA,30,GEITA,301,NYARUYEYE,30137,WIGO,IMALABARUTI
GEITA,30,GEITA,301,NYARUYEYE,30137,WIGO,BUSEKWANONI
GEITA,30,GEITA,301,NYARUYEYE,30137,WIGO,BUSOLWA
GEITA,30,GEITA,301,NYARUYEYE,30137,WIGO,BUGANDE
GEITA,30,GEITA,301,NYARUYEYE,30137,WIGO,BULYAMBATA
GEITA,30,GEITA,301,NYAMWILOLELWA,30138,NYAMWILOLELWA,NYAMWILOLELWA
GEITA,30,GEITA,301,NYAMWILOLELWA,30138,NYAMWILOLELWA,NYAMIRUNGUTI
GEITA,30,GEITA,301,NYAMWILOLELWA,30138,NYAMWILOLELWA,MWEMBENI
GEITA,30,GEITA,301,NYAMWILOLELWA,30138,NYAMWILOLELWA,RWINGILA
GEITA,30,GEITA,301,NYAMWILOLELWA,30138,SARAGURWA,SANZA
GEITA,30,GEITA,301,NYAMWILOLELWA,30138,SARAGURWA,BONDENI
GEITA,30,GEITA,301,NYAMWILOLELWA,30138,SARAGURWA,SARAGURWA
GEITA,30,GEITA,301,NYAMWILOLELWA,30138,SARAGURWA,BURUMBI
GEITA,30,GEITA,301,NYAMWILOLELWA,30138,SARAGURWA,KAYENZE
GEITA,30,GEITA,301,NYAMWILOLELWA,30138,NUNGWE,NUNGWE
GEITA,30,GEITA,301,NYAMWILOLELWA,30138,NUNGWE,KASTAMU
GEITA,30,GEITA,301,NYAMWILOLELWA,30138,NUNGWE,ZAHANATI
GEITA,30,GEITA,301,NYAMWILOLELWA,30138,NUNGWE,KISOZI
GEITA,30,GEITA,301,MAGENGE,30139,MAGENGE,ELIMU
GEITA,30,GEITA,301,MAGENGE,30139,MAGENGE,NYAMALIMBE
GEITA,30,GEITA,301,MAGENGE,30139,MAGENGE,MTAKUJA
GEITA,30,GEITA,301,MAGENGE,30139,MAGENGE,NYAMTAMILA
GEITA,30,GEITA,301,MAGENGE,30139,IGANDO,IGANDO
GEITA,30,GEITA,301,MAGENGE,30139,IGANDO,BUSHINGO
GEITA,30,GEITA,301,MAGENGE,30139,IGANDO,KADOTO
GEITA,30,GEITA,301,MAGENGE,30139,IGANDO,NYIKONGA
GEITA,30,GEITA,301,MAGENGE,30139,NYAMALULU,NYAMTAMILA
GEITA,30,GEITA,301,MAGENGE,30139,NYAMALULU,NYAMALULU A
GEITA,30,GEITA,301,MAGENGE,30139,NYAMALULU,IZENGWABASUMBA
GEITA,30,GEITA,301,MAGENGE,30139,SOBORA,MAJENGO
GEITA,30,GEITA,301,MAGENGE,30139,SOBORA,SOBORA
GEITA,30,GEITA,301,MAGENGE,30139,SOBORA,NYAMAHUNA
GEITA,30,GEITA,301,BUTUNDWE,30140,KASANG’HWA,SEKETULE
GEITA,30,GEITA,301,BUTUNDWE,30140,KASANG’HWA,KABUMBA
GEITA,30,GEITA,301,BUTUNDWE,30140,KASANG’HWA,CHOGWA
GEITA,30,GEITA,301,BUTUNDWE,30140,NYANDAGO,MWALONI
GEITA,30,GEITA,301,BUTUNDWE,30140,NYANDAGO,NYANDAGO SENTA
GEITA,30,GEITA,301,BUTUNDWE,30140,NYANDAGO,KANYWENGEZI
GEITA,30,GEITA,301,BUTUNDWE,30140,LUKUMBO,KICHUGUUNI
GEITA,30,GEITA,301,BUTUNDWE,30140,LUKUMBO,BUGANDO
GEITA,30,GEITA,301,BUTUNDWE,30140,LUKUMBO,ILOGANZALA
GEITA,30,GEITA,301,NYAWILIMILWA,30141,NYAWILIMILWA,SENTA
GEITA,30,GEITA,301,NYAWILIMILWA,30141,NYAWILIMILWA,SHULENI
GEITA,30,GEITA,301,NYAWILIMILWA,30141,NYAWILIMILWA,MISHENI
GEITA,30,GEITA,301,NYAWILIMILWA,30141,NYAWILIMILWA,KASUNGAMILE
GEITA,30,GEITA,301,NYAWILIMILWA,30141,NTINACHI,KANYANGE
GEITA,30,GEITA,301,NYAWILIMILWA,30141,NTINACHI,UTAWALA
GEITA,30,GEITA,301,NYAWILIMILWA,30141,NTINACHI,MAJENGO
GEITA,30,GEITA,301,NYAWILIMILWA,30141,NTINACHI,KALIFONIA
GEITA,30,GEITA,301,NYAWILIMILWA,30141,NTINACHI,MBUGANI
GEITA,30,GEITA,301,NYAWILIMILWA,30141,NTINACHI,LUTENGA
GEITA,30,GEITA,301,NYAWILIMILWA,30141,KIBWELA,NYALUBANGA A
GEITA,30,GEITA,301,NYAWILIMILWA,30141,KIBWELA,NYALUBANGA B
GEITA,30,GEITA,301,NYAWILIMILWA,30141,KIBWELA,KIBWELA
GEITA,30,GEITA,301,NYAWILIMILWA,30141,KIBWELA,KAMLALE
GEITA,30,GEITA,301,IZUMACHELI,30142,BUTWA/LULEGEYA,BUTWA
GEITA,30,GEITA,301,IZUMACHELI,30142,BUTWA/LULEGEYA,LULEGEYA
GEITA,30,GEITA,301,IZUMACHELI,30142,BUTWA/LULEGEYA,IKANGAMATO
GEITA,30,GEITA,301,IZUMACHELI,30142,IZUMACHELI,BUGANDO
GEITA,30,GEITA,301,IZUMACHELI,30142,IZUMACHELI,IZUMACHELI
GEITA,30,GEITA,301,IZUMACHELI,30142,IZUMACHELI,MCHINDO
GEITA,30,GEITA,301,IZUMACHELI,30142,LUNAZI,"LUNAZI ""A"""
GEITA,30,GEITA,301,IZUMACHELI,30142,LUNAZI,"LUNAZI ""B"""
GEITA,30,GEITA,301,IZUMACHELI,30142,LUNAZI,BULONGELO
GEITA,30,GEITA,301,NYAMBOGE,30143,CHELAMENO,CHELAMENO SENTA
GEITA,30,GEITA,301,NYAMBOGE,30143,CHELAMENO,MCHUNGWANI
GEITA,30,GEITA,301,NYAMBOGE,30143,CHELAMENO,KISOMBO
GEITA,30,GEITA,301,NYAMBOGE,30143,NJINGAMI,NJINGAMI SENTA
GEITA,30,GEITA,301,NYAMBOGE,30143,NJINGAMI,NYANGH'WALE
GEITA,30,GEITA,301,NYAMBOGE,30143,NJINGAMI,KIGOMA
GEITA,30,GEITA,301,NYAMBOGE,30143,NYAMBOGE,NYAMBOGE SENTA
GEITA,30,GEITA,301,NYAMBOGE,30143,NYAMBOGE,CHIKULUGUSI
GEITA,30,GEITA,301,NYAMBOGE,30143,NYAMBOGE,NYAMUGALI
GEITA,30,GEITA,301,NYAMBOGE,30143,NYAMBOGE,CHABASABI
GEITA,30,GEITA,301,NYAMBOGE,30143,NYAMBOGE,KAKOME
GEITA,30,GEITA,301,NYAMBOGE,30143,LUKAYA,KIHIMBO
GEITA,30,GEITA,301,NYAMBOGE,30143,LUKAYA,LUKAYA KATI
GEITA,30,GEITA,301,NYAMBOGE,30143,LUKAYA,MWEMBENI
GEITA,30,GEITA,301,NYAMBOGE,30143,LUKAYA,ILYAMCHELE
GEITA,30,GEITA,301,NYAMBOGE,30143,LUKAYA,CHANZUMLA
GEITA,30,GEITA,301,BUHALAHALA,30144,BUHALAHALA,
GEITA,30,GEITA,301,BUHALAHALA,30144,MAGOGO,
GEITA,30,GEITA,301,BUHALAHALA,30144,MWATULOLE,
GEITA,30,GEITA,301,BUHALAHALA,30144,SHILABELA,
GEITA,30,GEITA,301,BUHALAHALA,30144,KAMBARAGE,
GEITA,30,GEITA,301,BUHALAHALA,30144,ISENI,
GEITA,30,GEITA,301,BUHALAHALA,30144,SHINDE,
GEITA,30,GEITA,301,BUHALAHALA,30144,MORINGA,
GEITA,30,GEITA,301,NYANKUMBU,30145,MWEMBENI,
GEITA,30,GEITA,301,NYANKUMBU,30145,NYANTOROTORO A,
GEITA,30,GEITA,301,NYANKUMBU,30145,BUCHUNDWANKENDE,
GEITA,30,GEITA,301,NYANKUMBU,30145,NYAMAKALE,
GEITA,30,GEITA,301,NYANKUMBU,30145,IBOLELO,
GEITA,30,GEITA,301,NYANKUMBU,30145,UWANJA,
GEITA,30,GEITA,301,NYANKUMBU,30145,ELIMU,
GEITA,30,GEITA,301,NYANKUMBU,30145,NYANTOROTORO B,
GEITA,30,GEITA,301,NYANKUMBU,30145,NYAGAGWE,
GEITA,30,GEITA,301,NYANKUMBU,30145,NSHINDE,
GEITA,30,GEITA,301,NYANKUMBU,30145,ILUNGWE,
GEITA,30,GEITA,301,MGUSU,30146,MGUSU,
GEITA,30,GEITA,301,MGUSU,30146,MACHINJIONI,
GEITA,30,GEITA,301,MGUSU,30146,NYAKABALE,
GEITA,30,GEITA,301,MGUSU,30146,MANGA,
GEITA,30,GEITA,301,KANYALA,30147,MWAMITILWA,
GEITA,30,GEITA,301,KANYALA,30147,MWILIMA,
GEITA,30,GEITA,301,KANYALA,30147,KANYALA,
GEITA,30,GEITA,301,KANYALA,30147,MKANGALA,
GEITA,30,GEITA,301,KANYALA,30147,MAJENGO,
GEITA,30,GEITA,301,KANYALA,30147,IBANDA,
GEITA,30,GEITA,301,SHILOLELI,30148,NYAMBOGO,IHUSHI
GEITA,30,GEITA,301,SHILOLELI,30148,NYAMBOGO,NYAMBOGO
GEITA,30,GEITA,301,SHILOLELI,30148,NYAMBOGO,SHILOLELI '' A''
GEITA,30,GEITA,301,SHILOLELI,30148,NYAMBOGO,SHILOLELI  'B''
GEITA,30,GEITA,301,SHILOLELI,30148,BUMANJI,BUMANJI
GEITA,30,GEITA,301,SHILOLELI,30148,BUMANJI,MASUNVE
GEITA,30,GEITA,301,SHILOLELI,30148,BUMANJI,SHILOLELI
GEITA,30,GEITA,301,LUDETE,30149,BUMANJI,IBONDO
GEITA,30,GEITA,301,LUDETE,30149,BUMANJI,KIGALA
GEITA,30,GEITA,301,LUDETE,30149,BUMANJI,IBOZYA MAGIGO
GEITA,30,GEITA,301,LUDETE,30149,BUMANJI,ELIMU
GEITA,30,GEITA,301,LUDETE,30149,BUMANJI,IZENGWABASUMBA
GEITA,30,GEITA,301,LUDETE,30149,BUMANJI,IMALAMAWAZO
GEITA,30,GEITA,301,LUDETE,30149,BUMANJI,LUDETE
GEITA,30,GEITA,301,LUDETE,30149,BUMANJI,KALIFONIA
GEITA,30,GEITA,301,LUDETE,30149,BUMANJI,STAMIKO
GEITA,30,GEITA,301,LUDETE,30149,BUMANJI,STOONI
GEITA,30,GEITA,301,LUDETE,30149,BUMANJI,MTAA WA AFYA
GEITA,30,GEITA,301,LUDETE,30149,BUMANJI,BUGAYAMBELELE
GEITA,30,GEITA,301,LUDETE,30149,BUMANJI,KILIMAHEWA
GEITA,30,GEITA,301,LUDETE,30149,BUMANJI,NJIA PANDA
GEITA,30,GEITA,301,LUDETE,30149,BUMANJI,KILIMANI
GEITA,30,NYANG'HWALE,302,NYANG'HWALE,30201,NYANG’HWALE,WAGAMOYO
GEITA,30,NYANG'HWALE,302,NYANG'HWALE,30201,NYANG’HWALE,UWANJANI
GEITA,30,NYANG'HWALE,302,NYANG'HWALE,30201,NYANG’HWALE,ILUBALO
GEITA,30,NYANG'HWALE,302,NYANG'HWALE,30201,NYANG’HWALE,ITUNDU
GEITA,30,NYANG'HWALE,302,NYANG'HWALE,30201,NYANG’HWALE,SENTA
GEITA,30,NYANG'HWALE,302,NYANG'HWALE,30201,NYANG’HWALE,IDUDUMULA
GEITA,30,NYANG'HWALE,302,NYANG'HWALE,30201,IBAMBILA,IBAMBILA SENTA
GEITA,30,NYANG'HWALE,302,NYANG'HWALE,30201,IBAMBILA,NYANG’HULUKULU
GEITA,30,NYANG'HWALE,302,NYANG'HWALE,30201,IBAMBILA,MLIMANI
GEITA,30,NYANG'HWALE,302,NYANG'HWALE,30201,IBAMBILA,BUGAYAMBELELE
GEITA,30,NYANG'HWALE,302,NYANG'HWALE,30201,IBAMBILA,BUGANDA
GEITA,30,NYANG'HWALE,302,NYANG'HWALE,30201,NYAKASWI,MAPANDO
GEITA,30,NYANG'HWALE,302,NYANG'HWALE,30201,NYAKASWI,NYAKASWI SENTA
GEITA,30,NYANG'HWALE,302,NYANG'HWALE,30201,NYAKASWI,NYAMALIMBE
GEITA,30,NYANG'HWALE,302,NYANG'HWALE,30201,NYAKASWI,NTANTAMA
GEITA,30,NYANG'HWALE,302,NYANG'HWALE,30201,KASEME “A”,NG’WANZA
GEITA,30,NYANG'HWALE,302,NYANG'HWALE,30201,KASEME “A”,LWABAHINDA
GEITA,30,NYANG'HWALE,302,NYANG'HWALE,30201,KASEME “A”,NHOBOLO
GEITA,30,NYANG'HWALE,302,KAKORA,30202,KAKORA,KAKORA SENTA
GEITA,30,NYANG'HWALE,302,KAKORA,30202,KAKORA,LIGEMBE
GEITA,30,NYANG'HWALE,302,KAKORA,30202,KAKORA,NYANGUGANWA
GEITA,30,NYANG'HWALE,302,KAKORA,30202,KAKORA,BUSEGEJA
GEITA,30,NYANG'HWALE,302,KAKORA,30202,KABIGA,NYADUDU
GEITA,30,NYANG'HWALE,302,KAKORA,30202,KABIGA,KABIGA SENTA
GEITA,30,NYANG'HWALE,302,KAKORA,30202,KABIGA,ITILIMA
GEITA,30,NYANG'HWALE,302,KAKORA,30202,BULULU,BULULU SENTA
GEITA,30,NYANG'HWALE,302,KAKORA,30202,BULULU,BUGAKAYU
GEITA,30,NYANG'HWALE,302,KAKORA,30202,BULULU,SHANKENDE
GEITA,30,NYANG'HWALE,302,KAKORA,30202,KITONGO,BUGUNGA
GEITA,30,NYANG'HWALE,302,KAKORA,30202,KITONGO,BUZILIMA
GEITA,30,NYANG'HWALE,302,KAKORA,30202,KITONGO,BUZINGWA
GEITA,30,NYANG'HWALE,302,KAKORA,30202,KITONGO,KITONGO STOO
GEITA,30,NYANG'HWALE,302,KAKORA,30202,NYANGALAMILA,NYANGALAMILA SENTA
GEITA,30,NYANG'HWALE,302,KAKORA,30202,NYANGALAMILA,LUTONGO
GEITA,30,NYANG'HWALE,302,KAKORA,30202,NYANGALAMILA,NANGE
GEITA,30,NYANG'HWALE,302,BUSOLWA,30203,BUSOLWA,NYAKABILA
GEITA,30,NYANG'HWALE,302,BUSOLWA,30203,BUSOLWA,MADULU
GEITA,30,NYANG'HWALE,302,BUSOLWA,30203,BUSOLWA,STOO
GEITA,30,NYANG'HWALE,302,BUSOLWA,30203,BUSOLWA,BUSOLWA SENTA
GEITA,30,NYANG'HWALE,302,BUSOLWA,30203,BUSOLWA,NG'WIZA
GEITA,30,NYANG'HWALE,302,BUSOLWA,30203,BUSOLWA,NGELELA
GEITA,30,NYANG'HWALE,302,BUSOLWA,30203,BUSOLWA,NG'WABASABI
GEITA,30,NYANG'HWALE,302,BUSOLWA,30203,KONA,KARUNGA
GEITA,30,NYANG'HWALE,302,BUSOLWA,30203,KONA,KONA SENTA
GEITA,30,NYANG'HWALE,302,BUSOLWA,30203,KONA,NDELWE
GEITA,30,NYANG'HWALE,302,BUSOLWA,30203,IFUGANDI,NG’WABASABI
GEITA,30,NYANG'HWALE,302,BUSOLWA,30203,IFUGANDI,IFUGANDI SENTA
GEITA,30,NYANG'HWALE,302,BUSOLWA,30203,IFUGANDI,ING'WELO
GEITA,30,NYANG'HWALE,302,BUSOLWA,30203,IFUGANDI,ILOGANZALA
GEITA,30,NYANG'HWALE,302,BUSOLWA,30203,IFUGANDI,IPILILO
GEITA,30,NYANG'HWALE,302,BUSOLWA,30203,IFUGANDI,NYAMIGONO
GEITA,30,NYANG'HWALE,302,NYUGWA,30204,NYUGWA,NYUGWA SENTA
GEITA,30,NYANG'HWALE,302,NYUGWA,30204,NYUGWA,IBINZWA
GEITA,30,NYANG'HWALE,302,NYUGWA,30204,NYUGWA,BUGARIKA
GEITA,30,NYANG'HWALE,302,NYUGWA,30204,NYUGWA,MABOGO
GEITA,30,NYANG'HWALE,302,NYUGWA,30204,NYUGWA,SHIGUNGUMULI
GEITA,30,NYANG'HWALE,302,NYUGWA,30204,NYUGWA,NYASWA
GEITA,30,NYANG'HWALE,302,NYUGWA,30204,NYUGWA,MAGUGUNI
GEITA,30,NYANG'HWALE,302,NYUGWA,30204,NYUGWA,BEYA
GEITA,30,NYANG'HWALE,302,NYUGWA,30204,KIJINGA,MPINDO
GEITA,30,NYANG'HWALE,302,NYUGWA,30204,KIJINGA,IHANILO
GEITA,30,NYANG'HWALE,302,NYUGWA,30204,KIJINGA,NKONGOLO
GEITA,30,NYANG'HWALE,302,NYUGWA,30204,MIMBILI,MIMBILI SENTA
GEITA,30,NYANG'HWALE,302,NYUGWA,30204,MIMBILI,BUGAKA
GEITA,30,NYANG'HWALE,302,NYUGWA,30204,MIMBILI,BEYA
GEITA,30,NYANG'HWALE,302,NYUGWA,30204,MIMBILI,ILULA
GEITA,30,NYANG'HWALE,302,NYUGWA,30204,ISONDA,KAVOMELO
GEITA,30,NYANG'HWALE,302,NYUGWA,30204,ISONDA,ISONDA-SENTA
GEITA,30,NYANG'HWALE,302,NYUGWA,30204,ISONDA,SHIHETA
GEITA,30,NYANG'HWALE,302,NYUGWA,30204,ISONDA,ING’WELO
GEITA,30,NYANG'HWALE,302,KHARUMWA,30205,BUKUNGU,LWANHUBA
GEITA,30,NYANG'HWALE,302,KHARUMWA,30205,BUKUNGU,MISUNGWIDA
GEITA,30,NYANG'HWALE,302,KHARUMWA,30205,BUKUNGU,SHIKONOKA
GEITA,30,NYANG'HWALE,302,KHARUMWA,30205,KHARUMWA,MAHANGO
GEITA,30,NYANG'HWALE,302,KHARUMWA,30205,KHARUMWA,BUTIMWA
GEITA,30,NYANG'HWALE,302,KHARUMWA,30205,KHARUMWA,MANYEMA
GEITA,30,NYANG'HWALE,302,KHARUMWA,30205,KHARUMWA,NYAWISHI
GEITA,30,NYANG'HWALE,302,KHARUMWA,30205,KHARUMWA,BUPAMBA
GEITA,30,NYANG'HWALE,302,KHARUMWA,30205,BUSENGWA,BUSENGWA SENTA
GEITA,30,NYANG'HWALE,302,KHARUMWA,30205,BUSENGWA,MSAMVU
GEITA,30,NYANG'HWALE,302,KHARUMWA,30205,BUSENGWA,BEYA
GEITA,30,NYANG'HWALE,302,KHARUMWA,30205,BUSENGWA,MALOLO
GEITA,30,NYANG'HWALE,302,KHARUMWA,30205,BUSENGWA,MAREKANI
GEITA,30,NYANG'HWALE,302,KHARUMWA,30205,BUSENGWA,BUTALANDA
GEITA,30,NYANG'HWALE,302,KHARUMWA,30205,IKANGALA,LASI
GEITA,30,NYANG'HWALE,302,KHARUMWA,30205,IKANGALA,NYAMHELA
GEITA,30,NYANG'HWALE,302,KHARUMWA,30205,IKANGALA,NYAKABALE
GEITA,30,NYANG'HWALE,302,KHARUMWA,30205,IKANGALA,SHILIMBA
GEITA,30,NYANG'HWALE,302,KHARUMWA,30205,BUMANDA,NYAMBITI
GEITA,30,NYANG'HWALE,302,KHARUMWA,30205,BUMANDA,IGABILO
GEITA,30,NYANG'HWALE,302,KHARUMWA,30205,BUMANDA,NYIJUNDU
GEITA,30,NYANG'HWALE,302,KHARUMWA,30205,BUMANDA,LWENGE
GEITA,30,NYANG'HWALE,302,KAFITA,30206,KAFITA,KAFITA SENTA
GEITA,30,NYANG'HWALE,302,KAFITA,30206,KAFITA,NG’WABASABI
GEITA,30,NYANG'HWALE,302,KAFITA,30206,KAFITA,IBOJA
GEITA,30,NYANG'HWALE,302,KAFITA,30206,KAFITA,NYALYANDU
GEITA,30,NYANG'HWALE,302,KAFITA,30206,KAYENZE,BUKENZE
GEITA,30,NYANG'HWALE,302,KAFITA,30206,KAYENZE,BUTUNGA
GEITA,30,NYANG'HWALE,302,KAFITA,30206,KAYENZE,ITINDAMBOGO
GEITA,30,NYANG'HWALE,302,KAFITA,30206,KAYENZE,BULYASUNGWI
GEITA,30,NYANG'HWALE,302,KAFITA,30206,KAYENZE,ITOBORA
GEITA,30,NYANG'HWALE,302,KAFITA,30206,KAYENZE,IGALULA
GEITA,30,NYANG'HWALE,302,KAFITA,30206,BUKULU,IBILINGO
GEITA,30,NYANG'HWALE,302,KAFITA,30206,BUKULU,BUZWALA
GEITA,30,NYANG'HWALE,302,KAFITA,30206,BUKULU,IBEMBELE
GEITA,30,NYANG'HWALE,302,KAFITA,30206,BUKULU,BUKULU SENTA
GEITA,30,NYANG'HWALE,302,KAFITA,30206,BUKULU,NYAHONGO
GEITA,30,NYANG'HWALE,302,KAFITA,30206,BUKULU,GULUMBAI
GEITA,30,NYANG'HWALE,302,KAFITA,30206,LUSHIMBA,MABATINI
GEITA,30,NYANG'HWALE,302,KAFITA,30206,LUSHIMBA,CHOMBA
GEITA,30,NYANG'HWALE,302,KAFITA,30206,LUSHIMBA,INALA
GEITA,30,NYANG'HWALE,302,KAFITA,30206,LUSHIMBA,ITEBELE
GEITA,30,NYANG'HWALE,302,KAFITA,30206,LUSHIMBA,NYAMALAPA
GEITA,30,NYANG'HWALE,302,MWINGIRO,30207,MWINGIRO,SENTA
GEITA,30,NYANG'HWALE,302,MWINGIRO,30207,MWINGIRO,BARAZANI
GEITA,30,NYANG'HWALE,302,MWINGIRO,30207,MWINGIRO,NG'HWABUYI
GEITA,30,NYANG'HWALE,302,MWINGIRO,30207,MWINGIRO,MTAKUJA
GEITA,30,NYANG'HWALE,302,MWINGIRO,30207,MWINGIRO,BALATOGWA
GEITA,30,NYANG'HWALE,302,MWINGIRO,30207,MWINGIRO,SENGELEMA
GEITA,30,NYANG'HWALE,302,MWINGIRO,30207,IYENZE,NG’WAMITILWA
GEITA,30,NYANG'HWALE,302,MWINGIRO,30207,IYENZE,ISESA-MAHARAGE
GEITA,30,NYANG'HWALE,302,MWINGIRO,30207,IYENZE,MTAKUJA
GEITA,30,NYANG'HWALE,302,MWINGIRO,30207,IYENZE,STAMICO
GEITA,30,NYANG'HWALE,302,MWINGIRO,30207,IYENZE,USHASHINI
GEITA,30,NYANG'HWALE,302,MWINGIRO,30207,NG’WASABUKA,NG'WASABUKA SENTA
GEITA,30,NYANG'HWALE,302,MWINGIRO,30207,NG’WASABUKA,IYOGELO
GEITA,30,NYANG'HWALE,302,MWINGIRO,30207,NG’WASABUKA,UWANJA WA RAHA
GEITA,30,NYANG'HWALE,302,MWINGIRO,30207,NG’WASABUKA,NGAJEREWELE
GEITA,30,NYANG'HWALE,302,MWINGIRO,30207,NYAMIKONZE,NYAMIKONZE SENTA
GEITA,30,NYANG'HWALE,302,MWINGIRO,30207,NYAMIKONZE,SENTA 'B'
GEITA,30,NYANG'HWALE,302,MWINGIRO,30207,NYAMIKONZE,MAJENGO
GEITA,30,NYANG'HWALE,302,MWINGIRO,30207,NYAMIKONZE,MANGA
GEITA,30,NYANG'HWALE,302,MWINGIRO,30207,NYAMIKONZE,NDUHA
GEITA,30,NYANG'HWALE,302,MWINGIRO,30207,NYAMIKONZE,LUSENI
GEITA,30,NYANG'HWALE,302,SHABAKA,30208,SHABAKA,NYAKABALE
GEITA,30,NYANG'HWALE,302,SHABAKA,30208,SHABAKA,SENTA
GEITA,30,NYANG'HWALE,302,SHABAKA,30208,SHABAKA,NDATI
GEITA,30,NYANG'HWALE,302,SHABAKA,30208,SHABAKA,NYAKABUNGO
GEITA,30,NYANG'HWALE,302,SHABAKA,30208,SHABAKA,KAKORA
GEITA,30,NYANG'HWALE,302,SHABAKA,30208,WAVU,WAVU SENTA
GEITA,30,NYANG'HWALE,302,SHABAKA,30208,WAVU,IKELEGE
GEITA,30,NYANG'HWALE,302,SHABAKA,30208,WAVU,IMOGWAMPALA
GEITA,30,NYANG'HWALE,302,SHABAKA,30208,NYAMGOGWA,ITALE
GEITA,30,NYANG'HWALE,302,SHABAKA,30208,NYAMGOGWA,WENZULA
GEITA,30,NYANG'HWALE,302,SHABAKA,30208,NYAMGOGWA,NYAMGOGWA SENTA
GEITA,30,NYANG'HWALE,302,SHABAKA,30208,NYAMGOGWA,MNELE
GEITA,30,NYANG'HWALE,302,SHABAKA,30208,MHAMA,MHAMA SENTA
GEITA,30,NYANG'HWALE,302,SHABAKA,30208,MHAMA,KAGERA
GEITA,30,NYANG'HWALE,302,SHABAKA,30208,MHAMA,NYABULOLO
GEITA,30,NYANG'HWALE,302,SHABAKA,30208,MHAMA,SHILABELA
GEITA,30,NYANG'HWALE,302,SHABAKA,30208,IHUSHI,IHUSHI SENTA
GEITA,30,NYANG'HWALE,302,SHABAKA,30208,IHUSHI,KAKORA A
GEITA,30,NYANG'HWALE,302,SHABAKA,30208,IHUSHI,NYALUHEKE
GEITA,30,NYANG'HWALE,302,SHABAKA,30208,IHUSHI,BUTWIGA
GEITA,30,NYANG'HWALE,302,SHABAKA,30208,IHUSHI,NYAMAKU
GEITA,30,NYANG'HWALE,302,SHABAKA,30208,LUBANDO,NYAMATALA
GEITA,30,NYANG'HWALE,302,SHABAKA,30208,LUBANDO,LUBANDO SENTA
GEITA,30,NYANG'HWALE,302,SHABAKA,30208,LUBANDO,NONGA
GEITA,30,NYANG'HWALE,302,SHABAKA,30208,LUBANDO,BUKAYANZA
GEITA,30,NYANG'HWALE,302,BUKWIMBA,30209,BUKWIMBA,BUDENGE
GEITA,30,NYANG'HWALE,302,BUKWIMBA,30209,BUKWIMBA,BUKWIMBA SENTA
GEITA,30,NYANG'HWALE,302,BUKWIMBA,30209,BUKWIMBA,SHISHINULU
GEITA,30,NYANG'HWALE,302,BUKWIMBA,30209,BUKWIMBA,KASHISHI
GEITA,30,NYANG'HWALE,302,BUKWIMBA,30209,BUKWIMBA,MKUGE
GEITA,30,NYANG'HWALE,302,BUKWIMBA,30209,KASUBUYA,KASUBUYA SENTA
GEITA,30,NYANG'HWALE,302,BUKWIMBA,30209,KASUBUYA,NYANG'HOMANGO
GEITA,30,NYANG'HWALE,302,BUKWIMBA,30209,KASUBUYA,IGOMELO
GEITA,30,NYANG'HWALE,302,BUKWIMBA,30209,KASUBUYA,NYAMHELA
GEITA,30,NYANG'HWALE,302,BUKWIMBA,30209,KASUBUYA,MBOGWE
GEITA,30,NYANG'HWALE,302,BUKWIMBA,30209,KASUBUYA,ISOLABUPINA
GEITA,30,NYANG'HWALE,302,BUKWIMBA,30209,BULANGALE,BUNYEMA
GEITA,30,NYANG'HWALE,302,BUKWIMBA,30209,BULANGALE,KABONELO
GEITA,30,NYANG'HWALE,302,BUKWIMBA,30209,BULANGALE,NKUYU
GEITA,30,NYANG'HWALE,302,BUKWIMBA,30209,BULANGALE,ILEMELA
GEITA,30,NYANG'HWALE,302,BUKWIMBA,30209,BULANGALE,NG’ANGA
GEITA,30,NYANG'HWALE,302,IZUNYA,30210,IZUNYA,BUKWALA
GEITA,30,NYANG'HWALE,302,IZUNYA,30210,IZUNYA,NYANGUKU
GEITA,30,NYANG'HWALE,302,IZUNYA,30210,IZUNYA,ILOBOKELO
GEITA,30,NYANG'HWALE,302,IZUNYA,30210,IZUNYA,BULOLWA
GEITA,30,NYANG'HWALE,302,IZUNYA,30210,IZUNYA,SWEYA
GEITA,30,NYANG'HWALE,302,IZUNYA,30210,IZUNYA,BUPUMULA
GEITA,30,NYANG'HWALE,302,IZUNYA,30210,MWAMAKILIGA,MWAMAKILIGA SENTA
GEITA,30,NYANG'HWALE,302,IZUNYA,30210,MWAMAKILIGA,IBALANGULU
GEITA,30,NYANG'HWALE,302,IZUNYA,30210,MWAMAKILIGA,LUNGUYA
GEITA,30,NYANG'HWALE,302,IZUNYA,30210,MWAMAKILIGA,BALATOGWA
GEITA,30,NYANG'HWALE,302,IZUNYA,30210,KANEGELE,KANEGELE SENTA
GEITA,30,NYANG'HWALE,302,IZUNYA,30210,KANEGELE,SEGELE
GEITA,30,NYANG'HWALE,302,IZUNYA,30210,KANEGELE,BUKOLONGO
GEITA,30,NYANG'HWALE,302,IZUNYA,30210,KANEGELE,NKALALO
GEITA,30,NYANG'HWALE,302,NYIJUNDU,30211,NYIJUNDU,ISENGWA
GEITA,30,NYANG'HWALE,302,NYIJUNDU,30211,NYIJUNDU,NKWENDELE
GEITA,30,NYANG'HWALE,302,NYIJUNDU,30211,NYIJUNDU,NYIJUNDU SENTA
GEITA,30,NYANG'HWALE,302,NYIJUNDU,30211,NYIJUNDU,LUBAGA
GEITA,30,NYANG'HWALE,302,NYIJUNDU,30211,NYIJUNDU,NYANGALAMILA
GEITA,30,NYANG'HWALE,302,NYIJUNDU,30211,NYIJUNDU,MWABOMBA
GEITA,30,NYANG'HWALE,302,NYIJUNDU,30211,KASUBUYA,MLIMANI
GEITA,30,NYANG'HWALE,302,NYIJUNDU,30211,KASUBUYA,NYANGALAMILA ''B''
GEITA,30,NYANG'HWALE,302,NYIJUNDU,30211,KASUBUYA,MIEMBENI
GEITA,30,NYANG'HWALE,302,NYIJUNDU,30211,KASUBUYA,SHIMONI
GEITA,30,NYANG'HWALE,302,NYIJUNDU,30211,NYARUBELE,NGELELA
GEITA,30,NYANG'HWALE,302,NYIJUNDU,30211,NYARUBELE,ISANGA
GEITA,30,NYANG'HWALE,302,NYIJUNDU,30211,NYARUBELE,KAGUNGA
GEITA,30,NYANG'HWALE,302,NYIJUNDU,30211,NYARUBELE,KADASHI
GEITA,30,NYANG'HWALE,302,NYIJUNDU,30211,IYOGELO,NYAMAGISA
GEITA,30,NYANG'HWALE,302,NYIJUNDU,30211,IYOGELO,MWABASABI
GEITA,30,NYANG'HWALE,302,NYIJUNDU,30211,IYOGELO,SHILABELA
GEITA,30,NYANG'HWALE,302,NYIJUNDU,30211,IYOGELO,BUJINGWA
GEITA,30,NYANG'HWALE,302,NYIJUNDU,30211,NYARUGUGUNA,LWABANINDA
GEITA,30,NYANG'HWALE,302,NYIJUNDU,30211,NYARUGUGUNA,SENTA
GEITA,30,NYANG'HWALE,302,NYIJUNDU,30211,NYARUGUGUNA,MTAKUJA
GEITA,30,NYANG'HWALE,302,NYIJUNDU,30211,NYARUGUGUNA,MKOLANI
GEITA,30,NYANG'HWALE,302,NYIJUNDU,30211,NYARUGUGUNA,IGALULA
GEITA,30,NYANG'HWALE,302,NYABULANDA,30212,NYABULANDA,MRABA
GEITA,30,NYANG'HWALE,302,NYABULANDA,30212,NYABULANDA,NYABULANDA SENTA
GEITA,30,NYANG'HWALE,302,NYABULANDA,30212,NYABULANDA,MOROGORO
GEITA,30,NYANG'HWALE,302,NYABULANDA,30212,NYABULANDA,FINGA
GEITA,30,NYANG'HWALE,302,NYABULANDA,30212,NYABULANDA,NYAMAKALA
GEITA,30,NYANG'HWALE,302,NYABULANDA,30212,NYABULANDA,IKONDO
GEITA,30,NYANG'HWALE,302,NYABULANDA,30212,NYABULANDA,BONDENI
GEITA,30,NYANG'HWALE,302,NYABULANDA,30212,NYASHILANGA,NYANG'OMBE
GEITA,30,NYANG'HWALE,302,NYABULANDA,30212,NYASHILANGA,SOMELI
GEITA,30,NYANG'HWALE,302,NYABULANDA,30212,NYASHILANGA,NYASHILANGA SENTA
GEITA,30,NYANG'HWALE,302,NYABULANDA,30212,NYASHILANGA,BUBADA
GEITA,30,NYANG'HWALE,302,NYABULANDA,30212,NYASHILANGA,NYASOLOLO
GEITA,30,NYANG'HWALE,302,NYABULANDA,30212,BUJULA MIYENZE,BUHALAHALA
GEITA,30,NYANG'HWALE,302,NYABULANDA,30212,BUJULA MIYENZE,BUJULA SENTA
GEITA,30,NYANG'HWALE,302,NYABULANDA,30212,BUJULA MIYENZE,MIYENZE
GEITA,30,NYANG'HWALE,302,NYABULANDA,30212,IDETEMYA,BUSEBI
GEITA,30,NYANG'HWALE,302,NYABULANDA,30212,IDETEMYA,CHAMIHWA
GEITA,30,NYANG'HWALE,302,NYABULANDA,30212,IDETEMYA,NYAMINYONGA
GEITA,30,NYANG'HWALE,302,NYABULANDA,30212,IDETEMYA,LULINDYE
GEITA,30,NYANG'HWALE,302,NYABULANDA,30212,IDETEMYA,NYANG'HWAMBA
GEITA,30,NYANG'HWALE,302,NUNDU,30213,NUNDU,NUNDU SENTA
GEITA,30,NYANG'HWALE,302,NUNDU,30213,NUNDU,NYANG’HOLOMOKO
GEITA,30,NYANG'HWALE,302,NUNDU,30213,NUNDU,ITONGWANG’HOLO
GEITA,30,NYANG'HWALE,302,NUNDU,30213,NYANG’HOLONGO,NYANG’HOLONGO SENTA
GEITA,30,NYANG'HWALE,302,NUNDU,30213,NYANG’HOLONGO,BUSULWANGILI
GEITA,30,NYANG'HWALE,302,NUNDU,30213,NYANG’HOLONGO,BULUMILA
GEITA,30,NYANG'HWALE,302,NUNDU,30213,LYULU,NYASHIMBA
GEITA,30,NYANG'HWALE,302,NUNDU,30213,LYULU,LYULU SENTA
GEITA,30,NYANG'HWALE,302,NUNDU,30213,LYULU,BULOHA
GEITA,30,NYANG'HWALE,302,NUNDU,30213,LYULU,IPALANG’OMBE
GEITA,30,NYANG'HWALE,302,NUNDU,30213,IGEKA,IGEKA SENTA
GEITA,30,NYANG'HWALE,302,NUNDU,30213,IGEKA,MWANZUKI
GEITA,30,NYANG'HWALE,302,NUNDU,30213,IGEKA,MWAKULALI
GEITA,30,NYANG'HWALE,302,NYAMTUKUZA,30214,NYAMTUKUZA,NYAMTUKUZA SENTA
GEITA,30,NYANG'HWALE,302,NYAMTUKUZA,30214,NYAMTUKUZA,KAFUNDIKILE
GEITA,30,NYANG'HWALE,302,NYAMTUKUZA,30214,NYAMTUKUZA,MTAKUJA
GEITA,30,NYANG'HWALE,302,NYAMTUKUZA,30214,NYAMTUKUZA,MWALOLELA
GEITA,30,NYANG'HWALE,302,NYAMTUKUZA,30214,NHWIGA,NHWIGA SENTA
GEITA,30,NYANG'HWALE,302,NYAMTUKUZA,30214,NHWIGA,NYAMTELEJA
GEITA,30,NYANG'HWALE,302,NYAMTUKUZA,30214,NHWIGA,IHANAMILO
GEITA,30,NYANG'HWALE,302,NYAMTUKUZA,30214,BUGOMBELA,BUGOMBELA SENTA
GEITA,30,NYANG'HWALE,302,NYAMTUKUZA,30214,BUGOMBELA,MLINGWA
GEITA,30,NYANG'HWALE,302,NYAMTUKUZA,30214,BUGOMBELA,SHAMAKONGE
GEITA,30,NYANG'HWALE,302,NYAMTUKUZA,30214,ISENI,ISENI SENTA
GEITA,30,NYANG'HWALE,302,NYAMTUKUZA,30214,ISENI,NYAMOLE
GEITA,30,NYANG'HWALE,302,NYAMTUKUZA,30214,ISENI,NYAMIKONZE
GEITA,30,NYANG'HWALE,302,KABOHA,30215,KABOHA,KABOHA SENTA
GEITA,30,NYANG'HWALE,302,KABOHA,30215,KABOHA,NYAMISHIKI
GEITA,30,NYANG'HWALE,302,KABOHA,30215,KABOHA,BUGANDO
GEITA,30,NYANG'HWALE,302,KABOHA,30215,KABOHA,MLIMANI
GEITA,30,NYANG'HWALE,302,KABOHA,30215,SHIBALANGA,SHIBALANGA SENTA
GEITA,30,NYANG'HWALE,302,KABOHA,30215,SHIBALANGA,SONGAMBELE
GEITA,30,NYANG'HWALE,302,KABOHA,30215,SHIBALANGA,LIGEMBE
GEITA,30,NYANG'HWALE,302,KABOHA,30215,SHIBALANGA,MBUGANI
GEITA,30,NYANG'HWALE,302,KABOHA,30215,NYABULOLO,NYABULOLO SENTA
GEITA,30,NYANG'HWALE,302,KABOHA,30215,NYABULOLO,BUGANDO ''B''
GEITA,30,NYANG'HWALE,302,KABOHA,30215,NYABULOLO,MAJENGO
GEITA,30,NYANG'HWALE,302,KABOHA,30215,SHIBUMBA,ELIMU
GEITA,30,NYANG'HWALE,302,KABOHA,30215,SHIBUMBA,BUGANDA
GEITA,30,NYANG'HWALE,302,KABOHA,30215,SHIBUMBA,NGELELA
GEITA,30,NYANG'HWALE,302,KABOHA,30215,SHIBUMBA,KATI
GEITA,30,CHATO,303,CHATO,30301,CHATO,CHATO KATI
GEITA,30,CHATO,303,CHATO,30301,CHATO,ELIMU
GEITA,30,CHATO,303,CHATO,30301,CHATO,KALEMA
GEITA,30,CHATO,303,CHATO,30301,CHATO,BICHI
GEITA,30,CHATO,303,CHATO,30301,CHATO,VIJANA
GEITA,30,CHATO,303,CHATO,30301,MKUYUNI,USHIRIKA
GEITA,30,CHATO,303,CHATO,30301,MKUYUNI,SOLA
GEITA,30,CHATO,303,CHATO,30301,MKUYUNI,USWAHILINI
GEITA,30,CHATO,303,CHATO,30301,MKUYUNI,MAJENGO
GEITA,30,CHATO,303,CHATO,30301,MKUYUNI,MPAKANI
GEITA,30,CHATO,303,CHATO,30301,KITELA,MAJENGO
GEITA,30,CHATO,303,CHATO,30301,KITELA,SIMU
GEITA,30,CHATO,303,CHATO,30301,KITELA,NYERERE
GEITA,30,CHATO,303,CHATO,30301,KITELA,MPOGOLONI
GEITA,30,CHATO,303,CHATO,30301,KITELA,MTAKUJA
GEITA,30,CHATO,303,CHATO,30301,MSILALE,MSILALE
GEITA,30,CHATO,303,CHATO,30301,MSILALE,SOKONI
GEITA,30,CHATO,303,CHATO,30301,MSILALE,MSIKITINI
GEITA,30,CHATO,303,CHATO,30301,MSILALE,MSUFUNI
GEITA,30,CHATO,303,CHATO,30301,MSILALE,UJIRANI MWEMA
GEITA,30,CHATO,303,NYAMIREMBE,30302,NYAKAKARANGO,MLIMANI
GEITA,30,CHATO,303,NYAMIREMBE,30302,NYAKAKARANGO,MWABASABI
GEITA,30,CHATO,303,NYAMIREMBE,30302,NYAKAKARANGO,MWALONI
GEITA,30,CHATO,303,NYAMIREMBE,30302,NYAKAKARANGO,ISABIRO
GEITA,30,CHATO,303,NYAMIREMBE,30302,NYAKAKARANGO,KATOMA B
GEITA,30,CHATO,303,NYAMIREMBE,30302,NYAMIREMBE,NYAKALILO
GEITA,30,CHATO,303,NYAMIREMBE,30302,NYAMIREMBE,MAHAKAMA
GEITA,30,CHATO,303,NYAMIREMBE,30302,NYAMIREMBE,USHIRIKA
GEITA,30,CHATO,303,NYAMIREMBE,30302,NYAMIREMBE,MIEMBENI
GEITA,30,CHATO,303,NYAMIREMBE,30302,NYAMIREMBE,KITASHOKA
GEITA,30,CHATO,303,NYAMIREMBE,30302,NYAMIREMBE,BIKAKA
GEITA,30,CHATO,303,NYAMIREMBE,30302,NYAMIREMBE,KATASHOKA
GEITA,30,CHATO,303,NYAMIREMBE,30302,KALEBEZO,MWABASABI
GEITA,30,CHATO,303,NYAMIREMBE,30302,KALEBEZO,KAZUNGUTI A
GEITA,30,CHATO,303,NYAMIREMBE,30302,KALEBEZO,KAZUNGUTI B
GEITA,30,CHATO,303,NYAMIREMBE,30302,KALEBEZO,SENGEREMA
GEITA,30,CHATO,303,NYAMIREMBE,30302,KALEBEZO,MWADUI
GEITA,30,CHATO,303,NYAMIREMBE,30302,KALEBEZO,KALEBEZO A
GEITA,30,CHATO,303,NYAMIREMBE,30302,KALEBEZO,KALEBEZO B
GEITA,30,CHATO,303,NYAMIREMBE,30302,KALEBEZO,GAME
GEITA,30,CHATO,303,NYAMIREMBE,30302,KALEBEZO,MWAMBITI
GEITA,30,CHATO,303,NYAMIREMBE,30302,NYAMBITI,IBIRIBISHI
GEITA,30,CHATO,303,NYAMIREMBE,30302,NYAMBITI,KATOMA A
GEITA,30,CHATO,303,NYAMIREMBE,30302,NYAMBITI,NYAMBITI
GEITA,30,CHATO,303,NYAMIREMBE,30302,NYAMBITI,ITUNDWE 'A'
GEITA,30,CHATO,303,NYAMIREMBE,30302,NYAMBITI,ITUNDWE 'B'
GEITA,30,CHATO,303,NYAMIREMBE,30302,NYAMBITI,IGWATA
GEITA,30,CHATO,303,NYAMIREMBE,30302,NYAMBITI,SHILABELA
GEITA,30,CHATO,303,NYAMIREMBE,30302,NYAMBITI,SHILABELA 'B'
GEITA,30,CHATO,303,NYAMIREMBE,30302,NYAMBITI,RAMBONI
GEITA,30,CHATO,303,NYAMIREMBE,30302,NYAMBITI,KATOMA C
GEITA,30,CHATO,303,NYAMIREMBE,30302,NYAMBITI,KAGERA A
GEITA,30,CHATO,303,NYAMIREMBE,30302,NYAMBITI,KANEMBA
GEITA,30,CHATO,303,NYAMIREMBE,30302,KIKUMBAITALE,KIKUMBAITALE
GEITA,30,CHATO,303,NYAMIREMBE,30302,KIKUMBAITALE,LUHANGA
GEITA,30,CHATO,303,NYAMIREMBE,30302,KIKUMBAITALE,KAKANSHE
GEITA,30,CHATO,303,NYAMIREMBE,30302,KIKUMBAITALE,KAMENA
GEITA,30,CHATO,303,NYAMIREMBE,30302,KIKUMBAITALE,NYANGE
GEITA,30,CHATO,303,NYAMIREMBE,30302,BUTARAMA,BUTARAMA STOO
GEITA,30,CHATO,303,NYAMIREMBE,30302,BUTARAMA,BUTARAMA KATI
GEITA,30,CHATO,303,NYAMIREMBE,30302,BUTARAMA,BUHUNGU
GEITA,30,CHATO,303,NYAMIREMBE,30302,BUKAMILA,LUSAMI
GEITA,30,CHATO,303,NYAMIREMBE,30302,BUKAMILA,BUKAMILA
GEITA,30,CHATO,303,NYAMIREMBE,30302,BUKAMILA,NYANGWE A
GEITA,30,CHATO,303,NYAMIREMBE,30302,BUKAMILA,NYANGWE B
GEITA,30,CHATO,303,NYAMIREMBE,30302,KAKANSHE,MTUNDUNI
GEITA,30,CHATO,303,NYAMIREMBE,30302,KAKANSHE,MWALONI
GEITA,30,CHATO,303,NYAMIREMBE,30302,KAKANSHE,KAKANSHE
GEITA,30,CHATO,303,ILEMELA,30303,ILEMELA,ILEMELA KATI
GEITA,30,CHATO,303,ILEMELA,30303,ILEMELA,IHAYABUGA
GEITA,30,CHATO,303,ILEMELA,30303,ILEMELA,BULULWAMBESHI A
GEITA,30,CHATO,303,ILEMELA,30303,ILEMELA,BULULWAMBESHI B
GEITA,30,CHATO,303,ILEMELA,30303,ILEMELA,NYASENGA A
GEITA,30,CHATO,303,ILEMELA,30303,ILEMELA,MWAMAKALA
GEITA,30,CHATO,303,ILEMELA,30303,NYAMBOGO,NYAMBOGO SHULENI
GEITA,30,CHATO,303,ILEMELA,30303,NYAMBOGO,NYAKAHURA
GEITA,30,CHATO,303,ILEMELA,30303,NYAMBOGO,NYANTUNTE
GEITA,30,CHATO,303,ILEMELA,30303,NYAMBOGO,KITANGULE
GEITA,30,CHATO,303,ILEMELA,30303,KANYAMA,KANYAMA STOO
GEITA,30,CHATO,303,ILEMELA,30303,KANYAMA,KABUSHONI
GEITA,30,CHATO,303,ILEMELA,30303,KANYAMA,MGASHIMBA
GEITA,30,CHATO,303,ILEMELA,30303,KANYAMA,BUPANDWASIMBA B
GEITA,30,CHATO,303,ILEMELA,30303,KANYAMA,BUPANDEMHELA
GEITA,30,CHATO,303,ILEMELA,30303,KANYAMA,NYINTUTE
GEITA,30,CHATO,303,ILEMELA,30303,KANYAMA,IBISABAGENI
GEITA,30,CHATO,303,ILEMELA,30303,KANYAMA,KISESA
GEITA,30,CHATO,303,ILEMELA,30303,NYANHOMANGO,MPONGOLA A
GEITA,30,CHATO,303,ILEMELA,30303,NYANHOMANGO,MPONGOLA B
GEITA,30,CHATO,303,ILEMELA,30303,NYANHOMANGO,NYANHOMANGO
GEITA,30,CHATO,303,ILEMELA,30303,NYANHOMANGO,KISESA
GEITA,30,CHATO,303,KATENDE,30304,KATENDE,KATENDE MADUKANI
GEITA,30,CHATO,303,KATENDE,30304,KATENDE,IBISABAGENI
GEITA,30,CHATO,303,KATENDE,30304,KATENDE,RAMBONI
GEITA,30,CHATO,303,KATENDE,30304,KATENDE,MAJENGO A
GEITA,30,CHATO,303,KATENDE,30304,KATENDE,NGWAMAGILI
GEITA,30,CHATO,303,KATENDE,30304,CHABULONGO,MWALOLELA
GEITA,30,CHATO,303,KATENDE,30304,CHABULONGO,ISAMILO
GEITA,30,CHATO,303,KATENDE,30304,CHABULONGO,BUSAMBILO
GEITA,30,CHATO,303,KATENDE,30304,NGW’ABARUHI,NG’WAMITIRWA
GEITA,30,CHATO,303,KATENDE,30304,NGW’ABARUHI,ILANGALE
GEITA,30,CHATO,303,KATENDE,30304,NGW’ABARUHI,MTAKUJA
GEITA,30,CHATO,303,KATENDE,30304,NGW’ABARUHI,IZUNYA
GEITA,30,CHATO,303,BUKOME,30305,BUZIRAYOMBO,MADUKANI A
GEITA,30,CHATO,303,BUKOME,30305,BUZIRAYOMBO,MADUKANI B
GEITA,30,CHATO,303,BUKOME,30305,BUZIRAYOMBO,KABILIZI
GEITA,30,CHATO,303,BUKOME,30305,BUZIRAYOMBO,KABILIZI MWEMBENI
GEITA,30,CHATO,303,BUKOME,30305,BUZIRAYOMBO,KABILIZI CENTRE
GEITA,30,CHATO,303,BUKOME,30305,BUZIRAYOMBO,MLIMANI A
GEITA,30,CHATO,303,BUKOME,30305,BUZIRAYOMBO,MLIMANI B
GEITA,30,CHATO,303,BUKOME,30305,NYAKATO,NYAKATO CENTRE
GEITA,30,CHATO,303,BUKOME,30305,NYAKATO,SHILABELA
GEITA,30,CHATO,303,BUKOME,30305,NYAKATO,NYAKATO KATI
GEITA,30,CHATO,303,BUKOME,30305,NYAKATO,MURANDA
GEITA,30,CHATO,303,BUKOME,30305,NYAKATO,NYAKATO CENTRE
GEITA,30,CHATO,303,BUKOME,30305,NYAKATO,MISHENI
GEITA,30,CHATO,303,BUKOME,30305,NYAKATO,KIBINGO
GEITA,30,CHATO,303,BUKOME,30305,NYAKATO,MILUMBA
GEITA,30,CHATO,303,BUKOME,30305,NYAKATO,ISEGENKE
GEITA,30,CHATO,303,BUKOME,30305,NYAKATO,CHABULA
GEITA,30,CHATO,303,BUKOME,30305,NYAKATO,MIEMBENI
GEITA,30,CHATO,303,BUKOME,30305,NYAKATO,MIGWATANI
GEITA,30,CHATO,303,BUKOME,30305,KATALE,KATALE
GEITA,30,CHATO,303,BUKOME,30305,KATALE,KABILIZI CENTRE
GEITA,30,CHATO,303,BUKOME,30305,KATALE,KABILIZI
GEITA,30,CHATO,303,BUKOME,30305,KATALE,MAWENI
GEITA,30,CHATO,303,BUKOME,30305,KATALE,KITWALO
GEITA,30,CHATO,303,BUKOME,30305,NYABILEZI,NYABILEZI B
GEITA,30,CHATO,303,BUKOME,30305,NYABILEZI,NYABILEZI C
GEITA,30,CHATO,303,BUKOME,30305,NYABILEZI,KAMENGO
GEITA,30,CHATO,303,BUKOME,30305,NYABILEZI,UKIRIGURU
GEITA,30,CHATO,303,BUKOME,30305,NYABILEZI,NYARWAMBU
GEITA,30,CHATO,303,BUKOME,30305,BUKOME,NGOMERO
GEITA,30,CHATO,303,BUKOME,30305,BUKOME,MSHIKAMANO
GEITA,30,CHATO,303,BUKOME,30305,BUKOME,BUKOME CORNER
GEITA,30,CHATO,303,BUKOME,30305,BUKOME,BUKOME STOO
GEITA,30,CHATO,303,BUKOME,30305,BUKOME,KAMENGO
GEITA,30,CHATO,303,BUKOME,30305,BUKOME,MWADUI
GEITA,30,CHATO,303,BUKOME,30305,MKUNGO,ILYAMCHELE
GEITA,30,CHATO,303,BUKOME,30305,MKUNGO,IMALAPINA
GEITA,30,CHATO,303,BUKOME,30305,MKUNGO,MKUNGULE
GEITA,30,CHATO,303,BUKOME,30305,MKUNGO,STOO
GEITA,30,CHATO,303,BUKOME,30305,MKUNGO,BUSALALA
GEITA,30,CHATO,303,BUKOME,30305,MKUNGO,MBUGANI
GEITA,30,CHATO,303,KIGONGO,30306,NYISANZI,NYISANZI
GEITA,30,CHATO,303,KIGONGO,30306,NYISANZI,DODOMA
GEITA,30,CHATO,303,KIGONGO,30306,NYISANZI,ISAMIRO
GEITA,30,CHATO,303,KIGONGO,30306,NYISANZI,IHAYABUYAGA
GEITA,30,CHATO,303,KIGONGO,30306,NYISANZI,MASASI
GEITA,30,CHATO,303,KIGONGO,30306,BWAWANI,STOO
GEITA,30,CHATO,303,KIGONGO,30306,BWAWANI,KAWEKAMO
GEITA,30,CHATO,303,KIGONGO,30306,BWAWANI,SOKONI
GEITA,30,CHATO,303,KIGONGO,30306,BWAWANI,MAJENGO
GEITA,30,CHATO,303,KIGONGO,30306,KIBEHE,KIBEHE A
GEITA,30,CHATO,303,KIGONGO,30306,KIBEHE,KIBEHE B
GEITA,30,CHATO,303,KIGONGO,30306,KIBEHE,MTAKUJA
GEITA,30,CHATO,303,KIGONGO,30306,BUHUNGU,BUHUNGU KATI
GEITA,30,CHATO,303,KIGONGO,30306,BUHUNGU,MCHANGANI
GEITA,30,CHATO,303,KIGONGO,30306,BUHUNGU,MWALONI
GEITA,30,CHATO,303,KIGONGO,30306,BUHUNGU,MASASI
GEITA,30,CHATO,303,MUGANZA,30307,MUGANZA,MUGANZA
GEITA,30,CHATO,303,MUGANZA,30307,MUGANZA,KASENYI
GEITA,30,CHATO,303,MUGANZA,30307,MUGANZA,RUBANDA
GEITA,30,CHATO,303,MUGANZA,30307,MUGANZA,AZIMIO
GEITA,30,CHATO,303,MUGANZA,30307,MUGANZA,KASENDA
GEITA,30,CHATO,303,MUGANZA,30307,KATEMWA,KATEMWA A
GEITA,30,CHATO,303,MUGANZA,30307,KATEMWA,KATEMWA B
GEITA,30,CHATO,303,MUGANZA,30307,KATEMWA,SONGAMBELE
GEITA,30,CHATO,303,MUGANZA,30307,KATEMWA,CHABAKAZI
GEITA,30,CHATO,303,MUGANZA,30307,KATEMWA,MAENDELEO
GEITA,30,CHATO,303,MUGANZA,30307,MAJENGO,MAJENGO
GEITA,30,CHATO,303,MUGANZA,30307,MAJENGO,MTAKUJA
GEITA,30,CHATO,303,MUGANZA,30307,MAJENGO,TUMAINI
GEITA,30,CHATO,303,MUGANZA,30307,MAJENGO,BIHARAMULO
GEITA,30,CHATO,303,MUGANZA,30307,MAJENGO,LAMI
GEITA,30,CHATO,303,MUGANZA,30307,NYABILELE,NYABILELE
GEITA,30,CHATO,303,MUGANZA,30307,NYABILELE,KASUNGAMILE
GEITA,30,CHATO,303,MUGANZA,30307,NYABILELE,IMARASELELE
GEITA,30,CHATO,303,MUGANZA,30307,NYABILELE,MUUNGANO
GEITA,30,CHATO,303,MUGANZA,30307,NYABUGERA,KASANDA 'A'
GEITA,30,CHATO,303,MUGANZA,30307,NYABUGERA,KASENDA 'B'
GEITA,30,CHATO,303,MUGANZA,30307,NYABUGERA,NYABUGERA STOO
GEITA,30,CHATO,303,MUGANZA,30307,NYABUGERA,NYABUGERA SHULENI
GEITA,30,CHATO,303,MUGANZA,30307,NYABUGERA,CHENKOKOLA
GEITA,30,CHATO,303,MUGANZA,30307,NYABUGERA,NYABUGERA
GEITA,30,CHATO,303,MUGANZA,30307,MWELANI,NYABUGERA
GEITA,30,CHATO,303,MUGANZA,30307,MWELANI,MWELANI
GEITA,30,CHATO,303,MUGANZA,30307,MWELANI,MKUNYUNI
GEITA,30,CHATO,303,MUGANZA,30307,MWELANI,RUBANDA
GEITA,30,CHATO,303,MUGANZA,30307,MKOMBOZI,MKOMBOZI
GEITA,30,CHATO,303,MUGANZA,30307,MKOMBOZI,MWEMBENI
GEITA,30,CHATO,303,MUGANZA,30307,MKOMBOZI,MUUNGANO
GEITA,30,CHATO,303,MUGANZA,30307,MKOMBOZI,ILEMELA
GEITA,30,CHATO,303,MUGANZA,30307,MKOMBOZI,KANYUNDO
GEITA,30,CHATO,303,MUGANZA,30307,RUTUNGURU,IBANDA
GEITA,30,CHATO,303,MUGANZA,30307,RUTUNGURU,RUTUNGURU SHULENI
GEITA,30,CHATO,303,MUGANZA,30307,RUTUNGURU,RUTUNGURU STOO
GEITA,30,CHATO,303,MUGANZA,30307,RUTUNGURU,MABAMBA
GEITA,30,CHATO,303,MUGANZA,30307,IBANDA,ZAKIA
GEITA,30,CHATO,303,MUGANZA,30307,IBANDA,UHURU
GEITA,30,CHATO,303,MUGANZA,30307,IBANDA,KARIAKOO
GEITA,30,CHATO,303,MUGANZA,30307,IBANDA,IBANDA
GEITA,30,CHATO,303,ICHWANKIMA,30308,ICHWANKIMA,ICHWANKIMA A
GEITA,30,CHATO,303,ICHWANKIMA,30308,ICHWANKIMA,ICHWANKIMA B
GEITA,30,CHATO,303,ICHWANKIMA,30308,ICHWANKIMA,RAHALEO
GEITA,30,CHATO,303,ICHWANKIMA,30308,ICHWANKIMA,BUHAGAMOYO
GEITA,30,CHATO,303,ICHWANKIMA,30308,BUSALALA,BUSALALA CENTRE
GEITA,30,CHATO,303,ICHWANKIMA,30308,BUSALALA,IHAYABUYAGA
GEITA,30,CHATO,303,ICHWANKIMA,30308,BUSALALA,IMALAMALUSU
GEITA,30,CHATO,303,ICHWANKIMA,30308,BUSALALA,MTAKUJA
GEITA,30,CHATO,303,ICHWANKIMA,30308,BUSALALA,RUSUBI
GEITA,30,CHATO,303,ICHWANKIMA,30308,IMALABUPINA,IMALABUPINA KATI
GEITA,30,CHATO,303,ICHWANKIMA,30308,IMALABUPINA,USWAHILINI
GEITA,30,CHATO,303,ICHWANKIMA,30308,IMALABUPINA,MBUNGANI
GEITA,30,CHATO,303,ICHWANKIMA,30308,IMALABUPINA,SONGAMBELE
GEITA,30,CHATO,303,KACHWAMBA,30309,KACHWAMBA,KACHWAMBA CENTRE
GEITA,30,CHATO,303,KACHWAMBA,30309,KACHWAMBA,SERENGETI
GEITA,30,CHATO,303,KACHWAMBA,30309,KACHWAMBA,SONGAMBELE
GEITA,30,CHATO,303,KACHWAMBA,30309,KACHWAMBA,MTAKUJA
GEITA,30,CHATO,303,KACHWAMBA,30309,KACHWAMBA,ELIMU
GEITA,30,CHATO,303,KACHWAMBA,30309,IDOSELO,NYANGUKU
GEITA,30,CHATO,303,KACHWAMBA,30309,IDOSELO,IDOSELO
GEITA,30,CHATO,303,KACHWAMBA,30309,IDOSELO,IGALAGARIKO
GEITA,30,CHATO,303,KACHWAMBA,30309,IPANDIKILO,IPANDIKILO
GEITA,30,CHATO,303,KACHWAMBA,30309,IPANDIKILO,KASENI
GEITA,30,CHATO,303,KACHWAMBA,30309,IPANDIKILO,BUHINGO
GEITA,30,CHATO,303,MAKURUGUSI,30310,KIBUMBA,ISEGENG'E “A”
GEITA,30,CHATO,303,MAKURUGUSI,30310,KIBUMBA,ISEGENG'E “B”
GEITA,30,CHATO,303,MAKURUGUSI,30310,KIBUMBA,KIGALI
GEITA,30,CHATO,303,MAKURUGUSI,30310,KIBUMBA,ILANGALA
GEITA,30,CHATO,303,MAKURUGUSI,30310,KIBUMBA,MSHISHINI
GEITA,30,CHATO,303,MAKURUGUSI,30310,KIBUMBA,MATEKENI KATI
GEITA,30,CHATO,303,MAKURUGUSI,30310,KIBUMBA,MATEKENI
GEITA,30,CHATO,303,MAKURUGUSI,30310,KIBUMBA,MTUNDUNI
GEITA,30,CHATO,303,MAKURUGUSI,30310,IMALAMAWAZO,MUHAMENI
GEITA,30,CHATO,303,MAKURUGUSI,30310,IMALAMAWAZO,ICHAKAYA
GEITA,30,CHATO,303,MAKURUGUSI,30310,IMALAMAWAZO,IMALAMAWAZO CENTRE
GEITA,30,CHATO,303,MAKURUGUSI,30310,IMALAMAWAZO,MATANDANI
GEITA,30,CHATO,303,MAKURUGUSI,30310,IMALAMAWAZO,MATOFALI “A”
GEITA,30,CHATO,303,MAKURUGUSI,30310,IMALAMAWAZO,MATOFALI  “B”
GEITA,30,CHATO,303,MAKURUGUSI,30310,KASALA,MABAMBA
GEITA,30,CHATO,303,MAKURUGUSI,30310,KASALA,IDOSELO “A”
GEITA,30,CHATO,303,MAKURUGUSI,30310,KASALA,IDOSELO “B”
GEITA,30,CHATO,303,MAKURUGUSI,30310,KASALA,ISENI
GEITA,30,CHATO,303,MAKURUGUSI,30310,KASALA,MWABALUGU
GEITA,30,CHATO,303,MAKURUGUSI,30310,KASALA,GAMBOSHI
GEITA,30,CHATO,303,MAKURUGUSI,30310,KASALA,MWABASABI
GEITA,30,CHATO,303,MAKURUGUSI,30310,KASALA,KASALA CENTER
GEITA,30,CHATO,303,MAKURUGUSI,30310,KASALA,MIENZENI
GEITA,30,CHATO,303,MAKURUGUSI,30310,KASALA,MKUYUNI
GEITA,30,CHATO,303,MAKURUGUSI,30310,MALEBE,MABAMBA
GEITA,30,CHATO,303,MAKURUGUSI,30310,MALEBE,MALEBE
GEITA,30,CHATO,303,MAKURUGUSI,30310,MALEBE,MWANGIKA
GEITA,30,CHATO,303,MAKURUGUSI,30310,MALEBE,KABILAKENTAMA
GEITA,30,CHATO,303,MAKURUGUSI,30310,MUSASA,MUSASA ”A”
GEITA,30,CHATO,303,MAKURUGUSI,30310,MUSASA,MUSASA “B”
GEITA,30,CHATO,303,MAKURUGUSI,30310,MUSASA,MAJENGO MAPYA
GEITA,30,CHATO,303,MAKURUGUSI,30310,MUSASA,LUSUNGWA
GEITA,30,CHATO,303,MAKURUGUSI,30310,MUSASA,MKUYUNI
GEITA,30,CHATO,303,MAKURUGUSI,30310,MUSASA,MBUGANI
GEITA,30,CHATO,303,MAKURUGUSI,30310,MUSASA,MAJENGO MAPYA
GEITA,30,CHATO,303,MAKURUGUSI,30310,MABILA,SONGAMBELE
GEITA,30,CHATO,303,MAKURUGUSI,30310,MABILA,MABILA
GEITA,30,CHATO,303,MAKURUGUSI,30310,MABILA,NYAMBOGO “A”
GEITA,30,CHATO,303,MAKURUGUSI,30310,MABILA,NYAMBOGO “B”
GEITA,30,CHATO,303,MAKURUGUSI,30310,MAKURUGUSI,MAKURUGUSI “A”
GEITA,30,CHATO,303,MAKURUGUSI,30310,MAKURUGUSI,MAKURUGUSI “B”
GEITA,30,CHATO,303,MAKURUGUSI,30310,MAKURUGUSI,SONGAMBELE
GEITA,30,CHATO,303,MAKURUGUSI,30310,MAKURUGUSI,SAMAZINA 'B'
GEITA,30,CHATO,303,MAKURUGUSI,30310,MAKURUGUSI,MHOLOLO
GEITA,30,CHATO,303,MAKURUGUSI,30310,MAKURUGUSI,MTAKUJA
GEITA,30,CHATO,303,MAKURUGUSI,30310,MAKURUGUSI,BUGOMELO
GEITA,30,CHATO,303,MAKURUGUSI,30310,KAMANGA,KAMANGA A
GEITA,30,CHATO,303,MAKURUGUSI,30310,KAMANGA,KAMANGA B
GEITA,30,CHATO,303,MAKURUGUSI,30310,KAMANGA,KIVUKONI
GEITA,30,CHATO,303,MAKURUGUSI,30310,KAMANGA,NYAMPAZI
GEITA,30,CHATO,303,MAKURUGUSI,30310,KAMANGA,MTAKUJA
GEITA,30,CHATO,303,BUSERESERE,30311,BUSERESERE,BUSERESERE
GEITA,30,CHATO,303,BUSERESERE,30311,BUSERESERE,KABAHELELE
GEITA,30,CHATO,303,BUSERESERE,30311,BUSERESERE,MAWENI
GEITA,30,CHATO,303,BUSERESERE,30311,BUSERESERE,NYAKASIKU
GEITA,30,CHATO,303,BUSERESERE,30311,IBONDO,IBONDO “A”
GEITA,30,CHATO,303,BUSERESERE,30311,IBONDO,IBONDO “B”
GEITA,30,CHATO,303,BUSERESERE,30311,IBONDO,RUMASA
GEITA,30,CHATO,303,BUSERESERE,30311,IBONDO,MAENDELEO
GEITA,30,CHATO,303,BUSERESERE,30311,IBONDO,ELIMU
GEITA,30,CHATO,303,BUSERESERE,30311,MAPINDUZI,MAPINDUZI “A”
GEITA,30,CHATO,303,BUSERESERE,30311,MAPINDUZI,MAPINDUZI “B”
GEITA,30,CHATO,303,BUSERESERE,30311,MAPINDUZI,MTAKUJA
GEITA,30,CHATO,303,BUSERESERE,30311,MAPINDUZI,CHAMHIMBA
GEITA,30,CHATO,303,BUSERESERE,30311,IMWELO,NYALUKOMA “A”
GEITA,30,CHATO,303,BUSERESERE,30311,IMWELO,NYARUKOMA “B’’
GEITA,30,CHATO,303,BUSERESERE,30311,IMWELO,IMWELO A
GEITA,30,CHATO,303,BUSERESERE,30311,IMWELO,IZENGABASUMBA
GEITA,30,CHATO,303,BUSERESERE,30311,IMWELO,MWAMBITI
GEITA,30,CHATO,303,BUSERESERE,30311,IMWELO,SHILABELA
GEITA,30,CHATO,303,BUSERESERE,30311,BUYOGA,BUYOGA “A”
GEITA,30,CHATO,303,BUSERESERE,30311,BUYOGA,BUYOGA “B”
GEITA,30,CHATO,303,BUSERESERE,30311,BUYOGA,KAKUNKURU
GEITA,30,CHATO,303,BUSERESERE,30311,BUYOGA,BUFUNGO
GEITA,30,CHATO,303,BUSERESERE,30311,BUYOGA,NYAMIGERE
GEITA,30,CHATO,303,BUSERESERE,30311,MWABAGALU,IDOSELO
GEITA,30,CHATO,303,BUSERESERE,30311,MWABAGALU,MWABAGALU “A”
GEITA,30,CHATO,303,BUSERESERE,30311,MWABAGALU,MWABAGALU “B”
GEITA,30,CHATO,303,BUSERESERE,30311,MWABAGALU,MWABASABI
GEITA,30,CHATO,303,BUSERESERE,30311,MWABAGALU,MWELI
GEITA,30,CHATO,303,BUSERESERE,30311,MULANDA,MWAMBITI
GEITA,30,CHATO,303,BUSERESERE,30311,MULANDA,SHILABELA
GEITA,30,CHATO,303,BUSERESERE,30311,MULANDA,MWAMBU
GEITA,30,CHATO,303,BUSERESERE,30311,MULANDA,IZENGA
GEITA,30,CHATO,303,BWANGA,30312,BWANGA,NYAMIBANGA
GEITA,30,CHATO,303,BWANGA,30312,BWANGA,MITIMIREFU
GEITA,30,CHATO,303,BWANGA,30312,BWANGA,KABATANGE
GEITA,30,CHATO,303,BWANGA,30312,BWANGA,NYAMPANGA
GEITA,30,CHATO,303,BWANGA,30312,IZUMANGABO,IZUMANGABO
GEITA,30,CHATO,303,BWANGA,30312,IZUMANGABO,MLUMBANI
GEITA,30,CHATO,303,BWANGA,30312,IZUMANGABO,MAENDELEO
GEITA,30,CHATO,303,BWANGA,30312,IZUMANGABO,MKAPA
GEITA,30,CHATO,303,BWANGA,30312,IZUMANGABO,BALONGO
GEITA,30,CHATO,303,BWANGA,30312,NYARUTUTU,KAZILAMAGEMBE
GEITA,30,CHATO,303,BWANGA,30312,NYARUTUTU,NYAKAYONDWA
GEITA,30,CHATO,303,BWANGA,30312,NYARUTUTU,MAJENGO
GEITA,30,CHATO,303,BWANGA,30312,NYARUTUTU,NYAMWILOLELWA
GEITA,30,CHATO,303,BWANGA,30312,NYARUTUTU,TANGINANE
GEITA,30,CHATO,303,BWANGA,30312,BUKIRIGURU,IYENZE A
GEITA,30,CHATO,303,BWANGA,30312,BUKIRIGURU,IYENZE B
GEITA,30,CHATO,303,BWANGA,30312,BUKIRIGURU,MULUNDA A
GEITA,30,CHATO,303,BWANGA,30312,BUKIRIGURU,MULUNDA B
GEITA,30,CHATO,303,BWANGA,30312,BUKIRIGURU,MWAKITOLYO
GEITA,30,CHATO,303,BWERA,30313,BWERA,MAENDELEO A
GEITA,30,CHATO,303,BWERA,30313,BWERA,MAENDELEO B
GEITA,30,CHATO,303,BWERA,30313,BWERA,SONGAMBELE
GEITA,30,CHATO,303,BWERA,30313,BWERA,IGEMBESABO
GEITA,30,CHATO,303,BWERA,30313,BWERA,KIGOMAMOTOMOTO A
GEITA,30,CHATO,303,BWERA,30313,BWERA,SALUGONGO A
GEITA,30,CHATO,303,BWERA,30313,BWERA,SALUGONGO B
GEITA,30,CHATO,303,BWERA,30313,BWERA,KIGOMAMOTOMOTO B
GEITA,30,CHATO,303,BWERA,30313,BUSAKA,BUSAKA A
GEITA,30,CHATO,303,BWERA,30313,BUSAKA,BUSAKA B
GEITA,30,CHATO,303,BWERA,30313,BUSAKA,BUSAKA C
GEITA,30,CHATO,303,BWERA,30313,BUSAKA,SALUGONGO A
GEITA,30,CHATO,303,BWERA,30313,BUSAKA,SALUGONGO B
GEITA,30,CHATO,303,BWERA,30313,BUSAKA,BUSAKA
GEITA,30,CHATO,303,BWERA,30313,BUSAKA,HESAWA
GEITA,30,CHATO,303,BWERA,30313,BUSAKA,MABAMBA
GEITA,30,CHATO,303,BWERA,30313,IGANDO,IGANDO.
GEITA,30,CHATO,303,BWERA,30313,IGANDO,MWEMBENI
GEITA,30,CHATO,303,BWERA,30313,IGANDO,KIMINGO
GEITA,30,CHATO,303,BWERA,30313,IGANDO,BULYAHEKE
GEITA,30,CHATO,303,BWERA,30313,IGANDO,MSUFINI
GEITA,30,CHATO,303,BWERA,30313,IGANDO,MAENDELEO
GEITA,30,CHATO,303,BUZIKU,30314,BUZIKU,BUZIKU KATI
GEITA,30,CHATO,303,BUZIKU,30314,BUZIKU,MAENDELEO
GEITA,30,CHATO,303,BUZIKU,30314,BUZIKU,SOKONI
GEITA,30,CHATO,303,BUZIKU,30314,BUZIKU,MATEGEMEO
GEITA,30,CHATO,303,BUZIKU,30314,BUZIKU,MATOFALI
GEITA,30,CHATO,303,BUZIKU,30314,RWANTABA,IBANDILO
GEITA,30,CHATO,303,BUZIKU,30314,RWANTABA,RWANTABA
GEITA,30,CHATO,303,BUZIKU,30314,RWANTABA,MBUGANI
GEITA,30,CHATO,303,BUZIKU,30314,RWANTABA,BUGEGE
GEITA,30,CHATO,303,BUZIKU,30314,RWANTABA,SOKO LA ZAMANI
GEITA,30,CHATO,303,BUZIKU,30314,RWANTABA,MTAKUJA “B”
GEITA,30,CHATO,303,BUZIKU,30314,RWANTABA,MWAMBASABI
GEITA,30,CHATO,303,BUZIKU,30314,NYARUTEFYE,NYARUTEFYE
GEITA,30,CHATO,303,BUZIKU,30314,NYARUTEFYE,IGOGO
GEITA,30,CHATO,303,BUZIKU,30314,NYARUTEFYE,BULYAHEKE
GEITA,30,CHATO,303,BUZIKU,30314,NYARUTEFYE,HIFADHI
GEITA,30,CHATO,303,BUZIKU,30314,MAJENGO,MAJENGO
GEITA,30,CHATO,303,BUZIKU,30314,MAJENGO,CHANZOBE
GEITA,30,CHATO,303,BUZIKU,30314,MAJENGO,PAROKIA
GEITA,30,CHATO,303,BUZIKU,30314,MAJENGO,MWABAYANDA MAGHARIBI
GEITA,30,CHATO,303,BUZIKU,30314,NYAMPALAHALA,MBUGANI
GEITA,30,CHATO,303,BUZIKU,30314,NYAMPALAHALA,NYAMPALAHALA
GEITA,30,CHATO,303,BUZIKU,30314,NYAMPALAHALA,MISRI
GEITA,30,CHATO,303,BUZIKU,30314,NYAMPALAHALA,BUCHOSA
GEITA,30,CHATO,303,BUZIKU,30314,NYAMPALAHALA,TEGEMEO
GEITA,30,CHATO,303,BUZIKU,30314,NYAMPALAHALA,MKOLANI
GEITA,30,CHATO,303,BUZIKU,30314,IHANGA,IGOGO A
GEITA,30,CHATO,303,BUZIKU,30314,IHANGA,IGOGO B
GEITA,30,CHATO,303,BUZIKU,30314,IHANGA,ELIMU
GEITA,30,CHATO,303,BUZIKU,30314,IHANGA,MADEGE
GEITA,30,CHATO,303,BUZIKU,30314,IHANGA,IHANGA
GEITA,30,CHATO,303,BUZIKU,30314,IHANGA,ITEMELO
GEITA,30,CHATO,303,BUZIKU,30314,IHANGA,IKOKWA
GEITA,30,CHATO,303,BUZIKU,30314,IHANGA,IDETEMYA
GEITA,30,CHATO,303,KASENGA,30315,MAGILI,MAGILI KATI
GEITA,30,CHATO,303,KASENGA,30315,MAGILI,NYANGALAMLA A
GEITA,30,CHATO,303,KASENGA,30315,MAGILI,NYANGALAMLA B
GEITA,30,CHATO,303,KASENGA,30315,KIHULA,KIHULA KATI
GEITA,30,CHATO,303,KASENGA,30315,KIHULA,IGABANILO
GEITA,30,CHATO,303,KASENGA,30315,KIHULA,MANYILI
GEITA,30,CHATO,303,KASENGA,30315,KIHULA,NYAMAGUFA
GEITA,30,CHATO,303,KASENGA,30315,KIHULA,KISHA
GEITA,30,CHATO,303,KASENGA,30315,IGALULA,IGALULA KATI
GEITA,30,CHATO,303,KASENGA,30315,IGALULA,MANYILI
GEITA,30,CHATO,303,KASENGA,30315,IGALULA,NYAMAGUFA
GEITA,30,CHATO,303,KASENGA,30315,MWEKAKO,MTAKUJA
GEITA,30,CHATO,303,KASENGA,30315,MWEKAKO,MWINGIRO
GEITA,30,CHATO,303,KASENGA,30315,MWEKAKO,BURAMA
GEITA,30,CHATO,303,KASENGA,30315,MWANGAZA,MWAGAZA KATI
GEITA,30,CHATO,303,KASENGA,30315,MWANGAZA,BUTACHA
GEITA,30,CHATO,303,KASENGA,30315,MWANGAZA,IMARANGUZU
GEITA,30,CHATO,303,KASENGA,30315,MWANGAZA,KASUSURA A
GEITA,30,CHATO,303,KASENGA,30315,MWANGAZA,KASUSURA B
GEITA,30,CHATO,303,KASENGA,30315,MWANGAZA,IHEMELO
GEITA,30,CHATO,303,KASENGA,30315,KASENGA,KASENGA CENTRE
GEITA,30,CHATO,303,KASENGA,30315,KASENGA,KASUSURA A
GEITA,30,CHATO,303,KASENGA,30315,KASENGA,KASUSURA B
GEITA,30,CHATO,303,KASENGA,30315,KASENGA,IHEMELO
GEITA,30,CHATO,303,KASENGA,30315,KASENGA,IHEMELO KATI
GEITA,30,CHATO,303,BWONGERA,30316,BWONGERA,BWONGERA
GEITA,30,CHATO,303,BWONGERA,30316,BWONGERA,UHURU
GEITA,30,CHATO,303,BWONGERA,30316,BWONGERA,MWAMBAO
GEITA,30,CHATO,303,BWONGERA,30316,BWONGERA,MTONI
GEITA,30,CHATO,303,BWONGERA,30316,BWONGERA,SHAURI MOYO
GEITA,30,CHATO,303,BWONGERA,30316,BWONGERA,MTAKUJA
GEITA,30,CHATO,303,BWONGERA,30316,KATETE,MWAMBAO
GEITA,30,CHATO,303,BWONGERA,30316,KATETE,MLIMANI
GEITA,30,CHATO,303,BWONGERA,30316,KATETE,MKUYUNI
GEITA,30,CHATO,303,BWONGERA,30316,KATETE,MTAKUJA
GEITA,30,CHATO,303,BWONGERA,30316,BUGWEGO,BUGWEGO
GEITA,30,CHATO,303,BWONGERA,30316,BUGWEGO,SHIRIKISHI
GEITA,30,CHATO,303,BWONGERA,30316,BUGWEGO,TEGEMEO A
GEITA,30,CHATO,303,BWONGERA,30316,BUGWEGO,TEGEMEO B
GEITA,30,CHATO,303,BWONGERA,30316,BUGWEGO,UMOJA
GEITA,30,CHATO,303,BWONGERA,30316,MKOLANI,KAZILAMAFUKA
GEITA,30,CHATO,303,BWONGERA,30316,MKOLANI,MKOLANI A
GEITA,30,CHATO,303,BWONGERA,30316,MKOLANI,MKOLANI B
GEITA,30,CHATO,303,BWONGERA,30316,MKOLANI,MKOLANI C
GEITA,30,CHATO,303,BWONGERA,30316,BUPANDWAMPULI,ICHAGULULO A
GEITA,30,CHATO,303,BWONGERA,30316,BUPANDWAMPULI,ICHAGULILO  SHULENI
GEITA,30,CHATO,303,BWONGERA,30316,BUPANDWAMPULI,IGALULA
GEITA,30,CHATO,303,BWONGERA,30316,BUPANDWAMPULI,MWADUI
GEITA,30,CHATO,303,BWONGERA,30316,BUPANDWAMPULI,IZENGABASOMBA
GEITA,30,CHATO,303,BWONGERA,30316,BUPANDWAMPULI,SUMBWA
GEITA,30,CHATO,303,MUUNGANO,30317,MUUNGANO,NJIA PANDA
GEITA,30,CHATO,303,MUUNGANO,30317,MUUNGANO,MAWASILIANO
GEITA,30,CHATO,303,MUUNGANO,30317,MUUNGANO,MIFUGO
GEITA,30,CHATO,303,MUUNGANO,30317,MUUNGANO,MWABASABI
GEITA,30,CHATO,303,MUUNGANO,30317,MUUNGANO,MUUNGANO KATI
GEITA,30,CHATO,303,MUUNGANO,30317,ITALE,NG’WABAZENGI
GEITA,30,CHATO,303,MUUNGANO,30317,ITALE,ITALE KATI
GEITA,30,CHATO,303,MUUNGANO,30317,ITALE,MTAKUJA A
GEITA,30,CHATO,303,MUUNGANO,30317,ITALE,NG’WATULOLE
GEITA,30,CHATO,303,MUUNGANO,30317,KAHUMO,MTAKUJA B
GEITA,30,CHATO,303,MUUNGANO,30317,KAHUMO,MLIMANI
GEITA,30,CHATO,303,MUUNGANO,30317,KAHUMO,MPOGOLONI
GEITA,30,CHATO,303,MUUNGANO,30317,KAHUMO,KAHUMO A
GEITA,30,CHATO,303,MUUNGANO,30317,KAHUMO,KAHUMO B
GEITA,30,CHATO,303,MUUNGANO,30317,RUBAMBANGWE,MLILA
GEITA,30,CHATO,303,MUUNGANO,30317,RUBAMBANGWE,MTONI
GEITA,30,CHATO,303,MUUNGANO,30317,RUBAMBANGWE,ELIMU
GEITA,30,CHATO,303,MUUNGANO,30317,RUBAMBANGWE,IYOZU A
GEITA,30,CHATO,303,MUUNGANO,30317,RUBAMBANGWE,IYOZU B
GEITA,30,CHATO,303,MUUNGANO,30317,RUBAMBANGWE,MWALONI
GEITA,30,CHATO,303,MUUNGANO,30317,MLIMANI,BOMANI
GEITA,30,CHATO,303,MUUNGANO,30317,MLIMANI,KILIMO
GEITA,30,CHATO,303,MUUNGANO,30317,MLIMANI,MWENGE
GEITA,30,CHATO,303,MUUNGANO,30317,MLIMANI,MWABASABI
GEITA,30,CHATO,303,MUUNGANO,30317,MLIMANI,PLOTI
GEITA,30,CHATO,303,MUUNGANO,30317,MLIMANI,MSALABANI
GEITA,30,CHATO,303,BWINA,30318,BWINA,CHISENYA A
GEITA,30,CHATO,303,BWINA,30318,BWINA,CHISENYA B
GEITA,30,CHATO,303,BWINA,30318,BWINA,KALILUTARE
GEITA,30,CHATO,303,BWINA,30318,BWINA,KANYUNGU
GEITA,30,CHATO,303,BWINA,30318,BWINA,MBUGU
GEITA,30,CHATO,303,BWINA,30318,BWINA,ZANZIBA
GEITA,30,CHATO,303,BWINA,30318,MULUMBA,MULUMBA A
GEITA,30,CHATO,303,BWINA,30318,MULUMBA,MULUMBA B
GEITA,30,CHATO,303,BWINA,30318,MULUMBA,KAHUHWA
GEITA,30,CHATO,303,BWINA,30318,MULUMBA,KASHEKA
GEITA,30,CHATO,303,BWINA,30318,MULUMBA,BUDILI
GEITA,30,CHATO,303,BWINA,30318,MULUMBA,KABUSISI
GEITA,30,CHATO,303,BWINA,30318,MBUYE,MPAKANI
GEITA,30,CHATO,303,BWINA,30318,MBUYE,KARIAKOO
GEITA,30,CHATO,303,BWINA,30318,MBUYE,STOO
GEITA,30,CHATO,303,BWINA,30318,MBUYE,MITIMIREFU
GEITA,30,CHATO,303,BWINA,30318,MBUYE,KASAGARA
GEITA,30,CHATO,303,BWINA,30318,MBUYE,MBUYE MJINI
GEITA,30,CHATO,303,BWINA,30318,MBUYE,BONDENI
GEITA,30,CHATO,303,BWINA,30318,MBUYE,MAKATANI
GEITA,30,CHATO,303,BWINA,30318,MBUYE,JINERI
GEITA,30,CHATO,303,ILYAMCHELE,30319,ILYAMCHELE,ILYAMCHELE CENTRE
GEITA,30,CHATO,303,ILYAMCHELE,30319,ILYAMCHELE,MWASHIDOTO
GEITA,30,CHATO,303,ILYAMCHELE,30319,ILYAMCHELE,ISEGENGE
GEITA,30,CHATO,303,ILYAMCHELE,30319,ILYAMCHELE,NYAMPANDE
GEITA,30,CHATO,303,ILYAMCHELE,30319,ILYAMCHELE,NYAMADOKE
GEITA,30,CHATO,303,ILYAMCHELE,30319,ILYAMCHELE,BUSUNUANGIRI
GEITA,30,CHATO,303,ILYAMCHELE,30319,KISESA,ISAMILO
GEITA,30,CHATO,303,ILYAMCHELE,30319,KISESA,NYAKADUHA
GEITA,30,CHATO,303,ILYAMCHELE,30319,KISESA,KISESA A
GEITA,30,CHATO,303,ILYAMCHELE,30319,KISESA,KISESA B
GEITA,30,CHATO,303,ILYAMCHELE,30319,KAWIMNYOLE,MWABASABI
GEITA,30,CHATO,303,ILYAMCHELE,30319,KAWIMNYOLE,KAWINYOLE
GEITA,30,CHATO,303,ILYAMCHELE,30319,KAWIMNYOLE,NYAMWIHURA
GEITA,30,CHATO,303,NYARUTEMBO,30320,KANYINDO,KANYINDO
GEITA,30,CHATO,303,NYARUTEMBO,30320,KANYINDO,MAJENGO
GEITA,30,CHATO,303,NYARUTEMBO,30320,KANYINDO,CHOGA A
GEITA,30,CHATO,303,NYARUTEMBO,30320,KANYINDO,CHOGA B
GEITA,30,CHATO,303,NYARUTEMBO,30320,KANYINDO,CENTRE
GEITA,30,CHATO,303,NYARUTEMBO,30320,KANYINDO,KALANGALALA/MWAGIMAJI
GEITA,30,CHATO,303,NYARUTEMBO,30320,NYARUTEMBO,NZEGERE
GEITA,30,CHATO,303,NYARUTEMBO,30320,NYARUTEMBO,MABATINI A
GEITA,30,CHATO,303,NYARUTEMBO,30320,NYARUTEMBO,MABATINI B
GEITA,30,CHATO,303,NYARUTEMBO,30320,NYARUTEMBO,MUUNGANO
GEITA,30,CHATO,303,NYARUTEMBO,30320,NYARUTEMBO,NYAMAHUNA
GEITA,30,CHATO,303,NYARUTEMBO,30320,NYARUTEMBO,MWAMBASABI
GEITA,30,CHATO,303,NYARUTEMBO,30320,NYARUTEMBO,MTAKUJA
GEITA,30,CHATO,303,NYARUTEMBO,30320,KAKENENO,NYARUTEMBO CENTRE
GEITA,30,CHATO,303,NYARUTEMBO,30320,KAKENENO,KALEGA
GEITA,30,CHATO,303,NYARUTEMBO,30320,KAKENENO,ELIMU
GEITA,30,CHATO,303,NYARUTEMBO,30320,KAKENENO,RUGEGENA
GEITA,30,CHATO,303,NYARUTEMBO,30320,KAKENENO,BULEMATA
GEITA,30,CHATO,303,NYARUTEMBO,30320,KAKENENO,SIMU MLIMANI
GEITA,30,CHATO,303,NYARUTEMBO,30320,NYANTIMBA,ISUGABAGENI
GEITA,30,CHATO,303,NYARUTEMBO,30320,NYANTIMBA,PLOTI A
GEITA,30,CHATO,303,NYARUTEMBO,30320,NYANTIMBA,PLOTI B
GEITA,30,CHATO,303,NYARUTEMBO,30320,NYANTIMBA,MUGANZA
GEITA,30,CHATO,303,NYARUTEMBO,30320,NYANTIMBA,NYARWERWE CENTRE
GEITA,30,CHATO,303,IPARAMASA,30321,IPARAMASA,IPARAMASA
GEITA,30,CHATO,303,IPARAMASA,30321,IPARAMASA,MTAKUJA
GEITA,30,CHATO,303,IPARAMASA,30321,IPARAMASA,IPANGO
GEITA,30,CHATO,303,IPARAMASA,30321,IPARAMASA,MAPINDUZI
GEITA,30,CHATO,303,IPARAMASA,30321,IPARAMASA,MWABASABI
GEITA,30,CHATO,303,IPARAMASA,30321,IPARAMASA,IGANDO
GEITA,30,CHATO,303,IPARAMASA,30321,IPARAMASA,MNEKEZI
GEITA,30,CHATO,303,IPARAMASA,30321,IPARAMASA,ZAIRE
GEITA,30,CHATO,303,IPARAMASA,30321,IMALABUPINA,MLIMANI
GEITA,30,CHATO,303,IPARAMASA,30321,IMALABUPINA,ELIMU
GEITA,30,CHATO,303,IPARAMASA,30321,IMALABUPINA,MTAKUJA
GEITA,30,CHATO,303,IPARAMASA,30321,IMALABUPINA,IMALABUPINA
GEITA,30,CHATO,303,IPARAMASA,30321,KINSABE,NYANGUGUNWA “A”
GEITA,30,CHATO,303,IPARAMASA,30321,KINSABE,NYANGUGUNWA “B”
GEITA,30,CHATO,303,IPARAMASA,30321,KINSABE,KINSABE
GEITA,30,CHATO,303,IPARAMASA,30321,KINSABE,BEDA
GEITA,30,CHATO,303,IPARAMASA,30321,ILELEMA,ILYAMCHELE
GEITA,30,CHATO,303,IPARAMASA,30321,ILELEMA,KIGOMA
GEITA,30,CHATO,303,IPARAMASA,30321,ILELEMA,ILELEMA “A”
GEITA,30,CHATO,303,IPARAMASA,30321,ILELEMA,ILELEMA “B”
GEITA,30,CHATO,303,IPARAMASA,30321,ILELEMA,MWAGIMAGI
GEITA,30,CHATO,303,IPARAMASA,30321,MWABASABI,MWABASABI
GEITA,30,CHATO,303,IPARAMASA,30321,MWABASABI,NYARUKOBA
GEITA,30,CHATO,303,IPARAMASA,30321,MWABASABI,IZENGABASUMBA
GEITA,30,CHATO,303,IPARAMASA,30321,MWABASABI,MBUGANI
GEITA,30,CHATO,303,IPARAMASA,30321,MWABASABI,IHETA
GEITA,30,CHATO,303,IPARAMASA,30321,MWABASABI,LUSHIMBA
GEITA,30,CHATO,303,IPARAMASA,30321,MWABASABI,BALATOGWA
GEITA,30,CHATO,303,IPARAMASA,30321,MWABASABI,BONDENI
GEITA,30,CHATO,303,IPARAMASA,30321,MWABASABI,MWABALIMI
GEITA,30,CHATO,303,IPARAMASA,30321,MWABASABI,MKUYUNI
GEITA,30,CHATO,303,IPARAMASA,30321,LUDEBA,MWENDAKULIMA 'A'
GEITA,30,CHATO,303,IPARAMASA,30321,LUDEBA,LUDEBA
GEITA,30,CHATO,303,IPARAMASA,30321,LUDEBA,MWENDAKULIMA 'B'
GEITA,30,CHATO,303,IPARAMASA,30321,LUDEBA,MASIKULU
GEITA,30,CHATO,303,IPARAMASA,30321,LUDEBA,NHIMBO
GEITA,30,CHATO,303,IPARAMASA,30321,MNEKEZI,ILOGANZALA
GEITA,30,CHATO,303,IPARAMASA,30321,MNEKEZI,MNEKEZI
GEITA,30,CHATO,303,IPARAMASA,30321,MNEKEZI,IMALABUPINA
GEITA,30,CHATO,303,IPARAMASA,30321,SONGAMBELE,SONGAMBELE
GEITA,30,CHATO,303,IPARAMASA,30321,SONGAMBELE,MTAKUJA
GEITA,30,CHATO,303,IPARAMASA,30321,SONGAMBELE,SEKETULE
GEITA,30,CHATO,303,IPARAMASA,30321,SONGAMBELE,ILOGANZALA
GEITA,30,CHATO,303,BUTENGU RUMASA,30322,BUTENGO,KAKINDU
GEITA,30,CHATO,303,BUTENGU RUMASA,30322,BUTENGO,BUTENGO
GEITA,30,CHATO,303,BUTENGU RUMASA,30322,BUTENGO,MWENGE
GEITA,30,CHATO,303,BUTENGU RUMASA,30322,BUTENGO,MWENDASEKO
GEITA,30,CHATO,303,BUTENGU RUMASA,30322,RUMASA,KASAKA
GEITA,30,CHATO,303,BUTENGU RUMASA,30322,RUMASA,NYAMIBANGA
GEITA,30,CHATO,303,BUTENGU RUMASA,30322,RUMASA,IBONDO B
GEITA,30,CHATO,303,BUTENGU RUMASA,30322,RUMASA,SONGAMBELE
GEITA,30,CHATO,303,BUTENGU RUMASA,30322,RUMASA,KASAKA
GEITA,30,CHATO,303,BUTENGU RUMASA,30322,MUTUNDU,LIWEJI
GEITA,30,CHATO,303,BUTENGU RUMASA,30322,MUTUNDU,MTUNDU “A”
GEITA,30,CHATO,303,BUTENGU RUMASA,30322,MUTUNDU,MTUNDU “B”
GEITA,30,CHATO,303,BUTENGU RUMASA,30322,MUTUNDU,ELIMU
GEITA,30,CHATO,303,BUTENGU RUMASA,30322,MUTUNDU,IGEMBE
GEITA,30,CHATO,303,BUTENGU RUMASA,30322,MWENDAKULIMA,MWENDAKULIMA “A”
GEITA,30,CHATO,303,BUTENGU RUMASA,30322,MWENDAKULIMA,MWENDAKULIMA “B”
GEITA,30,CHATO,303,BUTENGU RUMASA,30322,MWENDAKULIMA,KABAHELELE
GEITA,30,CHATO,303,BUTENGU RUMASA,30322,MWENDAKULIMA,SENGEREMA
GEITA,30,CHATO,303,BUTENGU RUMASA,30322,MWENDAKULIMA,MAENDELEO
GEITA,30,CHATO,303,BUTENGU RUMASA,30322,MWENDAKULIMA,IDOSELO
GEITA,30,CHATO,303,BUTENGU RUMASA,30322,MWENDAKULIMA,SENGEREMA
GEITA,30,CHATO,303,BUTENGU RUMASA,30322,BUTOBELA,BUTOBELA “A”
GEITA,30,CHATO,303,BUTENGU RUMASA,30322,BUTOBELA,MAENDELEO
GEITA,30,CHATO,303,BUTENGU RUMASA,30322,BUTOBELA,BUTOBELA “B”
GEITA,30,CHATO,303,BUTENGU RUMASA,30322,BUTOBELA,NGUVU KAZI
GEITA,30,CHATO,303,MINKOTO,30323,MINKOTO,USUKUMANI
GEITA,30,CHATO,303,MINKOTO,30323,MINKOTO,ULONGONI
GEITA,30,CHATO,303,MINKOTO,30323,MINKOTO,NYAMBELE
GEITA,30,CHATO,303,MINKOTO,30323,MINKOTO,MTAKUJA
GEITA,30,CHATO,303,MINKOTO,30323,MINKOTO,MWAMBILO
GEITA,30,CHATO,303,MINKOTO,30323,MINKOTO,MWABASABI
GEITA,30,CHATO,303,MINKOTO,30323,MINKOTO,SHILABELA
GEITA,30,CHATO,303,MINKOTO,30323,KAKORA,KAKORA A
GEITA,30,CHATO,303,MINKOTO,30323,KAKORA,KAKORA B
GEITA,30,CHATO,303,MINKOTO,30323,KAKORA,MBUGANI
GEITA,30,CHATO,303,MINKOTO,30323,KAKORA,CHEMICHEMI
GEITA,30,CHATO,303,MINKOTO,30323,KALEMBELA,KALEMBELA A
GEITA,30,CHATO,303,MINKOTO,30323,KALEMBELA,KAREMBELA B
GEITA,30,CHATO,303,MINKOTO,30323,KALEMBELA,SONGAMBELE
GEITA,30,CHATO,303,MINKOTO,30323,KALEMBELA,BUSAMBILO
GEITA,30,CHATO,303,MINKOTO,30323,KALEMBELA,MGOMBANI
GEITA,30,CHATO,303,MINKOTO,30323,ITANGA,MISEBEYENI
GEITA,30,CHATO,303,MINKOTO,30323,ITANGA,SHAURIMOYO
GEITA,30,CHATO,303,MINKOTO,30323,ITANGA,MUUNGANO
GEITA,30,CHATO,303,MINKOTO,30323,ITANGA,IBISABAGENI
GEITA,30,CHATO,303,MINKOTO,30323,ITANGA,ITANGA SHULE
GEITA,30,MBOGWE,304,IPONYA,30401,IPONYA,IPONYA KATI
GEITA,30,MBOGWE,304,IPONYA,30401,IPONYA,MALUNGA
GEITA,30,MBOGWE,304,IPONYA,30401,IPONYA,NYANG'OMBE
GEITA,30,MBOGWE,304,IPONYA,30401,IPONYA,BUKANGILIJA
GEITA,30,MBOGWE,304,IPONYA,30401,IPONYA,IPONYA KIJIJINI
GEITA,30,MBOGWE,304,IPONYA,30401,IPONYA,BUSAFYA
GEITA,30,MBOGWE,304,IPONYA,30401,IPONYA,MWAMITILWA
GEITA,30,MBOGWE,304,IPONYA,30401,IPONYA,BUNG'WAMINZI
GEITA,30,MBOGWE,304,IPONYA,30401,BUNYIHUNA,SENGEREMA
GEITA,30,MBOGWE,304,IPONYA,30401,BUNYIHUNA,MSALALA
GEITA,30,MBOGWE,304,IPONYA,30401,BUNYIHUNA,BUNYIHUNA SENTA
GEITA,30,MBOGWE,304,IPONYA,30401,BUNYIHUNA,BUDUSHI
GEITA,30,MBOGWE,304,IPONYA,30401,BULUHE,MWALUGULU
GEITA,30,MBOGWE,304,IPONYA,30401,BULUHE,MWINGILO
GEITA,30,MBOGWE,304,IPONYA,30401,BULUHE,BUHINDI
GEITA,30,MBOGWE,304,IPONYA,30401,BULUHE,BULUHE SENTA
GEITA,30,MBOGWE,304,IPONYA,30401,NYASHIMBA,NYANG'WALE
GEITA,30,MBOGWE,304,IPONYA,30401,NYASHIMBA,NYASHIMBA 'A
GEITA,30,MBOGWE,304,IPONYA,30401,NYASHIMBA,BUYAGU
GEITA,30,MBOGWE,304,IPONYA,30401,NYASHIMBA,NYASHIMBA 'B
GEITA,30,MBOGWE,304,IPONYA,30401,NYASHIMBA,NYAKALEBE
GEITA,30,MBOGWE,304,IPONYA,30401,NSANGO,NSANGO SENTA
GEITA,30,MBOGWE,304,IPONYA,30401,NSANGO,MAYUYA
GEITA,30,MBOGWE,304,IPONYA,30401,NSANGO,SENGEREMA
GEITA,30,MBOGWE,304,IPONYA,30401,NSANGO,KAGERA
GEITA,30,MBOGWE,304,IPONYA,30401,NSANGO,KIBONDO
GEITA,30,MBOGWE,304,IPONYA,30401,BUSAMBILO,BUSAMBILO
GEITA,30,MBOGWE,304,IPONYA,30401,BUSAMBILO,NYIKALA
GEITA,30,MBOGWE,304,IPONYA,30401,BUSAMBILO,MWABALIMI
GEITA,30,MBOGWE,304,IPONYA,30401,BUSAMBILO,NG'WALUGESHA
GEITA,30,MBOGWE,304,BUKANDWE,30402,BUKANDWE,KANEGERE PRISON
GEITA,30,MBOGWE,304,BUKANDWE,30402,BUKANDWE,NYALUBEZI
GEITA,30,MBOGWE,304,BUKANDWE,30402,BUKANDWE,NYAMBOGO
GEITA,30,MBOGWE,304,BUKANDWE,30402,BUKANDWE,BUKANDWE
GEITA,30,MBOGWE,304,BUKANDWE,30402,MAGUTA,MAGUTA
GEITA,30,MBOGWE,304,BUKANDWE,30402,MAGUTA,SHIKALA
GEITA,30,MBOGWE,304,BUKANDWE,30402,MAGUTA,NYANGILI
GEITA,30,MBOGWE,304,BUKANDWE,30402,N'HUNGWIZA,KITANGILI
GEITA,30,MBOGWE,304,BUKANDWE,30402,N'HUNGWIZA,N'HUGWIZA KUSINI
GEITA,30,MBOGWE,304,BUKANDWE,30402,N'HUNGWIZA,IMALAMAWAZO
GEITA,30,MBOGWE,304,BUKANDWE,30402,KANEGERE,KANEGERE SENTA
GEITA,30,MBOGWE,304,BUKANDWE,30402,KANEGERE,KAMBARAGE
GEITA,30,MBOGWE,304,BUKANDWE,30402,KANEGERE,IBONDO NA. 1
GEITA,30,MBOGWE,304,BUKANDWE,30402,KANEGERE,IBONDO NA. 2
GEITA,30,MBOGWE,304,NHOMOLWA,30403,KABANGA,KABANGA 'A'
GEITA,30,MBOGWE,304,NHOMOLWA,30403,KABANGA,KABANGA 'B'
GEITA,30,MBOGWE,304,NHOMOLWA,30403,KABANGA,KABANGA 'C'
GEITA,30,MBOGWE,304,NHOMOLWA,30403,KABANGA,MKWENI
GEITA,30,MBOGWE,304,NHOMOLWA,30403,NHOMOLWA,NHOMOLWA 'A'
GEITA,30,MBOGWE,304,NHOMOLWA,30403,NHOMOLWA,NHOMOLWA 'B'
GEITA,30,MBOGWE,304,NHOMOLWA,30403,NHOMOLWA,NHOMOLWA 'C'
GEITA,30,MBOGWE,304,NHOMOLWA,30403,NYANHWIGA,NYANHWIGA
GEITA,30,MBOGWE,304,NHOMOLWA,30403,NYANHWIGA,SHILABELA
GEITA,30,MBOGWE,304,NHOMOLWA,30403,NYANHWIGA,MWAMAGUKU
GEITA,30,MBOGWE,304,NHOMOLWA,30403,NYANHWIGA,ISUNGA
GEITA,30,MBOGWE,304,MASUMBWE,30404,MASUMBWE,ISHILANGA
GEITA,30,MBOGWE,304,MASUMBWE,30404,MASUMBWE,LUGITO
GEITA,30,MBOGWE,304,MASUMBWE,30404,MASUMBWE,KIBONDO A
GEITA,30,MBOGWE,304,MASUMBWE,30404,MASUMBWE,KIBONDO B
GEITA,30,MBOGWE,304,MASUMBWE,30404,SHENDA,SHENDA
GEITA,30,MBOGWE,304,MASUMBWE,30404,SHENDA,ITALIKE
GEITA,30,MBOGWE,304,MASUMBWE,30404,SHENDA,MAVOTA
GEITA,30,MBOGWE,304,MASUMBWE,30404,SHENDA,ILAMBA
GEITA,30,MBOGWE,304,MASUMBWE,30404,ILANGALE,LUBANGABANGA
GEITA,30,MBOGWE,304,MASUMBWE,30404,ILANGALE,ILANGALE ‘A’
GEITA,30,MBOGWE,304,MASUMBWE,30404,ILANGALE,IHENGAMBAZU
GEITA,30,MBOGWE,304,MASUMBWE,30404,ILANGALE,ILANGALE 'B'
GEITA,30,MBOGWE,304,MASUMBWE,30404,ILANGALE,SHINYANGA 'A'
GEITA,30,MBOGWE,304,MASUMBWE,30404,ILANGALE,SHINYANGA 'B'
GEITA,30,MBOGWE,304,MASUMBWE,30404,NYAKASALUMA,MAKILI 'A'
GEITA,30,MBOGWE,304,MASUMBWE,30404,NYAKASALUMA,MAKILI 'B'
GEITA,30,MBOGWE,304,MASUMBWE,30404,NYAKASALUMA,IPINGILI
GEITA,30,MBOGWE,304,MASUMBWE,30404,NYAKASALUMA,BUSAFYA
GEITA,30,MBOGWE,304,MASUMBWE,30404,NYAKASALUMA,IFUMA
GEITA,30,MBOGWE,304,MASUMBWE,30404,NYAKASALUMA,ISENI
GEITA,30,MBOGWE,304,MASUMBWE,30404,BUDODA,MWALUGULU
GEITA,30,MBOGWE,304,MASUMBWE,30404,BUDODA,BUDODA CENTER
GEITA,30,MBOGWE,304,MASUMBWE,30404,BUDODA,SONGAMBELE
GEITA,30,MBOGWE,304,MASUMBWE,30404,BUDODA,MWAKITOLYO
GEITA,30,MBOGWE,304,NYAKAFURU,30405,SHINYANGA 'A',SHINYANGA 'A'
GEITA,30,MBOGWE,304,NYAKAFURU,30405,SHINYANGA 'A',SONGAMBELE
GEITA,30,MBOGWE,304,NYAKAFURU,30405,SHINYANGA 'A',MKOMBOZI
GEITA,30,MBOGWE,304,NYAKAFURU,30405,SHINYANGA 'A',KAKOLA
GEITA,30,MBOGWE,304,NYAKAFURU,30405,SHINYANGA 'A',BUGEGELE
GEITA,30,MBOGWE,304,NYAKAFURU,30405,SHINYANGA 'B',SHINYANGA 'B'
GEITA,30,MBOGWE,304,NYAKAFURU,30405,SHINYANGA 'B',SEKONDARI
GEITA,30,MBOGWE,304,NYAKAFURU,30405,SHINYANGA 'B',KASANDALALA
GEITA,30,MBOGWE,304,NYAKAFURU,30405,SHINYANGA 'B',KIKWETE
GEITA,30,MBOGWE,304,NYAKAFURU,30405,LUBEHO,KAJINGA
GEITA,30,MBOGWE,304,NYAKAFURU,30405,LUBEHO,LUBEHO ‘A’
GEITA,30,MBOGWE,304,NYAKAFURU,30405,LUBEHO,KASOJI
GEITA,30,MBOGWE,304,NYAKAFURU,30405,LUBEHO,ILYAMCHELE
GEITA,30,MBOGWE,304,NYAKAFURU,30405,NYAKAFULU,NYAKAFULU' A'
GEITA,30,MBOGWE,304,NYAKAFURU,30405,NYAKAFULU,NYAKAFULU 'B'
GEITA,30,MBOGWE,304,NYAKAFURU,30405,NYAKAFULU,NYAKAFULU 'C'
GEITA,30,MBOGWE,304,NYAKAFURU,30405,NYAKAFULU,NYAKAFULU 'D'
GEITA,30,MBOGWE,304,LUGUNGA,30406,LUGUNGA,LUGUNGA CENTRE
GEITA,30,MBOGWE,304,LUGUNGA,30406,LUGUNGA,LUNGUNGA  B
GEITA,30,MBOGWE,304,LUGUNGA,30406,LUHALA,LUHALA 'A
GEITA,30,MBOGWE,304,LUGUNGA,30406,LUHALA,LUHALA 'B
GEITA,30,MBOGWE,304,LUGUNGA,30406,LUHALA,NYASWILA 'A
GEITA,30,MBOGWE,304,LUGUNGA,30406,LUHALA,NYASWILA 'B
GEITA,30,MBOGWE,304,LUGUNGA,30406,KAKUMBI,KAKUMBI
GEITA,30,MBOGWE,304,LUGUNGA,30406,KAKUMBI,BULANGA
GEITA,30,MBOGWE,304,LUGUNGA,30406,KAKUMBI,BUPAGO
GEITA,30,MBOGWE,304,LUGUNGA,30406,KAKUMBI,BUGUKU
GEITA,30,MBOGWE,304,LUGUNGA,30406,KAKUMBI,MGANDU
GEITA,30,MBOGWE,304,LUGUNGA,30406,MPONDA,MPONDA 'A'
GEITA,30,MBOGWE,304,LUGUNGA,30406,MPONDA,MPONDA 'B'
GEITA,30,MBOGWE,304,LUGUNGA,30406,MPONDA,MPONDA 'C'
GEITA,30,MBOGWE,304,LUGUNGA,30406,MWAGIMAGI,MWAGIMAGI '1’
GEITA,30,MBOGWE,304,LUGUNGA,30406,MWAGIMAGI,MWAGIMAGI '2’
GEITA,30,MBOGWE,304,LUGUNGA,30406,MPAKALI,MPAKALI
GEITA,30,MBOGWE,304,LUGUNGA,30406,MPAKALI,MAGHARIKA
GEITA,30,MBOGWE,304,LUGUNGA,30406,MPAKALI,NYASWIRA
GEITA,30,MBOGWE,304,LUGUNGA,30406,MPAKALI,MPAKALI 'D
GEITA,30,MBOGWE,304,LUGUNGA,30406,MGAYA,MGAYA
GEITA,30,MBOGWE,304,LUGUNGA,30406,MGAYA,KABANZA
GEITA,30,MBOGWE,304,LUGUNGA,30406,MGAYA,BULINDANJIGE
GEITA,30,MBOGWE,304,LUGUNGA,30406,MGAYA,ISHINDABAHANI
GEITA,30,MBOGWE,304,LUGUNGA,30406,MGAYA,KISOKO
GEITA,30,MBOGWE,304,LUGUNGA,30406,MGAYA,KAKELEKO
GEITA,30,MBOGWE,304,USHIRIKA,30407,USHIRIKA,BUTIMBA A
GEITA,30,MBOGWE,304,USHIRIKA,30407,USHIRIKA,BUTIMBA B
GEITA,30,MBOGWE,304,USHIRIKA,30407,USHIRIKA,BUTIMBA C
GEITA,30,MBOGWE,304,USHIRIKA,30407,USHIRIKA,IPONYALUSHU
GEITA,30,MBOGWE,304,USHIRIKA,30407,USHIRIKA,ITINDAMBOGO
GEITA,30,MBOGWE,304,USHIRIKA,30407,MLALE,MLALE 'A'
GEITA,30,MBOGWE,304,USHIRIKA,30407,MLALE,"MLALE ""B'"
GEITA,30,MBOGWE,304,USHIRIKA,30407,BUZIGULA,MSUMBIJI
GEITA,30,MBOGWE,304,USHIRIKA,30407,BUZIGULA,ZAIRE
GEITA,30,MBOGWE,304,USHIRIKA,30407,BUZIGULA,MIEMBENI
GEITA,30,MBOGWE,304,USHIRIKA,30407,KADOKE,BARIADI
GEITA,30,MBOGWE,304,USHIRIKA,30407,KADOKE,RUFIJI
GEITA,30,MBOGWE,304,USHIRIKA,30407,KADOKE,BUTIAMA
GEITA,30,MBOGWE,304,USHIRIKA,30407,KADOKE,MUSOMA
GEITA,30,MBOGWE,304,USHIRIKA,30407,USHETU,USHETU '1'
GEITA,30,MBOGWE,304,USHIRIKA,30407,USHETU,USHETU '2'
GEITA,30,MBOGWE,304,NGEMO,30408,BWENDAMWIZO,BWENDAMWIZO 'A'
GEITA,30,MBOGWE,304,NGEMO,30408,BWENDAMWIZO,BWENDAMWIZO 'B'
GEITA,30,MBOGWE,304,NGEMO,30408,NYITUNDU,NYITUNDU
GEITA,30,MBOGWE,304,NGEMO,30408,NYITUNDU,NYAKAZIBA
GEITA,30,MBOGWE,304,NGEMO,30408,IVUMWA,IVUMWA
GEITA,30,MBOGWE,304,NGEMO,30408,IVUMWA,KASAKA
GEITA,30,MBOGWE,304,NGEMO,30408,BULONGO,MAPINDUZI
GEITA,30,MBOGWE,304,NGEMO,30408,BULONGO,SONGAMBELE
GEITA,30,MBOGWE,304,NGEMO,30408,NGEMO,NGEMO 'A'
GEITA,30,MBOGWE,304,NGEMO,30408,NGEMO,NGEMO 'B'
GEITA,30,MBOGWE,304,NGEMO,30408,NGEMO,ILUJAMATE
GEITA,30,MBOGWE,304,NGEMO,30408,LWAZEZE,LWAZEZE
GEITA,30,MBOGWE,304,NGEMO,30408,LWAZEZE,MAJENGO MAPYA
GEITA,30,MBOGWE,304,NGEMO,30408,LWAZEZE,MWABASABI
GEITA,30,MBOGWE,304,NGEMO,30408,ISENEGEJA,SENENGEJA
GEITA,30,MBOGWE,304,NGEMO,30408,ISENEGEJA,NKOMA
GEITA,30,MBOGWE,304,NYASATO,30409,BULUGALA,BULUGALA 'A'
GEITA,30,MBOGWE,304,NYASATO,30409,BULUGALA,BULUGALA 'B'
GEITA,30,MBOGWE,304,NYASATO,30409,BULUGALA,NYALYOBA
GEITA,30,MBOGWE,304,NYASATO,30409,BULUGALA,IKONDO
GEITA,30,MBOGWE,304,NYASATO,30409,BULUGALA,ITOGWANG’HOLO
GEITA,30,MBOGWE,304,NYASATO,30409,BULUGALA,NYAMBALE
GEITA,30,MBOGWE,304,NYASATO,30409,BULUGALA,BULUGALA SENTA
GEITA,30,MBOGWE,304,NYASATO,30409,NYASATO,NYASATO 'A'
GEITA,30,MBOGWE,304,NYASATO,30409,NYASATO,NYASATO 'B
GEITA,30,MBOGWE,304,NYASATO,30409,NYASATO,NYANH'ONA
GEITA,30,MBOGWE,304,NYASATO,30409,NYASATO,MWAGIMAGI
GEITA,30,MBOGWE,304,NYASATO,30409,NYASATO,BUGILASHO
GEITA,30,MBOGWE,304,NYASATO,30409,NYASATO,BULINDA
GEITA,30,MBOGWE,304,NYASATO,30409,ISUNGABULA,NYAKASHOLOLO
GEITA,30,MBOGWE,304,NYASATO,30409,ISUNGABULA,IBOLELO
GEITA,30,MBOGWE,304,NYASATO,30409,ISUNGABULA,MTAKUJA
GEITA,30,MBOGWE,304,NYASATO,30409,ISUNGABULA,MAJENGO
GEITA,30,MBOGWE,304,NYASATO,30409,ISUNGABULA,KASAKA A''
GEITA,30,MBOGWE,304,NYASATO,30409,ISUNGABULA,KASAKA B''
GEITA,30,MBOGWE,304,NYASATO,30409,MLANGE,MLANGE 'A'
GEITA,30,MBOGWE,304,NYASATO,30409,MLANGE,MLANGE 'B'
GEITA,30,MBOGWE,304,NYASATO,30409,MLANGE,WILILO
GEITA,30,MBOGWE,304,NYASATO,30409,MLANGE,MLANGE 'C'
GEITA,30,MBOGWE,304,NYASATO,30409,BULILILA,BULILILA
GEITA,30,MBOGWE,304,NYASATO,30409,BULILILA,MWENDAMKONO
GEITA,30,MBOGWE,304,NYASATO,30409,BULILILA,BULILILA SENTA
GEITA,30,MBOGWE,304,NYASATO,30409,KASAKA,KASAKA
GEITA,30,MBOGWE,304,NYASATO,30409,KASAKA,NDEBELWA 'A'
GEITA,30,MBOGWE,304,NYASATO,30409,KASAKA,NDEBELWA 'B'
GEITA,30,MBOGWE,304,MBOGWE,30410,BWELWA,ITIMBYA
GEITA,30,MBOGWE,304,MBOGWE,30410,BWELWA,MSATI
GEITA,30,MBOGWE,304,MBOGWE,30410,BWELWA,BWELWA MAGHARIBI
GEITA,30,MBOGWE,304,MBOGWE,30410,BWELWA,LUMELEZI
GEITA,30,MBOGWE,304,MBOGWE,30410,KASOSOBE,BUGALAMA
GEITA,30,MBOGWE,304,MBOGWE,30410,KASOSOBE,IMALAMBEHO
GEITA,30,MBOGWE,304,MBOGWE,30410,KASOSOBE,MHANJO
GEITA,30,MBOGWE,304,MBOGWE,30410,KASOSOBE,MKOLANI
GEITA,30,MBOGWE,304,MBOGWE,30410,NAMBUBI,NAMBUMBI 'A'
GEITA,30,MBOGWE,304,MBOGWE,30410,NAMBUBI,SILOKA
GEITA,30,MBOGWE,304,MBOGWE,30410,NAMBUBI,IFUNDE
GEITA,30,MBOGWE,304,MBOGWE,30410,NAMBUBI,IBELAMEGINGO
GEITA,30,MBOGWE,304,MBOGWE,30410,BWENDANSEKO,BWENDANSEKO 'A'
GEITA,30,MBOGWE,304,MBOGWE,30410,BWENDANSEKO,BWENDANSEKO 'B
GEITA,30,MBOGWE,304,MBOGWE,30410,IBOYA,ITAMBALA
GEITA,30,MBOGWE,304,MBOGWE,30410,IBOYA,IBOYA SENTA
GEITA,30,MBOGWE,304,MBOGWE,30410,IBOYA,MLOLE
GEITA,30,MBOGWE,304,MBOGWE,30410,IBOYA,ILABA 'A'
GEITA,30,MBOGWE,304,MBOGWE,30410,IBOYA,ILABA 'B'
GEITA,30,MBOGWE,304,MBOGWE,30410,MWANZA,MWANZA 'A'
GEITA,30,MBOGWE,304,MBOGWE,30410,MWANZA,MWANZA B'
GEITA,30,MBOGWE,304,MBOGWE,30410,MWANZA,MWANZA 'C
GEITA,30,MBOGWE,304,NANDA,30411,NANDA,NANDA 'A'
GEITA,30,MBOGWE,304,NANDA,30411,NANDA,NANDA 'B'
GEITA,30,MBOGWE,304,NANDA,30411,NANDA,MNANA
GEITA,30,MBOGWE,304,NANDA,30411,NANDA,IGALULA
GEITA,30,MBOGWE,304,NANDA,30411,NYANG'WALE,NYANGW'ALE 'A'
GEITA,30,MBOGWE,304,NANDA,30411,NYANG'WALE,NYANGW'ALE 'B'
GEITA,30,MBOGWE,304,NANDA,30411,KISUMO,KISUMO 'A'
GEITA,30,MBOGWE,304,NANDA,30411,KISUMO,KISUMO 'B'
GEITA,30,MBOGWE,304,NANDA,30411,KISUMO,KISUMO 'C'
GEITA,30,MBOGWE,304,NANDA,30411,NYANG'OLONGO,NYANG'OLONGO
GEITA,30,MBOGWE,304,NANDA,30411,NYANG'OLONGO,BUSWAKARA 'A'
GEITA,30,MBOGWE,304,NANDA,30411,NYANG'OLONGO,BUSWAKARA 'B'
GEITA,30,MBOGWE,304,NANDA,30411,NYANG'OLONGO,SHILABELA
GEITA,30,MBOGWE,304,NANDA,30411,MUUNGANO,MHANDE
GEITA,30,MBOGWE,304,NANDA,30411,MUUNGANO,MDALA
GEITA,30,MBOGWE,304,NANDA,30411,MUUNGANO,ILAGAJA
GEITA,30,MBOGWE,304,NANDA,30411,MUUNGANO,MWABALIMI
GEITA,30,MBOGWE,304,IKUNGUIGAZI,30412,IKUNGUIGAZI,IKUNGUIGAZI
GEITA,30,MBOGWE,304,IKUNGUIGAZI,30412,IKUNGUIGAZI,NYIKONGA
GEITA,30,MBOGWE,304,IKUNGUIGAZI,30412,IKUNGUIGAZI,MAENDELEO
GEITA,30,MBOGWE,304,IKUNGUIGAZI,30412,IKUNGUIGAZI,IBAMBULA
GEITA,30,MBOGWE,304,IKUNGUIGAZI,30412,IBAMBULA,IBAMBULA 'A
GEITA,30,MBOGWE,304,IKUNGUIGAZI,30412,IBAMBULA,IBAMBULA 'B'
GEITA,30,MBOGWE,304,IKUNGUIGAZI,30412,IBAMBULA,ISAMBALA
GEITA,30,MBOGWE,304,IKUNGUIGAZI,30412,IBAMBULA,SONGAMBELE
GEITA,30,MBOGWE,304,IKUNGUIGAZI,30412,KAGERA,KAGERA
GEITA,30,MBOGWE,304,IKUNGUIGAZI,30412,KAGERA,MLANGE
GEITA,30,MBOGWE,304,IKUNGUIGAZI,30412,KAGERA,MWAMITILWA
GEITA,30,MBOGWE,304,IKUNGUIGAZI,30412,KAGERA,BUZIGOZIGO
GEITA,30,MBOGWE,304,IKUNGUIGAZI,30412,KAGERA,MSALALA
GEITA,30,MBOGWE,304,IKUNGUIGAZI,30412,KAGERA,MAKAZI
GEITA,30,MBOGWE,304,IKUNGUIGAZI,30412,KAGERA,SHILABELA
GEITA,30,MBOGWE,304,IKUNGUIGAZI,30412,BUZIGOZIGO,BUZIGOZIGO
GEITA,30,MBOGWE,304,IKUNGUIGAZI,30412,BUZIGOZIGO,SONGAMBELE
GEITA,30,MBOGWE,304,IKUNGUIGAZI,30412,BUZIGOZIGO,KASEME
GEITA,30,MBOGWE,304,IKUNGUIGAZI,30412,BUZIGOZIGO,IMALABUPINA
GEITA,30,MBOGWE,304,IKUNGUIGAZI,30412,MWINGILO,MWINGILO
GEITA,30,MBOGWE,304,IKUNGUIGAZI,30412,MWINGILO,KAYENZE
GEITA,30,MBOGWE,304,IKUNGUIGAZI,30412,MWINGILO,MALENDI
GEITA,30,MBOGWE,304,LULEMBELA,30413,KABANGA,KABANGA
GEITA,30,MBOGWE,304,LULEMBELA,30413,KABANGA,ILYAMCHELE
GEITA,30,MBOGWE,304,LULEMBELA,30413,KABANGA,IMALABUPINA
GEITA,30,MBOGWE,304,LULEMBELA,30413,KASHELO,IBAMBULA
GEITA,30,MBOGWE,304,LULEMBELA,30413,KASHELO,BUSEKWANONI
GEITA,30,MBOGWE,304,LULEMBELA,30413,KASHELO,KASHELO 'A'
GEITA,30,MBOGWE,304,LULEMBELA,30413,KASHELO,KASHELO 'B'
GEITA,30,MBOGWE,304,LULEMBELA,30413,KASHELO,KASHELO ' C'
GEITA,30,MBOGWE,304,LULEMBELA,30413,LULEMBELA,LULEMBELA 'A'
GEITA,30,MBOGWE,304,LULEMBELA,30413,LULEMBELA,LULEMBELA 'B'
GEITA,30,MBOGWE,304,LULEMBELA,30413,LULEMBELA,MAJENGO 'A'
GEITA,30,MBOGWE,304,LULEMBELA,30413,LULEMBELA,MAJENGO 'B'
GEITA,30,MBOGWE,304,LULEMBELA,30413,LULEMBELA,KILIMAHEWA
GEITA,30,MBOGWE,304,LULEMBELA,30413,LULEMBELA,KIGOMA MAGHARIBI
GEITA,30,MBOGWE,304,LULEMBELA,30413,LULEMBELA,KIGAMBONI
GEITA,30,MBOGWE,304,LULEMBELA,30413,LULEMBELA,MJIMWEMA
GEITA,30,MBOGWE,304,LULEMBELA,30413,NYIKONGA,NYIKONGA
GEITA,30,MBOGWE,304,LULEMBELA,30413,NYIKONGA,IYOGELO
GEITA,30,MBOGWE,304,LULEMBELA,30413,NYIKONGA,MTAKUJA
GEITA,30,MBOGWE,304,LULEMBELA,30413,NYIKONGA,IMWELO
GEITA,30,MBOGWE,304,LULEMBELA,30413,NYIKONGA,IMALABUPINA
GEITA,30,MBOGWE,304,LULEMBELA,30413,NYIKONGA,MAENDELEO
GEITA,30,MBOGWE,304,LULEMBELA,30413,BUGOMBA,BUGOMBA
GEITA,30,MBOGWE,304,LULEMBELA,30413,BUGOMBA,BUSENGATI
GEITA,30,MBOGWE,304,LULEMBELA,30413,BUGOMBA,SONGAMBELE
GEITA,30,MBOGWE,304,LULEMBELA,30413,BUGOMBA,SHILABELA
GEITA,30,MBOGWE,304,LULEMBELA,30413,BUGOMBA,KASELA
GEITA,30,MBOGWE,304,LULEMBELA,30413,BUGOMBA,CHANGARAWE
GEITA,30,MBOGWE,304,LULEMBELA,30413,MTAKUJA,MTAKUJA
GEITA,30,MBOGWE,304,LULEMBELA,30413,MTAKUJA,IGWAMANONI
GEITA,30,MBOGWE,304,ILOLANGULU,30414,ILOLANGULU,ILOLANGULU MASHARIKI
GEITA,30,MBOGWE,304,ILOLANGULU,30414,ILOLANGULU,ILOLANGULU KATI
GEITA,30,MBOGWE,304,ILOLANGULU,30414,ILOLANGULU,ILOLANGULU MAGHARIBI
GEITA,30,MBOGWE,304,ILOLANGULU,30414,ILOLANGULU,SHIYANZA
GEITA,30,MBOGWE,304,ILOLANGULU,30414,ILOLANGULU,IPANDWAMHULI
GEITA,30,MBOGWE,304,ILOLANGULU,30414,ILOLANGULU,KISALUSALU
GEITA,30,MBOGWE,304,ILOLANGULU,30414,MUBAMBA,MUBAMBA
GEITA,30,MBOGWE,304,ILOLANGULU,30414,MUBAMBA,NYAMADOKE
GEITA,30,MBOGWE,304,ILOLANGULU,30414,MUBAMBA,KAKOLA
GEITA,30,MBOGWE,304,ILOLANGULU,30414,MUBAMBA,MIGAMBA
GEITA,30,MBOGWE,304,ILOLANGULU,30414,IGALULA,NSANGO
GEITA,30,MBOGWE,304,ILOLANGULU,30414,IGALULA,IGALULA A
GEITA,30,MBOGWE,304,ILOLANGULU,30414,IGALULA,IGALULA B
GEITA,30,MBOGWE,304,ILOLANGULU,30414,IGALULA,KONA NNE
GEITA,30,MBOGWE,304,ILOLANGULU,30414,KANANGWE,KANANGWE
GEITA,30,MBOGWE,304,ILOLANGULU,30414,KANANGWE,KAKOLA
GEITA,30,MBOGWE,304,ILOLANGULU,30414,KANANGWE,NYALUHAMBA
GEITA,30,MBOGWE,304,ILOLANGULU,30414,MSENDAMILA,MSENDAMILA
GEITA,30,MBOGWE,304,ILOLANGULU,30414,MSENDAMILA,BUGOGO
GEITA,30,MBOGWE,304,ISEBYA,30415,MGELELE,MGELELA 'A'
GEITA,30,MBOGWE,304,ISEBYA,30415,MGELELE,MGELELA 'B'
GEITA,30,MBOGWE,304,ISEBYA,30415,KISEKE,KISEKE 'A'
GEITA,30,MBOGWE,304,ISEBYA,30415,KISEKE,KISEKE 'B'
GEITA,30,MBOGWE,304,ISEBYA,30415,ISEBYA,ISEBYA 'A'
GEITA,30,MBOGWE,304,ISEBYA,30415,ISEBYA,ISHOSHAMHULI
GEITA,30,MBOGWE,304,ISEBYA,30415,ISEBYA,MPENENGE
GEITA,30,MBOGWE,304,ISEBYA,30415,ISEBYA,ISADUKILO
GEITA,30,MBOGWE,304,ISEBYA,30415,ISEBYA,ISEBYA 'B'
GEITA,30,MBOGWE,304,ISEBYA,30415,NYASHINGE,NYASHINGE
GEITA,30,MBOGWE,304,ISEBYA,30415,NYASHINGE,NYIKONGA
GEITA,30,MBOGWE,304,ISEBYA,30415,NYASHINGE,MUHAMA
GEITA,30,MBOGWE,304,ISEBYA,30415,NYASHINGE,NYALUHAMBA
GEITA,30,MBOGWE,304,IKOBE,30416,IKOBE,IKOBE 'A'
GEITA,30,MBOGWE,304,IKOBE,30416,IKOBE,MSENGA
GEITA,30,MBOGWE,304,IKOBE,30416,IKOBE,ISANDUKILO
GEITA,30,MBOGWE,304,IKOBE,30416,IKOBE,MIEMBENI
GEITA,30,MBOGWE,304,IKOBE,30416,IKOBE,LUGELA
GEITA,30,MBOGWE,304,IKOBE,30416,ISHIGAMVA,ISHIGAMVA 'A'
GEITA,30,MBOGWE,304,IKOBE,30416,ISHIGAMVA,ILYAMCHELE
GEITA,30,MBOGWE,304,IKOBE,30416,BUSABAGA,BUSABAGA ‘A’
GEITA,30,MBOGWE,304,IKOBE,30416,BUSABAGA,SHILABELA
GEITA,30,MBOGWE,304,IKOBE,30416,BUSABAGA,ILYAMCHELE
GEITA,30,MBOGWE,304,IKOBE,30416,BUGALAGALA,BUGALAGALA 'B'
GEITA,30,MBOGWE,304,IKOBE,30416,BUGALAGALA,KISESA
GEITA,30,MBOGWE,304,IKOBE,30416,BUGALAGALA,SHIBUYE
GEITA,30,MBOGWE,304,IKOBE,30416,BUGALAGALA,BUTENGU 'A'
GEITA,30,MBOGWE,304,IKOBE,30416,BUGALAGALA,MOROGORO
GEITA,30,MBOGWE,304,IKOBE,30416,KAGONGO,KAGONGO
GEITA,30,MBOGWE,304,IKOBE,30416,KAGONGO,KAGONGO KUSINI
GEITA,30,MBOGWE,304,IKOBE,30416,KAGONGO,BUNZUTA KUSINI
GEITA,30,MBOGWE,304,IKOBE,30416,KAGONGO,KAGONGO KASKAZINI
GEITA,30,MBOGWE,304,IKOBE,30416,KAGONGO,BUNZUTA KASKAZINI
GEITA,30,MBOGWE,304,BUNIGONZI,30417,BUNIGONZI,BUNIGONZI 'A'
GEITA,30,MBOGWE,304,BUNIGONZI,30417,BUNIGONZI,BUNIGONZI 'B'
GEITA,30,MBOGWE,304,BUNIGONZI,30417,BUNIGONZI,BUNIGONZI 'C'
GEITA,30,MBOGWE,304,BUNIGONZI,30417,BUNIGONZI,BUNIGONZI 'D'
GEITA,30,MBOGWE,304,BUNIGONZI,30417,SHIBUTWE,SHIBUTWE A
GEITA,30,MBOGWE,304,BUNIGONZI,30417,SHIBUTWE,SHIBUTWE B
GEITA,30,MBOGWE,304,BUNIGONZI,30417,NYANDEKWA,NYANDEKWA
GEITA,30,MBOGWE,304,BUNIGONZI,30417,NYANDEKWA,SONGAMBELE
GEITA,30,MBOGWE,304,BUNIGONZI,30417,MWABUKWALULE,NYAKASANZA
GEITA,30,MBOGWE,304,BUNIGONZI,30417,MWABUKWALULE,MAGONGWA
GEITA,30,MBOGWE,304,BUNIGONZI,30417,MWABUKWALULE,MWABUKWALULE
GEITA,30,BUKOMBE,305,BUKOMBE,30501,BUKOMBE,BUKOMBE
GEITA,30,BUKOMBE,305,BUKOMBE,30501,BUKOMBE,ISAMBALA
GEITA,30,BUKOMBE,305,BUKOMBE,30501,BUKOMBE,NYANHUBA
GEITA,30,BUKOMBE,305,BUKOMBE,30501,BUKOMBE,KIDETE
GEITA,30,BUKOMBE,305,BUKOMBE,30501,BUKOMBE,IBAMBANGULU
GEITA,30,BUKOMBE,305,BUKOMBE,30501,BUKOMBE,SEKONDARI
GEITA,30,BUKOMBE,305,BUKOMBE,30501,ITUGA,ITUGA MASHARIKI
GEITA,30,BUKOMBE,305,BUKOMBE,30501,ITUGA,ITUGA M AGHARIBI
GEITA,30,BUKOMBE,305,BUKOMBE,30501,ITUGA,ITUGA KASKAZINI
GEITA,30,BUKOMBE,305,BUKOMBE,30501,ITUGA,MALENGA.
GEITA,30,BUKOMBE,305,BUKOMBE,30501,ITUGA,ITUGA SENTA
GEITA,30,BUKOMBE,305,BUKOMBE,30501,ITUGA,NYANKUBA
GEITA,30,BUKOMBE,305,BUKOMBE,30501,ITUGA,BUSONGE
GEITA,30,BUKOMBE,305,BUKOMBE,30501,KIDETE,KIDETE SENTA
GEITA,30,BUKOMBE,305,BUKOMBE,30501,KIDETE,KIDETE A
GEITA,30,BUKOMBE,305,BUKOMBE,30501,KIDETE,KIDETE B
GEITA,30,BUKOMBE,305,BUKOMBE,30501,KIDETE,KIDETE C
GEITA,30,BUKOMBE,305,BUKOMBE,30501,KIDETE,KIDETE D
GEITA,30,BUKOMBE,305,BUKOMBE,30501,IMALANGUZU,UZUNGUNI
GEITA,30,BUKOMBE,305,BUKOMBE,30501,IMALANGUZU,MUHAMA
GEITA,30,BUKOMBE,305,BUKOMBE,30501,IMALANGUZU,WENZULA
GEITA,30,BUKOMBE,305,BUKOMBE,30501,IMALANGUZU,IMALANGUZU 'A
GEITA,30,BUKOMBE,305,BUKOMBE,30501,IMALANGUZU,IMALANGUZU 'B'
GEITA,30,BUKOMBE,305,BUKOMBE,30501,IMALANGUZU,IMALANGUZU SENTA
GEITA,30,BUKOMBE,305,BUKOMBE,30501,NASIHUKULU,NASIHUKULU SENTA
GEITA,30,BUKOMBE,305,BUKOMBE,30501,NASIHUKULU,NSENGA
GEITA,30,BUKOMBE,305,BUKOMBE,30501,NASIHUKULU,MAENDELEO
GEITA,30,BUKOMBE,305,BUKOMBE,30501,IKALANGA,NASIKUMBULULU
GEITA,30,BUKOMBE,305,BUKOMBE,30501,IKALANGA,IKALANGA SENTA
GEITA,30,BUKOMBE,305,BUKOMBE,30501,IKALANGA,IKALANGA KASKAZINI
GEITA,30,BUKOMBE,305,BUKOMBE,30501,IKALANGA,IKALANGA KUSINI
GEITA,30,BUKOMBE,305,BUKOMBE,30501,IKALANGA,MIKUYUNI
GEITA,30,BUKOMBE,305,BUKOMBE,30501,IKALANGA,IKALANGA MAGHARIBI
GEITA,30,BUKOMBE,305,BUKOMBE,30501,IKALANGA,IMALAMAWAZO
GEITA,30,BUKOMBE,305,BUKOMBE,30501,ILALWE,ILALWE A
GEITA,30,BUKOMBE,305,BUKOMBE,30501,ILALWE,ILALWE B
GEITA,30,BUKOMBE,305,BUKOMBE,30501,ILALWE,MIGAMBA
GEITA,30,BUKOMBE,305,BUKOMBE,30501,ILALWE,MWENDAKULIMA
GEITA,30,BUKOMBE,305,LYAMBAMGONGO,30502,IFUNDE,LYAMBAMGONGO MAGHARIBI
GEITA,30,BUKOMBE,305,LYAMBAMGONGO,30502,IFUNDE,IFUNDE MASHARIKI
GEITA,30,BUKOMBE,305,LYAMBAMGONGO,30502,IFUNDE,IFUNDE MAGHARIBI
GEITA,30,BUKOMBE,305,LYAMBAMGONGO,30502,IFUNDE,LYAMBAMGONGO MASHARIKI
GEITA,30,BUKOMBE,305,LYAMBAMGONGO,30502,KAGWE,MWABASABI
GEITA,30,BUKOMBE,305,LYAMBAMGONGO,30502,KAGWE,KAGWE SENTA
GEITA,30,BUKOMBE,305,LYAMBAMGONGO,30502,KAGWE,ISADUKILO
GEITA,30,BUKOMBE,305,LYAMBAMGONGO,30502,ISHOLOLO,ISHOLOLO
GEITA,30,BUKOMBE,305,LYAMBAMGONGO,30502,ISHOLOLO,NYAMENE
GEITA,30,BUKOMBE,305,LYAMBAMGONGO,30502,LYAMBAMGONGO,IKOMBABOBA A
GEITA,30,BUKOMBE,305,LYAMBAMGONGO,30502,LYAMBAMGONGO,IKOMBABOBA B
GEITA,30,BUKOMBE,305,LYAMBAMGONGO,30502,LYAMBAMGONGO,IKOMBABOBA C
GEITA,30,BUKOMBE,305,LYAMBAMGONGO,30502,LYAMBAMGONGO,IKOMBABOBA SENTA
GEITA,30,BUKOMBE,305,LYAMBAMGONGO,30502,LYAMBAMGONGO,IKOMBABOBA
GEITA,30,BUKOMBE,305,IYOGELO,30503,IYOGELO,IYOGELO 'A'
GEITA,30,BUKOMBE,305,IYOGELO,30503,IYOGELO,IYOGELO 'B'
GEITA,30,BUKOMBE,305,IYOGELO,30503,IYOGELO,MBIZI
GEITA,30,BUKOMBE,305,IYOGELO,30503,IYOGELO,SHIGULUMIE
GEITA,30,BUKOMBE,305,IYOGELO,30503,IYOGELO,IYONGELO SENTA
GEITA,30,BUKOMBE,305,IYOGELO,30503,BUGANDO,BUKAMBA
GEITA,30,BUKOMBE,305,IYOGELO,30503,BUGANDO,MWALOLELA
GEITA,30,BUKOMBE,305,IYOGELO,30503,BUGANDO,SHILABELA
GEITA,30,BUKOMBE,305,IYOGELO,30503,BUGANDO,SENGEREMA
GEITA,30,BUKOMBE,305,IYOGELO,30503,BUGANDO,MTAKUJA
GEITA,30,BUKOMBE,305,IYOGELO,30503,SHIBINGO,SHIBINGO 'A'
GEITA,30,BUKOMBE,305,IYOGELO,30503,SHIBINGO,SHIBINGO 'B'
GEITA,30,BUKOMBE,305,IYOGELO,30503,SHIBINGO,NTIMVE
GEITA,30,BUKOMBE,305,IYOGELO,30503,SHIBINGO,SHIDETE
GEITA,30,BUKOMBE,305,IYOGELO,30503,NYAMAKUNKWA,NYAMAKUNKWA 'A'
GEITA,30,BUKOMBE,305,IYOGELO,30503,NYAMAKUNKWA,MLIMANI SENTA
GEITA,30,BUKOMBE,305,IYOGELO,30503,NYAMAKUNKWA,MTAKUJA
GEITA,30,BUKOMBE,305,IYOGELO,30503,NYAMAKUNKWA,MWABASOMI
GEITA,30,BUKOMBE,305,BUGELENGA,30504,BUGELENGA,BUGELENGA SENTA
GEITA,30,BUKOMBE,305,BUGELENGA,30504,BUGELENGA,MWAMBOKO
GEITA,30,BUKOMBE,305,BUGELENGA,30504,BUGELENGA,NGUVU MPYA
GEITA,30,BUKOMBE,305,BUGELENGA,30504,MKANGE,MWABASABI
GEITA,30,BUKOMBE,305,BUGELENGA,30504,MKANGE,MKANGE 'A'
GEITA,30,BUKOMBE,305,BUGELENGA,30504,MKANGE,MKANGE 'B'
GEITA,30,BUKOMBE,305,BUGELENGA,30504,MTAKUJA,MTAKUJA SENTA
GEITA,30,BUKOMBE,305,BUGELENGA,30504,MTAKUJA,ILYAMCHELE
GEITA,30,BUKOMBE,305,BUGELENGA,30504,MTAKUJA,MWAMADILANA
GEITA,30,BUKOMBE,305,BUGELENGA,30504,ILALWE,ILALWE KUSINI
GEITA,30,BUKOMBE,305,BUGELENGA,30504,ILALWE,ILALWE KASKAZINI
GEITA,30,BUKOMBE,305,BUGELENGA,30504,ILALWE,ILALWE SENTA
GEITA,30,BUKOMBE,305,BUGELENGA,30504,BUFANKA,BUFANKA SENTA
GEITA,30,BUKOMBE,305,BUGELENGA,30504,BUFANKA,ILYAMCHELE
GEITA,30,BUKOMBE,305,BUGELENGA,30504,BUFANKA,LUGUNGA 'A'
GEITA,30,BUKOMBE,305,BUGELENGA,30504,BUFANKA,LUGUNGA 'B'
GEITA,30,BUKOMBE,305,BUGELENGA,30504,BUFANKA,BULYAMBULI
GEITA,30,BUKOMBE,305,BUGELENGA,30504,MSASANI,MSASANI 'A'
GEITA,30,BUKOMBE,305,BUGELENGA,30504,MSASANI,MSASANI 'B'
GEITA,30,BUKOMBE,305,BUGELENGA,30504,MSASANI,MSASANI 'C'
GEITA,30,BUKOMBE,305,UYOVU,30505,UYOVU,KABUHIMA 'A'
GEITA,30,BUKOMBE,305,UYOVU,30505,UYOVU,KABUHIMA' B'
GEITA,30,BUKOMBE,305,UYOVU,30505,UYOVU,KABUHIMA C'
GEITA,30,BUKOMBE,305,UYOVU,30505,UYOVU,MAJENGO
GEITA,30,BUKOMBE,305,UYOVU,30505,KABUHIMA,ILEMELA
GEITA,30,BUKOMBE,305,UYOVU,30505,KABUHIMA,TIGO
GEITA,30,BUKOMBE,305,UYOVU,30505,KABUHIMA,MWEBETOGO
GEITA,30,BUKOMBE,305,UYOVU,30505,IBAMBA,IBAMBA 'A'
GEITA,30,BUKOMBE,305,UYOVU,30505,IBAMBA,IBAMBA ' B'
GEITA,30,BUKOMBE,305,UYOVU,30505,IBAMBA,BUGULULA
GEITA,30,BUKOMBE,305,UYOVU,30505,AZIMIO,MZAMBARAUNI
GEITA,30,BUKOMBE,305,UYOVU,30505,AZIMIO,MAFANIKIO
GEITA,30,BUKOMBE,305,UYOVU,30505,AZIMIO,NGUVUKAZI
GEITA,30,BUKOMBE,305,UYOVU,30505,LYOBAHIKA,LYOBAHIKA
GEITA,30,BUKOMBE,305,UYOVU,30505,LYOBAHIKA,LYOBAHIKA 'A'
GEITA,30,BUKOMBE,305,UYOVU,30505,LYOBAHIKA,LOBAHIKA  'B'
GEITA,30,BUKOMBE,305,UYOVU,30505,LYOBAHIKA,LYOBAHIKA 'C'
GEITA,30,BUKOMBE,305,UYOVU,30505,KANEMBWA,NANTALE
GEITA,30,BUKOMBE,305,UYOVU,30505,KANEMBWA,MASOTA
GEITA,30,BUKOMBE,305,UYOVU,30505,KANEMBWA,KANEMBWA
GEITA,30,BUKOMBE,305,UYOVU,30505,KANEMBWA,ISATI
GEITA,30,BUKOMBE,305,UYOVU,30505,BUGANZU,BUGANZU
GEITA,30,BUKOMBE,305,UYOVU,30505,BUGANZU,BWENDASEKO
GEITA,30,BUKOMBE,305,UYOVU,30505,BUGANZU,MAENDELEO
GEITA,30,BUKOMBE,305,UYOVU,30505,BUGANZU,NYUKI
GEITA,30,BUKOMBE,305,NAMONGE,30506,BUGEGE,MAVOTA
GEITA,30,BUKOMBE,305,NAMONGE,30506,BUGEGE,BUGANZO
GEITA,30,BUKOMBE,305,NAMONGE,30506,BUGEGE,MNYONZA
GEITA,30,BUKOMBE,305,NAMONGE,30506,BUGEGE,BUGEGE
GEITA,30,BUKOMBE,305,NAMONGE,30506,BUGEGE,NYAMISINDWI
GEITA,30,BUKOMBE,305,NAMONGE,30506,SHILABELA,USHIRIKA
GEITA,30,BUKOMBE,305,NAMONGE,30506,SHILABELA,SHISHANI
GEITA,30,BUKOMBE,305,NAMONGE,30506,SHILABELA,NAKABENGWE
GEITA,30,BUKOMBE,305,NAMONGE,30506,SHILABELA,KITONGO
GEITA,30,BUKOMBE,305,NAMONGE,30506,NAMONGE,NAMONGE 'A'
GEITA,30,BUKOMBE,305,NAMONGE,30506,NAMONGE,BUGALAMA
GEITA,30,BUKOMBE,305,NAMONGE,30506,NAMONGE,NAMONGE 'B'
GEITA,30,BUKOMBE,305,NAMONGE,30506,NAMONGE,KONA SABA
GEITA,30,BUKOMBE,305,NAMONGE,30506,NAMONGE,KAZILAMBWA
GEITA,30,BUKOMBE,305,NAMONGE,30506,NAMONGE,MWABAGIKULU
GEITA,30,BUKOMBE,305,NAMONGE,30506,NASILULUMA,NASILULUMA 'A'
GEITA,30,BUKOMBE,305,NAMONGE,30506,NASILULUMA,NASILULUMA 'B'
GEITA,30,BUKOMBE,305,NAMONGE,30506,NASILULUMA,NANDOBA
GEITA,30,BUKOMBE,305,NAMONGE,30506,NASILULUMA,UDAKANI
GEITA,30,BUKOMBE,305,NAMONGE,30506,MJIMWEMA,MJIMWEMA 'A'
GEITA,30,BUKOMBE,305,NAMONGE,30506,MJIMWEMA,MJIMWEMA 'C'
GEITA,30,BUKOMBE,305,NAMONGE,30506,MJIMWEMA,MJIMWEMA 'B'
GEITA,30,BUKOMBE,305,NAMONGE,30506,MJIMWEMA,TEGEMEO
GEITA,30,BUKOMBE,305,NAMONGE,30506,NAMALANDULA,KABEMBO
GEITA,30,BUKOMBE,305,NAMONGE,30506,NAMALANDULA,ILYAMCHELE A
GEITA,30,BUKOMBE,305,NAMONGE,30506,NAMALANDULA,IMALABUPINA
GEITA,30,BUKOMBE,305,NAMONGE,30506,NAMALANDULA,ILYAMCHELE B
GEITA,30,BUKOMBE,305,NAMONGE,30506,BWENDA,BWENDA
GEITA,30,BUKOMBE,305,NAMONGE,30506,BWENDA,NALUYEYE
GEITA,30,BUKOMBE,305,NAMONGE,30506,BWENDA,NAMAGWANGALA A
GEITA,30,BUKOMBE,305,NAMONGE,30506,BWENDA,NAMAGWANGALA B
GEITA,30,BUKOMBE,305,NAMONGE,30506,BWENDA,NYAMAGANA
GEITA,30,BUKOMBE,305,NAMONGE,30506,ILYAMCHELE,MUHAMA
GEITA,30,BUKOMBE,305,NAMONGE,30506,ILYAMCHELE,MTUKURA
GEITA,30,BUKOMBE,305,NAMONGE,30506,ILYAMCHELE,NYASATO
GEITA,30,BUKOMBE,305,NAMONGE,30506,ILYAMCHELE,SALUFUNE
GEITA,30,BUKOMBE,305,BUSONZO,30507,BUSONZO,NYAKASAMWA
GEITA,30,BUKOMBE,305,BUSONZO,30507,BUSONZO,ITEMBE
GEITA,30,BUKOMBE,305,BUSONZO,30507,BUSONZO,KILIMANI
GEITA,30,BUKOMBE,305,BUSONZO,30507,BUSONZO,NAMBILO
GEITA,30,BUKOMBE,305,BUSONZO,30507,BUSONZO,NAMSEGA
GEITA,30,BUKOMBE,305,BUSONZO,30507,KABAGOLE,MWENDAKULIMA
GEITA,30,BUKOMBE,305,BUSONZO,30507,KABAGOLE,KABAGOLE
GEITA,30,BUKOMBE,305,BUSONZO,30507,KABAGOLE,ISENGA
GEITA,30,BUKOMBE,305,BUSONZO,30507,KABAGOLE,SONGAMBELE 'A'
GEITA,30,BUKOMBE,305,BUSONZO,30507,KABAGOLE,GENGENI
GEITA,30,BUKOMBE,305,BUSONZO,30507,NAMPALAHALA,NGUVUKAZI
GEITA,30,BUKOMBE,305,BUSONZO,30507,NAMPALAHALA,SONGAMBELE 'B'
GEITA,30,BUKOMBE,305,BUSONZO,30507,NAMPALAHALA,MABAGO
GEITA,30,BUKOMBE,305,BUSONZO,30507,NAMPALAHALA,MIKONE
GEITA,30,BUKOMBE,305,BUSONZO,30507,NAMPALAHALA,IDOSELO
GEITA,30,BUKOMBE,305,BUSONZO,30507,NAKAYENZE,MWABASABI
GEITA,30,BUKOMBE,305,BUSONZO,30507,NAKAYENZE,MHAMA
GEITA,30,BUKOMBE,305,BUSONZO,30507,NAKAYENZE,KAWIWIZI
GEITA,30,BUKOMBE,305,BUSONZO,30507,NAKAYENZE,NAKAYENZE
GEITA,30,BUKOMBE,305,BUSONZO,30507,NALUSUNGUTI,NALUSUNGUTI
GEITA,30,BUKOMBE,305,BUSONZO,30507,NALUSUNGUTI,IBELAMBASA
GEITA,30,BUKOMBE,305,BUSONZO,30507,NALUSUNGUTI,BUKINGWAMINZI
GEITA,30,BUKOMBE,305,BUSONZO,30507,NALUSUNGUTI,IMALABUPINA
GEITA,30,BUKOMBE,305,RUNZEWE MAGHARIBI,30508,MSASA,LWASA
GEITA,30,BUKOMBE,305,RUNZEWE MAGHARIBI,30508,MSASA,MADUGA
GEITA,30,BUKOMBE,305,RUNZEWE MAGHARIBI,30508,MSASA,MAJENGO
GEITA,30,BUKOMBE,305,RUNZEWE MAGHARIBI,30508,MSASA,MSASA A
GEITA,30,BUKOMBE,305,RUNZEWE MAGHARIBI,30508,MSASA,MSASA 'B'
GEITA,30,BUKOMBE,305,RUNZEWE MAGHARIBI,30508,MSASA,MASAMBI
GEITA,30,BUKOMBE,305,RUNZEWE MAGHARIBI,30508,MSASA,IMALAMPAKA
GEITA,30,BUKOMBE,305,RUNZEWE MAGHARIBI,30508,MSASA,MIKONKWE
GEITA,30,BUKOMBE,305,RUNZEWE MAGHARIBI,30508,MSASA,AMANI
GEITA,30,BUKOMBE,305,RUNZEWE MAGHARIBI,30508,MSASA,MUUNGANO
GEITA,30,BUKOMBE,305,RUNZEWE MAGHARIBI,30508,LULAMBA,LULAMBA
GEITA,30,BUKOMBE,305,RUNZEWE MAGHARIBI,30508,LULAMBA,NAMBALE
GEITA,30,BUKOMBE,305,RUNZEWE MAGHARIBI,30508,LULAMBA,MNYONZO
GEITA,30,BUKOMBE,305,RUNZEWE MAGHARIBI,30508,LULAMBA,NAMVUBUKA
GEITA,30,BUKOMBE,305,RUNZEWE MAGHARIBI,30508,MSANGILA,IMALAMAWAZO
GEITA,30,BUKOMBE,305,RUNZEWE MAGHARIBI,30508,MSANGILA,MTAKUJA
GEITA,30,BUKOMBE,305,RUNZEWE MAGHARIBI,30508,MSANGILA,MAJENGO
GEITA,30,BUKOMBE,305,RUNZEWE MAGHARIBI,30508,MSANGILA,MSANGILA SENTA
GEITA,30,BUKOMBE,305,RUNZEWE MAGHARIBI,30508,KAZILAMUYAYE,MATAO
GEITA,30,BUKOMBE,305,RUNZEWE MAGHARIBI,30508,KAZILAMUYAYE,ILOGAZALA
GEITA,30,BUKOMBE,305,RUNZEWE MAGHARIBI,30508,KAZILAMUYAYE,MKOMBOZI
GEITA,30,BUKOMBE,305,RUNZEWE MAGHARIBI,30508,KAZILAMUYAYE,MUUNGANO
GEITA,30,BUKOMBE,305,RUNZEWE MAGHARIBI,30508,KAZILAMUYAYE,MKOMBOZI
GEITA,30,BUKOMBE,305,RUNZEWE MAGHARIBI,30508,KAZILAMUYAYE,MUUNGANO
GEITA,30,BUKOMBE,305,RUNZEWE MAGHARIBI,30508,KAZILAMUYAYE,SONGAMBELE
GEITA,30,BUKOMBE,305,RUNZEWE MAGHARIBI,30508,KAZILAMUYAYE,KISIWANI
GEITA,30,BUKOMBE,305,RUNZEWE MAGHARIBI,30508,NAMSEGA,SHILOBE
GEITA,30,BUKOMBE,305,RUNZEWE MAGHARIBI,30508,NAMSEGA,NASILALO
GEITA,30,BUKOMBE,305,RUNZEWE MAGHARIBI,30508,NAMSEGA,MKUYUNI
GEITA,30,BUKOMBE,305,RUNZEWE MAGHARIBI,30508,NAMSEGA,PEMBA
GEITA,30,BUKOMBE,305,RUNZEWE MASHARIKI,30509,IKUZI,BULANGWA
GEITA,30,BUKOMBE,305,RUNZEWE MASHARIKI,30509,IKUZI,AMANI
GEITA,30,BUKOMBE,305,RUNZEWE MASHARIKI,30509,IKUZI,NAMLOLOMA
GEITA,30,BUKOMBE,305,RUNZEWE MASHARIKI,30509,IKUZI,MWENGE
GEITA,30,BUKOMBE,305,RUNZEWE MASHARIKI,30509,IKUZI,SIGOBA 'A'
GEITA,30,BUKOMBE,305,RUNZEWE MASHARIKI,30509,IKUZI,SIGOBA 'B'
GEITA,30,BUKOMBE,305,RUNZEWE MASHARIKI,30509,IKUZI,BULUMBAGA 'A'
GEITA,30,BUKOMBE,305,RUNZEWE MASHARIKI,30509,BULUMBAGA,BULUMBAGA' B'
GEITA,30,BUKOMBE,305,RUNZEWE MASHARIKI,30509,BULUMBAGA,BULUMBAGA 'C'
GEITA,30,BUKOMBE,305,RUNZEWE MASHARIKI,30509,BULUMBAGA,BULUMBAGA 'D'
GEITA,30,BUKOMBE,305,RUNZEWE MASHARIKI,30509,BULUMBAGA,NAMPANGALA
GEITA,30,BUKOMBE,305,RUNZEWE MASHARIKI,30509,BULUMBAGA,TUMAINI
GEITA,30,BUKOMBE,305,RUNZEWE MASHARIKI,30509,NAMPANGWE,MHAMA
GEITA,30,BUKOMBE,305,RUNZEWE MASHARIKI,30509,NAMPANGWE,NAMSIGILI
GEITA,30,BUKOMBE,305,RUNZEWE MASHARIKI,30509,NAMPANGWE,NAMPANGWE SENTA
GEITA,30,BUKOMBE,305,RUNZEWE MASHARIKI,30509,NAMPANGWE,NAMPANGWE B
GEITA,30,BUKOMBE,305,RUNZEWE MASHARIKI,30509,NAMPANGWE,LUSENGA
GEITA,30,BUKOMBE,305,RUNZEWE MASHARIKI,30509,NAMPANGWE,MTAKUJA
GEITA,30,BUKOMBE,305,RUNZEWE MASHARIKI,30509,NAMPANGWE,NAMLOLOMA
GEITA,30,BUKOMBE,305,RUNZEWE MASHARIKI,30509,MSONGA,MSONGA SENTA
GEITA,30,BUKOMBE,305,RUNZEWE MASHARIKI,30509,MSONGA,NAMANONI
GEITA,30,BUKOMBE,305,RUNZEWE MASHARIKI,30509,MSONGA,UZUNGUNI
GEITA,30,BUKOMBE,305,RUNZEWE MASHARIKI,30509,MSONGA,BUNGONI
GEITA,30,BUKOMBE,305,RUNZEWE MASHARIKI,30509,MSONGA,MGWANIKA
GEITA,30,BUKOMBE,305,RUNZEWE MASHARIKI,30509,MSONGA,SAMALIA
GEITA,30,BUKOMBE,305,RUNZEWE MASHARIKI,30509,BULAMA,BULAMA 'A'
GEITA,30,BUKOMBE,305,RUNZEWE MASHARIKI,30509,BULAMA,BULAMA 'B'
GEITA,30,BUKOMBE,305,RUNZEWE MASHARIKI,30509,BULAMA,BULAMA 'C'
GEITA,30,BUKOMBE,305,RUNZEWE MASHARIKI,30509,BULAMA,NANGAKALANGO
GEITA,30,BUKOMBE,305,RUNZEWE MASHARIKI,30509,KASOZI,KASOZI 'A'
GEITA,30,BUKOMBE,305,RUNZEWE MASHARIKI,30509,KASOZI,MAJENGO
GEITA,30,BUKOMBE,305,RUNZEWE MASHARIKI,30509,KASOZI,NAMVUBUKA 'A'
GEITA,30,BUKOMBE,305,RUNZEWE MASHARIKI,30509,KASOZI,NAMVUBUKA 'B'
GEITA,30,BUKOMBE,305,RUNZEWE MASHARIKI,30509,KASOZI,MABATINI SENTA
GEITA,30,BUKOMBE,305,RUNZEWE MASHARIKI,30509,KASOZI,KILIMANJARO
GEITA,30,BUKOMBE,305,NG’ANZO,30510,KASOZI,SEGWE
GEITA,30,BUKOMBE,305,NG’ANZO,30510,KASOZI,MWABASABO
GEITA,30,BUKOMBE,305,NG’ANZO,30510,KASOZI,MWABALIMI
GEITA,30,BUKOMBE,305,NG’ANZO,30510,KASOZI,ISHIKELEJA
GEITA,30,BUKOMBE,305,NG’ANZO,30510,KASOZI,MKOLANI
GEITA,30,BUKOMBE,305,NG’ANZO,30510,KASOZI,NYAKATO
GEITA,30,BUKOMBE,305,NG’ANZO,30510,KASOZI,MWABASABI
GEITA,30,BUKOMBE,305,NG’ANZO,30510,KASOZI,MWAMADILANA A
GEITA,30,BUKOMBE,305,NG’ANZO,30510,KASOZI,BUJULA MASHARIKI
GEITA,30,BUKOMBE,305,NG’ANZO,30510,KASOZI,BUJULA
GEITA,30,BUKOMBE,305,NG’ANZO,30510,KASOZI,MWABADILANA B
GEITA,30,BUKOMBE,305,NG’ANZO,30510,KASOZI,IGOMA
GEITA,30,BUKOMBE,305,NG’ANZO,30510,KASOZI,IMALABUPINA
GEITA,30,BUKOMBE,305,NG’ANZO,30510,KASOZI,NYIBATA
GEITA,30,BUKOMBE,305,NG’ANZO,30510,KASOZI,SONGAMBELE
GEITA,30,BUKOMBE,305,NG’ANZO,30510,KASOZI,MTINGA SENTA
GEITA,30,BUKOMBE,305,NG’ANZO,30510,KASOZI,KAZA ROHO
GEITA,30,BUKOMBE,305,NG’ANZO,30510,KASOZI,MTINGA
GEITA,30,BUKOMBE,305,NG’ANZO,30510,KASOZI,BULANGWA
GEITA,30,BUKOMBE,305,NG’ANZO,30510,KASOZI,BWIGA
GEITA,30,BUKOMBE,305,NG’ANZO,30510,KASOZI,MSAGALA
GEITA,30,BUKOMBE,305,NG’ANZO,30510,KASOZI,ICHAKAYA
GEITA,30,BUKOMBE,305,NG’ANZO,30510,KASOZI,ISHIOKELASHUKA
GEITA,30,BUKOMBE,305,IGULWA,30511,KASOZI,IGULWA
GEITA,30,BUKOMBE,305,IGULWA,30511,KASOZI,BUTAMBALA  S/MSINGI
GEITA,30,BUKOMBE,305,IGULWA,30511,KASOZI,BUTAMBALA NIPHA
GEITA,30,BUKOMBE,305,IGULWA,30511,KASOZI,MSUFINI
GEITA,30,BUKOMBE,305,IGULWA,30511,KASOZI,KASAKA A
GEITA,30,BUKOMBE,305,IGULWA,30511,KASOZI,KASAKA B
GEITA,30,BUKOMBE,305,IGULWA,30511,KASOZI,IMALAMAGIGO
GEITA,30,BUKOMBE,305,IGULWA,30511,KASOZI,LULEMBELA
GEITA,30,BUKOMBE,305,IGULWA,30511,KASOZI,MCHANGANI
GEITA,30,BUKOMBE,305,IGULWA,30511,KASOZI,KELEZIA
GEITA,30,BUKOMBE,305,USHIROMBO,30512,KASOZI,IFUNGAMAWAZO
GEITA,30,BUKOMBE,305,USHIROMBO,30512,KASOZI,ILONGANZALA
GEITA,30,BUKOMBE,305,USHIROMBO,30512,KASOZI,ILYAMCHELE
GEITA,30,BUKOMBE,305,USHIROMBO,30512,KASOZI,MWALO A
GEITA,30,BUKOMBE,305,USHIROMBO,30512,KASOZI,MWALO B
GEITA,30,BUKOMBE,305,USHIROMBO,30512,KASOZI,KIZIBA 'A'
GEITA,30,BUKOMBE,305,USHIROMBO,30512,KASOZI,MGANZA
GEITA,30,BUKOMBE,305,USHIROMBO,30512,KASOZI,NYASASA
GEITA,30,BUKOMBE,305,USHIROMBO,30512,KASOZI,NYAKATA
GEITA,30,BUKOMBE,305,USHIROMBO,30512,KASOZI,BUKWAYA
GEITA,30,BUKOMBE,305,USHIROMBO,30512,KASOZI,MBAGWA
GEITA,30,BUKOMBE,305,USHIROMBO,30512,KASOZI,NYANGULUKULU
GEITA,30,BUKOMBE,305,USHIROMBO,30512,KASOZI,IHULIKE SENTA
GEITA,30,BUKOMBE,305,USHIROMBO,30512,KASOZI,MSINDIKWA
GEITA,30,BUKOMBE,305,USHIROMBO,30512,KASOZI,BUSINDA SENTA
GEITA,30,BUKOMBE,305,USHIROMBO,30512,KASOZI,SHIKALIBUGA
GEITA,30,BUKOMBE,305,BUTIZYA,30513,KASOZI,NGITA
GEITA,30,BUKOMBE,305,BUTIZYA,30513,KASOZI,ILYAMCHELE
GEITA,30,BUKOMBE,305,BUTIZYA,30513,KASOZI,MWABASABI
GEITA,30,BUKOMBE,305,BUTIZYA,30513,KASOZI,MAJENGO ISEMABUNA
GEITA,30,BUKOMBE,305,BUTIZYA,30513,KASOZI,ISEMABUNA
GEITA,30,BUKOMBE,305,BUTIZYA,30513,KASOZI,KONA NNE
GEITA,30,BUKOMBE,305,BUTIZYA,30513,KASOZI,MISIRI
GEITA,30,BUKOMBE,305,BUTIZYA,30513,KASOZI,MAJENGO
GEITA,30,BUKOMBE,305,BUTIZYA,30513,KASOZI,KIBONDO
GEITA,30,BUKOMBE,305,BUTIZYA,30513,KASOZI,BUTINZYA KATI
GEITA,30,BUKOMBE,305,BUTIZYA,30513,KASOZI,IPONYANYALA
GEITA,30,BUKOMBE,305,BUTIZYA,30513,KASOZI,BUTINZYA MASHARIKI
GEITA,30,BUKOMBE,305,BUTIZYA,30513,KASOZI,BUTINZYA KASKAZINI
GEITA,30,BUKOMBE,305,BUTIZYA,30513,KASOZI,NYANSHANA
GEITA,30,BUKOMBE,305,BUTIZYA,30513,KASOZI,MABULA
GEITA,30,BUKOMBE,305,BUTIZYA,30513,KASOZI,SILAMILA A
GEITA,30,BUKOMBE,305,BUTIZYA,30513,KASOZI,SILAMILA B
GEITA,30,BUKOMBE,305,BUTIZYA,30513,KASOZI,SILAMILA C
GEITA,30,BUKOMBE,305,KATENTE,30514,KASOZI,MAJENGO
GEITA,30,BUKOMBE,305,KATENTE,30514,KASOZI,KATENTE SENTA
GEITA,30,BUKOMBE,305,KATENTE,30514,KASOZI,UHAMIAJI
GEITA,30,BUKOMBE,305,KATENTE,30514,KASOZI,STENDI
GEITA,30,BUKOMBE,305,KATENTE,30514,KASOZI,KATENTE NA. 1
GEITA,30,BUKOMBE,305,KATENTE,30514,KASOZI,KATENTE A
GEITA,30,BUKOMBE,305,KATENTE,30514,KASOZI,BWENDA
GEITA,30,BUKOMBE,305,KATENTE,30514,KASOZI,BOMANI
GEITA,30,BUKOMBE,305,KATENTE,30514,KASOZI,KITANGILI
GEITA,30,BUKOMBE,305,KATENTE,30514,KASOZI,KARIFONIA
GEITA,30,BUKOMBE,305,BULANGWA,30515,KASOZI,MISSION
GEITA,30,BUKOMBE,305,BULANGWA,30515,KASOZI,MAGANZO
GEITA,30,BUKOMBE,305,BULANGWA,30515,KASOZI,KILIMAHEWA
GEITA,30,BUKOMBE,305,BULANGWA,30515,KASOZI,MUUNGANO
GEITA,30,BUKOMBE,305,BULANGWA,30515,KASOZI,IMOZYA
GEITA,30,BUKOMBE,305,BULANGWA,30515,KASOZI,BULAMGWA
GEITA,30,BUKOMBE,305,BULANGWA,30515,KASOZI,MAGANZO MISSION
GEITA,30,BUKOMBE,305,BULANGWA,30515,KASOZI,NTENGELE
GEITA,30,BUKOMBE,305,KATOME,30516,KASOZI,BUGAMA
GEITA,30,BUKOMBE,305,KATOME,30516,KASOZI,BUGUBA A
GEITA,30,BUKOMBE,305,KATOME,30516,KASOZI,BUGUBA B
GEITA,30,BUKOMBE,305,KATOME,30516,KASOZI,NYANTUMBA
GEITA,30,BUKOMBE,305,KATOME,30516,KASOZI,KASEMELE
GEITA,30,BUKOMBE,305,KATOME,30516,KASOZI,KASENGA
GEITA,30,BUKOMBE,305,KATOME,30516,KASOZI,IHAKO A
GEITA,30,BUKOMBE,305,KATOME,30516,KASOZI,IHAKO B
GEITA,30,BUKOMBE,305,KATOME,30516,KASOZI,MTAKUJA A
GEITA,30,BUKOMBE,305,KATOME,30516,KASOZI,MTAKUJA B
GEITA,30,BUKOMBE,305,KATOME,30516,KASOZI,ICHAKAYA
GEITA,30,BUKOMBE,305,KATOME,30516,KASOZI,MIYENZE
GEITA,30,BUKOMBE,305,KATOME,30516,KASOZI,MWABASABI
GEITA,30,BUKOMBE,305,KATOME,30516,KASOZI,MSHINDIKWA
GEITA,30,BUKOMBE,305,KATOME,30516,KASOZI,KATOME A
GEITA,30,BUKOMBE,305,KATOME,30516,KASOZI,KATOME B
GEITA,30,BUKOMBE,305,KATOME,30516,KASOZI,MGONGOLO
GEITA,30,BUKOMBE,305,KATOME,30516,KASOZI,KATOME S/M
GEITA,30,BUKOMBE,305,KATOME,30516,KASOZI,KATOME KUSINI
GEITA,30,BUKOMBE,305,KATOME,30516,KASOZI,NDAGALU
GEITA,30,BUKOMBE,305,BULEGA,30517,KASOZI,BULEGA SENTA
GEITA,30,BUKOMBE,305,BULEGA,30517,KASOZI,BELEGA MWELI
GEITA,30,BUKOMBE,305,BULEGA,30517,KASOZI,BULEGA A
GEITA,30,BUKOMBE,305,BULEGA,30517,KASOZI,MAJENGO
GEITA,30,BUKOMBE,305,BULEGA,30517,KASOZI,NYIKONGA
GEITA,30,BUKOMBE,305,BULEGA,30517,KASOZI,LWAMKONGWA
GEITA,30,BUKOMBE,305,BULEGA,30517,KASOZI,BULEGA C
GEITA,30,BUKOMBE,305,BULEGA,30517,KASOZI,BUSANDA
GEITA,30,BUKOMBE,305,BULEGA,30517,KASOZI,SHILABELA
GEITA,30,BUKOMBE,305,BULEGA,30517,KASOZI,MWINGILO
GEITA,30,BUKOMBE,305,BULEGA,30517,KASOZI,ISABILO
GEITA,30,BUKOMBE,305,BULEGA,30517,KASOZI,MAJIMAJI
GEITA,30,BUKOMBE,305,BULEGA,30517,KASOZI,NYIKANGA
GEITA,30,BUKOMBE,305,BULEGA,30517,KASOZI,SHINYANGA DAY
GEITA,30,BUKOMBE,305,BULEGA,30517,KASOZI,SHILABELA
GEITA,30,BUKOMBE,305,BULEGA,30517,KASOZI,ITOGWANHOLO
GEITA,30,BUKOMBE,305,BULEGA,30517,KASOZI,ILYAMCHELE
GEITA,30,BUKOMBE,305,BULEGA,30517,KASOZI,MWABALIMI
GEITA,30,BUKOMBE,305,BULEGA,30517,KASOZI,KIVUMO
GEITA,30,BUKOMBE,305,BULEGA,30517,KASOZI,MTAA WA AFYA
GEITA,30,BUKOMBE,305,BULEGA,30517,KASOZI,MTAA WA ELIMU
GEITA,30,BUKOMBE,305,BULEGA,30517,KASOZI,UMOJA
GEITA,30,BUKOMBE,305,BULEGA,30517,KASOZI,KAKOYOYO
GEITA,30,BUKOMBE,305,BULEGA,30517,KASOZI,IGWAMANONI B
GEITA,30,BUKOMBE,305,BULEGA,30517,KASOZI,IGWAMANONI A
GEITA,30,BUKOMBE,305,BULEGA,30517,KASOZI,AZIMIO
GEITA,30,BUKOMBE,305,BULEGA,30517,KASOZI,MGOMBANI
GEITA,30,BUKOMBE,305,BULEGA,30517,KASOZI,MAJENGO MAPYA
GEITA,30,BUKOMBE,305,BULEGA,30517,KASOZI,KONA NNE
