REGION,POSTCODE,DISTRICT,POSTCODE,WARD,POSTCODE,STREET,PLACES
IRINGA,51,IRINGA CBD,511,MIVINJENI,51101,MIGOMBANI,
IRINGA,51,IRINGA CBD,511,MIVINJENI,51101,IDUNDA,
IRINGA,51,IRINGA CBD,511,MIVINJENI,51101,FRELIMO 'A',
IRINGA,51,IRINGA CBD,511,MIVINJENI,51101,DARAJANI,
IRINGA,51,IRINGA CBD,511,MIVINJENI,51101,KONDOA,
IRINGA,51,IRINGA CBD,511,MIVINJENI,51101,KANISANI,
IRINGA,51,IRINGA CBD,511,MIVINJENI,51101,MJIMWEMA,
IRINGA,51,IRINGA CBD,511,MSHINDO,51102,MSHINDO 'A',
IRINGA,51,IRINGA CBD,511,MSHINDO,51102,MSHINDO 'B',
IRINGA,51,IRINGA CBD,511,MSHINDO,51102,BENKI,
IRINGA,51,IRINGA CBD,511,MSHINDO,51102,MSIKITI,
IRINGA,51,IRINGA CBD,511,MSHINDO,51102,RUAHA,
IRINGA,51,IRINGA CBD,511,MSHINDO,51102,MTWA 'A',
IRINGA,51,IRINGA CBD,511,MSHINDO,51102,MTWA 'B',
IRINGA,51,IRINGA CBD,511,KITANZINI,51103,STENDI KUU,
IRINGA,51,IRINGA CBD,511,KITANZINI,51103,MIYOMBONI,
IRINGA,51,IRINGA CBD,511,KITANZINI,51103,JAMAT,
IRINGA,51,IRINGA CBD,511,KITANZINI,51103,MAWENI,
IRINGA,51,IRINGA CBD,511,KITANZINI,51103,LEGEZAMWENDO,
IRINGA,51,IRINGA CBD,511,KITANZINI,51103,MADRASA,
IRINGA,51,IRINGA CBD,511,KITANZINI,51103,KITANZINI,
IRINGA,51,IRINGA CBD,511,KITANZINI,51103,MLIMANI,
IRINGA,51,IRINGA CBD,511,KITANZINI,51103,POLISI LINE,
IRINGA,51,IRINGA CBD,511,MAKORONGONI,51104,MSICHOKE,
IRINGA,51,IRINGA CBD,511,MAKORONGONI,51104,MKWAWA ROAD,
IRINGA,51,IRINGA CBD,511,MAKORONGONI,51104,KAGUO,
IRINGA,51,IRINGA CBD,511,MAKORONGONI,51104,SEKONDARI,
IRINGA,51,IRINGA CBD,511,MAKORONGONI,51104,PANGANI,
IRINGA,51,IRINGA CBD,511,MAKORONGONI,51104,KIBWANA,
IRINGA,51,IRINGA CBD,511,MAKORONGONI,51104,MAHIWA,
IRINGA,51,IRINGA CBD,511,MAKORONGONI,51104,PAWAGA ROAD,
IRINGA,51,IRINGA CBD,511,MAKORONGONI,51104,TANDAMTI,
IRINGA,51,IRINGA CBD,511,MAKORONGONI,51104,BANIANI,
IRINGA,51,IRINGA CBD,511,MAKORONGONI,51104,MAHAGI,
IRINGA,51,IRINGA CBD,511,MAKORONGONI,51104,"MUHIMBA ""A""",
IRINGA,51,IRINGA CBD,511,MAKORONGONI,51104,"MUHIMBA ""B""",
IRINGA,51,IRINGA CBD,511,ILALA,51105,MLAMKE,
IRINGA,51,IRINGA CBD,511,ILALA,51105,NYUMBA TATU,
IRINGA,51,IRINGA CBD,511,ILALA,51105,EMBAKASI,
IRINGA,51,IRINGA CBD,511,ILALA,51105,LAMI A,
IRINGA,51,IRINGA CBD,511,ILALA,51105,LAMI B,
IRINGA,51,IRINGA CBD,511,ILALA,51105,DABOBADO,
IRINGA,51,IRINGA CBD,511,ILALA,51105,KAJIFICHENI,
IRINGA,51,IRINGA CBD,511,KWAKILOSA,51106,FRELIMO 'C',
IRINGA,51,IRINGA CBD,511,KWAKILOSA,51106,MUUNGANO 'B',
IRINGA,51,IRINGA CBD,511,KWAKILOSA,51106,SHULE,
IRINGA,51,IRINGA CBD,511,KWAKILOSA,51106,KIJIWENI,
IRINGA,51,IRINGA CBD,511,KWAKILOSA,51106,KIDUNDA,
IRINGA,51,IRINGA CBD,511,KWAKILOSA,51106,JANGWANI,
IRINGA,51,IRINGA CBD,511,KWAKILOSA,51106,SAMORA,
IRINGA,51,IRINGA CBD,511,KWAKILOSA,51106,BEIRA,
IRINGA,51,IRINGA CBD,511,KWAKILOSA,51106,MUUNGANO 'A',
IRINGA,51,IRINGA CBD,511,KWAKILOSA,51106,KISIWANI,
IRINGA,51,IRINGA CBD,511,MLANDEGE,51107,NGULIKA,
IRINGA,51,IRINGA CBD,511,MLANDEGE,51107,MSANYA,
IRINGA,51,IRINGA CBD,511,MLANDEGE,51107,MAFURUTO,
IRINGA,51,IRINGA CBD,511,MLANDEGE,51107,SOKONI,
IRINGA,51,IRINGA CBD,511,MLANDEGE,51107,MLAMBALAZI,
IRINGA,51,IRINGA CBD,511,MLANDEGE,51107,NGUZO,
IRINGA,51,IRINGA CBD,511,MLANDEGE,51107,MAKONDEKO,
IRINGA,51,IRINGA CBD,511,MLANDEGE,51107,LUBIDA,
IRINGA,51,IRINGA CBD,511,MLANDEGE,51107,KALENGA ROAD,
IRINGA,51,IRINGA CBD,511,MLANDEGE,51107,KOTA,
IRINGA,51,IRINGA CBD,511,MLANDEGE,51107,MAPINDUZI,
IRINGA,51,IRINGA CBD,511,MLANDEGE,51107,NGENG'ENA,
IRINGA,51,IRINGA CBD,511,GANGILONGA,51108,KINONDONI,
IRINGA,51,IRINGA CBD,511,GANGILONGA,51108,KICHANGANI,
IRINGA,51,IRINGA CBD,511,GANGILONGA,51108,FFU,
IRINGA,51,IRINGA CBD,511,GANGILONGA,51108,LUGALO A,
IRINGA,51,IRINGA CBD,511,GANGILONGA,51108,LUGALO B,
IRINGA,51,IRINGA CBD,511,GANGILONGA,51108,WILOLESI,
IRINGA,51,IRINGA CBD,511,GANGILONGA,51108,SABASABA,
IRINGA,51,IRINGA CBD,511,GANGILONGA,51108,GANGILONGA,
IRINGA,51,IRINGA CBD,511,GANGILONGA,51108,KILIMANI,
IRINGA,51,IRINGA CBD,511,KIHESA,51109,DODOMA ROAD A,
IRINGA,51,IRINGA CBD,511,KIHESA,51109,DODOMA ROAD B,
IRINGA,51,IRINGA CBD,511,KIHESA,51109,SEMTEMA 'A',
IRINGA,51,IRINGA CBD,511,KIHESA,51109,SEMTEMA 'B',
IRINGA,51,IRINGA CBD,511,KIHESA,51109,ILEMBULA,
IRINGA,51,IRINGA CBD,511,KIHESA,51109,MWENGE,
IRINGA,51,IRINGA CBD,511,KIHESA,51109,MAFIFI,
IRINGA,51,IRINGA CBD,511,KIHESA,51109,KILIMANI,
IRINGA,51,IRINGA CBD,511,KIHESA,51109,NGOME,
IRINGA,51,IRINGA CBD,511,KIHESA,51109,DODOMA ROAD 'F',
IRINGA,51,IRINGA CBD,511,KIHESA,51109,SOKONI,
IRINGA,51,IRINGA CBD,511,KIHESA,51109,MFARANYAKI,
IRINGA,51,IRINGA CBD,511,KIHESA,51109,RAMADHANI WAZIRI,
IRINGA,51,IRINGA CBD,511,KIHESA,51109,MSIKITINI,
IRINGA,51,IRINGA CBD,511,KIHESA,51109,MBUMA,
IRINGA,51,IRINGA CBD,511,MTWIVILA,51110,SEMKINI,
IRINGA,51,IRINGA CBD,511,MTWIVILA,51110,MTWIVILA 'A',
IRINGA,51,IRINGA CBD,511,MTWIVILA,51110,MTWIVILA 'B',
IRINGA,51,IRINGA CBD,511,MTWIVILA,51110,"MTWIVILA ""C""",
IRINGA,51,IRINGA CBD,511,MTWIVILA,51110,VIZIWI,
IRINGA,51,IRINGA CBD,511,MTWIVILA,51110,MWAUTWA,
IRINGA,51,IRINGA CBD,511,MTWIVILA,51110,"DODOMA ROAD ""C""",
IRINGA,51,IRINGA CBD,511,MTWIVILA,51110,"DODOMA ROAD ""D""",
IRINGA,51,IRINGA CBD,511,MTWIVILA,51110,IDUNDA,
IRINGA,51,IRINGA CBD,511,MTWIVILA,51110,"DODOMA ROAD ""E""",
IRINGA,51,IRINGA CBD,511,MKWAWA,51111,LUKOSI,
IRINGA,51,IRINGA CBD,511,MKWAWA,51111,IMALANONGWA A,
IRINGA,51,IRINGA CBD,511,MKWAWA,51111,IMALANONGWA B,
IRINGA,51,IRINGA CBD,511,MKWAWA,51111,"BWAWANI ""A""",
IRINGA,51,IRINGA CBD,511,MKWAWA,51111,BWAWANI 'B',
IRINGA,51,IRINGA CBD,511,MKWAWA,51111,WAZO 'A',
IRINGA,51,IRINGA CBD,511,MKWAWA,51111,WAZO 'B',
IRINGA,51,IRINGA CBD,511,MKWAWA,51111,MKWAWA CHUO,
IRINGA,51,IRINGA CBD,511,MKWAWA,51111,DON BOSCO 'A',
IRINGA,51,IRINGA CBD,511,MKWAWA,51111,DON BOSCO 'B',
IRINGA,51,IRINGA CBD,511,MKWAWA,51111,MGERA,
IRINGA,51,IRINGA CBD,511,MKWAWA,51111,ITAMBA,
IRINGA,51,IRINGA CBD,511,MKWAWA,51111,HOHO,
IRINGA,51,IRINGA CBD,511,MKWAWA,51111,IKONONGO 'A',
IRINGA,51,IRINGA CBD,511,MKWAWA,51111,IKONONGO 'B',
IRINGA,51,IRINGA CBD,511,MWANGATA,51112,KIGAMBONI,
IRINGA,51,IRINGA CBD,511,MWANGATA,51112,KISIWANI,
IRINGA,51,IRINGA CBD,511,MWANGATA,51112,MAWELEWELE,
IRINGA,51,IRINGA CBD,511,MWANGATA,51112,NGELEWALA,
IRINGA,51,IRINGA CBD,511,MWANGATA,51112,ISOKA 'A',
IRINGA,51,IRINGA CBD,511,MWANGATA,51112,ISOKA 'B',
IRINGA,51,IRINGA CBD,511,MWANGATA,51112,MWANGATA 'A',
IRINGA,51,IRINGA CBD,511,MWANGATA,51112,MWANGATA 'B',
IRINGA,51,IRINGA CBD,511,MWANGATA,51112,MWANGATA 'C',
IRINGA,51,IRINGA CBD,511,MWANGATA,51112,MWANGATA 'D',
IRINGA,51,IRINGA CBD,511,MWANGATA,51112,MUUNGANO,
IRINGA,51,IRINGA CBD,511,KITWIRU,51113,KIBWABWA 'A',
IRINGA,51,IRINGA CBD,511,KITWIRU,51113,KIBWABWA 'B',
IRINGA,51,IRINGA CBD,511,KITWIRU,51113,NYAMHANGA 'A',
IRINGA,51,IRINGA CBD,511,KITWIRU,51113,NYAMHANGA 'B',
IRINGA,51,IRINGA CBD,511,KITWIRU,51113,NYAMHANGA 'C',
IRINGA,51,IRINGA CBD,511,KITWIRU,51113,KISIWANI,
IRINGA,51,IRINGA CBD,511,KITWIRU,51113,NYAMHANGA 'D',
IRINGA,51,IRINGA CBD,511,KITWIRU,51113,NYAMHANGA 'E',
IRINGA,51,IRINGA CBD,511,KITWIRU,51113,CAGLIERO,
IRINGA,51,IRINGA CBD,511,KITWIRU,51113,MOSI,
IRINGA,51,IRINGA CBD,511,KITWIRU,51113,UYOLE 'A',
IRINGA,51,IRINGA CBD,511,KITWIRU,51113,UYOLE 'B',
IRINGA,51,IRINGA CBD,511,KITWIRU,51113,KITWIRU 'A',
IRINGA,51,IRINGA CBD,511,KITWIRU,51113,KITWIRU 'B',
IRINGA,51,IRINGA CBD,511,RUAHA,51114,IPOGOLO 'A',
IRINGA,51,IRINGA CBD,511,RUAHA,51114,IPOGOLO 'B',
IRINGA,51,IRINGA CBD,511,RUAHA,51114,IPOGOLO 'C',
IRINGA,51,IRINGA CBD,511,RUAHA,51114,TAGAMENDA,
IRINGA,51,IRINGA CBD,511,RUAHA,51114,IPOGOLO 'D',
IRINGA,51,IRINGA CBD,511,RUAHA,51114,MWAGONGO,
IRINGA,51,IRINGA CBD,511,RUAHA,51114,IPOGOLO 'E',
IRINGA,51,IRINGA CBD,511,RUAHA,51114,NGELELI,
IRINGA,51,IRINGA CBD,511,RUAHA,51114,BUGURUNI,
IRINGA,51,IRINGA CBD,511,RUAHA,51114,KINEGAMGOSI 'A',
IRINGA,51,IRINGA CBD,511,RUAHA,51114,CHUO,
IRINGA,51,IRINGA CBD,511,RUAHA,51114,KINEGAMGOSI 'B',
IRINGA,51,IRINGA CBD,511,RUAHA,51114,KINEGAMGOSI 'C',
IRINGA,51,IRINGA CBD,511,NDULI,51115,MAPANDA,
IRINGA,51,IRINGA CBD,511,NDULI,51115,MJI MWEMA,
IRINGA,51,IRINGA CBD,511,NDULI,51115,KILIMAHEWA,
IRINGA,51,IRINGA CBD,511,NDULI,51115,KISOWELE,
IRINGA,51,IRINGA CBD,511,NDULI,51115,KIPULULU,
IRINGA,51,IRINGA CBD,511,NDULI,51115,NJIA PANDA,
IRINGA,51,IRINGA CBD,511,NDULI,51115,MTALAGALA,
IRINGA,51,IRINGA CBD,511,NDULI,51115,MSISINA,
IRINGA,51,IRINGA CBD,511,NDULI,51115,MIBATA,
IRINGA,51,IRINGA CBD,511,NDULI,51115,IGUNGANDEMBWE,
IRINGA,51,IRINGA CBD,511,NDULI,51115,SOMBELI,
IRINGA,51,IRINGA CBD,511,ISAKALILO,51116,ISAKALILO,
IRINGA,51,IRINGA CBD,511,ISAKALILO,51116,KIHODOMBI 'A',
IRINGA,51,IRINGA CBD,511,ISAKALILO,51116,KIHODOMBI 'B',
IRINGA,51,IRINGA CBD,511,ISAKALILO,51116,KITASENGWA,
IRINGA,51,IRINGA CBD,511,ISAKALILO,51116,NJIA PANDA,
IRINGA,51,IRINGA CBD,511,ISAKALILO,51116,ZIZI,
IRINGA,51,IRINGA CBD,511,ISAKALILO,51116,MTWIVILA,
IRINGA,51,IRINGA CBD,511,ISAKALILO,51116,CHAUTINDE,
IRINGA,51,IRINGA CBD,511,ISAKALILO,51116,KISAULA,
IRINGA,51,IRINGA CBD,511,MKIMBIZI,51117,DODOMA ROAD TRM,
IRINGA,51,IRINGA CBD,511,MKIMBIZI,51117,"MKIMBIZI ""A""",
IRINGA,51,IRINGA CBD,511,MKIMBIZI,51117,KADUMA,
IRINGA,51,IRINGA CBD,511,MKIMBIZI,51117,"MKIMBIZI ""B""",
IRINGA,51,IRINGA CBD,511,MKIMBIZI,51117,"MKIMBIZI ""C""",
IRINGA,51,IRINGA CBD,511,MKIMBIZI,51117,"MKIMBIZI ""D""",
IRINGA,51,IRINGA CBD,511,MKIMBIZI,51117,"KIHESA KILOLO ""A""",
IRINGA,51,IRINGA CBD,511,MKIMBIZI,51117,"KIHESA KILOLO ""B""",
IRINGA,51,IRINGA CBD,511,MKIMBIZI,51117,UGELE ILANGILA,
IRINGA,51,IRINGA CBD,511,MKIMBIZI,51117,UGELE  MANYIGI,
IRINGA,51,IRINGA CBD,511,IGUMBILO,51118,NDIUKA 'A',
IRINGA,51,IRINGA CBD,511,IGUMBILO,51118,NDIUKA 'B',
IRINGA,51,IRINGA CBD,511,IGUMBILO,51118,NDIUKA 'C',
IRINGA,51,IRINGA CBD,511,IGUMBILO,51118,NDIUKA 'D',
IRINGA,51,IRINGA CBD,511,IGUMBILO,51118,NDIUKA 'E',
IRINGA,51,IRINGA CBD,511,IGUMBILO,51118,MLANGALI,
IRINGA,51,IRINGA CBD,511,IGUMBILO,51118,IGUMBILO,
IRINGA,51,IRINGA CBD,511,IGUMBILO,51118,MATUNGULU,
IRINGA,51,IRINGA CBD,511,IGUMBILO,51118,KIGUNGAWE A,
IRINGA,51,IRINGA CBD,511,IGUMBILO,51118,KIGUNGAWE B,
IRINGA,51,IRINGA,512,KALENGA,51201,TOSAMAGANGA,UNYANGWILA
IRINGA,51,IRINGA,512,KALENGA,51201,TOSAMAGANGA,IRANGI
IRINGA,51,IRINGA,512,KALENGA,51201,TOSAMAGANGA,MABANDA
IRINGA,51,IRINGA,512,KALENGA,51201,TOSAMAGANGA,TOSA KILIMANI
IRINGA,51,IRINGA,512,KALENGA,51201,TOSAMAGANGA,IPAMBA
IRINGA,51,IRINGA,512,KALENGA,51201,KALENGA,LIPULI
IRINGA,51,IRINGA,512,KALENGA,51201,KALENGA,GALINOMA
IRINGA,51,IRINGA,512,KALENGA,51201,KALENGA,MWAMBAO
IRINGA,51,IRINGA,512,KALENGA,51201,KALENGA,IGAWA
IRINGA,51,IRINGA,512,KALENGA,51201,KALENGA,KIDOPE
IRINGA,51,IRINGA,512,KALENGA,51201,KALENGA,WANGI
IRINGA,51,IRINGA,512,KALENGA,51201,KALENGA,MAKTABA
IRINGA,51,IRINGA,512,KALENGA,51201,KALENGA,ILUNDIMEMBE
IRINGA,51,IRINGA,512,KALENGA,51201,ISAKALILO,ISAKALILO  A
IRINGA,51,IRINGA,512,KALENGA,51201,ISAKALILO,ISAKALILO  B
IRINGA,51,IRINGA,512,KALENGA,51201,ISAKALILO,ISAKALILO  C
IRINGA,51,IRINGA,512,MAGULIWA,51202,MAGULILWA,GODOWN A
IRINGA,51,IRINGA,512,MAGULIWA,51202,MAGULILWA,GODOWN B
IRINGA,51,IRINGA,512,MAGULIWA,51202,MAGULILWA,GODOWN C
IRINGA,51,IRINGA,512,MAGULIWA,51202,MAGULILWA,MIFUGO
IRINGA,51,IRINGA,512,MAGULIWA,51202,MAGULILWA,ILALA
IRINGA,51,IRINGA,512,MAGULIWA,51202,MAGULILWA,MBAVI
IRINGA,51,IRINGA,512,MAGULIWA,51202,MAGULILWA,KIHESAKILOLO
IRINGA,51,IRINGA,512,MAGULIWA,51202,MAGULILWA,SEKUSE
IRINGA,51,IRINGA,512,MAGULIWA,51202,MAGULILWA,MAJENGO
IRINGA,51,IRINGA,512,MAGULIWA,51202,NG’ENZA,MASELA
IRINGA,51,IRINGA,512,MAGULIWA,51202,NG’ENZA,MLEVELA
IRINGA,51,IRINGA,512,MAGULIWA,51202,NG’ENZA,KINYAMINYI
IRINGA,51,IRINGA,512,MAGULIWA,51202,NG’ENZA,LUTENGELO
IRINGA,51,IRINGA,512,MAGULIWA,51202,NG’ENZA,MUUNGANO
IRINGA,51,IRINGA,512,MAGULIWA,51202,MSULUTI,MSUKWA
IRINGA,51,IRINGA,512,MAGULIWA,51202,MSULUTI,MWAYA
IRINGA,51,IRINGA,512,MAGULIWA,51202,MSULUTI,IGUNGA
IRINGA,51,IRINGA,512,MAGULIWA,51202,MSULUTI,MLOWA
IRINGA,51,IRINGA,512,MAGULIWA,51202,MSULUTI,MILANZI
IRINGA,51,IRINGA,512,MAGULIWA,51202,MSULUTI,KIHESAKILOLO
IRINGA,51,IRINGA,512,MAGULIWA,51202,MLANDA,ILEMBULA
IRINGA,51,IRINGA,512,MAGULIWA,51202,MLANDA,MLANDA A
IRINGA,51,IRINGA,512,MAGULIWA,51202,MLANDA,MLANDA B
IRINGA,51,IRINGA,512,MAGULIWA,51202,MLANDA,MSOMBE
IRINGA,51,IRINGA,512,MAGULIWA,51202,MLANDA,NYALAWE
IRINGA,51,IRINGA,512,MAGULIWA,51202,MLANDA,UKANG’A
IRINGA,51,IRINGA,512,MAGULIWA,51202,NEGABIHI,IGELEKE
IRINGA,51,IRINGA,512,MAGULIWA,51202,NEGABIHI,LETENGANO
IRINGA,51,IRINGA,512,MAGULIWA,51202,NEGABIHI,ISOLIWAYA
IRINGA,51,IRINGA,512,MAGULIWA,51202,NEGABIHI,KILIMAHEWA
IRINGA,51,IRINGA,512,MAGULIWA,51202,NEGABIHI,MUUNGANO
IRINGA,51,IRINGA,512,MAGULIWA,51202,NDIWILI,MADUKANI
IRINGA,51,IRINGA,512,MAGULIWA,51202,NDIWILI,KITANZINI
IRINGA,51,IRINGA,512,MAGULIWA,51202,NDIWILI,MIVINJENI
IRINGA,51,IRINGA,512,MAGULIWA,51202,NDIWILI,MTAKUJA
IRINGA,51,IRINGA,512,MAGULIWA,51202,NDIWILI,MATEMA
IRINGA,51,IRINGA,512,MAGULIWA,51202,NDIWILI,MIGOLI A
IRINGA,51,IRINGA,512,MAGULIWA,51202,NDIWILI,MIGOLI B
IRINGA,51,IRINGA,512,MAGULIWA,51202,NDIWILI,MSULUTI A
IRINGA,51,IRINGA,512,MAGULIWA,51202,NDIWILI,MSULUTI B
IRINGA,51,IRINGA,512,MAGULIWA,51202,NDIWILI,MALAWI
IRINGA,51,IRINGA,512,MGAMA,51203,IBUMILA,KIPENGELE
IRINGA,51,IRINGA,512,MGAMA,51203,IBUMILA,GEZAULOLE
IRINGA,51,IRINGA,512,MGAMA,51203,IBUMILA,MAKETE A
IRINGA,51,IRINGA,512,MGAMA,51203,IBUMILA,MAKETE B
IRINGA,51,IRINGA,512,MGAMA,51203,IBUMILA,IBUMILA A
IRINGA,51,IRINGA,512,MGAMA,51203,IBUMILA,IBUMILA B
IRINGA,51,IRINGA,512,MGAMA,51203,IBUMILA,MLENGE A
IRINGA,51,IRINGA,512,MGAMA,51203,IBUMILA,MLENGE B
IRINGA,51,IRINGA,512,MGAMA,51203,IBUMILA,KILIMANJARO
IRINGA,51,IRINGA,512,MGAMA,51203,LWATO,LWATO A
IRINGA,51,IRINGA,512,MGAMA,51203,LWATO,LWATO B
IRINGA,51,IRINGA,512,MGAMA,51203,LWATO,KILEWELA
IRINGA,51,IRINGA,512,MGAMA,51203,LWATO,LUGOLOLELO B
IRINGA,51,IRINGA,512,MGAMA,51203,ILANDUTWA,NDOLELA
IRINGA,51,IRINGA,512,MGAMA,51203,ILANDUTWA,LUGOFU
IRINGA,51,IRINGA,512,MGAMA,51203,ILANDUTWA,MAYUGI
IRINGA,51,IRINGA,512,MGAMA,51203,ILANDUTWA,NYAKATULE A
IRINGA,51,IRINGA,512,MGAMA,51203,ILANDUTWA,LUGOLOLELO A
IRINGA,51,IRINGA,512,MGAMA,51203,ILANDUTWA,NYAKATULE B
IRINGA,51,IRINGA,512,MGAMA,51203,MGAMA,MGAMA ‘A’
IRINGA,51,IRINGA,512,MGAMA,51203,MGAMA,MGAMA ‘B’
IRINGA,51,IRINGA,512,MGAMA,51203,MGAMA,KIHESA
IRINGA,51,IRINGA,512,MGAMA,51203,MGAMA,MYOMBWE
IRINGA,51,IRINGA,512,MGAMA,51203,MGAMA,MBALAMO
IRINGA,51,IRINGA,512,MGAMA,51203,MGAMA,ISOMBE
IRINGA,51,IRINGA,512,MGAMA,51203,MGAMA,WANGAMA
IRINGA,51,IRINGA,512,MGAMA,51203,MGAMA,KATENGE ‘A’
IRINGA,51,IRINGA,512,MGAMA,51203,MGAMA,KATENGE ‘B’
IRINGA,51,IRINGA,512,MGAMA,51203,MGAMA,MSICHOKE
IRINGA,51,IRINGA,512,MGAMA,51203,MGAMA,MHAGATI
IRINGA,51,IRINGA,512,MGAMA,51203,MGAMA,WILOLESI
IRINGA,51,IRINGA,512,MGAMA,51203,ITWAGA,IKANAVANU
IRINGA,51,IRINGA,512,MGAMA,51203,ITWAGA,ITWAGA
IRINGA,51,IRINGA,512,MGAMA,51203,ITWAGA,NUNUMALA
IRINGA,51,IRINGA,512,MGAMA,51203,ITWAGA,ILYANGO ‘A’
IRINGA,51,IRINGA,512,MGAMA,51203,ITWAGA,ILYANGO ‘B’
IRINGA,51,IRINGA,512,MGAMA,51203,IHEMI,NJIAPANDA
IRINGA,51,IRINGA,512,MGAMA,51203,IHEMI,KILIMAHEWA
IRINGA,51,IRINGA,512,MGAMA,51203,IHEMI,KILIMANJARO
IRINGA,51,IRINGA,512,MGAMA,51203,IHEMI,WINOME
IRINGA,51,IRINGA,512,MGAMA,51203,IHEMI,MFARANYAKI
IRINGA,51,IRINGA,512,MGAMA,51203,IHEMI,IHEMI A
IRINGA,51,IRINGA,512,MGAMA,51203,IHEMI,KIFUMBI
IRINGA,51,IRINGA,512,MGAMA,51203,IHEMI,IGUNGA
IRINGA,51,IRINGA,512,MGAMA,51203,IHEMI,MJIMWEMA
IRINGA,51,IRINGA,512,MSEKE,51204,TANANGOZI,KANISANI
IRINGA,51,IRINGA,512,MSEKE,51204,TANANGOZI,KIMWANYULA
IRINGA,51,IRINGA,512,MSEKE,51204,TANANGOZI,KIHONGOLELO
IRINGA,51,IRINGA,512,MSEKE,51204,TANANGOZI,KILINDI
IRINGA,51,IRINGA,512,MSEKE,51204,TANANGOZI,STESHENI 'A'
IRINGA,51,IRINGA,512,MSEKE,51204,TANANGOZI,STESHENI 'B'
IRINGA,51,IRINGA,512,MSEKE,51204,TANANGOZI,LUNGUYA
IRINGA,51,IRINGA,512,MSEKE,51204,MLANDEGE,MLANDEGE 'A'
IRINGA,51,IRINGA,512,MSEKE,51204,MLANDEGE,MLANDEGE 'B'
IRINGA,51,IRINGA,512,MSEKE,51204,MLANDEGE,MAUMBAMATALI
IRINGA,51,IRINGA,512,MSEKE,51204,MLANDEGE,GEZAULOLE
IRINGA,51,IRINGA,512,MSEKE,51204,UGWACHANYA,NJIAPANDA 'A'
IRINGA,51,IRINGA,512,MSEKE,51204,UGWACHANYA,NJIAPANDA 'B'
IRINGA,51,IRINGA,512,MSEKE,51204,UGWACHANYA,ISMILA
IRINGA,51,IRINGA,512,MSEKE,51204,UGWACHANYA,BANAVANU
IRINGA,51,IRINGA,512,MSEKE,51204,UGWACHANYA,WINOME
IRINGA,51,IRINGA,512,MSEKE,51204,UGWACHANYA,LUKOLELA
IRINGA,51,IRINGA,512,MSEKE,51204,UGWACHANYA,ULONGAMBI
IRINGA,51,IRINGA,512,MSEKE,51204,UGWACHANYA,MSEKE 'A'
IRINGA,51,IRINGA,512,MSEKE,51204,UGWACHANYA,MSEKE 'B'
IRINGA,51,IRINGA,512,MSEKE,51204,UGWACHANYA,IGAVILO
IRINGA,51,IRINGA,512,MSEKE,51204,WENDA,WENDA 'A
IRINGA,51,IRINGA,512,MSEKE,51204,WENDA,WENDA 'B'
IRINGA,51,IRINGA,512,MSEKE,51204,WENDA,WENDA 'C'
IRINGA,51,IRINGA,512,MSEKE,51204,WENDA,WENDA 'D'
IRINGA,51,IRINGA,512,ULANDA,51205,MANGALALI,LUKWAMBE A
IRINGA,51,IRINGA,512,ULANDA,51205,MANGALALI,LUKWAMBE B
IRINGA,51,IRINGA,512,ULANDA,51205,MANGALALI,MANGALALI A
IRINGA,51,IRINGA,512,ULANDA,51205,MANGALALI,MANGALALI B
IRINGA,51,IRINGA,512,ULANDA,51205,MANGALALI,ITUNDA A
IRINGA,51,IRINGA,512,ULANDA,51205,MANGALALI,ITUNDA B
IRINGA,51,IRINGA,512,ULANDA,51205,MANGALALI,KITOO A
IRINGA,51,IRINGA,512,ULANDA,51205,MANGALALI,KITOO B
IRINGA,51,IRINGA,512,ULANDA,51205,MANGALALI,KIKONGOMA
IRINGA,51,IRINGA,512,ULANDA,51205,KIBEBE,IKANUMGUNDA
IRINGA,51,IRINGA,512,ULANDA,51205,KIBEBE,ITAMBA
IRINGA,51,IRINGA,512,ULANDA,51205,KIBEBE,IKANUULIME
IRINGA,51,IRINGA,512,ULANDA,51205,KIBEBE,LUPANGE
IRINGA,51,IRINGA,512,ULANDA,51205,KIBEBE,NYAMBILA
IRINGA,51,IRINGA,512,ULANDA,51205,KIBEBE,KILOLO
IRINGA,51,IRINGA,512,ULANDA,51205,KIBEBE,LUGUNG’UNZI
IRINGA,51,IRINGA,512,ULANDA,51205,LUPALAMA,MJIMWEMA
IRINGA,51,IRINGA,512,ULANDA,51205,LUPALAMA,MLAGA
IRINGA,51,IRINGA,512,ULANDA,51205,LUPALAMA,MWANGATA
IRINGA,51,IRINGA,512,ULANDA,51205,LUPALAMA,LUPALAMA-KILIMANI
IRINGA,51,IRINGA,512,ULANDA,51205,IBANGAMOYO,MWIKA
IRINGA,51,IRINGA,512,ULANDA,51205,IBANGAMOYO,MLANDIZI
IRINGA,51,IRINGA,512,ULANDA,51205,IBANGAMOYO,IBANGAMOYO
IRINGA,51,IRINGA,512,ULANDA,51205,IBANGAMOYO,KATENGE
IRINGA,51,IRINGA,512,ULANDA,51205,IBANGAMOYO,HENGE
IRINGA,51,IRINGA,512,ULANDA,51205,MWAMBAO,MWAMBAO A
IRINGA,51,IRINGA,512,ULANDA,51205,MWAMBAO,MWAMBAO B
IRINGA,51,IRINGA,512,ULANDA,51205,MWAMBAO,KILIMAHEWA
IRINGA,51,IRINGA,512,ULANDA,51205,MWAMBAO,IDETE
IRINGA,51,IRINGA,512,ULANDA,51205,WERU,MAGANGWE
IRINGA,51,IRINGA,512,ULANDA,51205,WERU,IMWAGAMAPESA
IRINGA,51,IRINGA,512,ULANDA,51205,WERU,IPANGANI
IRINGA,51,IRINGA,512,ULANDA,51205,WERU,MSEKE
IRINGA,51,IRINGA,512,ULANDA,51205,WERU,KILANGALI
IRINGA,51,IRINGA,512,NZIHI,51206,NYAMIHUU,ISUPILO
IRINGA,51,IRINGA,512,NZIHI,51206,NYAMIHUU,KILIMAHEWA
IRINGA,51,IRINGA,512,NZIHI,51206,NYAMIHUU,CHEMCHEM
IRINGA,51,IRINGA,512,NZIHI,51206,NYAMIHUU,MAKANYAGIO
IRINGA,51,IRINGA,512,NZIHI,51206,NYAMIHUU,MABATINI
IRINGA,51,IRINGA,512,NZIHI,51206,NYAMIHUU,WILOLESI
IRINGA,51,IRINGA,512,NZIHI,51206,NYAMIHUU,ISALA
IRINGA,51,IRINGA,512,NZIHI,51206,NYAMIHUU,MAJENGO
IRINGA,51,IRINGA,512,NZIHI,51206,NYAMIHUU,MBUYUNI
IRINGA,51,IRINGA,512,NZIHI,51206,NYAMIHUU,IGINGIMALI
IRINGA,51,IRINGA,512,NZIHI,51206,NYAMIHUU,MLANGALI
IRINGA,51,IRINGA,512,NZIHI,51206,NYAMIHUU,MKOMBE
IRINGA,51,IRINGA,512,NZIHI,51206,KIPERA,MBUYUNI
IRINGA,51,IRINGA,512,NZIHI,51206,KIPERA,MKOLA
IRINGA,51,IRINGA,512,NZIHI,51206,KIPERA,KISOMBAMBONE
IRINGA,51,IRINGA,512,NZIHI,51206,KIPERA,KIPERA OFISINI
IRINGA,51,IRINGA,512,NZIHI,51206,KIPERA,MIFUGO
IRINGA,51,IRINGA,512,NZIHI,51206,KIPERA,MLAMBALASI
IRINGA,51,IRINGA,512,NZIHI,51206,KIPERA,MBULULA
IRINGA,51,IRINGA,512,NZIHI,51206,KIPERA,MKWATA
IRINGA,51,IRINGA,512,NZIHI,51206,KIPERA,MKWAWA
IRINGA,51,IRINGA,512,NZIHI,51206,MAGUBIKE,CHELESI
IRINGA,51,IRINGA,512,NZIHI,51206,MAGUBIKE,KINYANG'AMA
IRINGA,51,IRINGA,512,NZIHI,51206,MAGUBIKE,MTAKUJA
IRINGA,51,IRINGA,512,NZIHI,51206,MAGUBIKE,KINYASAULA
IRINGA,51,IRINGA,512,NZIHI,51206,MAGUBIKE,IGANGILONGA
IRINGA,51,IRINGA,512,NZIHI,51206,MAGUBIKE,IBOGO
IRINGA,51,IRINGA,512,NZIHI,51206,NZIHI,NZIHI A
IRINGA,51,IRINGA,512,NZIHI,51206,NZIHI,NZIHI B
IRINGA,51,IRINGA,512,NZIHI,51206,NZIHI,MJIMWEMA B
IRINGA,51,IRINGA,512,NZIHI,51206,NZIHI,MIMWEMA A
IRINGA,51,IRINGA,512,NZIHI,51206,NZIHI,MAZOMBE
IRINGA,51,IRINGA,512,NZIHI,51206,NZIHI,MHANGA
IRINGA,51,IRINGA,512,NZIHI,51206,NZIHI,MBEGA
IRINGA,51,IRINGA,512,NZIHI,51206,NZIHI,IHANZU
IRINGA,51,IRINGA,512,NZIHI,51206,ILALASIMBA,SONGAMBELE
IRINGA,51,IRINGA,512,NZIHI,51206,ILALASIMBA,IPANGANI
IRINGA,51,IRINGA,512,NZIHI,51206,ILALASIMBA,KALANGALI
IRINGA,51,IRINGA,512,NZIHI,51206,ILALASIMBA,ILALASIMBA
IRINGA,51,IRINGA,512,NZIHI,51206,ILALASIMBA,IGUNGA NDEMBWE
IRINGA,51,IRINGA,512,NZIHI,51206,KIDAMALI,GEORGE. FILIAKOSI
IRINGA,51,IRINGA,512,NZIHI,51206,KIDAMALI,JAMES. NZANI
IRINGA,51,IRINGA,512,NZIHI,51206,KIDAMALI,WINOME
IRINGA,51,IRINGA,512,NZIHI,51206,KIDAMALI,KAYUGWA
IRINGA,51,IRINGA,512,KIWERE,51207,KIWERE,MAKONDO
IRINGA,51,IRINGA,512,KIWERE,51207,KIWERE,MWAYA A
IRINGA,51,IRINGA,512,KIWERE,51207,KIWERE,MWAYA B
IRINGA,51,IRINGA,512,KIWERE,51207,KIWERE,CHAPAKAZI
IRINGA,51,IRINGA,512,KIWERE,51207,MGERA,LUGANGA
IRINGA,51,IRINGA,512,KIWERE,51207,MGERA,MAPINDUZI
IRINGA,51,IRINGA,512,KIWERE,51207,MGERA,KIDETE
IRINGA,51,IRINGA,512,KIWERE,51207,MGERA,MLANGALI
IRINGA,51,IRINGA,512,KIWERE,51207,ITAGUTWA,ITAGUTWA
IRINGA,51,IRINGA,512,KIWERE,51207,ITAGUTWA,MAPULULU
IRINGA,51,IRINGA,512,KIWERE,51207,ITAGUTWA,MLENGE
IRINGA,51,IRINGA,512,KIWERE,51207,ITAGUTWA,KIPENGELE
IRINGA,51,IRINGA,512,KIWERE,51207,KITAPILIMWA,LUGALO
IRINGA,51,IRINGA,512,KIWERE,51207,KITAPILIMWA,KINYAMADUMA
IRINGA,51,IRINGA,512,KIWERE,51207,KITAPILIMWA,IKINGO
IRINGA,51,IRINGA,512,KIWERE,51207,MFYOME,MGEGA
IRINGA,51,IRINGA,512,KIWERE,51207,MFYOME,MATEMBO
IRINGA,51,IRINGA,512,KIWERE,51207,MFYOME,MSOSA
IRINGA,51,IRINGA,512,KIWERE,51207,MFYOME,MALAMBA A
IRINGA,51,IRINGA,512,KIWERE,51207,MFYOME,MALAMBA B
IRINGA,51,IRINGA,512,KIWERE,51207,MFYOME,MHEFU
IRINGA,51,IRINGA,512,MLOWA,51208,MALIZANGA,MTAKUJA
IRINGA,51,IRINGA,512,MLOWA,51208,MALIZANGA,IKONONGO
IRINGA,51,IRINGA,512,MLOWA,51208,MALIZANGA,MALIZANGA
IRINGA,51,IRINGA,512,MLOWA,51208,MALIZANGA,NDOROBO A
IRINGA,51,IRINGA,512,MLOWA,51208,MALIZANGA,NDOROBO B
IRINGA,51,IRINGA,512,MLOWA,51208,MALIZANGA,MAJENGO A
IRINGA,51,IRINGA,512,MLOWA,51208,MALIZANGA,MAJENGO B
IRINGA,51,IRINGA,512,MLOWA,51208,MALIZANGA,MLOWA
IRINGA,51,IRINGA,512,MLOWA,51208,MALIZANGA,MATALAWE
IRINGA,51,IRINGA,512,MLOWA,51208,NYAMAHANA,MLAMBALASI
IRINGA,51,IRINGA,512,MLOWA,51208,NYAMAHANA,IPWASI
IRINGA,51,IRINGA,512,MLOWA,51208,NYAMAHANA,MAJENGO
IRINGA,51,IRINGA,512,MLOWA,51208,NYAMAHANA,MTAKUJA
IRINGA,51,IRINGA,512,MLOWA,51208,NYAMAHANA,MBUYUNI
IRINGA,51,IRINGA,512,MLOWA,51208,MAFULUTO,MAJENGO
IRINGA,51,IRINGA,512,MLOWA,51208,MAFULUTO,KIBUDUGA
IRINGA,51,IRINGA,512,MLOWA,51208,MAFULUTO,MUUNGANO
IRINGA,51,IRINGA,512,MLOWA,51208,MAFULUTO,MAGOYA
IRINGA,51,IRINGA,512,MLOWA,51208,MAFULUTO,MSEKETULE
IRINGA,51,IRINGA,512,ILOLOMPYA,51209,LUGANGA,BARABARAMBILI
IRINGA,51,IRINGA,512,ILOLOMPYA,51209,LUGANGA,KIHESA
IRINGA,51,IRINGA,512,ILOLOMPYA,51209,LUGANGA,MOTOMOTO
IRINGA,51,IRINGA,512,ILOLOMPYA,51209,LUGANGA,UKWEGA
IRINGA,51,IRINGA,512,ILOLOMPYA,51209,LUGANGA,SADANI
IRINGA,51,IRINGA,512,ILOLOMPYA,51209,LUGANGA,MAWANDE
IRINGA,51,IRINGA,512,ILOLOMPYA,51209,LUGANGA,MTAKUJA
IRINGA,51,IRINGA,512,ILOLOMPYA,51209,LUGANGA,UWANJANI
IRINGA,51,IRINGA,512,ILOLOMPYA,51209,MAGOZI,KIMALANONGWA
IRINGA,51,IRINGA,512,ILOLOMPYA,51209,MAGOZI,ISEGELELE
IRINGA,51,IRINGA,512,ILOLOMPYA,51209,MAGOZI,MAGOZI
IRINGA,51,IRINGA,512,ILOLOMPYA,51209,MKOMBILENGA,MUUNGANO
IRINGA,51,IRINGA,512,ILOLOMPYA,51209,MKOMBILENGA,MTAKUJA
IRINGA,51,IRINGA,512,ILOLOMPYA,51209,MKOMBILENGA,CHAMAMBA
IRINGA,51,IRINGA,512,ILOLOMPYA,51209,ILOLOMPYA,MLLIMANI
IRINGA,51,IRINGA,512,ILOLOMPYA,51209,ILOLOMPYA,ILOLO
IRINGA,51,IRINGA,512,ILOLOMPYA,51209,ILOLOMPYA,MAGANGAMATITU
IRINGA,51,IRINGA,512,KIHOROGOTA,51210,KIHOROGOTA,KIHOROGOTA
IRINGA,51,IRINGA,512,KIHOROGOTA,51210,KIHOROGOTA,NJIAPANDA
IRINGA,51,IRINGA,512,KIHOROGOTA,51210,KIHOROGOTA,DANIDA
IRINGA,51,IRINGA,512,KIHOROGOTA,51210,KIHOROGOTA,MGUGUMBALO
IRINGA,51,IRINGA,512,KIHOROGOTA,51210,IVANGWA,MDENDAMI
IRINGA,51,IRINGA,512,KIHOROGOTA,51210,IVANGWA,IVANGWA
IRINGA,51,IRINGA,512,KIHOROGOTA,51210,NGANO,MWANG’INGO
IRINGA,51,IRINGA,512,KIHOROGOTA,51210,NGANO,GODAUNI A
IRINGA,51,IRINGA,512,KIHOROGOTA,51210,NGANO,GODAUNI B
IRINGA,51,IRINGA,512,KIHOROGOTA,51210,NGANO,LYAVEYA
IRINGA,51,IRINGA,512,KIHOROGOTA,51210,MIKONG'WI,KICHANGANI
IRINGA,51,IRINGA,512,KIHOROGOTA,51210,MIKONG'WI,SHULENI
IRINGA,51,IRINGA,512,KIHOROGOTA,51210,MIKONG'WI,UTITILI
IRINGA,51,IRINGA,512,KIHOROGOTA,51210,MIKONG'WI,LUPEMBE
IRINGA,51,IRINGA,512,KIHOROGOTA,51210,ISMANI (T),LUGOLOLA
IRINGA,51,IRINGA,512,KIHOROGOTA,51210,ISMANI (T),MTIULAYA
IRINGA,51,IRINGA,512,KIHOROGOTA,51210,ISMANI (T),LYANIKA
IRINGA,51,IRINGA,512,KIHOROGOTA,51210,ISMANI (T),LWANG’A
IRINGA,51,IRINGA,512,KIHOROGOTA,51210,NDOLELA,KIBAONI
IRINGA,51,IRINGA,512,KIHOROGOTA,51210,NDOLELA,NDOLELA
IRINGA,51,IRINGA,512,KIHOROGOTA,51210,NDOLELA,OFISINI
IRINGA,51,IRINGA,512,KIHOROGOTA,51210,UHOMINYI,UHOMINYI
IRINGA,51,IRINGA,512,KIHOROGOTA,51210,UHOMINYI,TUMAINI
IRINGA,51,IRINGA,512,KIHOROGOTA,51210,UHOMINYI,UBENA
IRINGA,51,IRINGA,512,KIHOROGOTA,51210,IGULA,ILOGOMBE
IRINGA,51,IRINGA,512,KIHOROGOTA,51210,IGULA,MADIBILA
IRINGA,51,IRINGA,512,KIHOROGOTA,51210,IGULA,NYAMBALA
IRINGA,51,IRINGA,512,KIHOROGOTA,51210,IGULA,MAGANGA
IRINGA,51,IRINGA,512,LUMULI,51211,LUMULI,KALENGACHWA
IRINGA,51,IRINGA,512,LUMULI,51211,LUMULI,KILIMAHEWA
IRINGA,51,IRINGA,512,LUMULI,51211,LUMULI,KIHESA
IRINGA,51,IRINGA,512,LUMULI,51211,LUMULI,KITEMELA
IRINGA,51,IRINGA,512,LUMULI,51211,LUMULI,KIBALALI
IRINGA,51,IRINGA,512,LUMULI,51211,LUMULI,LUGEMA
IRINGA,51,IRINGA,512,LUMULI,51211,LUMULI,VIKULA
IRINGA,51,IRINGA,512,LUMULI,51211,LUMULI,KIHATA
IRINGA,51,IRINGA,512,LUMULI,51211,LUMULI,UHOPELA
IRINGA,51,IRINGA,512,LUMULI,51211,ITENGULINYI,IPANGANI
IRINGA,51,IRINGA,512,LUMULI,51211,ITENGULINYI,MAKANYAGIO B
IRINGA,51,IRINGA,512,LUMULI,51211,ITENGULINYI,LUKINGITA
IRINGA,51,IRINGA,512,LUMULI,51211,ITENGULINYI,MAKANYAGIO A
IRINGA,51,IRINGA,512,LUMULI,51211,ITENGULINYI,ITENGULINYI
IRINGA,51,IRINGA,512,LUMULI,51211,ISUPILO,ISUPILO
IRINGA,51,IRINGA,512,LUMULI,51211,ISUPILO,MASUMBO
IRINGA,51,IRINGA,512,LUMULI,51211,ISUPILO,USAMBUSI
IRINGA,51,IRINGA,512,LUMULI,51211,ISUPILO,MAKANYAGIO
IRINGA,51,IRINGA,512,LUMULI,51211,MUWIMBI,KIBUGUMO
IRINGA,51,IRINGA,512,LUMULI,51211,MUWIMBI,ULETE
IRINGA,51,IRINGA,512,LUMULI,51211,MUWIMBI,MUWIMBI
IRINGA,51,IRINGA,512,LUMULI,51211,MUWIMBI,GEZAULOLE
IRINGA,51,IRINGA,512,IFUNDA,51212,IFUNDA,KIBAONI A
IRINGA,51,IRINGA,512,IFUNDA,51212,IFUNDA,KILIMAHEWA A
IRINGA,51,IRINGA,512,IFUNDA,51212,IFUNDA,KIPERA
IRINGA,51,IRINGA,512,IFUNDA,51212,IFUNDA,UTIBESA
IRINGA,51,IRINGA,512,IFUNDA,51212,IFUNDA,ULOLAGE
IRINGA,51,IRINGA,512,IFUNDA,51212,IFUNDA,MGONDO
IRINGA,51,IRINGA,512,IFUNDA,51212,BANDABICHI,KIBAONI B
IRINGA,51,IRINGA,512,IFUNDA,51212,BANDABICHI,BANDABICHI
IRINGA,51,IRINGA,512,IFUNDA,51212,BANDABICHI,IFUNDA SEKONDARI
IRINGA,51,IRINGA,512,IFUNDA,51212,BANDABICHI,KIVALALI A
IRINGA,51,IRINGA,512,IFUNDA,51212,BANDABICHI,KIVALALI B
IRINGA,51,IRINGA,512,IFUNDA,51212,BANDABICHI,KILIMAHEWA B
IRINGA,51,IRINGA,512,IFUNDA,51212,BANDABICHI,IHAGAHA
IRINGA,51,IRINGA,512,IFUNDA,51212,BANDABICHI,MLAFU
IRINGA,51,IRINGA,512,IFUNDA,51212,KIBENA,ISENUKA
IRINGA,51,IRINGA,512,IFUNDA,51212,KIBENA,LUTITILI
IRINGA,51,IRINGA,512,IFUNDA,51212,KIBENA,ULYANGWADA
IRINGA,51,IRINGA,512,IFUNDA,51212,KIBENA,UBALANZI
IRINGA,51,IRINGA,512,IFUNDA,51212,KIBENA,KITASENGWA
IRINGA,51,IRINGA,512,IFUNDA,51212,KIBENA,KALONGA
IRINGA,51,IRINGA,512,IFUNDA,51212,MFUKULEMBE,LYASA
IRINGA,51,IRINGA,512,IFUNDA,51212,MFUKULEMBE,NDOLELA
IRINGA,51,IRINGA,512,IFUNDA,51212,MFUKULEMBE,IGULUMTI A
IRINGA,51,IRINGA,512,IFUNDA,51212,MFUKULEMBE,IGULUMITI B
IRINGA,51,IRINGA,512,IFUNDA,51212,UDUMKA,OFISINI
IRINGA,51,IRINGA,512,IFUNDA,51212,UDUMKA,UTULO
IRINGA,51,IRINGA,512,IFUNDA,51212,UDUMKA,IKUNGU
IRINGA,51,IRINGA,512,IFUNDA,51212,MIBIKIMITALI,MIBIKIMITALI
IRINGA,51,IRINGA,512,IFUNDA,51212,MIBIKIMITALI,MASIMIKE
IRINGA,51,IRINGA,512,IFUNDA,51212,MIBIKIMITALI,ULANGALA
IRINGA,51,IRINGA,512,MABOGA,51213,MAGUNGA,IHAMI
IRINGA,51,IRINGA,512,MABOGA,51213,MAGUNGA,MGOGONDELE A
IRINGA,51,IRINGA,512,MABOGA,51213,MAGUNGA,MGOGONDELE B
IRINGA,51,IRINGA,512,MABOGA,51213,MAGUNGA,NGUVUKAZI
IRINGA,51,IRINGA,512,MABOGA,51213,MAGUNGA,MINYALA
IRINGA,51,IRINGA,512,MABOGA,51213,MAGUNGA,LUGAILO
IRINGA,51,IRINGA,512,MABOGA,51213,MAKONGATI,LUKALI
IRINGA,51,IRINGA,512,MABOGA,51213,MAKONGATI,ILEMBULA
IRINGA,51,IRINGA,512,MABOGA,51213,MAKONGATI,LUWINDA
IRINGA,51,IRINGA,512,MABOGA,51213,MAKONGATI,LUTEMI
IRINGA,51,IRINGA,512,MABOGA,51213,MAKONGATI,KIBAONI
IRINGA,51,IRINGA,512,MABOGA,51213,MAKONGATI,ILALASIMBA
IRINGA,51,IRINGA,512,MABOGA,51213,MAKONGATI,MSASANI
IRINGA,51,IRINGA,512,MABOGA,51213,MAKONGATI,LUNGUYA
IRINGA,51,IRINGA,512,MABOGA,51213,MAKONGATI,IKONDO
IRINGA,51,IRINGA,512,MABOGA,51213,KIPONZELO,KANISANI
IRINGA,51,IRINGA,512,MABOGA,51213,KIPONZELO,SIYOVELWA
IRINGA,51,IRINGA,512,MABOGA,51213,KIPONZELO,NGONGWA
IRINGA,51,IRINGA,512,MABOGA,51213,KIPONZELO,MJIMWEMA
IRINGA,51,IRINGA,512,MABOGA,51213,KIPONZELO,MSOMBE
IRINGA,51,IRINGA,512,MABOGA,51213,KIPONZELO,MADUKANI
IRINGA,51,IRINGA,512,MABOGA,51213,KIPONZELO,LUMUMBA
IRINGA,51,IRINGA,512,MABOGA,51213,KIPONZELO,GENDAWUYE
IRINGA,51,IRINGA,512,MABOGA,51213,KIPONZELO,MSALASI
IRINGA,51,IRINGA,512,MABOGA,51213,KIPONZELO,SHULENI
IRINGA,51,IRINGA,512,MABOGA,51213,KIPONZELO,MKWAWA
IRINGA,51,IRINGA,512,WASA,51214,WASA,KASTAMU
IRINGA,51,IRINGA,512,WASA,51214,WASA,UTIGA
IRINGA,51,IRINGA,512,WASA,51214,WASA,NYAKIGONGO
IRINGA,51,IRINGA,512,WASA,51214,WASA,ITAWI
IRINGA,51,IRINGA,512,WASA,51214,WASA,NYAMAGOLA
IRINGA,51,IRINGA,512,WASA,51214,WASA,UHEPWA
IRINGA,51,IRINGA,512,WASA,51214,IKUNGWE,MKUZI
IRINGA,51,IRINGA,512,WASA,51214,IKUNGWE,MAKANYAGIO
IRINGA,51,IRINGA,512,WASA,51214,IKUNGWE,MKUTA
IRINGA,51,IRINGA,512,WASA,51214,IKUNGWE,IKUNGWE
IRINGA,51,IRINGA,512,WASA,51214,IKUNGWE,TAMBALANG’OMBE
IRINGA,51,IRINGA,512,WASA,51214,UFYAMBE,LWAMANGA
IRINGA,51,IRINGA,512,WASA,51214,UFYAMBE,IKONONGO
IRINGA,51,IRINGA,512,WASA,51214,UFYAMBE,LUNGUYA
IRINGA,51,IRINGA,512,WASA,51214,USENGELINDETE,IGULA
IRINGA,51,IRINGA,512,WASA,51214,USENGELINDETE,UMWAGA
IRINGA,51,IRINGA,512,WASA,51214,USENGELINDETE,ITIMBO
IRINGA,51,IRINGA,512,WASA,51214,USENGELINDETE,KIGASA
IRINGA,51,IRINGA,512,WASA,51214,IHOMASA,LUPANDE
IRINGA,51,IRINGA,512,WASA,51214,IHOMASA,VIKULA
IRINGA,51,IRINGA,512,WASA,51214,IHOMASA,IHOMASA
IRINGA,51,IRINGA,512,WASA,51214,IHOMASA,MKONDOWA
IRINGA,51,IRINGA,512,WASA,51214,IHOMASA,MUUNGANO
IRINGA,51,IRINGA,512,WASA,51214,ULATA,MWEFU
IRINGA,51,IRINGA,512,WASA,51214,ULATA,ULATA
IRINGA,51,IRINGA,512,WASA,51214,ULATA,NGONAMWASI
IRINGA,51,IRINGA,512,WASA,51214,MAHANZI,KIBULILO
IRINGA,51,IRINGA,512,WASA,51214,MAHANZI,MAHANZI
IRINGA,51,IRINGA,512,WASA,51214,MAHANZI,KITAMBA
IRINGA,51,IRINGA,512,MAHUNINGA,51215,MAHUNINGA,UFYAMBE
IRINGA,51,IRINGA,512,MAHUNINGA,51215,MAHUNINGA,MAJENGO A
IRINGA,51,IRINGA,512,MAHUNINGA,51215,MAHUNINGA,MAJENGO B
IRINGA,51,IRINGA,512,MAHUNINGA,51215,MAHUNINGA,KITALINGOLO
IRINGA,51,IRINGA,512,MAHUNINGA,51215,KISILWA,ISUKUTWA
IRINGA,51,IRINGA,512,MAHUNINGA,51215,KISILWA,MISUFI
IRINGA,51,IRINGA,512,MAHUNINGA,51215,KISILWA,KISILWA
IRINGA,51,IRINGA,512,MAHUNINGA,51215,MAKIFU,MKANISOKA
IRINGA,51,IRINGA,512,MAHUNINGA,51215,MAKIFU,MAKIFU
IRINGA,51,IRINGA,512,MAHUNINGA,51215,MAKIFU,MAKAMBALALA-A
IRINGA,51,IRINGA,512,MAHUNINGA,51215,MAKIFU,MAKAMBALALA-B
IRINGA,51,IRINGA,512,MAHUNINGA,51215,MAKIFU,ISANGA
IRINGA,51,IRINGA,512,MAHUNINGA,51215,MAKIFU,MAHOVE
IRINGA,51,IRINGA,512,ITUNUNDU,51216,ITUNUNDU,KIVUKOKALO
IRINGA,51,IRINGA,512,ITUNUNDU,51216,ITUNUNDU,MBUYUNI
IRINGA,51,IRINGA,512,ITUNUNDU,51216,ITUNUNDU,MAJENGO
IRINGA,51,IRINGA,512,ITUNUNDU,51216,ITUNUNDU,KIBUEGELE
IRINGA,51,IRINGA,512,ITUNUNDU,51216,ITUNUNDU,IKOLONGO
IRINGA,51,IRINGA,512,ITUNUNDU,51216,ITUNUNDU,ISELE
IRINGA,51,IRINGA,512,ITUNUNDU,51216,ITUNUNDU,CHANGALAWE
IRINGA,51,IRINGA,512,ITUNUNDU,51216,ITUNUNDU,MKWAJUNI
IRINGA,51,IRINGA,512,ITUNUNDU,51216,KIMANDE,MWAITENGA
IRINGA,51,IRINGA,512,ITUNUNDU,51216,KIMANDE,KIMANDE
IRINGA,51,IRINGA,512,ITUNUNDU,51216,KIMANDE,MJIMWEMA
IRINGA,51,IRINGA,512,ITUNUNDU,51216,KIMANDE,KIKULUHE
IRINGA,51,IRINGA,512,ITUNUNDU,51216,KIMANDE,GUNDAMNANI
IRINGA,51,IRINGA,512,ITUNUNDU,51216,MBUYUNI,MBUYUNI
IRINGA,51,IRINGA,512,ITUNUNDU,51216,MBUYUNI,NDOLELA
IRINGA,51,IRINGA,512,ITUNUNDU,51216,MBUYUNI,IGODIKAFU
IRINGA,51,IRINGA,512,IZAZI,51217,MAKUKA,MAJENGO
IRINGA,51,IRINGA,512,IZAZI,51217,MAKUKA,MAKUKA-A
IRINGA,51,IRINGA,512,IZAZI,51217,MAKUKA,NYAMAHATO
IRINGA,51,IRINGA,512,IZAZI,51217,MAKUKA,MONDOMELA
IRINGA,51,IRINGA,512,IZAZI,51217,MAKUKA,MAKUKA B
IRINGA,51,IRINGA,512,IZAZI,51217,MAKUKA,MAGOMBWE
IRINGA,51,IRINGA,512,IZAZI,51217,MAKUKA,ITEMAGWE
IRINGA,51,IRINGA,512,IZAZI,51217,IZAZI,KIWANJANI
IRINGA,51,IRINGA,512,IZAZI,51217,IZAZI,SOKONI
IRINGA,51,IRINGA,512,IZAZI,51217,IZAZI,CHEKECHEA
IRINGA,51,IRINGA,512,IZAZI,51217,IZAZI,IZAZI MADUKANI
IRINGA,51,IRINGA,512,IZAZI,51217,IZAZI,BARABARANI
IRINGA,51,IRINGA,512,IZAZI,51217,IZAZI,IHANYI
IRINGA,51,IRINGA,512,IZAZI,51217,MNADANI,MJIMWEMA
IRINGA,51,IRINGA,512,IZAZI,51217,MNADANI,MABATI
IRINGA,51,IRINGA,512,IZAZI,51217,MNADANI,MAGUNGU
IRINGA,51,IRINGA,512,IZAZI,51217,MNADANI,MNADANI
IRINGA,51,IRINGA,512,IZAZI,51217,MNADANI,KILAMBA KITALI
IRINGA,51,IRINGA,512,MALENGAMAKALI,51218,NYAKAVANGALA,NYAKAVANGALA A
IRINGA,51,IRINGA,512,MALENGAMAKALI,51218,NYAKAVANGALA,NYAKAVANGALA B
IRINGA,51,IRINGA,512,MALENGAMAKALI,51218,NYAKAVANGALA,NGEGA
IRINGA,51,IRINGA,512,MALENGAMAKALI,51218,NYAKAVANGALA,NYAKAVANGALA C
IRINGA,51,IRINGA,512,MALENGAMAKALI,51218,ISAKA,ISAKA A
IRINGA,51,IRINGA,512,MALENGAMAKALI,51218,ISAKA,ISAKA B
IRINGA,51,IRINGA,512,MALENGAMAKALI,51218,ISAKA,IDARI
IRINGA,51,IRINGA,512,MALENGAMAKALI,51218,ISAKA,MAKEGEKE
IRINGA,51,IRINGA,512,MALENGAMAKALI,51218,MAKADUPA,AMANI
IRINGA,51,IRINGA,512,MALENGAMAKALI,51218,MAKADUPA,SOKOINE
IRINGA,51,IRINGA,512,MALENGAMAKALI,51218,MAKADUPA,MAKADUPA KATI
IRINGA,51,IRINGA,512,MALENGAMAKALI,51218,IGULUBA,IGULUBA KATI
IRINGA,51,IRINGA,512,MALENGAMAKALI,51218,IGULUBA,BOMALANG’OMBE
IRINGA,51,IRINGA,512,MALENGAMAKALI,51218,IGULUBA,MSUMBIJI
IRINGA,51,IRINGA,512,MALENGAMAKALI,51218,MKULULA,MBUYUNI
IRINGA,51,IRINGA,512,MALENGAMAKALI,51218,MKULULA,MAPALAGAGA
IRINGA,51,IRINGA,512,MALENGAMAKALI,51218,MKULULA,STENDI A
IRINGA,51,IRINGA,512,MALENGAMAKALI,51218,MKULULA,STENDI B
IRINGA,51,IRINGA,512,MALENGAMAKALI,51218,MKULULA,LUGANGA A
IRINGA,51,IRINGA,512,MALENGAMAKALI,51218,MKULULA,LUNGANGA B
IRINGA,51,IRINGA,512,MALENGAMAKALI,51218,MKULULA,KIKUYU
IRINGA,51,IRINGA,512,MALENGAMAKALI,51218,MKULULA,LUHOMELO
IRINGA,51,IRINGA,512,MALENGAMAKALI,51218,USOLANGA,KAWEMBA
IRINGA,51,IRINGA,512,MALENGAMAKALI,51218,USOLANGA,USOLANGA KATI
IRINGA,51,IRINGA,512,MALENGAMAKALI,51218,USOLANGA,IHUMBILIZA A
IRINGA,51,IRINGA,512,MALENGAMAKALI,51218,USOLANGA,IHUMBILIZA B
IRINGA,51,IRINGA,512,MALENGAMAKALI,51218,USOLANGA,IHUMBILIZA C
IRINGA,51,IRINGA,512,IDODI,51219,IDODI,MJIMWEMA “A”
IRINGA,51,IRINGA,512,IDODI,51219,IDODI,MJIMWEMA  “B”
IRINGA,51,IRINGA,512,IDODI,51219,IDODI,MBUYUNI “A”
IRINGA,51,IRINGA,512,IDODI,51219,IDODI,MBUYUNI “B”
IRINGA,51,IRINGA,512,IDODI,51219,IDODI,MSIMBI
IRINGA,51,IRINGA,512,IDODI,51219,IDODI,ILAMBA
IRINGA,51,IRINGA,512,IDODI,51219,MAPOGORO,LUNGEMBA
IRINGA,51,IRINGA,512,IDODI,51219,MAPOGORO,KITANEWA
IRINGA,51,IRINGA,512,IDODI,51219,MAPOGORO,MAPOGORO
IRINGA,51,IRINGA,512,IDODI,51219,MAPOGORO,KISIWANI
IRINGA,51,IRINGA,512,IDODI,51219,MAPOGORO,IDINDIGA
IRINGA,51,IRINGA,512,IDODI,51219,MAPOGORO,KIBAONI
IRINGA,51,IRINGA,512,IDODI,51219,KITISI,NYAMNANGO
IRINGA,51,IRINGA,512,IDODI,51219,KITISI,KITISI
IRINGA,51,IRINGA,512,IDODI,51219,TUNGAMALENGA,MBUYUNI
IRINGA,51,IRINGA,512,IDODI,51219,TUNGAMALENGA,OFISINI
IRINGA,51,IRINGA,512,IDODI,51219,TUNGAMALENGA,ZAHANATI
IRINGA,51,IRINGA,512,IDODI,51219,TUNGAMALENGA,DARAJANI
IRINGA,51,IRINGA,512,IDODI,51219,TUNGAMALENGA,KINYALI
IRINGA,51,IRINGA,512,IDODI,51219,TUNGAMALENGA,MLIMANI
IRINGA,51,IRINGA,512,IDODI,51219,TUNGAMALENGA,MALUNDE
IRINGA,51,IRINGA,512,IDODI,51219,TUNGAMALENGA,MSEMBE
IRINGA,51,IRINGA,512,NYANG'ORO,51220,NYANG’ORO,MANGAWE
IRINGA,51,IRINGA,512,NYANG'ORO,51220,NYANG’ORO,MACHINJONI
IRINGA,51,IRINGA,512,NYANG'ORO,51220,NYANG’ORO,NDEVELWA
IRINGA,51,IRINGA,512,NYANG'ORO,51220,NYANG’ORO,KIYA
IRINGA,51,IRINGA,512,NYANG'ORO,51220,NYANG’ORO,LUHEKO
IRINGA,51,IRINGA,512,NYANG'ORO,51220,NYANG’ORO,NG’OWO
IRINGA,51,IRINGA,512,NYANG'ORO,51220,NYANG’ORO,KIBAONI A
IRINGA,51,IRINGA,512,NYANG'ORO,51220,NYANG’ORO,KIBALALI
IRINGA,51,IRINGA,512,NYANG'ORO,51220,CHAMNDINDI,MYOWELA
IRINGA,51,IRINGA,512,NYANG'ORO,51220,CHAMNDINDI,MIEGAMANO
IRINGA,51,IRINGA,512,NYANG'ORO,51220,CHAMNDINDI,CHAMUNDINDI KATI
IRINGA,51,IRINGA,512,NYANG'ORO,51220,CHAMNDINDI,NYAKANSILO
IRINGA,51,IRINGA,512,NYANG'ORO,51220,CHAMNDINDI,KIBAONI
IRINGA,51,IRINGA,512,NYANG'ORO,51220,CHAMNDINDI,IKWEGA
IRINGA,51,IRINGA,512,NYANG'ORO,51220,CHAMNDINDI,KIPANGA
IRINGA,51,IRINGA,512,NYANG'ORO,51220,HOLO,STENDI
IRINGA,51,IRINGA,512,NYANG'ORO,51220,HOLO,MKALASI
IRINGA,51,IRINGA,512,NYANG'ORO,51220,HOLO,MKAKALANZI
IRINGA,51,IRINGA,512,NYANG'ORO,51220,HOLO,LUGALO
IRINGA,51,IRINGA,512,NYANG'ORO,51220,MAWINDI,KIONA
IRINGA,51,IRINGA,512,NYANG'ORO,51220,MAWINDI,MAJENGO
IRINGA,51,IRINGA,512,NYANG'ORO,51220,MAWINDI,MANYAMBUMA
IRINGA,51,IRINGA,512,NYANG'ORO,51220,MAWINDI,MJIMWEMA
IRINGA,51,IRINGA,512,NYANG'ORO,51220,MAWINDI,MAWINDI
IRINGA,51,IRINGA,512,NYANG'ORO,51220,IKENGEZA,MSEKE A
IRINGA,51,IRINGA,512,NYANG'ORO,51220,IKENGEZA,MSEKE B
IRINGA,51,IRINGA,512,NYANG'ORO,51220,IKENGEZA,MYOMBONI A
IRINGA,51,IRINGA,512,NYANG'ORO,51220,IKENGEZA,MIYOMBONI B
IRINGA,51,IRINGA,512,NYANG'ORO,51220,IKENGEZA,MANYANAMBO B
IRINGA,51,IRINGA,512,NYANG'ORO,51220,IKENGEZA,MANYANAMBO A
IRINGA,51,IRINGA,512,NYANG'ORO,51220,IKENGEZA,MYOWELA
IRINGA,51,IRINGA,512,NYANG'ORO,51220,IKENGEZA,MGIHA
IRINGA,51,IRINGA,512,NYANG'ORO,51220,MANGAWE,KIHESA
IRINGA,51,IRINGA,512,NYANG'ORO,51220,MANGAWE,CHENGELELA
IRINGA,51,IRINGA,512,NYANG'ORO,51220,MANGAWE,STENDI
IRINGA,51,IRINGA,512,NYANG'ORO,51220,MANGAWE,MJIMWEMA
IRINGA,51,IRINGA,512,MIGOLI,51221,MIGOLI,NYERERE
IRINGA,51,IRINGA,512,MIGOLI,51221,MIGOLI,MIGOLI
IRINGA,51,IRINGA,512,MIGOLI,51221,MIGOLI,MBUYUNI
IRINGA,51,IRINGA,512,MIGOLI,51221,MIGOLI,NYEGELE
IRINGA,51,IRINGA,512,MIGOLI,51221,MTERA,MTERA
IRINGA,51,IRINGA,512,MIGOLI,51221,MTERA,MAKONGE
IRINGA,51,IRINGA,512,MIGOLI,51221,MTERA,MAJENGO
IRINGA,51,IRINGA,512,MIGOLI,51221,MTERA,MTAA WA KATI
IRINGA,51,IRINGA,512,MIGOLI,51221,MTERA,KENYA
IRINGA,51,IRINGA,512,MIGOLI,51221,MTERA,MWANYENGO
IRINGA,51,IRINGA,512,MIGOLI,51221,MAKATAPOLA,MAKATAPOLA A
IRINGA,51,IRINGA,512,MIGOLI,51221,MAKATAPOLA,MAKATAPOLA B
IRINGA,51,IRINGA,512,MIGOLI,51221,MAKATAPOLA,CHAPUYA
IRINGA,51,IRINGA,512,MIGOLI,51221,MAKATAPOLA,MTUNDWA
IRINGA,51,IRINGA,512,MIGOLI,51221,MAKATAPOLA,BOMALANG’OMBE
IRINGA,51,IRINGA,512,MIGOLI,51221,MBWELELI,QUBA
IRINGA,51,IRINGA,512,MIGOLI,51221,MBWELELI,SINZA
IRINGA,51,IRINGA,512,MIGOLI,51221,MBWELELI,CHEKECHEA
IRINGA,51,IRINGA,512,MIGOLI,51221,MBWELELI,MBWELELI
IRINGA,51,IRINGA,512,MIGOLI,51221,MBWELELI,CHAMAZALA
IRINGA,51,IRINGA,512,MIGOLI,51221,KINYALI,KINYALI A
IRINGA,51,IRINGA,512,MIGOLI,51221,KINYALI,KINYALI B
IRINGA,51,IRINGA,512,MIGOLI,51221,KINYALI,LADWA
IRINGA,51,IRINGA,512,MIGOLI,51221,KINYALI,SWECO
IRINGA,51,IRINGA,512,MIGOLI,51221,KINYALI,MKOMBOZI
IRINGA,51,IRINGA,512,MIGOLI,51221,MAPERAMENGI,KICHANGANI
IRINGA,51,IRINGA,512,MIGOLI,51221,MAPERAMENGI,MLAZO
IRINGA,51,IRINGA,512,MIGOLI,51221,MAPERAMENGI,BANDALI
IRINGA,51,IRINGA,512,MIGOLI,51221,MAPERAMENGI,MAJENGO
IRINGA,51,IRINGA,512,KISING'A,51222,ILAMBILOLE,ILAMBILOLE A
IRINGA,51,IRINGA,512,KISING'A,51222,ILAMBILOLE,ILAMBILOLE B
IRINGA,51,IRINGA,512,KISING'A,51222,ILAMBILOLE,KIHESA
IRINGA,51,IRINGA,512,KISING'A,51222,ILAMBILOLE,MNADANI
IRINGA,51,IRINGA,512,KISING'A,51222,ILAMBILOLE,MBUYUNI
IRINGA,51,IRINGA,512,KISING'A,51222,ILAMBILOLE,NAZARETI
IRINGA,51,IRINGA,512,KISING'A,51222,ILAMBILOLE,MJI MWEMA
IRINGA,51,IRINGA,512,KISING'A,51222,ILAMBILOLE,CHALINZE
IRINGA,51,IRINGA,512,KISING'A,51222,MATEMBO,MTAKUJA
IRINGA,51,IRINGA,512,KISING'A,51222,MATEMBO,JANGWANI
IRINGA,51,IRINGA,512,KISING'A,51222,MATEMBO,SOWETO
IRINGA,51,IRINGA,512,KISING'A,51222,MKUNGUGU,GODOWN
IRINGA,51,IRINGA,512,KISING'A,51222,MKUNGUGU,NYAMAHANA
IRINGA,51,IRINGA,512,KISING'A,51222,MKUNGUGU,MADIZINI
IRINGA,51,IRINGA,512,KISING'A,51222,MKUNGUGU,KIGAS A
IRINGA,51,IRINGA,512,KISING'A,51222,MKUNGUGU,KIGAS B
IRINGA,51,IRINGA,512,KISING'A,51222,MKUNGUGU,KIGAS C
IRINGA,51,IRINGA,512,KISING'A,51222,KINYWANG’ANGA,MHEZA
IRINGA,51,IRINGA,512,KISING'A,51222,KINYWANG’ANGA,MJIMWEMA
IRINGA,51,IRINGA,512,KISING'A,51222,KINYWANG’ANGA,SONGAMBELE
IRINGA,51,IRINGA,512,KISING'A,51222,KINYWANG’ANGA,TULIAN
IRINGA,51,IRINGA,512,KISING'A,51222,IGINGILANYI,PARADISE
IRINGA,51,IRINGA,512,KISING'A,51222,IGINGILANYI,MNANG’ANA
IRINGA,51,IRINGA,512,KISING'A,51222,IGINGILANYI,TEMEKE
IRINGA,51,IRINGA,512,KISING'A,51222,IGINGILANYI,KILIMANI
IRINGA,51,IRINGA,512,KISING'A,51222,IGINGILANYI,UBENA
IRINGA,51,IRINGA,512,KISING'A,51222,IGINGILANYI,NGONGWA
IRINGA,51,IRINGA,512,KISING'A,51222,KISING’A ISMANI,CHAPAKAZI
IRINGA,51,IRINGA,512,KISING'A,51222,KISING’A ISMANI,WINOME
IRINGA,51,IRINGA,512,KISING'A,51222,KISING’A ISMANI,MOTOMOTO
IRINGA,51,IRINGA,512,KISING'A,51222,KISING’A ISMANI,MKALAMA
IRINGA,51,IRINGA,512,KISING'A,51222,KISING’A ISMANI,MAPINDUZI
IRINGA,51,IRINGA,512,KISING'A,51222,KISING’A ISMANI,MAPAMBANO
IRINGA,51,IRINGA,512,KISING'A,51222,KISING’A ISMANI,SONGAMBELE
IRINGA,51,IRINGA,512,MLENGE,51223,KISANGA,MAWINDI
IRINGA,51,IRINGA,512,MLENGE,51223,KISANGA,KILANGILILO
IRINGA,51,IRINGA,512,MLENGE,51223,KISANGA,LYANIKA
IRINGA,51,IRINGA,512,MLENGE,51223,KISANGA,LAMBALYELU
IRINGA,51,IRINGA,512,MLENGE,51223,KISANGA,KISANGA
IRINGA,51,IRINGA,512,MLENGE,51223,KISANGA,MAGWAGU
IRINGA,51,IRINGA,512,MLENGE,51223,KISANGA,KILALA
IRINGA,51,IRINGA,512,MLENGE,51223,MAGOMBWE,KIGANI
IRINGA,51,IRINGA,512,MLENGE,51223,MAGOMBWE,MLENGE A
IRINGA,51,IRINGA,512,MLENGE,51223,MAGOMBWE,MLENGE B
IRINGA,51,IRINGA,512,MLENGE,51223,MAGOMBWE,MAGOMBWE
IRINGA,51,IRINGA,512,MLENGE,51223,MAGOMBWE,MBUGANI
IRINGA,51,IRINGA,512,MLENGE,51223,KINYIKA,MKWAJUNI
IRINGA,51,IRINGA,512,MLENGE,51223,KINYIKA,KINYIKA
IRINGA,51,IRINGA,512,MLENGE,51223,KINYIKA,MBUYUNI
IRINGA,51,IRINGA,512,MLENGE,51223,KINYIKA,MAJENGO
IRINGA,51,IRINGA,512,MLENGE,51223,KINYIKA,LUAHA
IRINGA,51,IRINGA,512,MLENGE,51223,ISELE PAWAGA,ISELE
IRINGA,51,IRINGA,512,MLENGE,51223,ISELE PAWAGA,KIKURUHE
IRINGA,51,IRINGA,512,MLENGE,51223,ISELE PAWAGA,CHALIGANZA
IRINGA,51,IRINGA,512,MLENGE,51223,ISELE PAWAGA,KISOLOLOKA
IRINGA,51,IRINGA,512,MLENGE,51223,ISELE PAWAGA,MBIGAMA
IRINGA,51,IRINGA,512,LYAMGUNGWE,51224,LUPEMBELWASENGA,RUAHA
IRINGA,51,IRINGA,512,LYAMGUNGWE,51224,LUPEMBELWASENGA,IFIYAVANU A
IRINGA,51,IRINGA,512,LYAMGUNGWE,51224,LUPEMBELWASENGA,IFIYAVANU B
IRINGA,51,IRINGA,512,LYAMGUNGWE,51224,LUPEMBELWASENGA,MHEGELE
IRINGA,51,IRINGA,512,LYAMGUNGWE,51224,LUPEMBELWASENGA,IGONITAMWA
IRINGA,51,IRINGA,512,LYAMGUNGWE,51224,LUPEMBELWASENGA,IMALINYI
IRINGA,51,IRINGA,512,LYAMGUNGWE,51224,KIKOMBWE,NYANYAMBA
IRINGA,51,IRINGA,512,LYAMGUNGWE,51224,KIKOMBWE,IWAWA
IRINGA,51,IRINGA,512,LYAMGUNGWE,51224,KIKOMBWE,ISOLIWAYA
IRINGA,51,IRINGA,512,LYAMGUNGWE,51224,KIKOMBWE,KIKOMBWE
IRINGA,51,IRINGA,512,LYAMGUNGWE,51224,KIKOMBWE,IGUMLA
IRINGA,51,IRINGA,512,LYAMGUNGWE,51224,KIKOMBWE,MKWEE
IRINGA,51,IRINGA,512,LYAMGUNGWE,51224,IGUNDA,LUKINGI
IRINGA,51,IRINGA,512,LYAMGUNGWE,51224,IGUNDA,MLOLO
IRINGA,51,IRINGA,512,LYAMGUNGWE,51224,IGUNDA,LUMUMA
IRINGA,51,IRINGA,512,LYAMGUNGWE,51224,IGUNDA,ILAMBA
IRINGA,51,IRINGA,512,LYAMGUNGWE,51224,MALAGOSI,MSOMBE
IRINGA,51,IRINGA,512,LYAMGUNGWE,51224,MALAGOSI,MALAGOSI OFISINI
IRINGA,51,IRINGA,512,LYAMGUNGWE,51224,MALAGOSI,WOTALISOLI
IRINGA,51,IRINGA,512,LYAMGUNGWE,51224,MALAGOSI,KIHAWA
IRINGA,51,IRINGA,512,LYAMGUNGWE,51224,MALAGOSI,ITOVIKAMI
IRINGA,51,IRINGA,512,LYAMGUNGWE,51224,MALAGOSI,NZIVILA
IRINGA,51,IRINGA,512,LYAMGUNGWE,51224,MALAGOSI,IGANGASENGA
IRINGA,51,IRINGA,512,LYAMGUNGWE,51224,MALAGOSI,IBUMILA
IRINGA,51,IRINGA,512,LYAMGUNGWE,51224,MALAGOSI,MAUMBAMATALI
IRINGA,51,IRINGA,512,LYAMGUNGWE,51224,MALAGOSI,NGONGWA
IRINGA,51,IRINGA,512,LYAMGUNGWE,51224,LYAMGUNGWE,MTANANGWE
IRINGA,51,IRINGA,512,LYAMGUNGWE,51224,LYAMGUNGWE,ULONGAMBI A
IRINGA,51,IRINGA,512,LYAMGUNGWE,51224,LYAMGUNGWE,ULONGAMBI B
IRINGA,51,IRINGA,512,LYAMGUNGWE,51224,LYAMGUNGWE,ULONGE A
IRINGA,51,IRINGA,512,LYAMGUNGWE,51224,LYAMGUNGWE,ULONGE B
IRINGA,51,IRINGA,512,LYAMGUNGWE,51224,LYAMGUNGWE,IGOGI
IRINGA,51,IRINGA,512,LYAMGUNGWE,51224,LYAMGUNGWE,NYABULA
IRINGA,51,IRINGA,512,LYAMGUNGWE,51224,LYAMGUNGWE,MITA
IRINGA,51,IRINGA,512,LYAMGUNGWE,51224,LYAMGUNGWE,KIHANGA
IRINGA,51,IRINGA,512,LYAMGUNGWE,51224,LYAMGUNGWE,KIMWAGA
IRINGA,51,IRINGA,512,LUHOTA,51225,TAGAMENDA,LUFITA
IRINGA,51,IRINGA,512,LUHOTA,51225,TAGAMENDA,KIFUFU
IRINGA,51,IRINGA,512,LUHOTA,51225,TAGAMENDA,KISWELE
IRINGA,51,IRINGA,512,LUHOTA,51225,TAGAMENDA,MIYOMBWE
IRINGA,51,IRINGA,512,LUHOTA,51225,TAGAMENDA,MALULUMO
IRINGA,51,IRINGA,512,LUHOTA,51225,TAGAMENDA,IKALAGASI
IRINGA,51,IRINGA,512,LUHOTA,51225,TAGAMENDA,KITAYAWA
IRINGA,51,IRINGA,512,LUHOTA,51225,KILAMBO,MSEKE A
IRINGA,51,IRINGA,512,LUHOTA,51225,KILAMBO,UNYANYE
IRINGA,51,IRINGA,512,LUHOTA,51225,KILAMBO,LUSAULA
IRINGA,51,IRINGA,512,LUHOTA,51225,KILAMBO,IDOTWEE
IRINGA,51,IRINGA,512,LUHOTA,51225,KILAMBO,IGULA A
IRINGA,51,IRINGA,512,LUHOTA,51225,KILAMBO,MSEKE B
IRINGA,51,IRINGA,512,LUHOTA,51225,KILAMBO,MADUKANI
IRINGA,51,IRINGA,512,LUHOTA,51225,KILAMBO,IGULA B
IRINGA,51,IRINGA,512,LUHOTA,51225,KILAMBO,SEKUSE
IRINGA,51,IRINGA,512,LUHOTA,51225,KILAMBO,MBOTE
IRINGA,51,IRINGA,512,LUHOTA,51225,NYABULA,NYABULA KATI
IRINGA,51,IRINGA,512,LUHOTA,51225,NYABULA,ILUTILA
IRINGA,51,IRINGA,512,LUHOTA,51225,NYABULA,KIHONDO
IRINGA,51,IRINGA,512,LUHOTA,51225,NYABULA,LUHANGA
IRINGA,51,IRINGA,512,LUHOTA,51225,NYABULA,CHUMBU
IRINGA,51,IRINGA,512,LUHOTA,51225,NYABULA,ULANDE
IRINGA,51,IRINGA,512,LUHOTA,51225,NYABULA,MTOWO
IRINGA,51,IRINGA,512,LUHOTA,51225,NYABULA,MALENDI
IRINGA,51,IRINGA,512,LUHOTA,51225,NYABULA,UDINDA
IRINGA,51,IRINGA,512,LUHOTA,51225,NYABULA,UKANG'A
IRINGA,51,IRINGA,512,LUHOTA,51225,IKUVILO,IKUVILO KATI
IRINGA,51,IRINGA,512,LUHOTA,51225,IKUVILO,MHEPASI
IRINGA,51,IRINGA,512,LUHOTA,51225,IKUVILO,NGELEWALA
IRINGA,51,IRINGA,512,LUHOTA,51225,IKUVILO,KIDODI
IRINGA,51,IRINGA,512,LUHOTA,51225,IKUVILO,LWATO
IRINGA,51,IRINGA,512,LUHOTA,51225,IKUVILO,MDUKWE
IRINGA,51,IRINGA,512,LUHOTA,51225,IKUVILO,LUGALA
IRINGA,51,IRINGA,512,LUHOTA,51225,IKUVILO,MAKONGOMA
IRINGA,51,IRINGA,512,LUHOTA,51225,IKUVILO,IMALINYI
IRINGA,51,IRINGA,512,LUHOTA,51225,WANGAMA,ITEMAGWE
IRINGA,51,IRINGA,512,LUHOTA,51225,WANGAMA,INYORORO
IRINGA,51,IRINGA,512,LUHOTA,51225,WANGAMA,IDOBOGO
IRINGA,51,IRINGA,512,LUHOTA,51225,WANGAMA,KILENGELENGE
IRINGA,51,IRINGA,512,LUHOTA,51225,WANGAMA,IGANGA
IRINGA,51,IRINGA,512,LUHOTA,51225,WANGAMA,ITWAGA
IRINGA,51,IRINGA,512,KIHANGA,51226,MAKOMBE,IHANZU A
IRINGA,51,IRINGA,512,KIHANGA,51226,MAKOMBE,IHANZU B
IRINGA,51,IRINGA,512,KIHANGA,51226,MAKOMBE,SHULENI
IRINGA,51,IRINGA,512,KIHANGA,51226,MAKOMBE,MAKONGOMI
IRINGA,51,IRINGA,512,KIHANGA,51226,MAKOMBE,UKEREMI
IRINGA,51,IRINGA,512,KIHANGA,51226,MAKOMBE,KIHANGA
IRINGA,51,IRINGA,512,KIHANGA,51226,KIHANGA,ISOLIGONA
IRINGA,51,IRINGA,512,KIHANGA,51226,KIHANGA,MKAMILA
IRINGA,51,IRINGA,512,KIHANGA,51226,KIHANGA,MPWAPWA
IRINGA,51,IRINGA,512,KIHANGA,51226,KIHANGA,ITOVAKAMI
IRINGA,51,IRINGA,512,KIHANGA,51226,KIHANGA,MUUNGANO
IRINGA,51,IRINGA,512,KIHANGA,51226,KIDILO,KINYANG’AMA A
IRINGA,51,IRINGA,512,KIHANGA,51226,KIDILO,KINYANG’AMA B
IRINGA,51,IRINGA,512,KIHANGA,51226,KIDILO,KIDILO
IRINGA,51,IRINGA,512,KIHANGA,51226,KIDILO,NZAGANZA A
IRINGA,51,IRINGA,512,KIHANGA,51226,KIDILO,NZAGANZA B
IRINGA,51,IRINGA,512,KIHANGA,51226,IGANGIDUNG'U,MANG'ULA A
IRINGA,51,IRINGA,512,KIHANGA,51226,IGANGIDUNG'U,MANG'ULA B
IRINGA,51,IRINGA,512,KIHANGA,51226,IGANGIDUNG'U,LUTEMI JUU
IRINGA,51,IRINGA,512,KIHANGA,51226,IGANGIDUNG'U,ISAKA A
IRINGA,51,IRINGA,512,KIHANGA,51226,IGANGIDUNG'U,MLIMBA
IRINGA,51,IRINGA,512,KIHANGA,51226,IGANGIDUNG'U,SHULENI
IRINGA,51,IRINGA,512,KIHANGA,51226,CHAMGOGO,CHANAGOLO SHULENI
IRINGA,51,IRINGA,512,KIHANGA,51226,CHAMGOGO,ISAKA B
IRINGA,51,IRINGA,512,KIHANGA,51226,CHAMGOGO,CHAMGOGO
IRINGA,51,IRINGA,512,KIHANGA,51226,CHAMGOGO,IRAMBA
IRINGA,51,IRINGA,512,KIHANGA,51226,CHAMGOGO,NYORORO
IRINGA,51,IRINGA,512,MASAKA,51227,KANING'OMBE,KASANGA
IRINGA,51,IRINGA,512,MASAKA,51227,KANING'OMBE,MADUMA
IRINGA,51,IRINGA,512,MASAKA,51227,KANING'OMBE,KITIPWI
IRINGA,51,IRINGA,512,MASAKA,51227,KANING'OMBE,MYOMBWE
IRINGA,51,IRINGA,512,MASAKA,51227,KANING'OMBE,KIDEGEMSITU
IRINGA,51,IRINGA,512,MASAKA,51227,KANING'OMBE,SEKUSE
IRINGA,51,IRINGA,512,MASAKA,51227,KANING'OMBE,MDUMA
IRINGA,51,IRINGA,512,MASAKA,51227,SADANI,SADANI 'A'
IRINGA,51,IRINGA,512,MASAKA,51227,SADANI,SADANI 'B'
IRINGA,51,IRINGA,512,MASAKA,51227,SADANI,MKAMILA
IRINGA,51,IRINGA,512,MASAKA,51227,SADANI,ITUBUGU
IRINGA,51,IRINGA,512,MASAKA,51227,SADANI,ISELE
IRINGA,51,IRINGA,512,MASAKA,51227,MAKOTA,LIHUU
IRINGA,51,IRINGA,512,MASAKA,51227,MAKOTA,MANGULA 'A
IRINGA,51,IRINGA,512,MASAKA,51227,MAKOTA,MANGULA 'B'
IRINGA,51,IRINGA,512,MASAKA,51227,MAKOTA,ITIKANGOMBWE
IRINGA,51,IRINGA,512,MASAKA,51227,MAKOTA,MPWAPWA
IRINGA,51,IRINGA,512,MBOLIBOLI,51228,MBOLIBOLI,MBOLIBOLI
IRINGA,51,IRINGA,512,MBOLIBOLI,51228,MBOLIBOLI,MJIMWEMA
IRINGA,51,IRINGA,512,MBOLIBOLI,51228,MBOLIBOLI,LEGEZA MWENDO
IRINGA,51,IRINGA,512,MBOLIBOLI,51228,MBUGANI,MBUGANI
IRINGA,51,IRINGA,512,MBOLIBOLI,51228,MBUGANI,UWANJA WA NDEGE 'A'
IRINGA,51,IRINGA,512,MBOLIBOLI,51228,MBUGANI,UWANJA WA NDEGE 'B'
IRINGA,51,IRINGA,512,MBOLIBOLI,51228,MKUMBWANYI,MKUMBWANYI
IRINGA,51,IRINGA,512,MBOLIBOLI,51228,MKUMBWANYI,MKWAJUNI
IRINGA,51,IRINGA,512,MBOLIBOLI,51228,MKUMBWANYI,MIDIZINI
IRINGA,51,KILOLO,513,IROLE,51301,IROLE,VILALO
IRINGA,51,KILOLO,513,IROLE,51301,IROLE,MWAYA
IRINGA,51,KILOLO,513,IROLE,51301,IROLE,VIGULU
IRINGA,51,KILOLO,513,IROLE,51301,IROLE,IRANGI
IRINGA,51,KILOLO,513,IROLE,51301,IROLE,IGOMINYI
IRINGA,51,KILOLO,513,IROLE,51301,LUNDAMATWE,VIWENGI
IRINGA,51,KILOLO,513,IROLE,51301,LUNDAMATWE,IHOKELO
IRINGA,51,KILOLO,513,IROLE,51301,LUNDAMATWE,MJIMWEMA
IRINGA,51,KILOLO,513,IROLE,51301,LUNDAMATWE,KIGUNGAWE
IRINGA,51,KILOLO,513,IROLE,51301,LUNDAMATWE,LUNDAMATWE ''A''
IRINGA,51,KILOLO,513,IROLE,51301,LUNDAMATWE,LUNDAMATWE ''B''
IRINGA,51,KILOLO,513,IROLE,51301,LUNDAMATWE,MATUNGURU
IRINGA,51,KILOLO,513,IROLE,51301,LUNDAMATWE,LUSAULA
IRINGA,51,KILOLO,513,IROLE,51301,LUNDAMATWE,RUAHA
IRINGA,51,KILOLO,513,IROLE,51301,LUNDAMATWE,KIBATI
IRINGA,51,KILOLO,513,IROLE,51301,KITUMBUKA,KICHANGANI
IRINGA,51,KILOLO,513,IROLE,51301,KITUMBUKA,MADUKANI
IRINGA,51,KILOLO,513,IROLE,51301,KITUMBUKA,MIFUGO
IRINGA,51,KILOLO,513,IROLE,51301,KITUMBUKA,MBUYUNI
IRINGA,51,KILOLO,513,IROLE,51301,MAWALA,"MAWALA ""A"""
IRINGA,51,KILOLO,513,IROLE,51301,MAWALA,"MAWALA ""B"""
IRINGA,51,KILOLO,513,IROLE,51301,KITELEWASI,"KITELEWASI ""A"""
IRINGA,51,KILOLO,513,IROLE,51301,KITELEWASI,"KITELEWASI ""B"""
IRINGA,51,KILOLO,513,IROLE,51301,KITELEWASI,IPOGO
IRINGA,51,KILOLO,513,IROLE,51301,KITELEWASI,NG'ENZI
IRINGA,51,KILOLO,513,IROLE,51301,KITELEWASI,MLOLO
IRINGA,51,KILOLO,513,IROLE,51301,IBOFWE,MBIKI MKIVA
IRINGA,51,KILOLO,513,IROLE,51301,IBOFWE,LUTWINA
IRINGA,51,KILOLO,513,IROLE,51301,IBOFWE,IBOFWE
IRINGA,51,KILOLO,513,IROLE,51301,IBOFWE,LUKINGINO
IRINGA,51,KILOLO,513,IROLE,51301,IBOFWE,ILANGAMOTO
IRINGA,51,KILOLO,513,ILULA,51302,IBOFWE,ILULA-ITUNDA
IRINGA,51,KILOLO,513,ILULA,51302,IBOFWE,MASUKANZI
IRINGA,51,KILOLO,513,ILULA,51302,IBOFWE,IGUNGA
IRINGA,51,KILOLO,513,ILULA,51302,IBOFWE,IKOKOTO
IRINGA,51,KILOLO,513,ILULA,51302,IBOFWE,MADIZINI
IRINGA,51,KILOLO,513,UHAMBINGETO,51303,IKUKA,UHAMBULE
IRINGA,51,KILOLO,513,UHAMBINGETO,51303,IKUKA,IKUKA
IRINGA,51,KILOLO,513,UHAMBINGETO,51303,IKUKA,KITUVE
IRINGA,51,KILOLO,513,UHAMBINGETO,51303,IKUKA,MADUKANI
IRINGA,51,KILOLO,513,UHAMBINGETO,51303,IKUKA,VILAMBA
IRINGA,51,KILOLO,513,UHAMBINGETO,51303,VITONO,VITONO KATI
IRINGA,51,KILOLO,513,UHAMBINGETO,51303,VITONO,DUNGUYA
IRINGA,51,KILOLO,513,UHAMBINGETO,51303,VITONO,KIFUMBI
IRINGA,51,KILOLO,513,UHAMBINGETO,51303,VITONO,IDUVANDEMBWE
IRINGA,51,KILOLO,513,UHAMBINGETO,51303,UHAMBINGETO,MUWIMBI
IRINGA,51,KILOLO,513,UHAMBINGETO,51303,UHAMBINGETO,BOMALANG'OMBE
IRINGA,51,KILOLO,513,UHAMBINGETO,51303,UHAMBINGETO,GODAUNI
IRINGA,51,KILOLO,513,UHAMBINGETO,51303,UHAMBINGETO,MAKANYAGIO
IRINGA,51,KILOLO,513,UHAMBINGETO,51303,KIPADUKA,KIPADUKA
IRINGA,51,KILOLO,513,UHAMBINGETO,51303,KIPADUKA,KIHESA
IRINGA,51,KILOLO,513,UHAMBINGETO,51303,NG'OSI,NG'OSI
IRINGA,51,KILOLO,513,UHAMBINGETO,51303,NG'OSI,KIWISA
IRINGA,51,KILOLO,513,UHAMBINGETO,51303,NG'OSI,NYAMUSOWA
IRINGA,51,KILOLO,513,UHAMBINGETO,51303,IWUNGI,IWUNGI
IRINGA,51,KILOLO,513,UHAMBINGETO,51303,IWUNGI,IKUKA ''B''
IRINGA,51,KILOLO,513,UHAMBINGETO,51303,IWUNGI,MNUSI
IRINGA,51,KILOLO,513,UHAMBINGETO,51303,IWUNGI,MATAMBO
IRINGA,51,KILOLO,513,UHAMBINGETO,51303,IWUNGI,KIBAMBA
IRINGA,51,KILOLO,513,MTITU,51304,MTITU,NGUGI
IRINGA,51,KILOLO,513,MTITU,51304,MTITU,MADUKANI
IRINGA,51,KILOLO,513,MTITU,51304,MTITU,MAGHARIBI
IRINGA,51,KILOLO,513,MTITU,51304,MTITU,MASUMBO
IRINGA,51,KILOLO,513,MTITU,51304,MTITU,MANIMBI
IRINGA,51,KILOLO,513,MTITU,51304,MTITU,MASHARIKI
IRINGA,51,KILOLO,513,MTITU,51304,MTITU,UHANYANA
IRINGA,51,KILOLO,513,MTITU,51304,LUGANGA,"LUGANGA ""A"""
IRINGA,51,KILOLO,513,MTITU,51304,LUGANGA,"LUGANGA ""B"""
IRINGA,51,KILOLO,513,MTITU,51304,LUGANGA,"LUGANGA ""C"""
IRINGA,51,KILOLO,513,MTITU,51304,LUGANGA,KIBAONI
IRINGA,51,KILOLO,513,MTITU,51304,LUGANGA,KILENGAPASI
IRINGA,51,KILOLO,513,MTITU,51304,KILOLO,ITUNDUMA
IRINGA,51,KILOLO,513,MTITU,51304,KILOLO,MTAKUJA
IRINGA,51,KILOLO,513,MTITU,51304,KILOLO,MWATASI
IRINGA,51,KILOLO,513,MTITU,51304,KILOLO,KIKURUHE
IRINGA,51,KILOLO,513,MTITU,51304,KILOLO,LUNGEMBA
IRINGA,51,KILOLO,513,MTITU,51304,KILOLO,KILOLO
IRINGA,51,KILOLO,513,MTITU,51304,LULANZI,"ILALA ""A"""
IRINGA,51,KILOLO,513,MTITU,51304,LULANZI,"ILALA ""B"""
IRINGA,51,KILOLO,513,MTITU,51304,LULANZI,KISWEGELE
IRINGA,51,KILOLO,513,MTITU,51304,LULANZI,IPUGULU
IRINGA,51,KILOLO,513,MTITU,51304,LULANZI,"ILALA ""C"""
IRINGA,51,KILOLO,513,MTITU,51304,LULANZI,IKULU
IRINGA,51,KILOLO,513,MTITU,51304,LUHINDO,IKULU
IRINGA,51,KILOLO,513,MTITU,51304,LUHINDO,KIHESA
IRINGA,51,KILOLO,513,MTITU,51304,LUHINDO,MJI MWEMA
IRINGA,51,KILOLO,513,MTITU,51304,LUHINDO,MWEMBETOGWA
IRINGA,51,KILOLO,513,MTITU,51304,LUHINDO,LUHINDO
IRINGA,51,KILOLO,513,IMAGE,51305,IMAGE NA. 8,KICHANGANI
IRINGA,51,KILOLO,513,IMAGE,51305,IMAGE NA. 9,MATAMBO
IRINGA,51,KILOLO,513,IMAGE,51305,IMAGE NA. 10,KIDIKA
IRINGA,51,KILOLO,513,IMAGE,51305,IMAGE NA. 11,LUTEGEKE
IRINGA,51,KILOLO,513,IMAGE,51305,LYASA,"LYASA ""A"""
IRINGA,51,KILOLO,513,IMAGE,51305,LYASA,LYASA ''B''
IRINGA,51,KILOLO,513,IMAGE,51305,LYASA,MSASAMU
IRINGA,51,KILOLO,513,IMAGE,51305,LYASA,MSALE
IRINGA,51,KILOLO,513,IMAGE,51305,ILAWA,MASAPILA
IRINGA,51,KILOLO,513,IMAGE,51305,ILAWA,ZAHANATI
IRINGA,51,KILOLO,513,IMAGE,51305,ILAWA,MADIZINI
IRINGA,51,KILOLO,513,IMAGE,51305,ILAWA,ILAWA
IRINGA,51,KILOLO,513,IMAGE,51305,ILAWA,ILAWA KATI
IRINGA,51,KILOLO,513,IMAGE,51305,UHOMINYI,ITUNGI
IRINGA,51,KILOLO,513,IMAGE,51305,UHOMINYI,UHOMINYI
IRINGA,51,KILOLO,513,IMAGE,51305,UHOMINYI,MAKALALA
IRINGA,51,KILOLO,513,IMAGE,51305,IYAI,ITUNGI
IRINGA,51,KILOLO,513,IMAGE,51305,IYAI,IGUNDA
IRINGA,51,KILOLO,513,IMAGE,51305,IYAI,IGOLOGOLO
IRINGA,51,KILOLO,513,IMAGE,51305,IYAI,IHONGOLO
IRINGA,51,KILOLO,513,IMAGE,51305,IYAI,KILANGALI
IRINGA,51,KILOLO,513,DABAGA,51306,KIDABAGA,IKELAMO
IRINGA,51,KILOLO,513,DABAGA,51306,KIDABAGA,MAKANYAGIO
IRINGA,51,KILOLO,513,DABAGA,51306,KIDABAGA,CHAMGOGO
IRINGA,51,KILOLO,513,DABAGA,51306,KIDABAGA,KIHESA
IRINGA,51,KILOLO,513,DABAGA,51306,KIDABAGA,KATI
IRINGA,51,KILOLO,513,DABAGA,51306,LUSING'A,KILIMAHEWA
IRINGA,51,KILOLO,513,DABAGA,51306,LUSING'A,DONODONO
IRINGA,51,KILOLO,513,DABAGA,51306,LUSING'A,MIFUGO
IRINGA,51,KILOLO,513,DABAGA,51306,MAGOME,ILALA
IRINGA,51,KILOLO,513,DABAGA,51306,MAGOME,MAGOME
IRINGA,51,KILOLO,513,DABAGA,51306,MAGOME,MTULE
IRINGA,51,KILOLO,513,DABAGA,51306,MAGOME,MLANDEGE
IRINGA,51,KILOLO,513,DABAGA,51306,ILAMBA,MKULIMA
IRINGA,51,KILOLO,513,DABAGA,51306,ILAMBA,MASIMIKE
IRINGA,51,KILOLO,513,DABAGA,51306,NDENGISIVILI,NDENGISIVILI
IRINGA,51,KILOLO,513,DABAGA,51306,NDENGISIVILI,ULEFI
IRINGA,51,KILOLO,513,DABAGA,51306,NDENGISIVILI,IGINGILANYI
IRINGA,51,KILOLO,513,UKUMBI,51307,UKUMBI,IWANGI
IRINGA,51,KILOLO,513,UKUMBI,51307,UKUMBI,KITONOLA
IRINGA,51,KILOLO,513,UKUMBI,51307,UKUMBI,LUGANDA
IRINGA,51,KILOLO,513,UKUMBI,51307,UKUMBI,ISIMIKE
IRINGA,51,KILOLO,513,UKUMBI,51307,KITOWO,UHANYANA
IRINGA,51,KILOLO,513,UKUMBI,51307,KITOWO,MUHONGOLA
IRINGA,51,KILOLO,513,UKUMBI,51307,KITOWO,NJIAPANDA
IRINGA,51,KILOLO,513,UKUMBI,51307,KITOWO,KISENGAMKIVA
IRINGA,51,KILOLO,513,UKUMBI,51307,KITOWO,SEKUSE ''A''
IRINGA,51,KILOLO,513,UKUMBI,51307,KITOWO,SEKUSE ''B''
IRINGA,51,KILOLO,513,UKUMBI,51307,WINOME,NJIAPANDA
IRINGA,51,KILOLO,513,UKUMBI,51307,WINOME,KIVALALI
IRINGA,51,KILOLO,513,UKUMBI,51307,WINOME,IGANGILONGA
IRINGA,51,KILOLO,513,UKUMBI,51307,WINOME,GANGA
IRINGA,51,KILOLO,513,UKUMBI,51307,WINOME,KILIMAHEWA
IRINGA,51,KILOLO,513,UKUMBI,51307,MAWAMBALA,"KICHANGANI ""A"""
IRINGA,51,KILOLO,513,UKUMBI,51307,MAWAMBALA,"KICHANGANI ""B"""
IRINGA,51,KILOLO,513,UKUMBI,51307,MAWAMBALA,"KIHESA ""A"""
IRINGA,51,KILOLO,513,UKUMBI,51307,MAWAMBALA,"KIHESA ""B"""
IRINGA,51,KILOLO,513,UKUMBI,51307,MAWAMBALA,KIHESA ''C''
IRINGA,51,KILOLO,513,UKUMBI,51307,MAWAMBALA,KIPERA
IRINGA,51,KILOLO,513,UKUMBI,51307,MAWAMBALA,ULELING'OMBE
IRINGA,51,KILOLO,513,UKUMBI,51307,MAWAMBALA,MWANZI
IRINGA,51,KILOLO,513,UKUMBI,51307,MASALALI,MLAMA
IRINGA,51,KILOLO,513,UKUMBI,51307,MASALALI,MASALALI ''A''
IRINGA,51,KILOLO,513,UKUMBI,51307,MASALALI,MBEYA
IRINGA,51,KILOLO,513,UKUMBI,51307,MASALALI,UKUMBI
IRINGA,51,KILOLO,513,UKUMBI,51307,MASALALI,MASALALI ''B''
IRINGA,51,KILOLO,513,BOMALANG'OMBE,51308,BOMALANG'OMBE,CHALINZE ''A''
IRINGA,51,KILOLO,513,BOMALANG'OMBE,51308,BOMALANG'OMBE,CHALINZE ''B''
IRINGA,51,KILOLO,513,BOMALANG'OMBE,51308,BOMALANG'OMBE,ILOLE
IRINGA,51,KILOLO,513,BOMALANG'OMBE,51308,BOMALANG'OMBE,MTWIVILA ''A''
IRINGA,51,KILOLO,513,BOMALANG'OMBE,51308,BOMALANG'OMBE,MTWIVILA ''B''
IRINGA,51,KILOLO,513,BOMALANG'OMBE,51308,BOMALANG'OMBE,MWANZALA
IRINGA,51,KILOLO,513,BOMALANG'OMBE,51308,BOMALANG'OMBE,USAGALA
IRINGA,51,KILOLO,513,BOMALANG'OMBE,51308,WANGAMA,CHANGARAWE
IRINGA,51,KILOLO,513,BOMALANG'OMBE,51308,WANGAMA,WANGAMA
IRINGA,51,KILOLO,513,BOMALANG'OMBE,51308,WANGAMA,MAGANGWE
IRINGA,51,KILOLO,513,BOMALANG'OMBE,51308,WANGAMA,IBWENGE
IRINGA,51,KILOLO,513,BOMALANG'OMBE,51308,WANGAMA,KILOLO
IRINGA,51,KILOLO,513,BOMALANG'OMBE,51308,MWATASI,MANYINGI
IRINGA,51,KILOLO,513,BOMALANG'OMBE,51308,MWATASI,MWATASI
IRINGA,51,KILOLO,513,BOMALANG'OMBE,51308,MWATASI,MAKORONGONI
IRINGA,51,KILOLO,513,BOMALANG'OMBE,51308,MWATASI,CHALINZE
IRINGA,51,KILOLO,513,BOMALANG'OMBE,51308,MWATASI,MDENDESA
IRINGA,51,KILOLO,513,BOMALANG'OMBE,51308,NG'INGULA,ILANGI
IRINGA,51,KILOLO,513,BOMALANG'OMBE,51308,NG'INGULA,LULISA
IRINGA,51,KILOLO,513,BOMALANG'OMBE,51308,NG'INGULA,TANDAMTI
IRINGA,51,KILOLO,513,BOMALANG'OMBE,51308,NG'INGULA,MSENGELA
IRINGA,51,KILOLO,513,BOMALANG'OMBE,51308,NG'INGULA,MWANG'INGO
IRINGA,51,KILOLO,513,BOMALANG'OMBE,51308,NG'INGULA,GODAUNI
IRINGA,51,KILOLO,513,BOMALANG'OMBE,51308,LYAMKO,LYAMKO
IRINGA,51,KILOLO,513,BOMALANG'OMBE,51308,LYAMKO,MIFUGO
IRINGA,51,KILOLO,513,BOMALANG'OMBE,51308,LYAMKO,IBUMILA
IRINGA,51,KILOLO,513,BOMALANG'OMBE,51308,LYAMKO,MLANDEGE
IRINGA,51,KILOLO,513,BOMALANG'OMBE,51308,LYAMKO,MLANDEGE CHINI
IRINGA,51,KILOLO,513,IDETE,51309,IDETE,IDETE
IRINGA,51,KILOLO,513,IDETE,51309,IDETE,UTAGINYI
IRINGA,51,KILOLO,513,IDETE,51309,IDETE,MBAGI
IRINGA,51,KILOLO,513,IDETE,51309,IDETE,LUKOSIKATI
IRINGA,51,KILOLO,513,IDETE,51309,MADEGE,UGELE
IRINGA,51,KILOLO,513,IDETE,51309,MADEGE,KALIAKOO
IRINGA,51,KILOLO,513,IDETE,51309,MADEGE,MKWALUMA
IRINGA,51,KILOLO,513,IDETE,51309,MADEGE,LWANGO
IRINGA,51,KILOLO,513,IDETE,51309,KIWALAMO,KISAGI
IRINGA,51,KILOLO,513,IDETE,51309,KIWALAMO,KIDUGALA
IRINGA,51,KILOLO,513,IDETE,51309,KIWALAMO,MIEGAMANO
IRINGA,51,KILOLO,513,IDETE,51309,ILUTILA,MILANZI
IRINGA,51,KILOLO,513,IDETE,51309,ILUTILA,ILUTILA KATI
IRINGA,51,KILOLO,513,IDETE,51309,ILUTILA,IGONGAMHUNGI
IRINGA,51,KILOLO,513,IDETE,51309,ILUTILA,IGUNGAMHUNGI
IRINGA,51,KILOLO,513,UKWEGA,51310,KISING'A,MADISI
IRINGA,51,KILOLO,513,UKWEGA,51310,KISING'A,KIDUMKA
IRINGA,51,KILOLO,513,UKWEGA,51310,KISING'A,KIBAONI
IRINGA,51,KILOLO,513,UKWEGA,51310,KISING'A,MHEMBI
IRINGA,51,KILOLO,513,UKWEGA,51310,KISING'A,MADIBILA ''A''
IRINGA,51,KILOLO,513,UKWEGA,51310,KISING'A,MADIBILA ''B''
IRINGA,51,KILOLO,513,UKWEGA,51310,MAKUNGU,LUKUVI
IRINGA,51,KILOLO,513,UKWEGA,51310,MAKUNGU,MWANALIANGALI
IRINGA,51,KILOLO,513,UKWEGA,51310,MAKUNGU,MISUFINI
IRINGA,51,KILOLO,513,UKWEGA,51310,MAKUNGU,MHONGOLA
IRINGA,51,KILOLO,513,UKWEGA,51310,MKALANGA,MASASI
IRINGA,51,KILOLO,513,UKWEGA,51310,MKALANGA,MKALANGA
IRINGA,51,KILOLO,513,UKWEGA,51310,MKALANGA,MATEMBO
IRINGA,51,KILOLO,513,UKWEGA,51310,MKALANGA,KAVICHO
IRINGA,51,KILOLO,513,UKWEGA,51310,MKALANGA,MSUFINI
IRINGA,51,KILOLO,513,UKWEGA,51310,IPALAMWA,IHONGOLE
IRINGA,51,KILOLO,513,UKWEGA,51310,IPALAMWA,SHULENI
IRINGA,51,KILOLO,513,UKWEGA,51310,IPALAMWA,KATI
IRINGA,51,KILOLO,513,UKWEGA,51310,IPALAMWA,MIFUGO
IRINGA,51,KILOLO,513,UKWEGA,51310,IPALAMWA,KIVANGA
IRINGA,51,KILOLO,513,UKWEGA,51310,IPALAMWA,NDEGE
IRINGA,51,KILOLO,513,UKWEGA,51310,UKWEGA,KATI ''A''
IRINGA,51,KILOLO,513,UKWEGA,51310,UKWEGA,KATI ''B''
IRINGA,51,KILOLO,513,UKWEGA,51310,UKWEGA,IWANDA ''A''
IRINGA,51,KILOLO,513,UKWEGA,51310,UKWEGA,IWANDA ''B''
IRINGA,51,KILOLO,513,UKWEGA,51310,UKWEGA,SELEBU
IRINGA,51,KILOLO,513,UKWEGA,51310,UKWEGA,MNENGUKA A''
IRINGA,51,KILOLO,513,UKWEGA,51310,UKWEGA,MNENGUKA ''B''
IRINGA,51,KILOLO,513,UKWEGA,51310,UKWEGA,NYAHILI
IRINGA,51,KILOLO,513,UKWEGA,51310,ISELE,ISELE ''A''
IRINGA,51,KILOLO,513,UKWEGA,51310,ISELE,ISELE ''B''
IRINGA,51,KILOLO,513,UKWEGA,51310,ISELE,IGALAMO
IRINGA,51,KILOLO,513,UKWEGA,51310,ISELE,MALAMBO ''A''
IRINGA,51,KILOLO,513,UKWEGA,51310,ISELE,MALAMBO ''B''
IRINGA,51,KILOLO,513,UDEKWA,51311,UDEKWA,VIKOGA
IRINGA,51,KILOLO,513,UDEKWA,51311,UDEKWA,NGELEMA
IRINGA,51,KILOLO,513,UDEKWA,51311,UDEKWA,ILAWA
IRINGA,51,KILOLO,513,UDEKWA,51311,UDEKWA,MUDUGI
IRINGA,51,KILOLO,513,UDEKWA,51311,UDEKWA,LWANZALI
IRINGA,51,KILOLO,513,UDEKWA,51311,UDEKWA,MSOGOLI
IRINGA,51,KILOLO,513,UDEKWA,51311,UDEKWA,IGONGO
IRINGA,51,KILOLO,513,UDEKWA,51311,UDEKWA,MITUPI
IRINGA,51,KILOLO,513,UDEKWA,51311,UDEKWA,MABONDWA
IRINGA,51,KILOLO,513,UDEKWA,51311,IFUWA,IFUWA
IRINGA,51,KILOLO,513,UDEKWA,51311,IFUWA,KITOROMELA
IRINGA,51,KILOLO,513,UDEKWA,51311,IFUWA,IKOVELO
IRINGA,51,KILOLO,513,UDEKWA,51311,IFUWA,MWANGIDAVA
IRINGA,51,KILOLO,513,UDEKWA,51311,IFUWA,IDILO
IRINGA,51,KILOLO,513,UDEKWA,51311,WOTALISOLI,MSAGALA
IRINGA,51,KILOLO,513,UDEKWA,51311,WOTALISOLI,WOTALISOLI
IRINGA,51,KILOLO,513,UDEKWA,51311,WOTALISOLI,KIHANGA A
IRINGA,51,KILOLO,513,UDEKWA,51311,WOTALISOLI,KIHANGA B
IRINGA,51,KILOLO,513,UDEKWA,51311,WOTALISOLI,VIKONGWA
IRINGA,51,KILOLO,513,MAHENGE,51312,MAHENGE,KITOBOLA
IRINGA,51,KILOLO,513,MAHENGE,51312,MAHENGE,LUGUMBA
IRINGA,51,KILOLO,513,MAHENGE,51312,MAHENGE,MLOWA
IRINGA,51,KILOLO,513,MAHENGE,51312,MAHENGE,MLEVELA
IRINGA,51,KILOLO,513,MAHENGE,51312,IRINDI,IRINDI
IRINGA,51,KILOLO,513,MAHENGE,51312,IRINDI,MADIHILA
IRINGA,51,KILOLO,513,MAHENGE,51312,IRINDI,MADABA
IRINGA,51,KILOLO,513,MAHENGE,51312,IRINDI,VIKONGE
IRINGA,51,KILOLO,513,MAHENGE,51312,IRINDI,IGEME
IRINGA,51,KILOLO,513,MAHENGE,51312,MAGANA,IHWAVI
IRINGA,51,KILOLO,513,MAHENGE,51312,MAGANA,ITATASANGI
IRINGA,51,KILOLO,513,MAHENGE,51312,MAGANA,MKENGELE CHUMA
IRINGA,51,KILOLO,513,MAHENGE,51312,MAGANA,MKINDI
IRINGA,51,KILOLO,513,MAHENGE,51312,MAGANA,MKWILA
IRINGA,51,KILOLO,513,LUGALO,51313,LUGALO,LUGALO
IRINGA,51,KILOLO,513,LUGALO,51313,LUGALO,KIBAONI
IRINGA,51,KILOLO,513,LUGALO,51313,LUGALO,LULENGELENGE
IRINGA,51,KILOLO,513,LUGALO,51313,MAZOMBE,UTANGIMEMBE
IRINGA,51,KILOLO,513,LUGALO,51313,MAZOMBE,MAZOMBE KATI
IRINGA,51,KILOLO,513,LUGALO,51313,MAZOMBE,VIKOGA
IRINGA,51,KILOLO,513,LUGALO,51313,MAZOMBE,IGUNGA
IRINGA,51,KILOLO,513,LUGALO,51313,MBIGILI,MKAWAGANGA
IRINGA,51,KILOLO,513,LUGALO,51313,MBIGILI,MBIGILI KATI
IRINGA,51,KILOLO,513,LUGALO,51313,MBIGILI,IBULU
IRINGA,51,KILOLO,513,LUGALO,51313,MBIGILI,MSICHOKE
IRINGA,51,KILOLO,513,LUGALO,51313,MBIGILI,MOROGORO
IRINGA,51,KILOLO,513,LUGALO,51313,IMALUTWA,MALAWI
IRINGA,51,KILOLO,513,LUGALO,51313,IMALUTWA,MWALA
IRINGA,51,KILOLO,513,LUGALO,51313,IMALUTWA,KIHANGA
IRINGA,51,KILOLO,513,LUGALO,51313,IMALUTWA,MHESA
IRINGA,51,KILOLO,513,LUGALO,51313,IMALUTWA,MYOMBWE
IRINGA,51,KILOLO,513,LUGALO,51313,IMALUTWA,MWILUTI
IRINGA,51,KILOLO,513,LUGALO,51313,IMALUTWA,VIKELO
IRINGA,51,KILOLO,513,KIMALA,51314,KIMALA,KIMALA
IRINGA,51,KILOLO,513,KIMALA,51314,KIMALA,ILANZI
IRINGA,51,KILOLO,513,KIMALA,51314,KIMALA,FIHALAWE
IRINGA,51,KILOLO,513,KIMALA,51314,KIMALA,MTENDEULE
IRINGA,51,KILOLO,513,KIMALA,51314,KIMALA,KITATI
IRINGA,51,KILOLO,513,KIMALA,51314,KIMALA,LUPILO
IRINGA,51,KILOLO,513,KIMALA,51314,IDUNDA,LUGOLI
IRINGA,51,KILOLO,513,KIMALA,51314,IDUNDA,MAVINGA
IRINGA,51,KILOLO,513,KIMALA,51314,IDUNDA,UKIMBILIZI
IRINGA,51,KILOLO,513,KIMALA,51314,IDUNDA,MSASI
IRINGA,51,KILOLO,513,KIMALA,51314,ITONYA,KANISANI
IRINGA,51,KILOLO,513,KIMALA,51314,ITONYA,ITONYA KATI
IRINGA,51,KILOLO,513,KIMALA,51314,ITONYA,TUPENDANE
IRINGA,51,KILOLO,513,KIMALA,51314,MHANGA,MHANGA KATI
IRINGA,51,KILOLO,513,KIMALA,51314,MHANGA,VIKANGOWA
IRINGA,51,KILOLO,513,KIMALA,51314,MHANGA,NGOGO
IRINGA,51,KILOLO,513,KIMALA,51314,MHANGA,MDINDA
IRINGA,51,KILOLO,513,KIMALA,51314,ULUTI,ULUTI ''A''
IRINGA,51,KILOLO,513,KIMALA,51314,ULUTI,ULUTI ''B''
IRINGA,51,KILOLO,513,RUAHA MBUYUNI,51315,RUAHA MBUYUNI,MBUYUNI
IRINGA,51,KILOLO,513,RUAHA MBUYUNI,51315,RUAHA MBUYUNI,KIGAMBONI
IRINGA,51,KILOLO,513,RUAHA MBUYUNI,51315,RUAHA MBUYUNI,KIDODI
IRINGA,51,KILOLO,513,RUAHA MBUYUNI,51315,RUAHA MBUYUNI,MIKUNGUNI
IRINGA,51,KILOLO,513,RUAHA MBUYUNI,51315,RUAHA MBUYUNI,RUAHA MJINI
IRINGA,51,KILOLO,513,RUAHA MBUYUNI,51315,RUAHA MBUYUNI,GEZAULOLE
IRINGA,51,KILOLO,513,RUAHA MBUYUNI,51315,MSOSA,MBINGA
IRINGA,51,KILOLO,513,RUAHA MBUYUNI,51315,MSOSA,UHINDINI
IRINGA,51,KILOLO,513,RUAHA MBUYUNI,51315,MSOSA,MADERA
IRINGA,51,KILOLO,513,RUAHA MBUYUNI,51315,MSOSA,MJENGO
IRINGA,51,KILOLO,513,RUAHA MBUYUNI,51315,IKULA,IKULA
IRINGA,51,KILOLO,513,RUAHA MBUYUNI,51315,IKULA,ISANGA
IRINGA,51,KILOLO,513,RUAHA MBUYUNI,51315,IKULA,MKWAJUNI
IRINGA,51,KILOLO,513,RUAHA MBUYUNI,51315,IKULA,TINDIGA
IRINGA,51,KILOLO,513,RUAHA MBUYUNI,51315,MTANDIKA,WAFUGAJI
IRINGA,51,KILOLO,513,RUAHA MBUYUNI,51315,MTANDIKA,SOKONI
IRINGA,51,KILOLO,513,RUAHA MBUYUNI,51315,MTANDIKA,KIDIKA
IRINGA,51,KILOLO,513,RUAHA MBUYUNI,51315,MTANDIKA,KICHANGANI
IRINGA,51,KILOLO,513,RUAHA MBUYUNI,51315,MTANDIKA,MHEFU
IRINGA,51,KILOLO,513,RUAHA MBUYUNI,51315,MTANDIKA,TUPENDANE
IRINGA,51,KILOLO,513,RUAHA MBUYUNI,51315,MTANDIKA,MGAMBALENGA
IRINGA,51,KILOLO,513,NG'URUHE,51316,NG'URUHE,MTWANGIKALALA
IRINGA,51,KILOLO,513,NG'URUHE,51316,NG'URUHE,MSENGELA ''A''
IRINGA,51,KILOLO,513,NG'URUHE,51316,NG'URUHE,MSENGELA ''B''
IRINGA,51,KILOLO,513,NG'URUHE,51316,NG'URUHE,LUHAGATI
IRINGA,51,KILOLO,513,NG'URUHE,51316,NG'URUHE,MWILUTI
IRINGA,51,KILOLO,513,NG'URUHE,51316,NG'URUHE,ITIMBWI
IRINGA,51,KILOLO,513,NG'URUHE,51316,NG'URUHE,MHUKA
IRINGA,51,KILOLO,513,NG'URUHE,51316,NG'URUHE,LUWONA
IRINGA,51,KILOLO,513,NG'URUHE,51316,NG'URUHE,MWIBUFU
IRINGA,51,KILOLO,513,NG'URUHE,51316,NG'URUHE,UHANZINYI
IRINGA,51,KILOLO,513,NG'URUHE,51316,K. MGAGAO,MTANGA
IRINGA,51,KILOLO,513,NG'URUHE,51316,K. MGAGAO,IGONGO
IRINGA,51,KILOLO,513,NG'URUHE,51316,K. MGAGAO,KIHESA
IRINGA,51,KILOLO,513,NG'URUHE,51316,K. MGAGAO,IBOYA
IRINGA,51,KILOLO,513,NG'URUHE,51316,K. MGAGAO,IFIGA OFISINI
IRINGA,51,KILOLO,513,NG'URUHE,51316,K. MGAGAO,MIFUGO
IRINGA,51,KILOLO,513,NG'URUHE,51316,K. MGAGAO,MTITU
IRINGA,51,KILOLO,513,NG'URUHE,51316,MASEGE,KING'WANG'ULO
IRINGA,51,KILOLO,513,NG'URUHE,51316,MASEGE,NYAUTWA
IRINGA,51,KILOLO,513,NG'URUHE,51316,MASEGE,LUWINDA
IRINGA,51,KILOLO,513,NG'URUHE,51316,MASEGE,LULINDI
IRINGA,51,KILOLO,513,NG'URUHE,51316,MASEGE,KIPEBETA
IRINGA,51,KILOLO,513,NG'URUHE,51316,MASEGE,MASEGE KATI
IRINGA,51,KILOLO,513,NG'URUHE,51316,LUKANI,ISENGAVAKIVA
IRINGA,51,KILOLO,513,NG'URUHE,51316,LUKANI,GODAUNI
IRINGA,51,KILOLO,513,NG'URUHE,51316,LUKANI,MAGDAVA
IRINGA,51,KILOLO,513,NG'URUHE,51316,LUKANI,KILIMAHEWA
IRINGA,51,KILOLO,513,NG'URUHE,51316,LUKANI,MJIMWEMA
IRINGA,51,KILOLO,513,NG'URUHE,51316,LUKANI,CHAMANI
IRINGA,51,KILOLO,513,NG'URUHE,51316,LUKANI,IPOGOLO
IRINGA,51,KILOLO,513,NG'URUHE,51316,ISUKA,ISUKA
IRINGA,51,KILOLO,513,NG'URUHE,51316,ISUKA,WILOLESI
IRINGA,51,KILOLO,513,NG'URUHE,51316,ISUKA,MIFUGO
IRINGA,51,KILOLO,513,NG'URUHE,51316,ISUKA,KIHANGA
IRINGA,51,KILOLO,513,NG'URUHE,51316,ISUKA,NGONGWA
IRINGA,51,KILOLO,513,IHIMBO,51317,IHIMBO,ILANGI
IRINGA,51,KILOLO,513,IHIMBO,51317,IHIMBO,MTEGE
IRINGA,51,KILOLO,513,IHIMBO,51317,IHIMBO,WINOME
IRINGA,51,KILOLO,513,IHIMBO,51317,IHIMBO,MUHIMBILI
IRINGA,51,KILOLO,513,IHIMBO,51317,IHIMBO,IHONGOLE
IRINGA,51,KILOLO,513,IHIMBO,51317,IHIMBO,CHAMA
IRINGA,51,KILOLO,513,IHIMBO,51317,IHIMBO,ITAKULA
IRINGA,51,KILOLO,513,IHIMBO,51317,ITIMBO,ITIMBO KATI
IRINGA,51,KILOLO,513,IHIMBO,51317,ITIMBO,IWONDE
IRINGA,51,KILOLO,513,IHIMBO,51317,ITIMBO,LWIVA
IRINGA,51,KILOLO,513,IHIMBO,51317,ITIMBO,IBOHOLA
IRINGA,51,KILOLO,513,IHIMBO,51317,ITIMBO,LUKAGO ''A''
IRINGA,51,KILOLO,513,IHIMBO,51317,ITIMBO,LUKAGO ''B''
IRINGA,51,KILOLO,513,IHIMBO,51317,ITIMBO,IBANING'OMBE
IRINGA,51,KILOLO,513,IHIMBO,51317,ITIMBO,MAGOGONI
IRINGA,51,KILOLO,513,IHIMBO,51317,ISOLIWAYA,MHIMBILI
IRINGA,51,KILOLO,513,IHIMBO,51317,ISOLIWAYA,ISOLIWAYA
IRINGA,51,KILOLO,513,IHIMBO,51317,ISOLIWAYA,ITULILO
IRINGA,51,KILOLO,513,IHIMBO,51317,ISOLIWAYA,MTEGO
IRINGA,51,KILOLO,513,IHIMBO,51317,ISOLIWAYA,UILIGOVANU
IRINGA,51,KILOLO,513,IHIMBO,51317,UTENGULE,ILALA
IRINGA,51,KILOLO,513,IHIMBO,51317,UTENGULE,KITUMBUKA
IRINGA,51,KILOLO,513,IHIMBO,51317,UTENGULE,ITENGULE
IRINGA,51,KILOLO,513,IHIMBO,51317,UTENGULE,MAGANGAMATATU
IRINGA,51,KILOLO,513,IHIMBO,51317,UTENGULE,LULINDI
IRINGA,51,KILOLO,513,IHIMBO,51317,UTENGULE,MAJENGO
IRINGA,51,KILOLO,513,IHIMBO,51317,UTENGULE,MJIMWEKA
IRINGA,51,KILOLO,513,IHIMBO,51317,UTENGULE,FRELIMO
IRINGA,51,KILOLO,513,IHIMBO,51317,ITALULA,MNAPELO
IRINGA,51,KILOLO,513,IHIMBO,51317,ITALULA,ITALULA
IRINGA,51,KILOLO,513,IHIMBO,51317,ITALULA,CHAMA
IRINGA,51,KILOLO,513,IHIMBO,51317,ITALULA,MKEWA
IRINGA,51,KILOLO,513,IHIMBO,51317,ITALULA,KIBAONI
IRINGA,51,KILOLO,513,MASISIWE,51318,MASISIWE,WENGELE
IRINGA,51,KILOLO,513,MASISIWE,51318,MASISIWE,MAHALA
IRINGA,51,KILOLO,513,MASISIWE,51318,MASISIWE,ILILA
IRINGA,51,KILOLO,513,MASISIWE,51318,MASISIWE,MAHAME
IRINGA,51,KILOLO,513,MASISIWE,51318,MASISIWE,MASISIWE
IRINGA,51,KILOLO,513,MASISIWE,51318,MASISIWE,MKOLONGO
IRINGA,51,KILOLO,513,MASISIWE,51318,MASISIWE,NGOLWANI
IRINGA,51,KILOLO,513,MASISIWE,51318,IDEGENDA,IDEGENDA
IRINGA,51,KILOLO,513,MASISIWE,51318,IDEGENDA,LUHITI
IRINGA,51,KILOLO,513,MASISIWE,51318,IDEGENDA,IHUVILO
IRINGA,51,KILOLO,513,MASISIWE,51318,IDEGENDA,MANGELENGELE
IRINGA,51,KILOLO,513,MASISIWE,51318,IDEGENDA,OFISINI
IRINGA,51,KILOLO,513,MASISIWE,51318,NYAWEGETE,CHALINZE
IRINGA,51,KILOLO,513,MASISIWE,51318,NYAWEGETE,MWANGATA
IRINGA,51,KILOLO,513,MASISIWE,51318,NYAWEGETE,LUPILO
IRINGA,51,KILOLO,513,MASISIWE,51318,NYAWEGETE,MLANDEGE
IRINGA,51,KILOLO,513,MASISIWE,51318,NYAWEGETE,IHONGOLE
IRINGA,51,KILOLO,513,MASISIWE,51318,NYAWEGETE,MJIMWEMA
IRINGA,51,KILOLO,513,MASISIWE,51318,MBAWI,LUDILO
IRINGA,51,KILOLO,513,MASISIWE,51318,MBAWI,MWINGILA
IRINGA,51,KILOLO,513,MASISIWE,51318,MBAWI,ITINI
IRINGA,51,KILOLO,513,MASISIWE,51318,MBAWI,KILOLELA
IRINGA,51,KILOLO,513,MASISIWE,51318,MBAWI,UHANZINYI
IRINGA,51,KILOLO,513,MASISIWE,51318,MBAWI,KIDETE
IRINGA,51,KILOLO,513,MASISIWE,51318,MBAWI,ILAMBWA
IRINGA,51,KILOLO,513,MASISIWE,51318,MBAWI,KITEMELA
IRINGA,51,KILOLO,513,MASISIWE,51318,MBAWI,IPUGULILO
IRINGA,51,KILOLO,513,MASISIWE,51318,MBAWI,IBOYA
IRINGA,51,KILOLO,513,MASISIWE,51318,ISANGA,ISANGA
IRINGA,51,KILOLO,513,MASISIWE,51318,ISANGA,MAKONGOPA
IRINGA,51,KILOLO,513,MASISIWE,51318,ISANGA,KAPYELE
IRINGA,51,KILOLO,513,MASISIWE,51318,ISANGA,LUNYIZI
IRINGA,51,KILOLO,513,MASISIWE,51318,ISANGA,IGOMANGULU
IRINGA,51,KILOLO,513,MASISIWE,51318,ISANGA,IDEGENDA
IRINGA,51,KILOLO,513,IBUMU,51319,IBUMU,MBATA
IRINGA,51,KILOLO,513,IBUMU,51319,IBUMU,MPERA
IRINGA,51,KILOLO,513,IBUMU,51319,IBUMU,CHENGELE
IRINGA,51,KILOLO,513,IBUMU,51319,IBUMU,FITA
IRINGA,51,KILOLO,513,IBUMU,51319,KILALA KIDEWA,KILALA KIDEWA ''A''
IRINGA,51,KILOLO,513,IBUMU,51319,KILALA KIDEWA,KIDEWA
IRINGA,51,KILOLO,513,IBUMU,51319,KILALA KIDEWA,LUBAPULO
IRINGA,51,KILOLO,513,IBUMU,51319,KILALA KIDEWA,KILALA KIDEWA ''B''
IRINGA,51,KILOLO,513,IBUMU,51319,ILAMBO,ILAMBO
IRINGA,51,KILOLO,513,IBUMU,51319,ILAMBO,LUGOLOFU
IRINGA,51,KILOLO,513,IBUMU,51319,ILAMBO,MAVIGILI
IRINGA,51,KILOLO,513,IBUMU,51319,ILAMBO,MAGUNGA
IRINGA,51,KILOLO,513,IBUMU,51319,KILUMBWA,FITA
IRINGA,51,KILOLO,513,IBUMU,51319,KILUMBWA,KINYAMBULU
IRINGA,51,KILOLO,513,IBUMU,51319,KILUMBWA,LUHANZO
IRINGA,51,KILOLO,513,IBUMU,51319,KILUMBWA,CHENGELE
IRINGA,51,KILOLO,513,IBUMU,51319,KILUMBWA,KIMENGI
IRINGA,51,KILOLO,513,NG'ANG'ANGE,51320,NG'ANG'ANGE,MTAKUJA
IRINGA,51,KILOLO,513,NG'ANG'ANGE,51320,NG'ANG'ANGE,MJI MWEMA
IRINGA,51,KILOLO,513,NG'ANG'ANGE,51320,NG'ANG'ANGE,SOGEZA
IRINGA,51,KILOLO,513,NG'ANG'ANGE,51320,NG'ANG'ANGE,NYAKOLE
IRINGA,51,KILOLO,513,NG'ANG'ANGE,51320,MDEKE,SONGAMBELE
IRINGA,51,KILOLO,513,NG'ANG'ANGE,51320,MDEKE,MIFUGO
IRINGA,51,KILOLO,513,NG'ANG'ANGE,51320,MDEKE,MUUNGANO
IRINGA,51,KILOLO,513,NG'ANG'ANGE,51320,MDEKE,NDOLELA
IRINGA,51,KILOLO,513,NG'ANG'ANGE,51320,MDEKE,MASHINENI
IRINGA,51,KILOLO,513,NG'ANG'ANGE,51320,MDEKE,KIPAGALE
IRINGA,51,KILOLO,513,NG'ANG'ANGE,51320,IDASI,KIDETE
IRINGA,51,KILOLO,513,NG'ANG'ANGE,51320,IDASI,KIDILU
IRINGA,51,KILOLO,513,NG'ANG'ANGE,51320,IDASI,TUMAINI
IRINGA,51,KILOLO,513,NG'ANG'ANGE,51320,IDASI,CHAFII
IRINGA,51,KILOLO,513,NG'ANG'ANGE,51320,IDASI,KATI
IRINGA,51,KILOLO,513,NYALUMBU,51321,IDASI,ILULA-MWAYA
IRINGA,51,KILOLO,513,NYALUMBU,51321,IDASI,IKUVALA
IRINGA,51,KILOLO,513,NYALUMBU,51321,IDASI,MTUA
IRINGA,51,KILOLO,513,NYALUMBU,51321,IDASI,DING'INAYO
IRINGA,51,KILOLO,513,NYALUMBU,51321,IDASI,NGELANGO
IRINGA,51,KILOLO,513,NYALUMBU,51321,IDASI,ILULA SOKONI
IRINGA,51,KILOLO,513,NYALUMBU,51321,IDASI,ITABALI
IRINGA,51,KILOLO,513,NYALUMBU,51321,IDASI,MATALAWE
IRINGA,51,KILOLO,513,MLAFU,51322,IDASI,MLAFU
IRINGA,51,KILOLO,513,MLAFU,51322,IDASI,ITUNGI
IRINGA,51,KILOLO,513,MLAFU,51322,IDASI,ISAGWA
IRINGA,51,KILOLO,513,KISING'A,51323,BARABARA MBILI,MWAYA ''A''
IRINGA,51,KILOLO,513,KISING'A,51323,BARABARA MBILI,MWAYA ''B''
IRINGA,51,KILOLO,513,KISING'A,51323,BARABARA MBILI,NGOMBELA
IRINGA,51,KILOLO,513,KISING'A,51323,BARABARA MBILI,MALANGALI
IRINGA,51,KILOLO,513,KISING'A,51323,KIDUMKA,KIDEGINE
IRINGA,51,KILOLO,513,KISING'A,51323,KIDUMKA,MZOMBE
IRINGA,51,KILOLO,513,KISING'A,51323,KIDUMKA,MADASI
IRINGA,51,KILOLO,513,KISING'A,51323,KIDUMKA,LUHAPO
IRINGA,51,KILOLO,513,KISING'A,51323,KIDUMKA,KIDUMKA
IRINGA,51,KILOLO,513,KISING'A,51323,LULINDI,LULINDI
IRINGA,51,KILOLO,513,KISING'A,51323,LULINDI,TANESCO
IRINGA,51,KILOLO,513,KISING'A,51323,LULINDI,KIVANGA
IRINGA,51,KILOLO,513,KISING'A,51323,LULINDI,ITUNDIKA KATI
IRINGA,51,KILOLO,513,NYANZWA,51324,NYANZWA,MPILIPILI
IRINGA,51,KILOLO,513,NYANZWA,51324,NYANZWA,MPAKANI
IRINGA,51,KILOLO,513,NYANZWA,51324,NYANZWA,SOKONI
IRINGA,51,KILOLO,513,NYANZWA,51324,NYANZWA,MINAZINI
IRINGA,51,KILOLO,513,NYANZWA,51324,NYANZWA,MIEMBENI
IRINGA,51,KILOLO,513,NYANZWA,51324,NYANZWA,ITEMELA
IRINGA,51,KILOLO,513,NYANZWA,51324,IGUNDA,IGUNDA
IRINGA,51,KILOLO,513,NYANZWA,51324,IGUNDA,MADUKANI
IRINGA,51,KILOLO,513,NYANZWA,51324,IGUNDA,KIDOHOO
IRINGA,51,KILOLO,513,NYANZWA,51324,IGUNDA,BEKU
IRINGA,51,KILOLO,513,NYANZWA,51324,IGUNDA,IDODI
IRINGA,51,KILOLO,513,NYANZWA,51324,IGUNDA,BALALI
IRINGA,51,KILOLO,513,NYANZWA,51324,MGOWELO,KIMBIGILI
IRINGA,51,KILOLO,513,NYANZWA,51324,MGOWELO,MTWANGO
IRINGA,51,KILOLO,513,NYANZWA,51324,MGOWELO,MAKUKA
IRINGA,51,KILOLO,513,NYANZWA,51324,MGOWELO,VINYUNGU
IRINGA,51,KILOLO,513,NYANZWA,51324,MGOWELO,VIBANDULO
IRINGA,51,KILOLO,513,NYANZWA,51324,MGOWELO,WAFUGAJI
IRINGA,51,MUFINDI,514,BOMA,51401,IHONGOLE,
IRINGA,51,MUFINDI,514,BOMA,51401,MJI MWEMA,
IRINGA,51,MUFINDI,514,BOMA,51401,MKOMBWE,
IRINGA,51,MUFINDI,514,BOMA,51401,MALINGUMU,
IRINGA,51,MUFINDI,514,BOMA,51401,IVAMBINUNGU,
IRINGA,51,MUFINDI,514,BOMA,51401,NDOLEZI,
IRINGA,51,MUFINDI,514,SAO HILL,51402,MTULA,
IRINGA,51,MUFINDI,514,SAO HILL,51402,WELU,
IRINGA,51,MUFINDI,514,SAO HILL,51402,IHEFU,
IRINGA,51,MUFINDI,514,SAO HILL,51402,MKANZAULE,
IRINGA,51,MUFINDI,514,SAO HILL,51402,IBIKILILU,
IRINGA,51,MUFINDI,514,KINYANAMBO,51403,IFINGO,
IRINGA,51,MUFINDI,514,KINYANAMBO,51403,MIZANI,
IRINGA,51,MUFINDI,514,KINYANAMBO,51403,TANGANYIKA,
IRINGA,51,MUFINDI,514,KINYANAMBO,51403,GANGILONGA,
IRINGA,51,MUFINDI,514,KINYANAMBO,51403,KINANAMBO,
IRINGA,51,MUFINDI,514,ISALAVANU,51404,ISALAVANU,LUPAO
IRINGA,51,MUFINDI,514,ISALAVANU,51404,ISALAVANU,KIBAO
IRINGA,51,MUFINDI,514,ISALAVANU,51404,ISALAVANU,NYALUWOSA
IRINGA,51,MUFINDI,514,ISALAVANU,51404,ISALAVANU,MAMBA
IRINGA,51,MUFINDI,514,ISALAVANU,51404,ISALAVANU,KIDEGEMANGA
IRINGA,51,MUFINDI,514,ISALAVANU,51404,UGUTE,MLEVELWA
IRINGA,51,MUFINDI,514,ISALAVANU,51404,UGUTE,KIHESA
IRINGA,51,MUFINDI,514,ISALAVANU,51404,UGUTE,UGUTE
IRINGA,51,MUFINDI,514,ISALAVANU,51404,KIKOMBO,IFINGO
IRINGA,51,MUFINDI,514,ISALAVANU,51404,KIKOMBO,KIKOMBO
IRINGA,51,MUFINDI,514,ISALAVANU,51404,KIKOMBO,UTOLELA
IRINGA,51,MUFINDI,514,ISALAVANU,51404,KIKOMBO,IKERETU
IRINGA,51,MUFINDI,514,ISALAVANU,51404,MADUMA,MADUMA
IRINGA,51,MUFINDI,514,ISALAVANU,51404,MADUMA,USAVILA
IRINGA,51,MUFINDI,514,ISALAVANU,51404,MADUMA,ISALAVANU
IRINGA,51,MUFINDI,514,ISALAVANU,51404,MADUMA,ULELING'OMBE
IRINGA,51,MUFINDI,514,RUNGEMBA,51405,RUNGEMBA,MAKWAWA
IRINGA,51,MUFINDI,514,RUNGEMBA,51405,RUNGEMBA,NJIAPANDA
IRINGA,51,MUFINDI,514,RUNGEMBA,51405,RUNGEMBA,SHULENI
IRINGA,51,MUFINDI,514,RUNGEMBA,51405,RUNGEMBA,KIBENA
IRINGA,51,MUFINDI,514,RUNGEMBA,51405,RUNGEMBA,MAJENGOMAPYA
IRINGA,51,MUFINDI,514,RUNGEMBA,51405,KITELEWASI,MTAKUJA
IRINGA,51,MUFINDI,514,RUNGEMBA,51405,KITELEWASI,MWONGOZO
IRINGA,51,MUFINDI,514,RUNGEMBA,51405,KITELEWASI,NEEMA
IRINGA,51,MUFINDI,514,RUNGEMBA,51405,ITIMBO,MJIMWEMA
IRINGA,51,MUFINDI,514,RUNGEMBA,51405,ITIMBO,MLIMANI
IRINGA,51,MUFINDI,514,RUNGEMBA,51405,ITIMBO,LULANDA
IRINGA,51,MUFINDI,514,RUNGEMBA,51405,ITIMBO,GEZAULOLE
IRINGA,51,MUFINDI,514,RUNGEMBA,51405,ITIMBO,MAJENGO
IRINGA,51,MUFINDI,514,IFWAGI,51406,IFWAGI,ILANDUTWA
IRINGA,51,MUFINDI,514,IFWAGI,51406,IFWAGI,IGUMULA
IRINGA,51,MUFINDI,514,IFWAGI,51406,IFWAGI,ITIMBO
IRINGA,51,MUFINDI,514,IFWAGI,51406,IFWAGI,IKONONGO
IRINGA,51,MUFINDI,514,IFWAGI,51406,IFWAGI,KISILU
IRINGA,51,MUFINDI,514,IFWAGI,51406,IFUPIRA,LUHANGA
IRINGA,51,MUFINDI,514,IFWAGI,51406,IFUPIRA,GODOWN
IRINGA,51,MUFINDI,514,IFWAGI,51406,IFUPIRA,KIDOPE
IRINGA,51,MUFINDI,514,IFWAGI,51406,IFUPIRA,FUKALENDI
IRINGA,51,MUFINDI,514,IFWAGI,51406,ITONA,ITIMBO
IRINGA,51,MUFINDI,514,IFWAGI,51406,ITONA,ITONA KATI
IRINGA,51,MUFINDI,514,IFWAGI,51406,ITONA,LUGOLOFU
IRINGA,51,MUFINDI,514,IFWAGI,51406,ITONA,ILANGI ITONA
IRINGA,51,MUFINDI,514,IFWAGI,51406,MWITIKILWA,MPALULO
IRINGA,51,MUFINDI,514,IFWAGI,51406,MWITIKILWA,MWITIKILWA
IRINGA,51,MUFINDI,514,IFWAGI,51406,MWITIKILWA,UHELESI
IRINGA,51,MUFINDI,514,IFWAGI,51406,MWITIKILWA,KIPINI
IRINGA,51,MUFINDI,514,MTWANGO,51407,MTWANGO,KUSINI
IRINGA,51,MUFINDI,514,MTWANGO,51407,MTWANGO,KATI
IRINGA,51,MUFINDI,514,MTWANGO,51407,MTWANGO,KASKAZINI
IRINGA,51,MUFINDI,514,MTWANGO,51407,LUFUNA,OFISINI
IRINGA,51,MUFINDI,514,MTWANGO,51407,LUFUNA,KINOGA
IRINGA,51,MUFINDI,514,MTWANGO,51407,LUFUNA,SOWETO
IRINGA,51,MUFINDI,514,MTWANGO,51407,LUFUNA,KIDETE
IRINGA,51,MUFINDI,514,MTWANGO,51407,MPANGA,NGALANGA
IRINGA,51,MUFINDI,514,MTWANGO,51407,MPANGA,MATIGA
IRINGA,51,MUFINDI,514,MTWANGO,51407,MPANGA,MCHANGAMWEUSI
IRINGA,51,MUFINDI,514,MTWANGO,51407,MPANGA,MAKETE
IRINGA,51,MUFINDI,514,MTWANGO,51407,MPANGA,MAENDELEO
IRINGA,51,MUFINDI,514,MTWANGO,51407,KITIRU,MSOMBE
IRINGA,51,MUFINDI,514,MTWANGO,51407,KITIRU,IHANZA
IRINGA,51,MUFINDI,514,MTWANGO,51407,KITIRU,IHEGE
IRINGA,51,MUFINDI,514,MTWANGO,51407,KITIRU,MJIMWEMA
IRINGA,51,MUFINDI,514,MTWANGO,51407,SAWALA,SAWALA KATI
IRINGA,51,MUFINDI,514,MTWANGO,51407,SAWALA,MLIMBA
IRINGA,51,MUFINDI,514,MTWANGO,51407,SAWALA,NJIAPANDA
IRINGA,51,MUFINDI,514,MTWANGO,51407,SAWALA,KALINGA
IRINGA,51,MUFINDI,514,MTWANGO,51407,SAWALA,MJIMWEMA
IRINGA,51,MUFINDI,514,MTWANGO,51407,SAWALA,LUPANGILO
IRINGA,51,MUFINDI,514,MTWANGO,51407,KIBAO,KIBAO
IRINGA,51,MUFINDI,514,MTWANGO,51407,KIBAO,BWAWANI
IRINGA,51,MUFINDI,514,MTWANGO,51407,KIBAO,POSTA
IRINGA,51,MUFINDI,514,MTWANGO,51407,KIBAO,MGELUKA
IRINGA,51,MUFINDI,514,MTWANGO,51407,KIBAO,TUMAINI
IRINGA,51,MUFINDI,514,MTWANGO,51407,KIBAO,FORESTI
IRINGA,51,MUFINDI,514,MTWANGO,51407,KIBAO,KIGONGO
IRINGA,51,MUFINDI,514,MNINGA,51408,ITULITULI,KIBATA
IRINGA,51,MUFINDI,514,MNINGA,51408,ITULITULI,UPEMBELESA
IRINGA,51,MUFINDI,514,MNINGA,51408,ITULITULI,ULUNDIBALULA
IRINGA,51,MUFINDI,514,MNINGA,51408,MNINGA,UTUNIKA
IRINGA,51,MUFINDI,514,MNINGA,51408,MNINGA,MLIMANI
IRINGA,51,MUFINDI,514,MNINGA,51408,MNINGA,MWASIMBA
IRINGA,51,MUFINDI,514,MNINGA,51408,MNINGA,LUNYIGI
IRINGA,51,MUFINDI,514,MNINGA,51408,MNINGA,MAJENGO
IRINGA,51,MUFINDI,514,MNINGA,51408,MNINGA,MABOGA
IRINGA,51,MUFINDI,514,MNINGA,51408,MNINGA,MLANDEGE
IRINGA,51,MUFINDI,514,MNINGA,51408,KIHANGA,MPEME
IRINGA,51,MUFINDI,514,MNINGA,51408,KIHANGA,MACHULA
IRINGA,51,MUFINDI,514,MNINGA,51408,KIHANGA,MAHENGE
IRINGA,51,MUFINDI,514,MNINGA,51408,KIHANGA,KIPAGAMO
IRINGA,51,MUFINDI,514,MNINGA,51408,KIHANGA,MAGUNGA
IRINGA,51,MUFINDI,514,MNINGA,51408,KIHANGA,MABONDE
IRINGA,51,MUFINDI,514,MNINGA,51408,MKALALA,ITOTOMA
IRINGA,51,MUFINDI,514,MNINGA,51408,MKALALA,MAHEMI
IRINGA,51,MUFINDI,514,MNINGA,51408,MKALALA,MAHANGANA
IRINGA,51,MUFINDI,514,MNINGA,51408,MKALALA,KIHESA
IRINGA,51,MUFINDI,514,MNINGA,51408,MKALALA,MTAKUJA
IRINGA,51,MUFINDI,514,MNINGA,51408,MKALALA,MADUKANI
IRINGA,51,MUFINDI,514,MNINGA,51408,IKWEGA,MGELUKA
IRINGA,51,MUFINDI,514,MNINGA,51408,IKWEGA,LUKOSI
IRINGA,51,MUFINDI,514,MNINGA,51408,IKWEGA,IHUU
IRINGA,51,MUFINDI,514,MNINGA,51408,IKWEGA,KIWANJANI
IRINGA,51,MUFINDI,514,MNINGA,51408,IKWEGA,NDAHAVE
IRINGA,51,MUFINDI,514,MNINGA,51408,IKWEGA,KISEMBO
IRINGA,51,MUFINDI,514,IGOWOLE,51409,IGOWOLE,IHANGA
IRINGA,51,MUFINDI,514,IGOWOLE,51409,IGOWOLE,KITONGA
IRINGA,51,MUFINDI,514,IGOWOLE,51409,IGOWOLE,MHAMATI
IRINGA,51,MUFINDI,514,IGOWOLE,51409,IGOWOLE,MAHAGA
IRINGA,51,MUFINDI,514,IGOWOLE,51409,IGOWOLE,KITAMVANGA
IRINGA,51,MUFINDI,514,IGOWOLE,51409,IGOWOLE,MUHEMI
IRINGA,51,MUFINDI,514,IGOWOLE,51409,IGOWOLE,PASODZI
IRINGA,51,MUFINDI,514,IGOWOLE,51409,IGOWOLE,LIGU
IRINGA,51,MUFINDI,514,IGOWOLE,51409,IGOWOLE,KAFUFU
IRINGA,51,MUFINDI,514,IGOWOLE,51409,IGOWOLE,IFWAGI
IRINGA,51,MUFINDI,514,IGOWOLE,51409,NZIVI,NYALATI
IRINGA,51,MUFINDI,514,IGOWOLE,51409,NZIVI,NZIVI  A
IRINGA,51,MUFINDI,514,IGOWOLE,51409,NZIVI,NZIVI  B
IRINGA,51,MUFINDI,514,IGOWOLE,51409,NZIVI,KIPYANGA
IRINGA,51,MUFINDI,514,IGOWOLE,51409,NZIVI,MTWANGO
IRINGA,51,MUFINDI,514,IGOWOLE,51409,NZIVI,LUGALO
IRINGA,51,MUFINDI,514,IGOWOLE,51409,NZIVI,KWAGANGA
IRINGA,51,MUFINDI,514,IGOWOLE,51409,KISASA,MATALAWE
IRINGA,51,MUFINDI,514,IGOWOLE,51409,KISASA,NG'ANG'ANWA
IRINGA,51,MUFINDI,514,IGOWOLE,51409,KISASA,KINEGA
IRINGA,51,MUFINDI,514,IGOWOLE,51409,KISASA,SUCHI
IRINGA,51,MUFINDI,514,IGOWOLE,51409,IBATU,MATELEFU
IRINGA,51,MUFINDI,514,IGOWOLE,51409,IBATU,KANISANI
IRINGA,51,MUFINDI,514,IGOWOLE,51409,IBATU,MANGALALE
IRINGA,51,MUFINDI,514,IGOWOLE,51409,IBATU,TAGAMENDA
IRINGA,51,MUFINDI,514,IGOWOLE,51409,IBATU,KIGOHA
IRINGA,51,MUFINDI,514,NYOLOLO,51410,NYOLOLO SHULENI,MLIMANI
IRINGA,51,MUFINDI,514,NYOLOLO,51410,NYOLOLO SHULENI,KILIMAHEWA
IRINGA,51,MUFINDI,514,NYOLOLO,51410,NYOLOLO SHULENI,AMANI
IRINGA,51,MUFINDI,514,NYOLOLO,51410,NYOLOLO SHULENI,SHULENI
IRINGA,51,MUFINDI,514,NYOLOLO,51410,NYOLOLO SHULENI,KUMEKUCHA
IRINGA,51,MUFINDI,514,NYOLOLO,51410,NYOLOLO SHULENI,MAJENGO
IRINGA,51,MUFINDI,514,NYOLOLO,51410,NYOLOLO SHULENI,ILALA
IRINGA,51,MUFINDI,514,NYOLOLO,51410,LWING'ULO,KILONGO
IRINGA,51,MUFINDI,514,NYOLOLO,51410,LWING'ULO,SHULENI
IRINGA,51,MUFINDI,514,NYOLOLO,51410,LWING'ULO,MLEVELWA
IRINGA,51,MUFINDI,514,NYOLOLO,51410,LWING'ULO,KANISANI
IRINGA,51,MUFINDI,514,NYOLOLO,51410,LWING'ULO,MTILI
IRINGA,51,MUFINDI,514,NYOLOLO,51410,NYOLOLO NJIAPANDA,JANGWANI
IRINGA,51,MUFINDI,514,NYOLOLO,51410,NYOLOLO NJIAPANDA,ILALA
IRINGA,51,MUFINDI,514,NYOLOLO,51410,NYOLOLO NJIAPANDA,MAJENGO MAPYA
IRINGA,51,MUFINDI,514,NYOLOLO,51410,NYOLOLO NJIAPANDA,SOKONI
IRINGA,51,MUFINDI,514,NYOLOLO,51410,NYOLOLO NJIAPANDA,TWICO ROAD
IRINGA,51,MUFINDI,514,NYOLOLO,51410,NYOLOLO NJIAPANDA,MUFINDI ROAD
IRINGA,51,MUFINDI,514,NYOLOLO,51410,NJOJO,MAKABILA
IRINGA,51,MUFINDI,514,NYOLOLO,51410,NJOJO,MTUNDU
IRINGA,51,MUFINDI,514,NYOLOLO,51410,NJOJO,LUGALALA
IRINGA,51,MUFINDI,514,NYOLOLO,51410,NJOJO,MAKWALE
IRINGA,51,MUFINDI,514,NYOLOLO,51410,NJOJO,AMANI
IRINGA,51,MUFINDI,514,NYOLOLO,51410,NJOJO,JANGWANI
IRINGA,51,MUFINDI,514,BUMILAYINGA,51411,MATANANA,CHALUGA
IRINGA,51,MUFINDI,514,BUMILAYINGA,51411,MATANANA,MATANANA
IRINGA,51,MUFINDI,514,BUMILAYINGA,51411,MATANANA,LEGEZA
IRINGA,51,MUFINDI,514,BUMILAYINGA,51411,ULOLE,ULOLE
IRINGA,51,MUFINDI,514,BUMILAYINGA,51411,ULOLE,MAKANYAGIO
IRINGA,51,MUFINDI,514,BUMILAYINGA,51411,ULOLE,NYAMWEZI
IRINGA,51,MUFINDI,514,BUMILAYINGA,51411,BUMILAYINGA,KIPAGAMO  A
IRINGA,51,MUFINDI,514,BUMILAYINGA,51411,BUMILAYINGA,KIPAGAMO  B
IRINGA,51,MUFINDI,514,BUMILAYINGA,51411,BUMILAYINGA,SONGAMBELE
IRINGA,51,MUFINDI,514,BUMILAYINGA,51411,BUMILAYINGA,NGELELE
IRINGA,51,MUFINDI,514,BUMILAYINGA,51411,BUMILAYINGA,MAKUNGU
IRINGA,51,MUFINDI,514,BUMILAYINGA,51411,BUMILAYINGA,BUMILAYINGA
IRINGA,51,MUFINDI,514,BUMILAYINGA,51411,BUMILAYINGA,IDITIMA
IRINGA,51,MUFINDI,514,BUMILAYINGA,51411,BUMILAYINGA,KILIMAHEWA
IRINGA,51,MUFINDI,514,BUMILAYINGA,51411,KISADA,MJIMWEMA
IRINGA,51,MUFINDI,514,BUMILAYINGA,51411,KISADA,KILIMAHEWA
IRINGA,51,MUFINDI,514,BUMILAYINGA,51411,KISADA,NDOLELA
IRINGA,51,MUFINDI,514,BUMILAYINGA,51411,KISADA,MGELUKA
IRINGA,51,MUFINDI,514,BUMILAYINGA,51411,KISADA,IHEMI
IRINGA,51,MUFINDI,514,BUMILAYINGA,51411,KISADA,KINYANGESI
IRINGA,51,MUFINDI,514,IGOMBAVANU,51412,IGOMBAVANU,WELELA
IRINGA,51,MUFINDI,514,IGOMBAVANU,51412,IGOMBAVANU,ISELA
IRINGA,51,MUFINDI,514,IGOMBAVANU,51412,IGOMBAVANU,IGOMBAVANU
IRINGA,51,MUFINDI,514,IGOMBAVANU,51412,IGOMBAVANU,MAVENGI
IRINGA,51,MUFINDI,514,IGOMBAVANU,51412,IGOMBAVANU,LUGA
IRINGA,51,MUFINDI,514,IGOMBAVANU,51412,IGOMBAVANU,MGAGU
IRINGA,51,MUFINDI,514,IGOMBAVANU,51412,LUGODALUTALI,VIBUMU
IRINGA,51,MUFINDI,514,IGOMBAVANU,51412,LUGODALUTALI,NDIUKA
IRINGA,51,MUFINDI,514,IGOMBAVANU,51412,LUGODALUTALI,NGELEVALA
IRINGA,51,MUFINDI,514,IGOMBAVANU,51412,LUGODALUTALI,BEGAKWABEGA
IRINGA,51,MUFINDI,514,IGOMBAVANU,51412,LUGODALUTALI,IVYALE
IRINGA,51,MUFINDI,514,IGOMBAVANU,51412,LUGODALUTALI,ULILA
IRINGA,51,MUFINDI,514,IGOMBAVANU,51412,UHAMBILA,RUNGEMBA
IRINGA,51,MUFINDI,514,IGOMBAVANU,51412,UHAMBILA,UHAMBILA
IRINGA,51,MUFINDI,514,IGOMBAVANU,51412,UHAMBILA,KITAVANGU
IRINGA,51,MUFINDI,514,IGOMBAVANU,51412,MAPOGORO,MAPOGORO
IRINGA,51,MUFINDI,514,IGOMBAVANU,51412,MAPOGORO,MTAGWA
IRINGA,51,MUFINDI,514,IGOMBAVANU,51412,MAPOGORO,WENGE
IRINGA,51,MUFINDI,514,IGOMBAVANU,51412,MAPOGORO,MBUGA
IRINGA,51,MUFINDI,514,IGOMBAVANU,51412,MAPOGORO,UKEMELE
IRINGA,51,MUFINDI,514,IGOMBAVANU,51412,MAPOGORO,MATELEFU
IRINGA,51,MUFINDI,514,IGOMBAVANU,51412,MAKONGOMI,MDETE
IRINGA,51,MUFINDI,514,IGOMBAVANU,51412,MAKONGOMI,MTITU
IRINGA,51,MUFINDI,514,IGOMBAVANU,51412,MAKONGOMI,IMALANG'ANI
IRINGA,51,MUFINDI,514,SADANI,51413,UTOSI,IGULA
IRINGA,51,MUFINDI,514,SADANI,51413,UTOSI,IPANDE
IRINGA,51,MUFINDI,514,SADANI,51413,UTOSI,MPWAPWA
IRINGA,51,MUFINDI,514,SADANI,51413,UTOSI,IVANGIMALE
IRINGA,51,MUFINDI,514,SADANI,51413,UTOSI,IGELEKESA
IRINGA,51,MUFINDI,514,SADANI,51413,UTOSI,MGALO
IRINGA,51,MUFINDI,514,SADANI,51413,TAMBALANG'OMBE,MJIMWEMA
IRINGA,51,MUFINDI,514,SADANI,51413,TAMBALANG'OMBE,MATALAWE
IRINGA,51,MUFINDI,514,SADANI,51413,TAMBALANG'OMBE,ITENGULE
IRINGA,51,MUFINDI,514,SADANI,51413,TAMBALANG'OMBE,WAHE
IRINGA,51,MUFINDI,514,SADANI,51413,IGOMAA,MAPOGORO
IRINGA,51,MUFINDI,514,SADANI,51413,IGOMAA,KISIWANI
IRINGA,51,MUFINDI,514,SADANI,51413,IGOMAA,KINEGEMBASI
IRINGA,51,MUFINDI,514,SADANI,51413,IGOMAA,KILIMAHEWA
IRINGA,51,MUFINDI,514,SADANI,51413,IHANZUTWA,CHANGARAWE
IRINGA,51,MUFINDI,514,SADANI,51413,IHANZUTWA,IHAGALA
IRINGA,51,MUFINDI,514,SADANI,51413,IHANZUTWA,IGUNDAMUNYO
IRINGA,51,MUFINDI,514,SADANI,51413,KIBADA,MAVINDI
IRINGA,51,MUFINDI,514,SADANI,51413,KIBADA,MPWAPWA
IRINGA,51,MUFINDI,514,SADANI,51413,KIBADA,MSOSA
IRINGA,51,MUFINDI,514,SADANI,51413,KIBADA,LULANDA
IRINGA,51,MUFINDI,514,IKWEHA,51414,UGENZA,UGENZA
IRINGA,51,MUFINDI,514,IKWEHA,51414,UGENZA,MAKOLOLA
IRINGA,51,MUFINDI,514,IKWEHA,51414,UGENZA,ITIPINGI
IRINGA,51,MUFINDI,514,IKWEHA,51414,UGENZA,MHENYI
IRINGA,51,MUFINDI,514,IKWEHA,51414,UGENZA,MWAYA
IRINGA,51,MUFINDI,514,IKWEHA,51414,UGENZA,LUFINGO
IRINGA,51,MUFINDI,514,IKWEHA,51414,UGENZA,MBALALI
IRINGA,51,MUFINDI,514,IKWEHA,51414,UGENZA,SINAI A
IRINGA,51,MUFINDI,514,IKWEHA,51414,UGENZA,SINAI B
IRINGA,51,MUFINDI,514,IKWEHA,51414,UGENZA,IBUDE
IRINGA,51,MUFINDI,514,IKWEHA,51414,IKWEHA,KADEGE
IRINGA,51,MUFINDI,514,IKWEHA,51414,IKWEHA,IKULU
IRINGA,51,MUFINDI,514,IKWEHA,51414,IKWEHA,KISENGAMKIVA
IRINGA,51,MUFINDI,514,IKWEHA,51414,IKWEHA,KINYAMWIGIGI
IRINGA,51,MUFINDI,514,IKWEHA,51414,IKWEHA,ULUNDE
IRINGA,51,MUFINDI,514,IKWEHA,51414,IKWEHA,ILANGAMOTO
IRINGA,51,MUFINDI,514,IKWEHA,51414,IKWEHA,ULAYA
IRINGA,51,MUFINDI,514,IKWEHA,51414,IKWEHA,MTIMBILI
IRINGA,51,MUFINDI,514,IKWEHA,51414,UKELEMI,UKELEMI
IRINGA,51,MUFINDI,514,IKWEHA,51414,UKELEMI,MAKUNGU
IRINGA,51,MUFINDI,514,IKWEHA,51414,UKELEMI,IHEGELA
IRINGA,51,MUFINDI,514,IKWEHA,51414,UKELEMI,MSOSA
IRINGA,51,MUFINDI,514,IKWEHA,51414,UYELA,MAKETE
IRINGA,51,MUFINDI,514,IKWEHA,51414,UYELA,DENYIMGUNDA
IRINGA,51,MUFINDI,514,IKWEHA,51414,UYELA,MFUMBEE
IRINGA,51,MUFINDI,514,IKWEHA,51414,UYELA,KILONGAYENA
IRINGA,51,MUFINDI,514,IHOWANZA,51415,IHOWANZA,IHOWANZA
IRINGA,51,MUFINDI,514,IHOWANZA,51415,IHOWANZA,LWANIKO
IRINGA,51,MUFINDI,514,IHOWANZA,51415,IHOWANZA,KIDINGILI
IRINGA,51,MUFINDI,514,IHOWANZA,51415,IHOWANZA,MLIMANI
IRINGA,51,MUFINDI,514,IHOWANZA,51415,IHOWANZA,IDOPE
IRINGA,51,MUFINDI,514,IHOWANZA,51415,IHOWANZA,MTAMBA
IRINGA,51,MUFINDI,514,IHOWANZA,51415,IHOWANZA,MAKABILA
IRINGA,51,MUFINDI,514,IHOWANZA,51415,KIPONDA,KIPONDA
IRINGA,51,MUFINDI,514,IHOWANZA,51415,KIPONDA,MHANGO
IRINGA,51,MUFINDI,514,IHOWANZA,51415,KIPONDA,ILANGI
IRINGA,51,MUFINDI,514,IHOWANZA,51415,KIPONDA,NG'ONGWIZELU
IRINGA,51,MUFINDI,514,IHOWANZA,51415,IPILIMO,IYAYI
IRINGA,51,MUFINDI,514,IHOWANZA,51415,IPILIMO,ILALASIMBA
IRINGA,51,MUFINDI,514,IHOWANZA,51415,IPILIMO,IHANGA
IRINGA,51,MUFINDI,514,IHOWANZA,51415,IPILIMO,ULONZI
IRINGA,51,MUFINDI,514,IHOWANZA,51415,IPILIMO,IVANGILO
IRINGA,51,MUFINDI,514,IHOWANZA,51415,KWATWANGA,MTAANI
IRINGA,51,MUFINDI,514,IHOWANZA,51415,KWATWANGA,MIFUGO
IRINGA,51,MUFINDI,514,IHOWANZA,51415,KWATWANGA,IFYULILO
IRINGA,51,MUFINDI,514,IHOWANZA,51415,KWATWANGA,UDENYIMENDE
IRINGA,51,MUFINDI,514,MALANGALI,51416,MWILAVILA,OSTABAY
IRINGA,51,MUFINDI,514,MALANGALI,51416,MWILAVILA,MIYOMBONI
IRINGA,51,MUFINDI,514,MALANGALI,51416,MWILAVILA,NGOGWA
IRINGA,51,MUFINDI,514,MALANGALI,51416,MWILAVILA,MJIMWEMA
IRINGA,51,MUFINDI,514,MALANGALI,51416,TAMBALANG'OMBE,IHAKI
IRINGA,51,MUFINDI,514,MALANGALI,51416,TAMBALANG'OMBE,ULEFI
IRINGA,51,MUFINDI,514,MALANGALI,51416,TAMBALANG'OMBE,IDIMILICHUMA
IRINGA,51,MUFINDI,514,MALANGALI,51416,TAMBALANG'OMBE,LWATO
IRINGA,51,MUFINDI,514,MALANGALI,51416,KINGEGE,ISIMBANI
IRINGA,51,MUFINDI,514,MALANGALI,51416,KINGEGE,MDINDILO
IRINGA,51,MUFINDI,514,MALANGALI,51416,KINGEGE,KINGEGE
IRINGA,51,MUFINDI,514,MALANGALI,51416,ISIMIKINYI,CHANUNU
IRINGA,51,MUFINDI,514,MALANGALI,51416,ISIMIKINYI,MGELUKA
IRINGA,51,MUFINDI,514,MALANGALI,51416,ISIMIKINYI,MIFUGO
IRINGA,51,MUFINDI,514,MALANGALI,51416,ISIMIKINYI,KATI
IRINGA,51,MUFINDI,514,MALANGALI,51416,ITENGULE,LYANIKA
IRINGA,51,MUFINDI,514,MALANGALI,51416,ITENGULE,ILUNDIBALULA
IRINGA,51,MUFINDI,514,MALANGALI,51416,ITENGULE,LUMANI
IRINGA,51,MUFINDI,514,MALANGALI,51416,ITENGULE,ITENGULE
IRINGA,51,MUFINDI,514,MBALAMAZIWA,51417,MBALAMAZIWA,MBALAMAZIWA  A
IRINGA,51,MUFINDI,514,MBALAMAZIWA,51417,MBALAMAZIWA,MBALAMAZIWA  B
IRINGA,51,MUFINDI,514,MBALAMAZIWA,51417,NYANYEMBE,IDITIMA
IRINGA,51,MUFINDI,514,MBALAMAZIWA,51417,NYANYEMBE,MASANA
IRINGA,51,MUFINDI,514,MBALAMAZIWA,51417,NYANYEMBE,IRANGI
IRINGA,51,MUFINDI,514,MBALAMAZIWA,51417,UKEMELE,ILANGALI
IRINGA,51,MUFINDI,514,MBALAMAZIWA,51417,UKEMELE,SHULENI
IRINGA,51,MUFINDI,514,MBALAMAZIWA,51417,UKEMELE,IYAYI
IRINGA,51,MUFINDI,514,MBALAMAZIWA,51417,UKEMELE,MAKORONGONI
IRINGA,51,MUFINDI,514,MBALAMAZIWA,51417,UKEMELE,MGELUKA
IRINGA,51,MUFINDI,514,MBALAMAZIWA,51417,KITELEWASI,IBIMILAMIHO
IRINGA,51,MUFINDI,514,MBALAMAZIWA,51417,KITELEWASI,KITELEWASI
IRINGA,51,MUFINDI,514,MBALAMAZIWA,51417,KITELEWASI,BLANTAYA
IRINGA,51,MUFINDI,514,MBALAMAZIWA,51417,KITELEWASI,MADISI
IRINGA,51,MUFINDI,514,MBALAMAZIWA,51417,KITELEWASI,KINYANGESI
IRINGA,51,MUFINDI,514,MBALAMAZIWA,51417,KITELEWASI,UGIMBANO
IRINGA,51,MUFINDI,514,MBALAMAZIWA,51417,IDETERO,IDETERO
IRINGA,51,MUFINDI,514,MBALAMAZIWA,51417,IDETERO,MAKONGOMI
IRINGA,51,MUFINDI,514,MBALAMAZIWA,51417,IDETERO,MGELUKA
IRINGA,51,MUFINDI,514,MBALAMAZIWA,51417,IDETERO,UGUNGULE
IRINGA,51,MUFINDI,514,MBALAMAZIWA,51417,MAGUVANI,KILIMADWETA
IRINGA,51,MUFINDI,514,MBALAMAZIWA,51417,MAGUVANI,MJIMWEMA
IRINGA,51,MUFINDI,514,IDUNDA,51418,IKANGAMWANI,MPOGOLO  A
IRINGA,51,MUFINDI,514,IDUNDA,51418,IKANGAMWANI,MPOGOLO  B
IRINGA,51,MUFINDI,514,IDUNDA,51418,IKANGAMWANI,SHULENI
IRINGA,51,MUFINDI,514,IDUNDA,51418,IKANGAMWANI,KIHANGA
IRINGA,51,MUFINDI,514,IDUNDA,51418,IKANGAMWANI,ITAMBA
IRINGA,51,MUFINDI,514,IDUNDA,51418,IKANGAMWANI,KIHESA
IRINGA,51,MUFINDI,514,IDUNDA,51418,IDUMLAVANU,IKONONGO
IRINGA,51,MUFINDI,514,IDUNDA,51418,IDUMLAVANU,LUWANGO
IRINGA,51,MUFINDI,514,IDUNDA,51418,IDUMLAVANU,IDUMILAVANU
IRINGA,51,MUFINDI,514,IDUNDA,51418,IDUMLAVANU,IVAGULA
IRINGA,51,MUFINDI,514,IDUNDA,51418,IDUMLAVANU,NGALANGA
IRINGA,51,MUFINDI,514,IDUNDA,51418,IDUMLAVANU,KWAMBAKA
IRINGA,51,MUFINDI,514,IDUNDA,51418,MKANGWE,MLANGALI
IRINGA,51,MUFINDI,514,IDUNDA,51418,MKANGWE,UTAGINYI
IRINGA,51,MUFINDI,514,IDUNDA,51418,MKANGWE,KATENGE
IRINGA,51,MUFINDI,514,ITANDULA,51419,IRAMBA,TAMBALANG'OMBE
IRINGA,51,MUFINDI,514,ITANDULA,51419,IRAMBA,MLIMANI
IRINGA,51,MUFINDI,514,ITANDULA,51419,IRAMBA,ILOLE
IRINGA,51,MUFINDI,514,ITANDULA,51419,IRAMBA,KIVELE A
IRINGA,51,MUFINDI,514,ITANDULA,51419,IRAMBA,KIVELE B
IRINGA,51,MUFINDI,514,ITANDULA,51419,KINEGEMBASI,SHULENI A
IRINGA,51,MUFINDI,514,ITANDULA,51419,KINEGEMBASI,MLIMANI  B
IRINGA,51,MUFINDI,514,ITANDULA,51419,KINEGEMBASI,RUAHA  D
IRINGA,51,MUFINDI,514,ITANDULA,51419,KINEGEMBASI,UNYANYE C
IRINGA,51,MUFINDI,514,ITANDULA,51419,NYIGO,BOMBA A
IRINGA,51,MUFINDI,514,ITANDULA,51419,NYIGO,BOMBA B
IRINGA,51,MUFINDI,514,ITANDULA,51419,NYIGO,MNYALA
IRINGA,51,MUFINDI,514,ITANDULA,51419,NYIGO,MJIMWEMA
IRINGA,51,MUFINDI,514,ITANDULA,51419,IHAWAGA,KITASENGWA
IRINGA,51,MUFINDI,514,ITANDULA,51419,IHAWAGA,MLIMANI
IRINGA,51,MUFINDI,514,ITANDULA,51419,IHAWAGA,KIHANGA
IRINGA,51,MUFINDI,514,ITANDULA,51419,IHAWAGA,KINYANAMBO
IRINGA,51,MUFINDI,514,ITANDULA,51419,IKIMILINZOWO,MJIMWEMA
IRINGA,51,MUFINDI,514,ITANDULA,51419,IKIMILINZOWO,ITULILO
IRINGA,51,MUFINDI,514,ITANDULA,51419,IKIMILINZOWO,KISAULA
IRINGA,51,MUFINDI,514,ITANDULA,51419,IKIMILINZOWO,RUAHA
IRINGA,51,MUFINDI,514,ITANDULA,51419,IKIMILINZOWO,MTAKUJA
IRINGA,51,MUFINDI,514,MTAMBULA,51420,MTAMBULA,MJIMWEMA
IRINGA,51,MUFINDI,514,MTAMBULA,51420,MTAMBULA,IDODI
IRINGA,51,MUFINDI,514,MTAMBULA,51420,MTAMBULA,MSUMBIJI
IRINGA,51,MUFINDI,514,MTAMBULA,51420,MTAMBULA,MLANDIZI
IRINGA,51,MUFINDI,514,MTAMBULA,51420,NYAKIPAMBO,SHULENI
IRINGA,51,MUFINDI,514,MTAMBULA,51420,NYAKIPAMBO,MAGUNGA
IRINGA,51,MUFINDI,514,MTAMBULA,51420,NYAKIPAMBO,KIHOVELA
IRINGA,51,MUFINDI,514,MTAMBULA,51420,NYAKIPAMBO,SONGAMBELE
IRINGA,51,MUFINDI,514,MTAMBULA,51420,IPILIMO,UDOSONGALA
IRINGA,51,MUFINDI,514,MTAMBULA,51420,IPILIMO,MJIMWEMA
IRINGA,51,MUFINDI,514,MTAMBULA,51420,IPILIMO,SAWALA
IRINGA,51,MUFINDI,514,MTAMBULA,51420,IPILIMO,IMAGE
IRINGA,51,MUFINDI,514,MTAMBULA,51420,IPILIMO,TAMBALANG'OMBE
IRINGA,51,MUFINDI,514,MTAMBULA,51420,IPILIMO,MWESA
IRINGA,51,MUFINDI,514,MTAMBULA,51420,IHEGELA,SHULENI
IRINGA,51,MUFINDI,514,MTAMBULA,51420,IHEGELA,MASAULA
IRINGA,51,MUFINDI,514,KASANGA,51421,KASANGA,IKATAMI
IRINGA,51,MUFINDI,514,KASANGA,51421,KASANGA,TANGINI
IRINGA,51,MUFINDI,514,KASANGA,51421,KASANGA,IGOMINYI
IRINGA,51,MUFINDI,514,KASANGA,51421,KASANGA,KATI
IRINGA,51,MUFINDI,514,KASANGA,51421,KASANGA,ILONGELO
IRINGA,51,MUFINDI,514,KASANGA,51421,KASANGA,NGELELE
IRINGA,51,MUFINDI,514,KASANGA,51421,KASANGA,LUPUNGA
IRINGA,51,MUFINDI,514,KASANGA,51421,IHOMASA,LUNG'ANG'ANO
IRINGA,51,MUFINDI,514,KASANGA,51421,IHOMASA,MJIMWEMA
IRINGA,51,MUFINDI,514,KASANGA,51421,IHOMASA,NYUMBANITU
IRINGA,51,MUFINDI,514,KASANGA,51421,IHOMASA,MLIMANI
IRINGA,51,MUFINDI,514,KASANGA,51421,IHOMASA,IHOMASA  B
IRINGA,51,MUFINDI,514,KASANGA,51421,IHOMASA,ISATILE
IRINGA,51,MUFINDI,514,KASANGA,51421,UDUMKA,FINGE
IRINGA,51,MUFINDI,514,KASANGA,51421,UDUMKA,LUHOTA
IRINGA,51,MUFINDI,514,KASANGA,51421,UDUMKA,MASILU
IRINGA,51,MUFINDI,514,KASANGA,51421,UDUMKA,SOLECK
IRINGA,51,MUFINDI,514,KASANGA,51421,UDUMKA,IDETELO
IRINGA,51,MUFINDI,514,KASANGA,51421,UDUMKA,NYAKANANI
IRINGA,51,MUFINDI,514,KASANGA,51421,UDUMKA,IGONAMBOGO
IRINGA,51,MUFINDI,514,KASANGA,51421,UDUMKA,RAMADHANI
IRINGA,51,MUFINDI,514,KASANGA,51421,LWANG'A,IGONAMBOGO
IRINGA,51,MUFINDI,514,KASANGA,51421,LWANG'A,UWANJA WA NDEGE
IRINGA,51,MUFINDI,514,KASANGA,51421,LWANG'A,ISAULA
IRINGA,51,MUFINDI,514,KASANGA,51421,LWANG'A,ITIMBO
IRINGA,51,MUFINDI,514,KASANGA,51421,KILOLO,MAPINDUZI
IRINGA,51,MUFINDI,514,KASANGA,51421,KILOLO,ISAKALILO
IRINGA,51,MUFINDI,514,KASANGA,51421,KILOLO,KIPI
IRINGA,51,MUFINDI,514,KASANGA,51421,KILOLO,MAJALIBIO
IRINGA,51,MUFINDI,514,KASANGA,51421,KILOLO,MWONGOZO
IRINGA,51,MUFINDI,514,KASANGA,51421,KILOLO,AMANI
IRINGA,51,MUFINDI,514,KASANGA,51421,KILOLO,MLIMAHEWA
IRINGA,51,MUFINDI,514,KASANGA,51421,KILOLO,MUUNGANO
IRINGA,51,MUFINDI,514,KASANGA,51421,KILOLO,HATAMU
IRINGA,51,MUFINDI,514,KIYOWELA,51422,MAGUNGULI,MIYAGO
IRINGA,51,MUFINDI,514,KIYOWELA,51422,MAGUNGULI,KATI
IRINGA,51,MUFINDI,514,KIYOWELA,51422,MAGUNGULI,MAGOMENI
IRINGA,51,MUFINDI,514,KIYOWELA,51422,MAGUNGULI,MTUNDURU
IRINGA,51,MUFINDI,514,KIYOWELA,51422,ISAULA,MGELUKA
IRINGA,51,MUFINDI,514,KIYOWELA,51422,ISAULA,MLIMA WA SHULE
IRINGA,51,MUFINDI,514,KIYOWELA,51422,ISAULA,ITUTA
IRINGA,51,MUFINDI,514,KIYOWELA,51422,KIYOWELA,MLIMA WA  STESHENI
IRINGA,51,MUFINDI,514,KIYOWELA,51422,KIYOWELA,MLIMA WA KATI
IRINGA,51,MUFINDI,514,KIYOWELA,51422,KIYOWELA,MLIMA WA SHULE
IRINGA,51,MUFINDI,514,MAKUNGU,51423,MAKUNGU,MUUNGANO
IRINGA,51,MUFINDI,514,MAKUNGU,51423,MAKUNGU,LOLE
IRINGA,51,MUFINDI,514,MAKUNGU,51423,MAKUNGU,LUGAVILO
IRINGA,51,MUFINDI,514,MAKUNGU,51423,MABAONI,KIDINDYE
IRINGA,51,MUFINDI,514,MAKUNGU,51423,MABAONI,MSHIKAMANO
IRINGA,51,MUFINDI,514,MAKUNGU,51423,MABAONI,TAZARA
IRINGA,51,MUFINDI,514,MAKUNGU,51423,MABAONI,MABAONI
IRINGA,51,MUFINDI,514,MAKUNGU,51423,LUGOLOFU,ULETE
IRINGA,51,MUFINDI,514,MAKUNGU,51423,LUGOLOFU,UZUNGUNI
IRINGA,51,MUFINDI,514,MAKUNGU,51423,LUGOLOFU,RUAHA
IRINGA,51,MUFINDI,514,MAKUNGU,51423,KITASENGWA,MWENGE
IRINGA,51,MUFINDI,514,MAKUNGU,51423,KITASENGWA,MATUMAINI
IRINGA,51,MUFINDI,514,MAKUNGU,51423,KITASENGWA,MWONGOZO
IRINGA,51,MUFINDI,514,MAKUNGU,51423,LUGEMA,MAJENGO
IRINGA,51,MUFINDI,514,MAKUNGU,51423,LUGEMA,MLIMA WA SHULE
IRINGA,51,MUFINDI,514,MAKUNGU,51423,LUGEMA,MLIMA WA KANISA
IRINGA,51,MUFINDI,514,LUHUNGA,51424,LUHUNGA,KITWITE
IRINGA,51,MUFINDI,514,LUHUNGA,51424,LUHUNGA,IGELEKE A
IRINGA,51,MUFINDI,514,LUHUNGA,51424,LUHUNGA,IGELEKE  B
IRINGA,51,MUFINDI,514,LUHUNGA,51424,LUHUNGA,KIPENDAROHO
IRINGA,51,MUFINDI,514,LUHUNGA,51424,LUHUNGA,MALANGA
IRINGA,51,MUFINDI,514,LUHUNGA,51424,LUHUNGA,MWEFU
IRINGA,51,MUFINDI,514,LUHUNGA,51424,MKONGE,KILIMATEMBO
IRINGA,51,MUFINDI,514,LUHUNGA,51424,MKONGE,MITI SABA
IRINGA,51,MUFINDI,514,LUHUNGA,51424,MKONGE,MUBALAMBA
IRINGA,51,MUFINDI,514,LUHUNGA,51424,MKONGE,MOHELE
IRINGA,51,MUFINDI,514,LUHUNGA,51424,MKONGE,LUGODALUTALI
IRINGA,51,MUFINDI,514,LUHUNGA,51424,MKONGE,MUHUNGULU
IRINGA,51,MUFINDI,514,LUHUNGA,51424,MKONGE,ISUHE
IRINGA,51,MUFINDI,514,LUHUNGA,51424,IGODA,MWAYA
IRINGA,51,MUFINDI,514,LUHUNGA,51424,IGODA,FYOGO
IRINGA,51,MUFINDI,514,LUHUNGA,51424,IGODA,IPAFU  A
IRINGA,51,MUFINDI,514,LUHUNGA,51424,IGODA,IPAFU  B
IRINGA,51,MUFINDI,514,LUHUNGA,51424,IYEGEYA,KIBUGA
IRINGA,51,MUFINDI,514,LUHUNGA,51424,IYEGEYA,KISEGIME
IRINGA,51,MUFINDI,514,LUHUNGA,51424,IYEGEYA,LUKANGAFU
IRINGA,51,MUFINDI,514,LUHUNGA,51424,IKANING'OMBE,CHALWI
IRINGA,51,MUFINDI,514,LUHUNGA,51424,IKANING'OMBE,MITONO
IRINGA,51,MUFINDI,514,LUHUNGA,51424,IKANING'OMBE,MSOMBE
IRINGA,51,MUFINDI,514,MDABULO,51425,KIDETE,LUKWALE
IRINGA,51,MUFINDI,514,MDABULO,51425,KIDETE,USUKA
IRINGA,51,MUFINDI,514,MDABULO,51425,KIDETE,KIDETE MLIMANI
IRINGA,51,MUFINDI,514,MDABULO,51425,KIDETE,LEDI
IRINGA,51,MUFINDI,514,MDABULO,51425,MLEVELWA,NYUNZWE
IRINGA,51,MUFINDI,514,MDABULO,51425,MLEVELWA,MLEVELWA KATI
IRINGA,51,MUFINDI,514,MDABULO,51425,MLEVELWA,MSALABANI
IRINGA,51,MUFINDI,514,MDABULO,51425,IKANGA,IPEGELE
IRINGA,51,MUFINDI,514,MDABULO,51425,IKANGA,IKANGA KATI
IRINGA,51,MUFINDI,514,MDABULO,51425,IKANGA,UKELAUGI
IRINGA,51,MUFINDI,514,MDABULO,51425,IKANGA,LYOVELA
IRINGA,51,MUFINDI,514,MDABULO,51425,IHEFU,LUHUGA
IRINGA,51,MUFINDI,514,MDABULO,51425,IHEFU,KINYIMBILI
IRINGA,51,MUFINDI,514,MDABULO,51425,IHEFU,ILASA
IRINGA,51,MUFINDI,514,MDABULO,51425,IHEFU,CHAMWIFI
IRINGA,51,MUFINDI,514,MDABULO,51425,IHEFU,MAKINDA
IRINGA,51,MUFINDI,514,MDABULO,51425,LUDILO,MJIMWEMA
IRINGA,51,MUFINDI,514,MDABULO,51425,LUDILO,MTANGA
IRINGA,51,MUFINDI,514,MDABULO,51425,LUDILO,LUDILO KATI
IRINGA,51,MUFINDI,514,IHALIMBA,51426,IHALIMBA,KIHESA
IRINGA,51,MUFINDI,514,IHALIMBA,51426,IHALIMBA,MIFUGO
IRINGA,51,MUFINDI,514,IHALIMBA,51426,IHALIMBA,MJINI
IRINGA,51,MUFINDI,514,IHALIMBA,51426,IHALIMBA,MAJENGO
IRINGA,51,MUFINDI,514,IHALIMBA,51426,IHALIMBA,MJIMWEMA
IRINGA,51,MUFINDI,514,IHALIMBA,51426,VIKULA,CHANGARAWE
IRINGA,51,MUFINDI,514,IHALIMBA,51426,VIKULA,MAKAO
IRINGA,51,MUFINDI,514,IHALIMBA,51426,VIKULA,MHESA
IRINGA,51,MUFINDI,514,IHALIMBA,51426,VIKULA,NYANZA
IRINGA,51,MUFINDI,514,IHALIMBA,51426,NUNDWE,NUNDWE
IRINGA,51,MUFINDI,514,IHALIMBA,51426,NUNDWE,MBUGANI
IRINGA,51,MUFINDI,514,IHALIMBA,51426,NUNDWE,MTEMBWE
IRINGA,51,MUFINDI,514,IHALIMBA,51426,NUNDWE,ULOLE
IRINGA,51,MUFINDI,514,IHALIMBA,51426,UGESA,IHANSI
IRINGA,51,MUFINDI,514,IHALIMBA,51426,UGESA,KIHESA
IRINGA,51,MUFINDI,514,IHALIMBA,51426,UGESA,MAKAO MAKUU
IRINGA,51,MUFINDI,514,IHALIMBA,51426,UGESA,KATI
IRINGA,51,MUFINDI,514,IHALIMBA,51426,UGESA,KITONGA
IRINGA,51,MUFINDI,514,IHALIMBA,51426,UGESA,MUUNGANO
IRINGA,51,MUFINDI,514,IHALIMBA,51426,WAMIMBALWE,MBAGALA
IRINGA,51,MUFINDI,514,IHALIMBA,51426,WAMIMBALWE,WINOME
IRINGA,51,MUFINDI,514,IHALIMBA,51426,WAMIMBALWE,MWANGATA
IRINGA,51,MUFINDI,514,IHALIMBA,51426,WAMIMBALWE,MJIMWEMA
IRINGA,51,MUFINDI,514,IHALIMBA,51426,WAMIMBALWE,ILALA
IRINGA,51,MUFINDI,514,IHALIMBA,51426,WAMIMBALWE,KIHESA
IRINGA,51,MUFINDI,514,KIBENGU,51427,IGOMTWA,ITOFI
IRINGA,51,MUFINDI,514,KIBENGU,51427,IGOMTWA,NG'URUHE
IRINGA,51,MUFINDI,514,KIBENGU,51427,IGOMTWA,MKANZAULE
IRINGA,51,MUFINDI,514,KIBENGU,51427,IGOMTWA,MIYOMBONI
IRINGA,51,MUFINDI,514,KIBENGU,51427,IGOMTWA,KIHESA
IRINGA,51,MUFINDI,514,KIBENGU,51427,IGOMTWA,IGOMTWA
IRINGA,51,MUFINDI,514,KIBENGU,51427,IGOMTWA,IGEGELE
IRINGA,51,MUFINDI,514,KIBENGU,51427,USOKAMI,KIDETE
IRINGA,51,MUFINDI,514,KIBENGU,51427,USOKAMI,MSEGA
IRINGA,51,MUFINDI,514,KIBENGU,51427,USOKAMI,MGWAO
IRINGA,51,MUFINDI,514,KIBENGU,51427,USOKAMI,ILAMBA
IRINGA,51,MUFINDI,514,KIBENGU,51427,USOKAMI,NYAMIFWA
IRINGA,51,MUFINDI,514,KIBENGU,51427,USOKAMI,UHWANA
IRINGA,51,MUFINDI,514,KIBENGU,51427,KIBENGU,KIBENGU  A
IRINGA,51,MUFINDI,514,KIBENGU,51427,KIBENGU,KIBENGU B
IRINGA,51,MUFINDI,514,KIBENGU,51427,KIBENGU,KIBENGU  C
IRINGA,51,MUFINDI,514,KIBENGU,51427,KIBENGU,MGWAO
IRINGA,51,MUFINDI,514,KIBENGU,51427,KIBENGU,MSITU WA DUMA
IRINGA,51,MUFINDI,514,KIBENGU,51427,KIBENGU,MITANZI
IRINGA,51,MUFINDI,514,KIBENGU,51427,IGELEKE,KIHESA
IRINGA,51,MUFINDI,514,KIBENGU,51427,IGELEKE,MDODI
IRINGA,51,MUFINDI,514,KIBENGU,51427,IGELEKE,IWOMBOGOLE
IRINGA,51,MUFINDI,514,KIBENGU,51427,IGELEKE,IGANGILONGA
IRINGA,51,MUFINDI,514,KIBENGU,51427,ILONGOMBE,MAKATANI
IRINGA,51,MUFINDI,514,KIBENGU,51427,ILONGOMBE,MWANGATA
IRINGA,51,MUFINDI,514,KIBENGU,51427,ILONGOMBE,MWEMBETOGWA
IRINGA,51,MUFINDI,514,KIBENGU,51427,KIPANGA,NGANGAGA
IRINGA,51,MUFINDI,514,KIBENGU,51427,KIPANGA,IYUNGI
IRINGA,51,MUFINDI,514,KIBENGU,51427,KIPANGA,MJIMWEMA
IRINGA,51,MUFINDI,514,KIBENGU,51427,KIPANGA,ILALA
IRINGA,51,MUFINDI,514,KIBENGU,51427,KIPANGA,KIHESA
IRINGA,51,MUFINDI,514,MAPANDA,51428,MAPANDA,LUPETA
IRINGA,51,MUFINDI,514,MAPANDA,51428,MAPANDA,IHEMI
IRINGA,51,MUFINDI,514,MAPANDA,51428,MAPANDA,MUKUMBULU
IRINGA,51,MUFINDI,514,MAPANDA,51428,MAPANDA,GODAUNI
IRINGA,51,MUFINDI,514,MAPANDA,51428,MAPANDA,KIMELELA
IRINGA,51,MUFINDI,514,MAPANDA,51428,MAPANDA,ITIPINGI
IRINGA,51,MUFINDI,514,MAPANDA,51428,MAPANDA,KIWANJANI
IRINGA,51,MUFINDI,514,MAPANDA,51428,MAPANDA,NGULIKA
IRINGA,51,MUFINDI,514,MAPANDA,51428,MAPANDA,WINOME
IRINGA,51,MUFINDI,514,MAPANDA,51428,MAPANDA,LUGOLOFU
IRINGA,51,MUFINDI,514,MAPANDA,51428,IHIMBO,IHIMBO
IRINGA,51,MUFINDI,514,MAPANDA,51428,IHIMBO,MNGOGO
IRINGA,51,MUFINDI,514,MAPANDA,51428,IHIMBO,KITITU
IRINGA,51,MUFINDI,514,MAPANDA,51428,IHIMBO,LUMANZA
IRINGA,51,MUFINDI,514,MAPANDA,51428,IHIMBO,MUNGATE
IRINGA,51,MUFINDI,514,MAPANDA,51428,CHOGO,IGANGA
IRINGA,51,MUFINDI,514,MAPANDA,51428,CHOGO,LUGOLOLA
IRINGA,51,MUFINDI,514,MAPANDA,51428,CHOGO,ISELESI
IRINGA,51,MUFINDI,514,MAPANDA,51428,CHOGO,MPANGO
IRINGA,51,MUFINDI,514,MAPANDA,51428,CHOGO,ILIMBILI
IRINGA,51,MUFINDI,514,MAPANDA,51428,UKAMI,UYENGA
IRINGA,51,MUFINDI,514,MAPANDA,51428,UKAMI,KILALO
IRINGA,51,MUFINDI,514,MAPANDA,51428,UKAMI,KISUSA
IRINGA,51,MUFINDI,514,MAPANDA,51428,UKAMI,IHONGOLE
IRINGA,51,MUFINDI,514,MAPANDA,51428,UKAMI,ILANGAMOTO
IRINGA,51,MUFINDI,514,MAPANDA,51428,UKAMI,KAPONGO
IRINGA,51,MUFINDI,514,MAPANDA,51428,UKAMI,LUHOMELO
IRINGA,51,MUFINDI,514,MAPANDA,51428,UKAMI,KINYANGUSI
IRINGA,51,MUFINDI,514,MAPANDA,51428,UKAMI,MPALE
IRINGA,51,MUFINDI,514,MAPANDA,51428,UHAFIWA,MSEVE
IRINGA,51,MUFINDI,514,MAPANDA,51428,UHAFIWA,MKELA
IRINGA,51,MUFINDI,514,MAPANDA,51428,UHAFIWA,USOMA
IRINGA,51,MUFINDI,514,IHANU,51429,IBWANZI,NGULILA
IRINGA,51,MUFINDI,514,IHANU,51429,IBWANZI,MNGONGWI
IRINGA,51,MUFINDI,514,IHANU,51429,IBWANZI,SUSUMI
IRINGA,51,MUFINDI,514,IHANU,51429,IBWANZI,LWIHOMELO
IRINGA,51,MUFINDI,514,IHANU,51429,LULANDA,MTELEMKO
IRINGA,51,MUFINDI,514,IHANU,51429,LULANDA,LUGANGADA
IRINGA,51,MUFINDI,514,IHANU,51429,LULANDA,NDOLELA
IRINGA,51,MUFINDI,514,IHANU,51429,LULANDA,CHAMGUHU
IRINGA,51,MUFINDI,514,IHANU,51429,KILOSA,ING'ENYANGO
IRINGA,51,MUFINDI,514,IHANU,51429,KILOSA,IYINGU
IRINGA,51,MUFINDI,514,IHANU,51429,KILOSA,MAKALALA
IRINGA,51,MUFINDI,514,IHANU,51429,KILOSA,KITASENGWA
IRINGA,51,MUFINDI,514,IHANU,51429,KILOSA,MLEVELEWA KATI
IRINGA,51,MUFINDI,514,IHANU,51429,IHANU,ILANGAMOTO
IRINGA,51,MUFINDI,514,IHANU,51429,IHANU,IHANU
IRINGA,51,MUFINDI,514,IHANU,51429,IHANU,USULE
IRINGA,51,MUFINDI,514,IHANU,51429,NANDALA,NANDALA
IRINGA,51,MUFINDI,514,IHANU,51429,NANDALA,IDUNDA
IRINGA,51,MUFINDI,514,IHANU,51429,ISIPII,ISIPII
IRINGA,51,MUFINDI,514,IHANU,51429,ISIPII,LWEGO
IRINGA,51,MUFINDI,514,IHANU,51429,ISIPII,KIDILO
IRINGA,51,MUFINDI,514,MPANGA TAZARA,51430,MPANGA TAZARA,MLIMA WA SHULE
IRINGA,51,MUFINDI,514,MPANGA TAZARA,51430,MPANGA TAZARA,KOTA
IRINGA,51,MUFINDI,514,MPANGA TAZARA,51430,MPANGA TAZARA,KIMBWE STATION
IRINGA,51,MUFINDI,514,MPANGA TAZARA,51430,MPANGA TAZARA,MKOMAGA
IRINGA,51,MUFINDI,514,IDETE,51431,IDETE,MJIMWEMA
IRINGA,51,MUFINDI,514,IDETE,51431,IDETE,SIKAUKA
IRINGA,51,MUFINDI,514,IDETE,51431,IDETE,MIYOMBONI
IRINGA,51,MUFINDI,514,IDETE,51431,HOLO,HOLO
IRINGA,51,MUFINDI,514,IDETE,51431,HOLO,KIBALANGA
IRINGA,51,MUFINDI,514,IDETE,51431,HOLO,HOLO S/MSINGI
IRINGA,51,MUFINDI,514,IDETE,51431,ITIKA,ITIKA S/MSINGI
IRINGA,51,MUFINDI,514,IDETE,51431,ITIKA,ILANGAMOTO
IRINGA,51,MUFINDI,514,IDETE,51431,ITIKA,NJEGIME
IRINGA,51,MUFINDI,514,MADUMA,51432,MADUMA,MAVYALE  A
IRINGA,51,MUFINDI,514,MADUMA,51432,MADUMA,MAVYALE  B
IRINGA,51,MUFINDI,514,MADUMA,51432,MADUMA,KILIMAHEWA
IRINGA,51,MUFINDI,514,MADUMA,51432,MADUMA,KIBAO
IRINGA,51,MUFINDI,514,MADUMA,51432,MADUMA,MLIMBA
IRINGA,51,MUFINDI,514,MADUMA,51432,MADUMA,MSIMBAZI A
IRINGA,51,MUFINDI,514,MADUMA,51432,MADUMA,MSIMBAZI B
IRINGA,51,MUFINDI,514,MADUMA,51432,WANGAMAGANGA,KIHANGA
IRINGA,51,MUFINDI,514,MADUMA,51432,WANGAMAGANGA,IGULUVI
IRINGA,51,MUFINDI,514,MADUMA,51432,WANGAMAGANGA,IBATU
IRINGA,51,MUFINDI,514,MADUMA,51432,WANGAMAGANGA,ILYANGO
IRINGA,51,MUFINDI,514,MADUMA,51432,WANGAMAGANGA,MUUNGANO
IRINGA,51,MUFINDI,514,MADUMA,51432,IHANG'ANATWA,ILALA
IRINGA,51,MUFINDI,514,MADUMA,51432,IHANG'ANATWA,LUHANGA
IRINGA,51,MUFINDI,514,MADUMA,51432,IHANG'ANATWA,IGUNGULI
IRINGA,51,MUFINDI,514,MADUMA,51432,IHANG'ANATWA,LUGODA
IRINGA,51,MUFINDI,514,IKONGOSI,51433,MTILI,MTILI  A
IRINGA,51,MUFINDI,514,IKONGOSI,51433,MTILI,IRANGI
IRINGA,51,MUFINDI,514,IKONGOSI,51433,LUGONGO,LUGONGO
IRINGA,51,MUFINDI,514,IKONGOSI,51433,LUGONGO,IFYULILO
IRINGA,51,MUFINDI,514,IKONGOSI,51433,IKONGOSI,NYAMAPELA
IRINGA,51,MUFINDI,514,IKONGOSI,51433,IKONGOSI,MAHAHI
IRINGA,51,MUFINDI,514,IKONGOSI,51433,IKONGOSI,ISASAGILA
IRINGA,51,MUFINDI,514,IKONGOSI,51433,IKONGOSI JUU,NDILIMA
IRINGA,51,MUFINDI,514,IKONGOSI,51433,IKONGOSI JUU,IDUNDA
IRINGA,51,MUFINDI,514,IKONGOSI,51433,IKONGOSI JUU,MAHANZI
IRINGA,51,MUFINDI,514,IKONGOSI,51433,ITULAVANU,ITULAVANU
IRINGA,51,MUFINDI,514,IKONGOSI,51433,ITULAVANU,UHENYESI
IRINGA,51,MUFINDI,514,IKONGOSI,51433,ITULAVANU,IGANGILONGA
IRINGA,51,MUFINDI,514,CHANGARAWE,51434,BLOCK J,
IRINGA,51,MUFINDI,514,CHANGARAWE,51434,MAKAMADOLESI,
IRINGA,51,MUFINDI,514,CHANGARAWE,51434,LUTALAWE,
IRINGA,51,MUFINDI,514,CHANGARAWE,51434,IGAWA,
IRINGA,51,MUFINDI,514,WAMBI,51435,PIPELINE,
IRINGA,51,MUFINDI,514,WAMBI,51435,LUGANGA,
IRINGA,51,MUFINDI,514,WAMBI,51435,MAJENGO MAPYA,
IRINGA,51,MUFINDI,514,WAMBI,51435,MIFUGO,
IRINGA,51,MUFINDI,514,WAMBI,51435,MTANGANI,
IRINGA,51,MUFINDI,514,UPENDO,51436,MGODI,
IRINGA,51,MUFINDI,514,UPENDO,51436,LUMWAGO,
IRINGA,51,MUFINDI,514,UPENDO,51436,BALALI,
IRINGA,51,MUFINDI,514,UPENDO,51436,AMANI,
IRINGA,51,MUFINDI,514,UPENDO,51436,MBAGALA,
