REGION,POSTCODE,DISTRICT,POSTCODE,WARD,POSTCODE,STREET,PLACES
KATAVI,50,MPANDA -CBD,501,KAWAJENSE,50101,KAWAJENSE,
KATAVI,50,MPANDA -CBD,501,KAWAJENSE,50101,MAJENGO MAPYA,
KATAVI,50,MPANDA -CBD,501,KAWAJENSE,50101,IKULU,
KATAVI,50,MPANDA -CBD,501,ILEMBO,50102,ILEMBO,
KATAVI,50,MPANDA -CBD,501,ILEMBO,50102,KASIMBA,
KATAVI,50,MPANDA -CBD,501,ILEMBO,50102,MAPINDUZI,
KATAVI,50,MPANDA -CBD,501,MISUNKUMILO,50103,MISUNKUMILO,
KATAVI,50,MPANDA -CBD,501,MISUNKUMILO,50103,KAMPUNI,
KATAVI,50,MPANDA -CBD,501,MISUNKUMILO,50103,MTEMI BEDA,
KATAVI,50,MPANDA -CBD,501,MISUNKUMILO,50103,MILALA,JERAMANGA A
KATAVI,50,MPANDA -CBD,501,MISUNKUMILO,50103,MILALA,JERAMANGA B
KATAVI,50,MPANDA -CBD,501,MISUNKUMILO,50103,MILALA,JERAMANGA C
KATAVI,50,MPANDA -CBD,501,MISUNKUMILO,50103,MILALA,JERAMANGA D
KATAVI,50,MPANDA -CBD,501,MISUNKUMILO,50103,MILALA,JERAMANGA E
KATAVI,50,MPANDA -CBD,501,MISUNKUMILO,50103,MILALA,KATYASHO A
KATAVI,50,MPANDA -CBD,501,MISUNKUMILO,50103,MILALA,KATYASHO B
KATAVI,50,MPANDA -CBD,501,MISUNKUMILO,50103,MILALA,KATYASHO C
KATAVI,50,MPANDA -CBD,501,MISUNKUMILO,50103,MILALA,KIGWA
KATAVI,50,MPANDA -CBD,501,MISUNKUMILO,50103,MILALA,SHONGOMABANINI
KATAVI,50,MPANDA -CBD,501,NSEMULWA,50104,NSEMULWA,
KATAVI,50,MPANDA -CBD,501,NSEMULWA,50104,MIGAZINI,
KATAVI,50,MPANDA -CBD,501,NSEMULWA,50104,KILIMANI,
KATAVI,50,MPANDA -CBD,501,NSEMULWA,50104,KICHANGANI,
KATAVI,50,MPANDA -CBD,501,NSEMULWA,50104,TULIENI,
KATAVI,50,MPANDA -CBD,501,NSEMULWA,50104,SHANKALA,WACHAWASEME
KATAVI,50,MPANDA -CBD,501,NSEMULWA,50104,SHANKALA,MLIMANI A
KATAVI,50,MPANDA -CBD,501,NSEMULWA,50104,SHANKALA,RELINI
KATAVI,50,MPANDA -CBD,501,NSEMULWA,50104,SHANKALA,SHANKALA WAFUGAJI
KATAVI,50,MPANDA -CBD,501,NSEMULWA,50104,SHANKALA,MLIMANI B
KATAVI,50,MPANDA -CBD,501,NSEMULWA,50104,SHANKALA,KABATINI
KATAVI,50,MPANDA -CBD,501,SHANWE,50105,SHANWE,
KATAVI,50,MPANDA -CBD,501,SHANWE,50105,KIGAMBONI,
KATAVI,50,MPANDA -CBD,501,SHANWE,50105,KIVUKONI,
KATAVI,50,MPANDA -CBD,501,SHANWE,50105,KILIMAHEWA,
KATAVI,50,MPANDA -CBD,501,KASHAULILI,50106,KASHAULILI,
KATAVI,50,MPANDA -CBD,501,KASHAULILI,50106,BUZOGWE,
KATAVI,50,MPANDA -CBD,501,KASHAULILI,50106,KOTAZI,
KATAVI,50,MPANDA -CBD,501,MPANDA HOTEL,50107,TAMBUKARELI,
KATAVI,50,MPANDA -CBD,501,MPANDA HOTEL,50107,MPANDA HOTEL,
KATAVI,50,MPANDA -CBD,501,MPANDA HOTEL,50107,MSASANI,
KATAVI,50,MPANDA -CBD,501,MAKANYAGIO,50108,MAKANYAGIO,
KATAVI,50,MPANDA -CBD,501,MAKANYAGIO,50108,KACHOMA,
KATAVI,50,MPANDA -CBD,501,MAKANYAGIO,50108,KIGOMA,
KATAVI,50,MPANDA -CBD,501,MAKANYAGIO,50108,MPADECO,
KATAVI,50,MPANDA -CBD,501,MAKANYAGIO,50108,MWANGAZA,
KATAVI,50,MPANDA -CBD,501,KAKESE,50109,KAKESE,MKWAJUNI
KATAVI,50,MPANDA -CBD,501,KAKESE,50109,KAKESE,MAKANISANI
KATAVI,50,MPANDA -CBD,501,KAKESE,50109,KAKESE,"KAFULESI ""A"""
KATAVI,50,MPANDA -CBD,501,KAKESE,50109,KAKESE,"KAFULESI ""B"""
KATAVI,50,MPANDA -CBD,501,KAKESE,50109,MBUGANI,"MBUGANI ""A"" MASHARIKI"
KATAVI,50,MPANDA -CBD,501,KAKESE,50109,MBUGANI,MBUGANI ‘B’ MASHARIKI
KATAVI,50,MPANDA -CBD,501,KAKESE,50109,MBUGANI,MALUJA
KATAVI,50,MPANDA -CBD,501,KAKESE,50109,MBUGANI,MWANGOYE
KATAVI,50,MPANDA -CBD,501,KAKESE,50109,MBUGANI,MBUGANI ‘B’ MAGHARIBI
KATAVI,50,MPANDA -CBD,501,KAKESE,50109,KAMAKUKA,ISENGULE
KATAVI,50,MPANDA -CBD,501,KAKESE,50109,KAMAKUKA,IPWAGA
KATAVI,50,MPANDA -CBD,501,KAKESE,50109,KAMAKUKA,"KAMAKUKA ""A"""
KATAVI,50,MPANDA -CBD,501,KAKESE,50109,KAMAKUKA,"KAMAKUKA ""B"""
KATAVI,50,MPANDA -CBD,501,KAKESE,50109,KAWAZINGE,MABANINI MASHARIKI
KATAVI,50,MPANDA -CBD,501,KAKESE,50109,KAWAZINGE,BULIMA
KATAVI,50,MPANDA -CBD,501,KAKESE,50109,KAWAZINGE,KAWANZIGE A
KATAVI,50,MPANDA -CBD,501,KAKESE,50109,KAWAZINGE,JITEGEMEE
KATAVI,50,MPANDA -CBD,501,KAKESE,50109,KAWAZINGE,MWEMBENI
KATAVI,50,MPANDA -CBD,501,MAJENGO,50110,MJI MWEMA,
KATAVI,50,MPANDA -CBD,501,MAJENGO,50110,PARADIZE,
KATAVI,50,MPANDA -CBD,501,MAJENGO,50110,MALIDADI,
KATAVI,50,MPANDA -CBD,501,"UWANJA WA
NDEGE",50111,MNAZI MMOJA,
KATAVI,50,MPANDA -CBD,501,"UWANJA WA
NDEGE",50111,AIRTEL,
KATAVI,50,MPANDA -CBD,501,"UWANJA WA
NDEGE",50111,MSUFINI,
KATAVI,50,MPANDA -CBD,501,KAZIMA,50112,KAPALANGAO,
KATAVI,50,MPANDA -CBD,501,KAZIMA,50112,RUNGWA,
KATAVI,50,MPANDA -CBD,501,KAZIMA,50112,KAZIMA,
KATAVI,50,MPANDA -CBD,501,MWAMKULU,50113,NSESO,
KATAVI,50,MPANDA -CBD,501,MWAMKULU,50113,SENTA MARIA,
KATAVI,50,MPANDA -CBD,501,MWAMKULU,50113,MKOKWA,
KATAVI,50,MPANDA -CBD,501,MWAMKULU,50113,MKWAJUNI,
KATAVI,50,MPANDA -CBD,501,MWAMKULU,50113,NGUVUMALI,
KATAVI,50,MPANDA -CBD,501,MAGAMBA,50114,MAGAMBA,IKULU
KATAVI,50,MPANDA -CBD,501,MAGAMBA,50114,MAGAMBA,BURUNGA
KATAVI,50,MPANDA -CBD,501,MAGAMBA,50114,MAGAMBA,NEW CAMP
KATAVI,50,MPANDA -CBD,501,MAGAMBA,50114,MAGAMBA,MIGAZINI
KATAVI,50,MPANDA -CBD,501,MAGAMBA,50114,MAGAMBA,MTAKATA
KATAVI,50,MPANDA -CBD,501,MAGAMBA,50114,MAGAMBA,BERINGI
KATAVI,50,MPANDA -CBD,501,MAGAMBA,50114,MAKONGOLO,MAKONGOLO
KATAVI,50,MPANDA -CBD,501,MAGAMBA,50114,MAKONGOLO,IGALUKILO
KATAVI,50,MPANDA -CBD,501,MAGAMBA,50114,MAKONGOLO,MLIMANI
KATAVI,50,MPANDA -CBD,501,MAGAMBA,50114,MAKONGOLO,MAILIKUMI
KATAVI,50,MPANDA -CBD,501,MAGAMBA,50114,MAKONGOLO,KANONDO
KATAVI,50,MPANDA -CBD,501,MAGAMBA,50114,DIRIFU,MSANGAMA
KATAVI,50,MPANDA -CBD,501,MAGAMBA,50114,DIRIFU,KAGERA
KATAVI,50,MPANDA -CBD,501,MAGAMBA,50114,DIRIFU,MKUYUNI
KATAVI,50,MPANDA -CBD,501,MAGAMBA,50114,DIRIFU,LUMUKA B
KATAVI,50,MPANDA -CBD,501,MAGAMBA,50114,DIRIFU,KAMSOFU
KATAVI,50,MPANDA -CBD,501,MAGAMBA,50114,DIRIFU,IKULO
KATAVI,50,MPANDA -CBD,501,MAGAMBA,50114,SOCIETY,MWENGE
KATAVI,50,MPANDA -CBD,501,MAGAMBA,50114,SOCIETY,NJIA PANDA
KATAVI,50,MPANDA -CBD,501,MAGAMBA,50114,SOCIETY,IKULU
KATAVI,50,MPANDA -CBD,501,MAGAMBA,50114,SOCIETY,MAFUANGUO
KATAVI,50,MPANDA -CBD,501,MAGAMBA,50114,MTAKUMBUKA,MTAKUMBUKA KATI
KATAVI,50,MPANDA -CBD,501,MAGAMBA,50114,MTAKUMBUKA,KABATINI
KATAVI,50,MPANDA -CBD,501,MAGAMBA,50114,MTAKUMBUKA,MTAKUMBUKA KUSINI
KATAVI,50,MPANDA -CBD,501,MAGAMBA,50114,MTAKUMBUKA,MTAKUMBUKA KASKAZINI
KATAVI,50,MPANDA -CBD,501,MAGAMBA,50114,MTAKUMBUKA,MTAKUMBUKA MASHARIKI
KATAVI,50,MPANDA -CBD,501,MAGAMBA,50114,MTAKUMBUKA,MTAMBUKA IGONDA
KATAVI,50,MPANDA -CBD,501,KASOKOLA,50115,KASOKOLA,KASOKOLA MASHARIKI A
KATAVI,50,MPANDA -CBD,501,KASOKOLA,50115,KASOKOLA,KASOKOLA MAGHARIBI A
KATAVI,50,MPANDA -CBD,501,KASOKOLA,50115,KASOKOLA,KASOKOLA MASHARIKI B
KATAVI,50,MPANDA -CBD,501,KASOKOLA,50115,KASOKOLA,KASOKOLA MAGHARIBI B
KATAVI,50,MPANDA -CBD,501,KASOKOLA,50115,KASOKOLA,KASOKOLA KATI
KATAVI,50,MPANDA -CBD,501,KASOKOLA,50115,KASOKOLA,MAWEMALE.
KATAVI,50,MPANDA -CBD,501,KASOKOLA,50115,KASOKOLA,IVUNGWE A
KATAVI,50,MPANDA -CBD,501,KASOKOLA,50115,KASOKOLA,IVUNGWE B
KATAVI,50,MPANDA -CBD,501,KASOKOLA,50115,MANGA,MANGA KATI
KATAVI,50,MPANDA -CBD,501,KASOKOLA,50115,MANGA,MANGA MASHARIKI
KATAVI,50,MPANDA -CBD,501,KASOKOLA,50115,MANGA,MANGA MAGHARIBI
KATAVI,50,MPANDA -CBD,501,KASOKOLA,50115,MANGA,MANGA BARABARANI
KATAVI,50,MPANDA -CBD,501,KASOKOLA,50115,MANGA,KASOLWA A
KATAVI,50,MPANDA -CBD,501,KASOKOLA,50115,MANGA,KASOLWA B
KATAVI,50,MPANDA -CBD,501,KASOKOLA,50115,MANGA,IVUNGWE
KATAVI,50,MPANDA -CBD,501,KASOKOLA,50115,MANGA,KASENGA
KATAVI,50,MPANDA -CBD,501,KASOKOLA,50115,SUNGAMILA,SUNGAMILA KATI
KATAVI,50,MPANDA -CBD,501,KASOKOLA,50115,SUNGAMILA,SUNGAMILA MAGHARIBI
KATAVI,50,MPANDA -CBD,501,KASOKOLA,50115,SUNGAMILA,SUNGAMILA MASHARIKI
KATAVI,50,MPANDA -CBD,501,KASOKOLA,50115,SUNGAMILA,SUNGAMILA NG'AMBO
KATAVI,50,MPANDA -CBD,501,NSIMBO,50116,ISANJANDUGU,MAPINDUZI
KATAVI,50,MPANDA -CBD,501,NSIMBO,50116,ISANJANDUGU,ISANJANDUGU
KATAVI,50,MPANDA -CBD,501,NSIMBO,50116,ISANJANDUGU,MUUNGANO
KATAVI,50,MPANDA -CBD,501,NSIMBO,50116,KANOGE,KANOGE A
KATAVI,50,MPANDA -CBD,501,NSIMBO,50116,KANOGE,KANOGE B
KATAVI,50,MPANDA -CBD,501,NSIMBO,50116,KANOGE,TUPINDO
KATAVI,50,MPANDA -CBD,501,NSIMBO,50116,KANOGE,KAVIKONGE A
KATAVI,50,MPANDA -CBD,501,NSIMBO,50116,KANOGE,KAVIKONGE B
KATAVI,50,MPANDA -CBD,501,NSIMBO,50116,MWENGE,FILIMULE
KATAVI,50,MPANDA -CBD,501,NSIMBO,50116,MWENGE,MWENGE
KATAVI,50,MPANDA -CBD,501,NSIMBO,50116,MWENGE,LEGEZAMWENDO
KATAVI,50,MPANDA -CBD,501,KAPALALA,50117,KAPALALA,IKULU
KATAVI,50,MPANDA -CBD,501,KAPALALA,50117,KAPALALA,KAPALALA A
KATAVI,50,MPANDA -CBD,501,KAPALALA,50117,KAPALALA,KAPALALA B
KATAVI,50,MPANDA -CBD,501,KAPALALA,50117,KAPALALA,KAPALALA C
KATAVI,50,MPANDA -CBD,501,KAPALALA,50117,MTAKUJA,BOMBANI
KATAVI,50,MPANDA -CBD,501,KAPALALA,50117,MTAKUJA,MLIMANI
KATAVI,50,MPANDA -CBD,501,KAPALALA,50117,MTAKUJA,MBUGANI
KATAVI,50,MPANDA -CBD,501,KAPALALA,50117,MTAKUJA,IGONDA
KATAVI,50,MPANDA -CBD,501,KAPALALA,50117,MTAKUJA,TANKINI
KATAVI,50,MPANDA -CBD,501,KAPALALA,50117,SONGAMBELE,SONGAMBELE KASKAZINI.
KATAVI,50,MPANDA -CBD,501,KAPALALA,50117,SONGAMBELE,SONGAMBELE MASHARIKI.
KATAVI,50,MPANDA -CBD,501,KAPALALA,50117,SONGAMBELE,SONGAMBELE MAGHARIBI.
KATAVI,50,MPANDA -CBD,501,KAPALALA,50117,SONGAMBELE,SONGAMBELE KATI
KATAVI,50,MPANDA -CBD,501,KAPALALA,50117,SONGAMBELE,MKUMBI
KATAVI,50,MPANDA -CBD,501,MTAPENDA,50118,ISINDE,IKULU
KATAVI,50,MPANDA -CBD,501,MTAPENDA,50118,ISINDE,KABATINI
KATAVI,50,MPANDA -CBD,501,MTAPENDA,50118,ISINDE,KAWE
KATAVI,50,MPANDA -CBD,501,MTAPENDA,50118,ISINDE,WACHAWASEME
KATAVI,50,MPANDA -CBD,501,MTAPENDA,50118,ISINDE,IGULUNGU
KATAVI,50,MPANDA -CBD,501,MTAPENDA,50118,ISINDE,KAMTAMBIKE
KATAVI,50,MPANDA -CBD,501,MTAPENDA,50118,MTAPENDA,SHELESI
KATAVI,50,MPANDA -CBD,501,MTAPENDA,50118,MTAPENDA,TANKINI
KATAVI,50,MPANDA -CBD,501,MTAPENDA,50118,MTAPENDA,MTAPENDA A
KATAVI,50,MPANDA -CBD,501,MTAPENDA,50118,MTAPENDA,MTAPENDA B
KATAVI,50,MPANDA -CBD,501,MTAPENDA,50118,MTAPENDA,MTAPENDA C
KATAVI,50,MPANDA -CBD,501,MTAPENDA,50118,MTAPENDA,MTAPENDA KATI A
KATAVI,50,MPANDA -CBD,501,MTAPENDA,50118,MTAPENDA,MAJENGO
KATAVI,50,MPANDA -CBD,501,MTAPENDA,50118,MTAPENDA,NDURUMO
KATAVI,50,MPANDA -CBD,501,MTAPENDA,50118,MTAPENDA,KENSWA MTONI
KATAVI,50,MPANDA -CBD,501,MTAPENDA,50118,IKOLONGO 'A',BARABARA YA 4
KATAVI,50,MPANDA -CBD,501,MTAPENDA,50118,IKOLONGO 'A',BARABARA YA 5
KATAVI,50,MPANDA -CBD,501,MTAPENDA,50118,IKOLONGO 'A',BARABARA YA 6
KATAVI,50,MPANDA -CBD,501,MTAPENDA,50118,NDURUMO `A‘,BARABARA YA 4
KATAVI,50,MPANDA -CBD,501,MTAPENDA,50118,NDURUMO `A‘,BARABARA YA 5
KATAVI,50,MPANDA -CBD,501,MTAPENDA,50118,NDURUMO `A‘,BARABARA YA 6
KATAVI,50,MPANDA -CBD,501,MTAPENDA,50118,IKOLONGO `B‘,BARABARA YA 1
KATAVI,50,MPANDA -CBD,501,MTAPENDA,50118,IKOLONGO `B‘,BARABARA YA 2
KATAVI,50,MPANDA -CBD,501,MTAPENDA,50118,IKOLONGO `B‘,BARABARA YA 3
KATAVI,50,MPANDA -CBD,501,MACHIMBONI,50119,KATISUNGA,MLIMANI
KATAVI,50,MPANDA -CBD,501,MACHIMBONI,50119,KATISUNGA,MASONGWA
KATAVI,50,MPANDA -CBD,501,MACHIMBONI,50119,KATISUNGA,KATISUNGA A
KATAVI,50,MPANDA -CBD,501,MACHIMBONI,50119,KATISUNGA,KATISUNGA B
KATAVI,50,MPANDA -CBD,501,MACHIMBONI,50119,KAPANDA,SIKITIKO A
KATAVI,50,MPANDA -CBD,501,MACHIMBONI,50119,KAPANDA,SIKITIKO B
KATAVI,50,MPANDA -CBD,501,MACHIMBONI,50119,KAPANDA,MAGOMAMOTO
KATAVI,50,MPANDA -CBD,501,MACHIMBONI,50119,KAPANDA,KAPANDA MAWENI
KATAVI,50,MPANDA -CBD,501,MACHIMBONI,50119,KAPANDA,STAMIKO
KATAVI,50,MPANDA -CBD,501,MACHIMBONI,50119,KAPANDA,KAYAWE
KATAVI,50,MPANDA -CBD,501,MACHIMBONI,50119,KAPANDA,KAPANDA CHINI
KATAVI,50,MPANDA -CBD,501,IBINDI,50120,MUUNGANO,MBUGANI
KATAVI,50,MPANDA -CBD,501,IBINDI,50120,MUUNGANO,KASHELAMI A.
KATAVI,50,MPANDA -CBD,501,IBINDI,50120,MUUNGANO,KASHELAMI B.
KATAVI,50,MPANDA -CBD,501,IBINDI,50120,MUUNGANO,KASISIWE
KATAVI,50,MPANDA -CBD,501,IBINDI,50120,MASEWELA,KAMBANGA
KATAVI,50,MPANDA -CBD,501,IBINDI,50120,MASEWELA,ISENGULE
KATAVI,50,MPANDA -CBD,501,IBINDI,50120,MASEWELA,MANEMBA A
KATAVI,50,MPANDA -CBD,501,IBINDI,50120,MASEWELA,MANEMBA B
KATAVI,50,MPANDA -CBD,501,IBINDI,50120,MASEWELA,MBAGALA
KATAVI,50,MPANDA -CBD,501,IBINDI,50120,IBINDI KUSINI,IBINDI A
KATAVI,50,MPANDA -CBD,501,IBINDI,50120,IBINDI KUSINI,IBINDI B
KATAVI,50,MPANDA -CBD,501,IBINDI,50120,IBINDI KUSINI,IPILILO
KATAVI,50,MPANDA -CBD,501,IBINDI,50120,IBINDI KUSINI,MGUU WA TEMBO
KATAVI,50,MPANDA -CBD,501,IBINDI,50120,IBINDI KUSINI,KAPANDA WENYEJI
KATAVI,50,MPANDA -CBD,501,ITENKA,50121,TUMAINI,IMILAMATE A
KATAVI,50,MPANDA -CBD,501,ITENKA,50121,TUMAINI,IMILAMATE B
KATAVI,50,MPANDA -CBD,501,ITENKA,50121,TUMAINI,SONGAMBELE A
KATAVI,50,MPANDA -CBD,501,ITENKA,50121,TUMAINI,SONGAMBELE B
KATAVI,50,MPANDA -CBD,501,ITENKA,50121,TUMAINI,TULIENI
KATAVI,50,MPANDA -CBD,501,ITENKA,50121,ITENKA ‘A’,MPALANG’OMBE A
KATAVI,50,MPANDA -CBD,501,ITENKA,50121,ITENKA ‘A’,ITENKA KATI
KATAVI,50,MPANDA -CBD,501,ITENKA,50121,ITENKA ‘A’,MBUGANI
KATAVI,50,MPANDA -CBD,501,ITENKA,50121,ITENKA ‘A’,MPALANG'OMBE B
KATAVI,50,MPANDA -CBD,501,ITENKA,50121,ITENKA ‘A’,MPALANG'OMBE C
KATAVI,50,MPANDA -CBD,501,ITENKA,50121,ITENKA ‘B’,MAENDELEO
KATAVI,50,MPANDA -CBD,501,ITENKA,50121,ITENKA ‘B’,MUUNGANO
KATAVI,50,MPANDA -CBD,501,ITENKA,50121,ITENKA ‘B’,NSIMBO
KATAVI,50,MPANDA -CBD,501,ITENKA,50121,ITENKA ‘B’,KASANGA
KATAVI,50,MPANDA -CBD,501,ITENKA,50121,ITENKA ‘B’,KANTONGA
KATAVI,50,MPANDA -CBD,501,ITENKA,50121,JILABELA,JILABELA A
KATAVI,50,MPANDA -CBD,501,ITENKA,50121,JILABELA,JILABELA B
KATAVI,50,MPANDA -CBD,501,ITENKA,50121,JILABELA,JILABELA KATI
KATAVI,50,MPANDA -CBD,501,ITENKA,50121,JILABELA,IMALAUPINA A
KATAVI,50,MPANDA -CBD,501,ITENKA,50121,JILABELA,IMALAUPINA B
KATAVI,50,MPANDA -CBD,501,ITENKA,50121,TUKOMA,MAKAMBU
KATAVI,50,MPANDA -CBD,501,ITENKA,50121,TUKOMA,MJIMWEMA
KATAVI,50,MPANDA -CBD,501,ITENKA,50121,TUKOMA,MILANGALE
KATAVI,50,MPANDA -CBD,501,ITENKA,50121,TUKOMA,KADELEMA
KATAVI,50,MPANDA -CBD,501,ITENKA,50121,TUKOMA,TUKOMA
KATAVI,50,MPANDA -CBD,501,SITALIKE,50122,MTISI,MTISI A
KATAVI,50,MPANDA -CBD,501,SITALIKE,50122,MTISI,MTISI B
KATAVI,50,MPANDA -CBD,501,SITALIKE,50122,MTISI,MWENGE
KATAVI,50,MPANDA -CBD,501,SITALIKE,50122,MTISI,MWONGOZO
KATAVI,50,MPANDA -CBD,501,SITALIKE,50122,MTISI,MSASANI
KATAVI,50,MPANDA -CBD,501,SITALIKE,50122,MTISI,MAKUTANIO
KATAVI,50,MPANDA -CBD,501,SITALIKE,50122,MTISI,MUUNGANO
KATAVI,50,MPANDA -CBD,501,SITALIKE,50122,MTISI,MAGULA
KATAVI,50,MPANDA -CBD,501,SITALIKE,50122,MTISI,MJIMWEMA
KATAVI,50,MPANDA -CBD,501,SITALIKE,50122,SITALIKE,SITUBWIKE
KATAVI,50,MPANDA -CBD,501,SITALIKE,50122,SITALIKE,IGALUKILO
KATAVI,50,MPANDA -CBD,501,SITALIKE,50122,SITALIKE,ILANGASIKA
KATAVI,50,MPANDA -CBD,501,SITALIKE,50122,SITALIKE,KABENGA
KATAVI,50,MPANDA -CBD,501,SITALIKE,50122,SITALIKE,KILOLENI
KATAVI,50,MPANDA -CBD,501,SITALIKE,50122,IGONGWE,KASONGWA
KATAVI,50,MPANDA -CBD,501,SITALIKE,50122,IGONGWE,KASHELAMI
KATAVI,50,MPANDA -CBD,501,SITALIKE,50122,IGONGWE,KAZIMA
KATAVI,50,MPANDA -CBD,501,SITALIKE,50122,IGONGWE,KAMBULA
KATAVI,50,MPANDA -CBD,501,SITALIKE,50122,IGONGWE,IGONGWE
KATAVI,50,MPANDA -CBD,501,SITALIKE,50122,MATANDALANI,MGOLOKANI
KATAVI,50,MPANDA -CBD,501,SITALIKE,50122,MATANDALANI,MTAKUJA
KATAVI,50,MPANDA -CBD,501,SITALIKE,50122,MATANDALANI,MAJENGO
KATAVI,50,MPANDA -CBD,501,SITALIKE,50122,MATANDALANI,MATANDALANI
KATAVI,50,MPANDA -CBD,501,SITALIKE,50122,MATANDALANI,KASHELAMI
KATAVI,50,MPANDA -CBD,501,URWILA,50123,URWIRA,ISAGALA
KATAVI,50,MPANDA -CBD,501,URWILA,50123,URWIRA,MISHENI A
KATAVI,50,MPANDA -CBD,501,URWILA,50123,URWIRA,MISHENI B
KATAVI,50,MPANDA -CBD,501,URWILA,50123,URWIRA,MAJENGO
KATAVI,50,MPANDA -CBD,501,URWILA,50123,URWIRA,NGULU
KATAVI,50,MPANDA -CBD,501,URWILA,50123,IKONDAMOYO,SIKOLOMO
KATAVI,50,MPANDA -CBD,501,URWILA,50123,IKONDAMOYO,KALUNGU A
KATAVI,50,MPANDA -CBD,501,URWILA,50123,IKONDAMOYO,KALUNGU B
KATAVI,50,MPANDA -CBD,501,URWILA,50123,IKONDAMOYO,KANINKA
KATAVI,50,MPANDA -CBD,501,URWILA,50123,IKONDAMOYO,MWALU
KATAVI,50,MPANDA -CBD,501,URWILA,50123,IKONDAMOYO,JITEGEMEE
KATAVI,50,MPANDA -CBD,501,URWILA,50123,USENSE,KANEMBELA A
KATAVI,50,MPANDA -CBD,501,URWILA,50123,USENSE,KANEMBELA B
KATAVI,50,MPANDA -CBD,501,URWILA,50123,USENSE,KAMULONGWE
KATAVI,50,MPANDA -CBD,501,URWILA,50123,USENSE,IZUGUMULOLE
KATAVI,50,MPANDA -CBD,501,UGALLA,50124,KATAMBIKE,VIGAENI
KATAVI,50,MPANDA -CBD,501,UGALLA,50124,KATAMBIKE,MJIMWEMA
KATAVI,50,MPANDA -CBD,501,UGALLA,50124,KATAMBIKE,UVUVINI A
KATAVI,50,MPANDA -CBD,501,UGALLA,50124,KATAMBIKE,UVUVINI B
KATAVI,50,MPANDA -CBD,501,UGALLA,50124,KATAMBIKE,KASULU
KATAVI,50,MPANDA -CBD,501,UGALLA,50124,KATAMBIKE,ISEKA
KATAVI,50,MPANDA -CBD,501,UGALLA,50124,KATAMBIKE,KAMINI A
KATAVI,50,MPANDA -CBD,501,UGALLA,50124,KATAMBIKE,KAMINI B
KATAVI,50,MPANDA -CBD,501,UGALLA,50124,KATAMBIKE,NSANDA
KATAVI,50,MPANDA -CBD,501,UGALLA,50124,KATAMBIKE,KAUMBA
KATAVI,50,MPANDA -CBD,501,UGALLA,50124,KATAMBIKE,KANYAWASOGA
KATAVI,50,MPANDA -CBD,501,UGALLA,50124,MNYAMASI,MNYAMASI A
KATAVI,50,MPANDA -CBD,501,UGALLA,50124,MNYAMASI,MNYAMASI B
KATAVI,50,MPANDA -CBD,501,UGALLA,50124,MNYAMASI,KANKOSHA
KATAVI,50,MPANDA -CBD,501,UGALLA,50124,MNYAMASI,SIKWISI
KATAVI,50,MPANDA -CBD,501,UGALLA,50124,KASISI,KASISI A
KATAVI,50,MPANDA -CBD,501,UGALLA,50124,KASISI,KASISI B
KATAVI,50,MPANDA -CBD,501,UGALLA,50124,KASISI,LYOGELO
KATAVI,50,MPANDA -CBD,501,UGALLA,50124,KASISI,ISEKA
KATAVI,50,MPANDA -CBD,501,UGALLA,50124,KASISI,MTAMBALALA
KATAVI,50,MPANDA -CBD,501,LITAPUNGA,50125,"KABOROGE ""A""",BARABARA YA 1
KATAVI,50,MPANDA -CBD,501,LITAPUNGA,50125,"KABOROGE ""A""",BARABARA YA 2
KATAVI,50,MPANDA -CBD,501,LITAPUNGA,50125,"KABOROGE ""A""",BARABARA YA 3
KATAVI,50,MPANDA -CBD,501,LITAPUNGA,50125,"KABOROGE ""A""",BARABARA YA 4
KATAVI,50,MPANDA -CBD,501,LITAPUNGA,50125,"KABURONGE ""B""",BARABARA YA 5
KATAVI,50,MPANDA -CBD,501,LITAPUNGA,50125,"KABURONGE ""B""",BARABARA YA 6
KATAVI,50,MPANDA -CBD,501,LITAPUNGA,50125,"KABURONGE ""B""",BARABARA YA 7
KATAVI,50,MPANDA -CBD,501,LITAPUNGA,50125,"KABURONGE ""B""",BARABARA YA 8
KATAVI,50,MPANDA -CBD,501,LITAPUNGA,50125,KAMBUZI 'A',BARABARA YA 1
KATAVI,50,MPANDA -CBD,501,LITAPUNGA,50125,KAMBUZI 'A',BARABARA YA 2
KATAVI,50,MPANDA -CBD,501,LITAPUNGA,50125,KAMBUZI 'A',BARABARA YA 3
KATAVI,50,MPANDA -CBD,501,LITAPUNGA,50125,KAMBUZI 'B',BARABARA YA 4
KATAVI,50,MPANDA -CBD,501,LITAPUNGA,50125,KAMBUZI 'B',BARABARA YA 5
KATAVI,50,MPANDA -CBD,501,LITAPUNGA,50125,KAMBUZI 'B',BARABARA YA 6
KATAVI,50,MPANDA -CBD,501,LITAPUNGA,50125,KAMBUZI 'B',BARABARA YA 7
KATAVI,50,MPANDA -CBD,501,LITAPUNGA,50125,KAMBUZI 'B',BARABARA YA 8
KATAVI,50,MPANDA -CBD,501,LITAPUNGA,50125,LITAPUNGA,LITAPUNGA 'A'
KATAVI,50,MPANDA -CBD,501,LITAPUNGA,50125,LITAPUNGA,"LITAPUNGA 'B"""
KATAVI,50,MPANDA -CBD,501,LITAPUNGA,50125,LITAPUNGA,UFUGAJINI
KATAVI,50,MPANDA -CBD,501,LITAPUNGA,50125,LITAPUNGA,MAJENGO
KATAVI,50,MPANDA -CBD,501,LITAPUNGA,50125,KAMBUZI HALT,KAMBUZI MASHARIKI
KATAVI,50,MPANDA -CBD,501,LITAPUNGA,50125,KAMBUZI HALT,KAMBUZI MAGHARIBI
KATAVI,50,MPANDA -CBD,501,LITAPUNGA,50125,KAMBUZI HALT,LUSIHA
KATAVI,50,MPANDA -CBD,501,LITAPUNGA,50125,KAMBUZI HALT,NSANDA
KATAVI,50,MPANDA -CBD,501,LITAPUNGA,50125,KAMBUZI HALT,KAMBUZI KUSINI
KATAVI,50,MPANDA -CBD,501,LITAPUNGA,50125,KAMBUZI HALT,UFUGAJINI
KATAVI,50,MPANDA -CBD,501,LITAPUNGA,50125,KAMBUZI HALT,MUUNGANO
KATAVI,50,MPANDA -CBD,501,LITAPUNGA,50125,BULEMBO,BARABARA YA 6
KATAVI,50,MPANDA -CBD,501,LITAPUNGA,50125,BULEMBO,BARABARA YA 7
KATAVI,50,MPANDA -CBD,501,LITAPUNGA,50125,BULEMBO,BARABARA YA 8
KATAVI,50,MPANDA -CBD,501,LITAPUNGA,50125,BULEMBO,BARABARA YA 9
KATAVI,50,MPANDA -CBD,501,LITAPUNGA,50125,NSANDA,KANSENGA
KATAVI,50,MPANDA -CBD,501,LITAPUNGA,50125,NSANDA,KAMPEMBA
KATAVI,50,MPANDA -CBD,501,LITAPUNGA,50125,NSANDA,MJIMWEMA
KATAVI,50,MPANDA -CBD,501,LITAPUNGA,50125,LUKAMA,BARABARA YA 4
KATAVI,50,MPANDA -CBD,501,LITAPUNGA,50125,LUKAMA,BARABARA YA 5
KATAVI,50,MPANDA -CBD,501,LITAPUNGA,50125,LUKAMA,BARABARA YA 6
KATAVI,50,MPANDA -CBD,501,LITAPUNGA,50125,LUKAMA,BARABARA YA 7
KATAVI,50,MPANDA -CBD,501,LITAPUNGA,50125,LUKAMA,BARABARA YA 8
KATAVI,50,MPANDA -CBD,501,LITAPUNGA,50125,LUKAMA,BARABARA YA 9
KATAVI,50,MPANDA -CBD,501,KANOGE,50126,KANOGE LAINI,BULANGWA
KATAVI,50,MPANDA -CBD,501,KANOGE,50126,KANOGE LAINI,KALOLENI
KATAVI,50,MPANDA -CBD,501,KANOGE,50126,KANOGE LAINI,MSENGA
KATAVI,50,MPANDA -CBD,501,KANOGE,50126,KANOGE LAINI,BULAKUKO
KATAVI,50,MPANDA -CBD,501,KANOGE,50126,KANOGE LAINI,KANOGE CENTER
KATAVI,50,MPANDA -CBD,501,KANOGE,50126,KANOGE LAINI,TAZARA
KATAVI,50,MPANDA -CBD,501,KANOGE,50126,KANOGE LAINI,LAINI KATI
KATAVI,50,MPANDA -CBD,501,KANOGE,50126,KANOGE LAINI,AMANI
KATAVI,50,MPANDA -CBD,501,KANOGE,50126,KANOGE LAINI,LAINI B
KATAVI,50,MPANDA -CBD,501,KANOGE,50126,KANOGE LAINI,TAZARA KATI
KATAVI,50,MPANDA -CBD,501,KANOGE,50126,KABUGA,KAPELE
KATAVI,50,MPANDA -CBD,501,KANOGE,50126,KABUGA,KIVUKONI
KATAVI,50,MPANDA -CBD,501,KANOGE,50126,KABUGA,KABUGA KIJIWENI
KATAVI,50,MPANDA -CBD,501,KANOGE,50126,KABUGA,BOCKFARM
KATAVI,50,MPANDA -CBD,501,KANOGE,50126,KAJEJE 'A',BARABARA YA 9
KATAVI,50,MPANDA -CBD,501,KANOGE,50126,KAJEJE 'A',BARABARA YA 10
KATAVI,50,MPANDA -CBD,501,KANOGE,50126,KAJEJE 'A',BARABARA YA 11
KATAVI,50,MPANDA -CBD,501,KANOGE,50126,KAJEJE 'B',BARABARA YA 9
KATAVI,50,MPANDA -CBD,501,KANOGE,50126,KAJEJE 'B',BARABARA YA 10
KATAVI,50,MPANDA -CBD,501,KANOGE,50126,KAJEJE 'B',BARABARA YA 11
KATAVI,50,MPANDA -CBD,501,KANOGE,50126,NDURUMO 'B',BARABARA YA 4
KATAVI,50,MPANDA -CBD,501,KANOGE,50126,NDURUMO 'B',BARABARA YA 5
KATAVI,50,MPANDA -CBD,501,KANOGE,50126,NDURUMO 'B',BARABARA YA 6
KATAVI,50,MPANDA -CBD,501,KATUMBA,50127,TAMBAZA 'A',BARABARA YA 4
KATAVI,50,MPANDA -CBD,501,KATUMBA,50127,TAMBAZA 'A',BARABARA YA 5
KATAVI,50,MPANDA -CBD,501,KATUMBA,50127,TAMBAZA 'A',BARABARA YA 6
KATAVI,50,MPANDA -CBD,501,KATUMBA,50127,TAMBAZA 'B',BARABARA YA 4
KATAVI,50,MPANDA -CBD,501,KATUMBA,50127,TAMBAZA 'B',BARABARA YA 5
KATAVI,50,MPANDA -CBD,501,KATUMBA,50127,TAMBAZA 'B',BARABARA YA 6
KATAVI,50,MPANDA -CBD,501,KATUMBA,50127,KATUMBA,BARABARA YA 1
KATAVI,50,MPANDA -CBD,501,KATUMBA,50127,KATUMBA,BARABARA YA 2 'A'
KATAVI,50,MPANDA -CBD,501,KATUMBA,50127,KATUMBA,BARABARA YA 3 'A'
KATAVI,50,MPANDA -CBD,501,KATUMBA,50127,KATUMBA,BARABARA YA 2'B'
KATAVI,50,MPANDA -CBD,501,KATUMBA,50127,KATUMBA,BARABARA YA 3 'B'
KATAVI,50,MPANDA -CBD,501,KATUMBA,50127,SOKOINE,BARABARA YA 1
KATAVI,50,MPANDA -CBD,501,KATUMBA,50127,SOKOINE,BARABARA YA 2
KATAVI,50,MPANDA -CBD,501,KATUMBA,50127,SOKOINE,BARABARA YA 3
KATAVI,50,MPANDA -CBD,501,KATUMBA,50127,SOKOINE,BARABARA YA 4
KATAVI,50,MPANDA -CBD,501,KATUMBA,50127,MNYAKI 'A',BARABARA YA 1
KATAVI,50,MPANDA -CBD,501,KATUMBA,50127,MNYAKI 'A',BARABARA YA 2
KATAVI,50,MPANDA -CBD,501,KATUMBA,50127,MNYAKI 'A',BARABARA YA 3
KATAVI,50,MPANDA -CBD,501,KATUMBA,50127,MNYAKI 'A',MHAGAMA
KATAVI,50,MPANDA -CBD,501,KATUMBA,50127,MNYAKI 'A',MNYAKI A. CENTER
KATAVI,50,MPANDA -CBD,501,KATUMBA,50127,"MNYAKI 'B""",BARABARA YA 1
KATAVI,50,MPANDA -CBD,501,KATUMBA,50127,"MNYAKI 'B""",BARABARA YA 2
KATAVI,50,MPANDA -CBD,501,KATUMBA,50127,"MNYAKI 'B""",BARABARA YA 3
KATAVI,50,MPANDA -CBD,501,KATUMBA,50127,"MNYAKI 'B""",MNYAKI B. CENTER
KATAVI,50,MPANDA -CBD,501,KATUMBA,50127,NDUWI STATION,NDUWI STESHENI
KATAVI,50,MPANDA -CBD,501,KATUMBA,50127,NDUWI STATION,MSASANI 'A'
KATAVI,50,MPANDA -CBD,501,KATUMBA,50127,NDUWI STATION,MSASANI 'B'
KATAVI,50,MPANDA -CBD,501,KATUMBA,50127,NDUWI STATION,BARABARA YA 9
KATAVI,50,MPANDA -CBD,501,KATUMBA,50127,NDUWI STATION,BARABARA YA 7
KATAVI,50,MPANDA -CBD,501,KATUMBA,50127,NDUWI STATION,BARABARA YA 8
KATAVI,50,MPANDA -CBD,501,KATUMBA,50127,KAMINULA,BARABARA YA 1
KATAVI,50,MPANDA -CBD,501,KATUMBA,50127,KAMINULA,BARABARA YA 2
KATAVI,50,MPANDA -CBD,501,KATUMBA,50127,KAMINULA,MLIBANSI
KATAVI,50,MPANDA -CBD,501,KATUMBA,50127,NZAGA,BARABARA YA 1
KATAVI,50,MPANDA -CBD,501,KATUMBA,50127,NZAGA,BARABARA YA 2
KATAVI,50,MPANDA -CBD,501,KATUMBA,50127,NZAGA,BARABARA YA 3
KATAVI,50,MPANDA -CBD,501,KATUMBA,50127,MTAMBO,BARABARA YA 1
KATAVI,50,MPANDA -CBD,501,KATUMBA,50127,MTAMBO,BARABARA YA 2
KATAVI,50,MPANDA -CBD,501,KATUMBA,50127,MTAMBO,BARABARA YA 3
KATAVI,50,MPANDA -CBD,501,KATUMBA,50127,IVUNGWE A,BARABARA YA 6
KATAVI,50,MPANDA -CBD,501,KATUMBA,50127,IVUNGWE A,BARABARA YA 7
KATAVI,50,MPANDA -CBD,501,KATUMBA,50127,IVUNGWE A,BARABARA YA 8
KATAVI,50,MPANDA -CBD,501,KATUMBA,50127,IVUNGWE B,BARABARA YA 7
KATAVI,50,MPANDA -CBD,501,KATUMBA,50127,IVUNGWE B,BARABARA YA 8
KATAVI,50,MPANDA -CBD,501,KATUMBA,50127,IVUNGWE B,BARABARA YA 9
KATAVI,50,MPANDA -CBD,501,KATUMBA,50127,IWIMBI,BARABARA YA 7
KATAVI,50,MPANDA -CBD,501,KATUMBA,50127,IWIMBI,BARABARA YA 8
KATAVI,50,MPANDA -CBD,501,KATUMBA,50127,IWIMBI,BARABARA YA 9
KATAVI,50,MPANDA -CBD,501,KATUMBA,50127,KALUNGU,BARABARA YA 7
KATAVI,50,MPANDA -CBD,501,KATUMBA,50127,KALUNGU,BARABARA YA 8
KATAVI,50,MPANDA -CBD,501,KATUMBA,50127,KALUNGU,BARABARA YA 9
KATAVI,50,TANGANYIKA,502,KAREMA,50201,KAREMA,KUSINI A
KATAVI,50,TANGANYIKA,502,KAREMA,50201,KAREMA,KUSINI B
KATAVI,50,TANGANYIKA,502,KAREMA,50201,KAREMA,KASKAZINI A
KATAVI,50,TANGANYIKA,502,KAREMA,50201,KAREMA,KASKAZINI B
KATAVI,50,TANGANYIKA,502,KAREMA,50201,KAREMA,KIJIWENI
KATAVI,50,TANGANYIKA,502,KAREMA,50201,KAREMA,KAMAZILE
KATAVI,50,TANGANYIKA,502,KAREMA,50201,ITETEMYA,IFUME
KATAVI,50,TANGANYIKA,502,KAREMA,50201,ITETEMYA,SUMBWA
KATAVI,50,TANGANYIKA,502,KAREMA,50201,ITETEMYA,IGALUKILO A
KATAVI,50,TANGANYIKA,502,KAREMA,50201,ITETEMYA,IGALUKILO B
KATAVI,50,TANGANYIKA,502,KAPALAMSENGA,50202,KAPALAMSENGA,KAMALAMANSA
KATAVI,50,TANGANYIKA,502,KAPALAMSENGA,50202,KAPALAMSENGA,MSASANI
KATAVI,50,TANGANYIKA,502,KAPALAMSENGA,50202,KAPALAMSENGA,MJI MWEMA
KATAVI,50,TANGANYIKA,502,KAPALAMSENGA,50202,KAPALAMSENGA,MAJENGO B
KATAVI,50,TANGANYIKA,502,KAPALAMSENGA,50202,ITUNYA,NKUSWE
KATAVI,50,TANGANYIKA,502,KAPALAMSENGA,50202,ITUNYA,MNYUNDWE
KATAVI,50,TANGANYIKA,502,KAPALAMSENGA,50202,ITUNYA,NSANGO
KATAVI,50,TANGANYIKA,502,KAPALAMSENGA,50202,ITUNYA,MIGUNGANI
KATAVI,50,TANGANYIKA,502,KAPALAMSENGA,50202,ITUNYA,KAMITOBO
KATAVI,50,TANGANYIKA,502,KAPALAMSENGA,50202,SONGAMBELE,SONGAMBELE
KATAVI,50,TANGANYIKA,502,KAPALAMSENGA,50202,SONGAMBELE,MTAKUJA
KATAVI,50,TANGANYIKA,502,KAPALAMSENGA,50202,SONGAMBELE,MAJENGO A
KATAVI,50,TANGANYIKA,502,KAPALAMSENGA,50202,SONGAMBELE,MILUNDUMO
KATAVI,50,TANGANYIKA,502,IKOLA,50203,IKOLA,ISIGO
KATAVI,50,TANGANYIKA,502,IKOLA,50203,IKOLA,BUJOMBE
KATAVI,50,TANGANYIKA,502,IKOLA,50203,IKOLA,UTINTA A.
KATAVI,50,TANGANYIKA,502,IKOLA,50203,IKOLA,UTINTA B
KATAVI,50,TANGANYIKA,502,IKOLA,50203,IKOLA,IKOLA STOO
KATAVI,50,TANGANYIKA,502,IKOLA,50203,IKOLA,MPALAMAWE  A
KATAVI,50,TANGANYIKA,502,IKOLA,50203,IKOLA,MPALAMAWE  B
KATAVI,50,TANGANYIKA,502,IKOLA,50203,IKOLA,KALUMBI
KATAVI,50,TANGANYIKA,502,IKOLA,50203,MCHANGANI,KALILANGWENA
KATAVI,50,TANGANYIKA,502,IKOLA,50203,MCHANGANI,MZAMBARAUNI
KATAVI,50,TANGANYIKA,502,IKOLA,50203,MCHANGANI,MCHANGANI
KATAVI,50,TANGANYIKA,502,IKOLA,50203,MCHANGANI,MZABWELA
KATAVI,50,TANGANYIKA,502,IKOLA,50203,MCHANGANI,SOKONI
KATAVI,50,TANGANYIKA,502,IKOLA,50203,MCHANGANI,SUMBWA
KATAVI,50,TANGANYIKA,502,IKOLA,50203,MCHANGANI,FORODHANI.
KATAVI,50,TANGANYIKA,502,IKOLA,50203,MCHANGANI,KAJINGA
KATAVI,50,TANGANYIKA,502,IKOLA,50203,KAFISHA,NGALA
KATAVI,50,TANGANYIKA,502,IKOLA,50203,KAFISHA,KAFISHA KATI
KATAVI,50,TANGANYIKA,502,IKOLA,50203,KAFISHA,KATAMBO
KATAVI,50,TANGANYIKA,502,IKOLA,50203,KAFISHA,ISIGO
KATAVI,50,TANGANYIKA,502,KATUMA,50204,KATUMA,MAJENGO
KATAVI,50,TANGANYIKA,502,KATUMA,50204,KATUMA,MASHINENI
KATAVI,50,TANGANYIKA,502,KATUMA,50204,KATUMA,MWIKANG’OMBE
KATAVI,50,TANGANYIKA,502,KATUMA,50204,KATUMA,SHULENI
KATAVI,50,TANGANYIKA,502,KATUMA,50204,KATUMA,MSIKITINI
KATAVI,50,TANGANYIKA,502,KATUMA,50204,KATUMA,NSIMBO
KATAVI,50,TANGANYIKA,502,KATUMA,50204,MPEMBE,MPEMBE
KATAVI,50,TANGANYIKA,502,KATUMA,50204,MPEMBE,IBULAMASI MASHARIKI
KATAVI,50,TANGANYIKA,502,KATUMA,50204,MPEMBE,IBULAMASI MAGHARIBI
KATAVI,50,TANGANYIKA,502,KATUMA,50204,MPEMBE,MLINDA
KATAVI,50,TANGANYIKA,502,KATUMA,50204,MPEMBE,KAHELELE
KATAVI,50,TANGANYIKA,502,KATUMA,50204,MPEMBE,KABATINI
KATAVI,50,TANGANYIKA,502,KATUMA,50204,KAPANGA,MSIKITINI
KATAVI,50,TANGANYIKA,502,KATUMA,50204,KAPANGA,MLIMANI
KATAVI,50,TANGANYIKA,502,KATUMA,50204,KAPANGA,NSIMBO
KATAVI,50,TANGANYIKA,502,KATUMA,50204,KAMILALA,KAYENZE A
KATAVI,50,TANGANYIKA,502,KATUMA,50204,KAMILALA,KAYENZE B
KATAVI,50,TANGANYIKA,502,KATUMA,50204,KAMILALA,KAMLENGA
KATAVI,50,TANGANYIKA,502,KATUMA,50204,KAMILALA,MZOGA WA FISI
KATAVI,50,TANGANYIKA,502,SIBWESA,50205,SIBWESA,MTAPENDA
KATAVI,50,TANGANYIKA,502,SIBWESA,50205,SIBWESA,SIBWESA MASHARIKI
KATAVI,50,TANGANYIKA,502,SIBWESA,50205,SIBWESA,MAGOGO
KATAVI,50,TANGANYIKA,502,SIBWESA,50205,SIBWESA,KAMLENGA
KATAVI,50,TANGANYIKA,502,SIBWESA,50205,SIBWESA,SIBWESA MAGHARIBI
KATAVI,50,TANGANYIKA,502,SIBWESA,50205,NKUNGWI,NKUNGWI
KATAVI,50,TANGANYIKA,502,SIBWESA,50205,NKUNGWI,ILOBA A
KATAVI,50,TANGANYIKA,502,SIBWESA,50205,NKUNGWI,ILOBA B
KATAVI,50,TANGANYIKA,502,SIBWESA,50205,NKUNGWI,RUTUBA
KATAVI,50,TANGANYIKA,502,SIBWESA,50205,KABAGE,KABAGE A
KATAVI,50,TANGANYIKA,502,SIBWESA,50205,KABAGE,KABAGE B
KATAVI,50,TANGANYIKA,502,SIBWESA,50205,KABAGE,KABAGE MASHARIKI
KATAVI,50,TANGANYIKA,502,SIBWESA,50205,KABAGE,MWAMAPULI A
KATAVI,50,TANGANYIKA,502,SIBWESA,50205,KABAGE,MWAMAPULI B
KATAVI,50,TANGANYIKA,502,MWESE,50206,MWESE,NAMBA 2
KATAVI,50,TANGANYIKA,502,MWESE,50206,MWESE,NAMBA 3A
KATAVI,50,TANGANYIKA,502,MWESE,50206,MWESE,NAMBA 3B
KATAVI,50,TANGANYIKA,502,MWESE,50206,MWESE,NAMBA 3C
KATAVI,50,TANGANYIKA,502,MWESE,50206,MWESE,NAMBA 3D
KATAVI,50,TANGANYIKA,502,MWESE,50206,LWEGA,IGALULA
KATAVI,50,TANGANYIKA,502,MWESE,50206,LWEGA,NAMBA 7A
KATAVI,50,TANGANYIKA,502,MWESE,50206,LWEGA,NAMBA 7B
KATAVI,50,TANGANYIKA,502,MWESE,50206,LWEGA,NAMBA 8A
KATAVI,50,TANGANYIKA,502,MWESE,50206,LWEGA,NAMBA 8B
KATAVI,50,TANGANYIKA,502,MWESE,50206,LUGONESI,KITONGOJI NA. 4A
KATAVI,50,TANGANYIKA,502,MWESE,50206,LUGONESI,KITONGOJI NA. 4B
KATAVI,50,TANGANYIKA,502,MWESE,50206,LUGONESI,KITONGOJI NA. 4C
KATAVI,50,TANGANYIKA,502,MWESE,50206,LUGONESI,KITONGOJI NA. 4D
KATAVI,50,TANGANYIKA,502,MWESE,50206,LUGONESI,KITONGOJI NA. 4E
KATAVI,50,TANGANYIKA,502,MWESE,50206,LUGONESI,KITONGOJI NA. 5A
KATAVI,50,TANGANYIKA,502,MWESE,50206,LUGONESI,KITONGOJI NA. 5B
KATAVI,50,TANGANYIKA,502,MWESE,50206,BUJOMBE,MASANGA
KATAVI,50,TANGANYIKA,502,MWESE,50206,BUJOMBE,BUBANDA
KATAVI,50,TANGANYIKA,502,MWESE,50206,BUJOMBE,MABWENSOFU
KATAVI,50,TANGANYIKA,502,MWESE,50206,BUJOMBE,MATIMBA
KATAVI,50,TANGANYIKA,502,MWESE,50206,BUJOMBE,NKWENDE
KATAVI,50,TANGANYIKA,502,MWESE,50206,BUJOMBE,KASANGASI
KATAVI,50,TANGANYIKA,502,MWESE,50206,BUJOMBE,KATENTE
KATAVI,50,TANGANYIKA,502,MWESE,50206,BUJOMBE,MISANGA
KATAVI,50,TANGANYIKA,502,MWESE,50206,BUJOMBE,KASUNGA
KATAVI,50,TANGANYIKA,502,KABUNGU,50207,KABUNGU,IMALAUSINGA
KATAVI,50,TANGANYIKA,502,KABUNGU,50207,KABUNGU,KAGWILA
KATAVI,50,TANGANYIKA,502,KABUNGU,50207,KABUNGU,IKULU
KATAVI,50,TANGANYIKA,502,KABUNGU,50207,KABUNGU,SONGOTUPENDANE
KATAVI,50,TANGANYIKA,502,KABUNGU,50207,KABUNGU,SIJONGA
KATAVI,50,TANGANYIKA,502,KABUNGU,50207,KABUNGU,MBOGWE
KATAVI,50,TANGANYIKA,502,KABUNGU,50207,KABUNGU,WAZO JEMA
KATAVI,50,TANGANYIKA,502,KABUNGU,50207,KABUNGU,IBAMBYE
KATAVI,50,TANGANYIKA,502,KABUNGU,50207,KABUNGU,KAMULUGUJU
KATAVI,50,TANGANYIKA,502,KABUNGU,50207,KASINDE,KASINDE
KATAVI,50,TANGANYIKA,502,KABUNGU,50207,KASINDE,IKAKA
KATAVI,50,TANGANYIKA,502,KABUNGU,50207,KASINDE,SHAKOMA
KATAVI,50,TANGANYIKA,502,KABUNGU,50207,KASINDE,KAFULU
KATAVI,50,TANGANYIKA,502,KABUNGU,50207,KASINDE,TUPENDANE
KATAVI,50,TANGANYIKA,502,KABUNGU,50207,KASINDE,IKOMBASOGO
KATAVI,50,TANGANYIKA,502,KABUNGU,50207,KASINDE,KAGALA
KATAVI,50,TANGANYIKA,502,KABUNGU,50207,KASINDE,BUTIKI
KATAVI,50,TANGANYIKA,502,KABUNGU,50207,KASINDE,MAPAMBANO
KATAVI,50,TANGANYIKA,502,KABUNGU,50207,KASINDE,KATONYAGA
KATAVI,50,TANGANYIKA,502,MPANDA NDOGO,50208,MCHAKAMCHAKA,CHEMKA
KATAVI,50,TANGANYIKA,502,MPANDA NDOGO,50208,MCHAKAMCHAKA,ACHATUONE
KATAVI,50,TANGANYIKA,502,MPANDA NDOGO,50208,MCHAKAMCHAKA,KAMSEMKWA
KATAVI,50,TANGANYIKA,502,MPANDA NDOGO,50208,MCHAKAMCHAKA,KUMEKUCHA
KATAVI,50,TANGANYIKA,502,MPANDA NDOGO,50208,KATOBO,KATOBO A
KATAVI,50,TANGANYIKA,502,MPANDA NDOGO,50208,KATOBO,KATOBO B
KATAVI,50,TANGANYIKA,502,MPANDA NDOGO,50208,KATOBO,NG’AMBO A
KATAVI,50,TANGANYIKA,502,MPANDA NDOGO,50208,KATOBO,NG'AMBO B
KATAVI,50,TANGANYIKA,502,MPANDA NDOGO,50208,IGALULA,ITOFU
KATAVI,50,TANGANYIKA,502,MPANDA NDOGO,50208,IGALULA,MAGUNGA B
KATAVI,50,TANGANYIKA,502,MPANDA NDOGO,50208,IGALULA,MAGUNGA A
KATAVI,50,TANGANYIKA,502,MPANDA NDOGO,50208,IGALULA,MIGOMBANI
KATAVI,50,TANGANYIKA,502,MPANDA NDOGO,50208,IGALULA,KASISI
KATAVI,50,TANGANYIKA,502,MPANDA NDOGO,50208,IGAGALA,IGAGALA A
KATAVI,50,TANGANYIKA,502,MPANDA NDOGO,50208,IGAGALA,IGAGALA B
KATAVI,50,TANGANYIKA,502,MPANDA NDOGO,50208,IGAGALA,IGAGALA C
KATAVI,50,TANGANYIKA,502,MPANDA NDOGO,50208,IGAGALA,KAMANONGE
KATAVI,50,TANGANYIKA,502,MPANDA NDOGO,50208,IFUKUTWA,KAMTIMBO
KATAVI,50,TANGANYIKA,502,MPANDA NDOGO,50208,IFUKUTWA,MISUNKUMILO B
KATAVI,50,TANGANYIKA,502,MPANDA NDOGO,50208,IFUKUTWA,MISUNKUMILO A
KATAVI,50,TANGANYIKA,502,MPANDA NDOGO,50208,IFUKUTWA,IFUKUTWA B
KATAVI,50,TANGANYIKA,502,MPANDA NDOGO,50208,IFUKUTWA,IFUKUTWA A
KATAVI,50,TANGANYIKA,502,MPANDA NDOGO,50208,IFUKUTWA,BUNYOLWE
KATAVI,50,TANGANYIKA,502,MISHAMO,50209,ISENGA,IJENDA A
KATAVI,50,TANGANYIKA,502,MISHAMO,50209,ISENGA,IJENDA B
KATAVI,50,TANGANYIKA,502,MISHAMO,50209,ISENGA,KABWIKA
KATAVI,50,TANGANYIKA,502,MISHAMO,50209,ISENGA,MIGOMBANI
KATAVI,50,TANGANYIKA,502,MISHAMO,50209,ISENGA,MAPAMBANO
KATAVI,50,TANGANYIKA,502,MISHAMO,50209,ISENGA,JUHUDI
KATAVI,50,TANGANYIKA,502,MISHAMO,50209,ISENGA,ISENGA
KATAVI,50,TANGANYIKA,502,MISHAMO,50209,ISENGA,MSIKITINI
KATAVI,50,TANGANYIKA,502,MISHAMO,50209,IFUMBULA,IFUMBULA
KATAVI,50,TANGANYIKA,502,MISHAMO,50209,IFUMBULA,MLIMANI
KATAVI,50,TANGANYIKA,502,MISHAMO,50209,IFUMBULA,MTAKUJA
KATAVI,50,TANGANYIKA,502,MISHAMO,50209,IFUMBULA,UZUNGUNI
KATAVI,50,TANGANYIKA,502,MISHAMO,50209,IFUMBULA,MSUFINI
KATAVI,50,TANGANYIKA,502,MISHAMO,50209,IFUMBULA,LEBANONI
KATAVI,50,TANGANYIKA,502,MISHAMO,50209,IFUMBULA,KAZAROHO
KATAVI,50,TANGANYIKA,502,MISHAMO,50209,IFUMBULA,MJIMWEMA
KATAVI,50,TANGANYIKA,502,MISHAMO,50209,IFUMBULA,KISIWANI
KATAVI,50,TANGANYIKA,502,MISHAMO,50209,IFUMBULA,KICHANGANI
KATAVI,50,TANGANYIKA,502,MISHAMO,50209,KAPEMBA,KAPEMBA
KATAVI,50,TANGANYIKA,502,MISHAMO,50209,KAPEMBA,MLENGA
KATAVI,50,TANGANYIKA,502,MISHAMO,50209,KAPEMBA,KAMNEMBE
KATAVI,50,TANGANYIKA,502,MISHAMO,50209,KAPEMBA,MPINGA
KATAVI,50,TANGANYIKA,502,MISHAMO,50209,KAPEMBA,UMOJA
KATAVI,50,TANGANYIKA,502,MISHAMO,50209,ISUMBWE,ISUMBWE
KATAVI,50,TANGANYIKA,502,MISHAMO,50209,ISUMBWE,CENTER
KATAVI,50,TANGANYIKA,502,MISHAMO,50209,ISUMBWE,BARABARA  1
KATAVI,50,TANGANYIKA,502,MISHAMO,50209,ISUMBWE,BARABARA  3
KATAVI,50,TANGANYIKA,502,MISHAMO,50209,ISUMBWE,BARABARA  4
KATAVI,50,TANGANYIKA,502,MISHAMO,50209,ISUMBWE,BARABARA  5
KATAVI,50,TANGANYIKA,502,ISENGULE,50210,ISENGULE,ISENGULA MAGHARIBI
KATAVI,50,TANGANYIKA,502,ISENGULE,50210,ISENGULE,LAELA
KATAVI,50,TANGANYIKA,502,ISENGULE,50210,ISENGULE,ISENGULE MASHARIKI
KATAVI,50,TANGANYIKA,502,ISENGULE,50210,ISENGULE,MCHANGANI
KATAVI,50,TANGANYIKA,502,ISENGULE,50210,SHUKULA,SHUKULA
KATAVI,50,TANGANYIKA,502,ISENGULE,50210,SHUKULA,KENFUNGWA
KATAVI,50,TANGANYIKA,502,ISENGULE,50210,SHUKULA,IGOMA
KATAVI,50,TANGANYIKA,502,ISENGULE,50210,SHUKULA,KAMUHAMA
KATAVI,50,TANGANYIKA,502,ISENGULE,50210,SHUKULA,IPAKOMATANA’B'
KATAVI,50,TANGANYIKA,502,ISENGULE,50210,KASANGANTONGWE,ISIMWA
KATAVI,50,TANGANYIKA,502,ISENGULE,50210,KASANGANTONGWE,KASULAMNYAGA
KATAVI,50,TANGANYIKA,502,ISENGULE,50210,KASANGANTONGWE,TUPONDOGOLO
KATAVI,50,TANGANYIKA,502,ISENGULE,50210,KASANGANTONGWE,KASANGANTONGWE
KATAVI,50,TANGANYIKA,502,KASEKESE,50211,KASEKESE,KASEKESE A
KATAVI,50,TANGANYIKA,502,KASEKESE,50211,KASEKESE,KASEKESE B
KATAVI,50,TANGANYIKA,502,KASEKESE,50211,KASEKESE,MLANGO MMOJA
KATAVI,50,TANGANYIKA,502,KASEKESE,50211,KASEKESE,ILWANGA
KATAVI,50,TANGANYIKA,502,KASEKESE,50211,KASEKESE,MISISI.
KATAVI,50,TANGANYIKA,502,KASEKESE,50211,KAGUNGA,KAGUNGA ‘A’
KATAVI,50,TANGANYIKA,502,KASEKESE,50211,KAGUNGA,KAGUNGA ‘B’
KATAVI,50,TANGANYIKA,502,KASEKESE,50211,KAGUNGA,KAMKOLA
KATAVI,50,TANGANYIKA,502,KASEKESE,50211,KAGUNGA,MANTENA
KATAVI,50,TANGANYIKA,502,KASEKESE,50211,KASEGANYAMA,KASEGANYAMA A
KATAVI,50,TANGANYIKA,502,KASEKESE,50211,KASEGANYAMA,KASEGANYAMA B
KATAVI,50,TANGANYIKA,502,KASEKESE,50211,KASEGANYAMA,KASEGANYAMA C
KATAVI,50,TANGANYIKA,502,MNYAGALA,50212,MNYAGALA,NTUMBA
KATAVI,50,TANGANYIKA,502,MNYAGALA,50212,MNYAGALA,MING’ONG’ONI
KATAVI,50,TANGANYIKA,502,MNYAGALA,50212,MNYAGALA,ILOBA
KATAVI,50,TANGANYIKA,502,MNYAGALA,50212,MNYAGALA,MNYAGALA A
KATAVI,50,TANGANYIKA,502,MNYAGALA,50212,MNYAGALA,MNYAGALA B
KATAVI,50,TANGANYIKA,502,MNYAGALA,50212,KAMSANGA,ILEBULA B
KATAVI,50,TANGANYIKA,502,MNYAGALA,50212,KAMSANGA,MLIMANI
KATAVI,50,TANGANYIKA,502,MNYAGALA,50212,KAMSANGA,KAMSANGA
KATAVI,50,TANGANYIKA,502,MNYAGALA,50212,KAMSANGA,KAMSANGA B
KATAVI,50,TANGANYIKA,502,MNYAGALA,50212,IKAKA,IKAKA GENGENI
KATAVI,50,TANGANYIKA,502,MNYAGALA,50212,IKAKA,IKAKA ‘B’
KATAVI,50,TANGANYIKA,502,MNYAGALA,50212,IKAKA,VUMILIA
KATAVI,50,TANGANYIKA,502,MNYAGALA,50212,IKAKA,ILEBULA ‘A’
KATAVI,50,TANGANYIKA,502,TONGWE,50213,VIKONGE,VIKONGE
KATAVI,50,TANGANYIKA,502,TONGWE,50213,VIKONGE,MNYAMASI A
KATAVI,50,TANGANYIKA,502,TONGWE,50213,VIKONGE,MNYAMASI B.
KATAVI,50,TANGANYIKA,502,TONGWE,50213,VIKONGE,MNYAMASI
KATAVI,50,TANGANYIKA,502,TONGWE,50213,NGOMALUSAMBO,NTINTI
KATAVI,50,TANGANYIKA,502,TONGWE,50213,NGOMALUSAMBO,IJENJE
KATAVI,50,TANGANYIKA,502,TONGWE,50213,NGOMALUSAMBO,NGOMALUSAMBO
KATAVI,50,TANGANYIKA,502,TONGWE,50213,NGOMALUSAMBO,IVUNGWE
KATAVI,50,TANGANYIKA,502,TONGWE,50213,BUGWE,BUGWE A
KATAVI,50,TANGANYIKA,502,TONGWE,50213,BUGWE,BUGWE B
KATAVI,50,TANGANYIKA,502,TONGWE,50213,BUGWE,BUGWE C
KATAVI,50,TANGANYIKA,502,TONGWE,50213,MAJALILA,MASEMBA
KATAVI,50,TANGANYIKA,502,TONGWE,50213,MAJALILA,INYANTAMBO
KATAVI,50,TANGANYIKA,502,TONGWE,50213,MAJALILA,IBENGA
KATAVI,50,TANGANYIKA,502,TONGWE,50213,MAJALILA,MAJALILA
KATAVI,50,TANGANYIKA,502,TONGWE,50213,MAJALILA,MPANDANDOGO
KATAVI,50,TANGANYIKA,502,ILANGU,50214,ILANGU,ALFA
KATAVI,50,TANGANYIKA,502,ILANGU,50214,ILANGU,BONDENI
KATAVI,50,TANGANYIKA,502,ILANGU,50214,ILANGU,AMANI
KATAVI,50,TANGANYIKA,502,ILANGU,50214,ILANGU,NYERERE
KATAVI,50,TANGANYIKA,502,ILANGU,50214,ILANGU,ILANGU
KATAVI,50,TANGANYIKA,502,ILANGU,50214,ILANGU,MAPAMBAZUKO
KATAVI,50,TANGANYIKA,502,ILANGU,50214,ILANGU,MSEBESA
KATAVI,50,TANGANYIKA,502,ILANGU,50214,ILANGU,KILELENI
KATAVI,50,TANGANYIKA,502,ILANGU,50214,KABANGA,KABANGA
KATAVI,50,TANGANYIKA,502,ILANGU,50214,KABANGA,MSHIKAMANO
KATAVI,50,TANGANYIKA,502,ILANGU,50214,KABANGA,MTAKUJA
KATAVI,50,TANGANYIKA,502,ILANGU,50214,KABANGA,JAZANATWENDE
KATAVI,50,TANGANYIKA,502,ILANGU,50214,KABANGA,MIKOCHENI
KATAVI,50,TANGANYIKA,502,ILANGU,50214,KABANGA,UHURU
KATAVI,50,TANGANYIKA,502,ILANGU,50214,ISUBANGALA,KILIMAHEWA
KATAVI,50,TANGANYIKA,502,ILANGU,50214,ISUBANGALA,UTEGAMA
KATAVI,50,TANGANYIKA,502,ILANGU,50214,ISUBANGALA,KAZIMOTO
KATAVI,50,TANGANYIKA,502,ILANGU,50214,ISUBANGALA,AZIMIO
KATAVI,50,TANGANYIKA,502,ILANGU,50214,ISUBANGALA,MANDELA
KATAVI,50,TANGANYIKA,502,ILANGU,50214,ISUBANGALA,FINGA
KATAVI,50,TANGANYIKA,502,ILANGU,50214,ISUBANGALA,MUUNGANO
KATAVI,50,TANGANYIKA,502,ILANGU,50214,ISUBANGALA,MASHA
KATAVI,50,TANGANYIKA,502,ILANGU,50214,MGANSA,KESENGA A
KATAVI,50,TANGANYIKA,502,ILANGU,50214,MGANSA,KESENGA B
KATAVI,50,TANGANYIKA,502,ILANGU,50214,MGANSA,KILOSA
KATAVI,50,TANGANYIKA,502,ILANGU,50214,MGANSA,MZIZIMA
KATAVI,50,TANGANYIKA,502,ILANGU,50214,MGANSA,KALYAKOO
KATAVI,50,TANGANYIKA,502,ILANGU,50214,MGANSA,MSOMBWE
KATAVI,50,TANGANYIKA,502,ILANGU,50214,MGANSA,KABEBA
KATAVI,50,TANGANYIKA,502,ILANGU,50214,MGANSA,NKAMBA
KATAVI,50,TANGANYIKA,502,BULAMATA,50215,BULAMATA,MAGOMENI
KATAVI,50,TANGANYIKA,502,BULAMATA,50215,BULAMATA,BUSONGOLA A
KATAVI,50,TANGANYIKA,502,BULAMATA,50215,BULAMATA,MWETA
KATAVI,50,TANGANYIKA,502,BULAMATA,50215,BULAMATA,MZALENDO
KATAVI,50,TANGANYIKA,502,BULAMATA,50215,BULAMATA,BUSONGOLA B
KATAVI,50,TANGANYIKA,502,BULAMATA,50215,BULAMATA,NYARUKA
KATAVI,50,TANGANYIKA,502,BULAMATA,50215,BULAMATA,MWITUNDE
KATAVI,50,TANGANYIKA,502,BULAMATA,50215,KAMJELA,KAMJELA
KATAVI,50,TANGANYIKA,502,BULAMATA,50215,KAMJELA,IPOLE
KATAVI,50,TANGANYIKA,502,BULAMATA,50215,KAMJELA,AMANI
KATAVI,50,TANGANYIKA,502,BULAMATA,50215,KAMJELA,CHEMICHEMI
KATAVI,50,TANGANYIKA,502,BULAMATA,50215,KAMJELA,AZIMIO
KATAVI,50,TANGANYIKA,502,BULAMATA,50215,KAMJELA,UPENDO
KATAVI,50,TANGANYIKA,502,BULAMATA,50215,KAMJELA,MNARANI
KATAVI,50,TANGANYIKA,502,BULAMATA,50215,KAMJELA,MTAPENDA
KATAVI,50,TANGANYIKA,502,BULAMATA,50215,KUSI,MKWEPU
KATAVI,50,TANGANYIKA,502,BULAMATA,50215,KUSI,ROZI KONA
KATAVI,50,TANGANYIKA,502,BULAMATA,50215,KUSI,MBOZI
KATAVI,50,TANGANYIKA,502,BULAMATA,50215,KUSI,MZIZIMA
KATAVI,50,TANGANYIKA,502,BULAMATA,50215,KUSI,UHURU
KATAVI,50,TANGANYIKA,502,BULAMATA,50215,KUSI,MAFYA
KATAVI,50,TANGANYIKA,502,BULAMATA,50215,KUSI,USUKUMA
KATAVI,50,TANGANYIKA,502,BULAMATA,50215,KUSI,MFILISI
KATAVI,50,TANGANYIKA,502,BULAMATA,50215,KUSI,KUSI
KATAVI,50,TANGANYIKA,502,BULAMATA,50215,BUSONGOLA,BUSONGOLA
KATAVI,50,TANGANYIKA,502,BULAMATA,50215,BUSONGOLA,KIBAONI
KATAVI,50,TANGANYIKA,502,BULAMATA,50215,BUSONGOLA,SHUKURANI
KATAVI,50,TANGANYIKA,502,BULAMATA,50215,BUSONGOLA,KIMWAGA
KATAVI,50,TANGANYIKA,502,BULAMATA,50215,BUSONGOLA,GEZAULOLE
KATAVI,50,TANGANYIKA,502,BULAMATA,50215,BUSONGOLA,MWEMBENI
KATAVI,50,TANGANYIKA,502,BULAMATA,50215,BUSONGOLA,BUHORO
KATAVI,50,TANGANYIKA,502,BULAMATA,50215,BUSONGOLA,KILOSA
KATAVI,50,TANGANYIKA,502,BULAMATA,50215,BUSONGOLA,MORONKO
KATAVI,50,TANGANYIKA,502,BULAMATA,50215,BUSONGOLA,AMANI
KATAVI,50,TANGANYIKA,502,IPWAGA,50216,MAZWE,MAZWE
KATAVI,50,TANGANYIKA,502,IPWAGA,50216,MAZWE,MWENGE
KATAVI,50,TANGANYIKA,502,IPWAGA,50216,MAZWE,SONGAMBELE
KATAVI,50,TANGANYIKA,502,IPWAGA,50216,MAZWE,KAKONGOLO
KATAVI,50,TANGANYIKA,502,IPWAGA,50216,MAZWE,KALENGE
KATAVI,50,TANGANYIKA,502,IPWAGA,50216,MAZWE,KILIMAHEWA
KATAVI,50,TANGANYIKA,502,IPWAGA,50216,MAZWE,KONDAMOYO
KATAVI,50,TANGANYIKA,502,IPWAGA,50216,MAZWE,KERANDA
KATAVI,50,TANGANYIKA,502,IPWAGA,50216,MLIBANSI,KAZAROHO
KATAVI,50,TANGANYIKA,502,IPWAGA,50216,MLIBANSI,RUTUMBE
KATAVI,50,TANGANYIKA,502,IPWAGA,50216,MLIBANSI,MLIBANSI
KATAVI,50,TANGANYIKA,502,IPWAGA,50216,MLIBANSI,SONGAMBELE
KATAVI,50,TANGANYIKA,502,IPWAGA,50216,MLIBANSI,MWANGAZA
KATAVI,50,TANGANYIKA,502,IPWAGA,50216,MLIBANSI,KAZAMWENDO
KATAVI,50,TANGANYIKA,502,IPWAGA,50216,LUGUFU,BARABARA YA 1
KATAVI,50,TANGANYIKA,502,IPWAGA,50216,LUGUFU,BARABARA YA 2
KATAVI,50,TANGANYIKA,502,IPWAGA,50216,LUGUFU,BARABARA YA 3
KATAVI,50,TANGANYIKA,502,IPWAGA,50216,LUGUFU,BARABARA YA 4
KATAVI,50,TANGANYIKA,502,IPWAGA,50216,LUGUFU,BARABARA YA 5
KATAVI,50,TANGANYIKA,502,IPWAGA,50216,LUGUFU,BARABARA YA 6
KATAVI,50,TANGANYIKA,502,IPWAGA,50216,LUGUFU,BARABARA YA 7
KATAVI,50,TANGANYIKA,502,IPWAGA,50216,LUGUFU,BARABARA YA 8
KATAVI,50,TANGANYIKA,502,IPWAGA,50216,LUGUFU,BARABARA YA 9
KATAVI,50,TANGANYIKA,502,IPWAGA,50216,LUGUFU,BARABARA YA 10
KATAVI,50,TANGANYIKA,502,IPWAGA,50216,LUGUFU,BARABARA YA 11
KATAVI,50,TANGANYIKA,502,IPWAGA,50216,LUGUFU,BARABARA YA 12
KATAVI,50,TANGANYIKA,502,IPWAGA,50216,IPWAGA,BARABARA YA 1
KATAVI,50,TANGANYIKA,502,IPWAGA,50216,IPWAGA,BARABARA YA 2
KATAVI,50,TANGANYIKA,502,IPWAGA,50216,IPWAGA,BARABARA YA 3
KATAVI,50,TANGANYIKA,502,IPWAGA,50216,IPWAGA,BARABARA YA 4
KATAVI,50,TANGANYIKA,502,IPWAGA,50216,IPWAGA,BARABARA YA 5
KATAVI,50,TANGANYIKA,502,IPWAGA,50216,IPWAGA,BARABARA YA 6
KATAVI,50,TANGANYIKA,502,IPWAGA,50216,IPWAGA,BARABARA YA 7
KATAVI,50,TANGANYIKA,502,IPWAGA,50216,IPWAGA,BARABARA YA 8
KATAVI,50,TANGANYIKA,502,IPWAGA,50216,IPWAGA,BARABARA YA 9
KATAVI,50,TANGANYIKA,502,IPWAGA,50216,IPWAGA,BARABARA YA 10
KATAVI,50,TANGANYIKA,502,IPWAGA,50216,IPWAGA,BARABARA YA 11
KATAVI,50,TANGANYIKA,502,IPWAGA,50216,IPWAGA,BARABARA YA 12
KATAVI,50,MLELE,503,INYONGA,50301,INYONGA,KAYAMBA A
KATAVI,50,MLELE,503,INYONGA,50301,INYONGA,KAYAMBA B
KATAVI,50,MLELE,503,INYONGA,50301,INYONGA,IGOMBE A
KATAVI,50,MLELE,503,INYONGA,50301,INYONGA,IGOMBE B
KATAVI,50,MLELE,503,INYONGA,50301,INYONGA,UWANJA WA NDEGE
KATAVI,50,MLELE,503,INYONGA,50301,INYONGA,ISENGO A
KATAVI,50,MLELE,503,INYONGA,50301,INYONGA,ISENGO B
KATAVI,50,MLELE,503,INYONGA,50301,KALOVYA,KALOVYA A
KATAVI,50,MLELE,503,INYONGA,50301,KALOVYA,KALOVYA B
KATAVI,50,MLELE,503,INYONGA,50301,KALOVYA,KALOVYA C
KATAVI,50,MLELE,503,INYONGA,50301,KALOVYA,SHAMA
KATAVI,50,MLELE,503,INYONGA,50301,KAMALAMPAKA,KAMALAMPAKA A
KATAVI,50,MLELE,503,INYONGA,50301,KAMALAMPAKA,KAMALAMPAKA B
KATAVI,50,MLELE,503,INYONGA,50301,KAMALAMPAKA,KAKUNKU
KATAVI,50,MLELE,503,INYONGA,50301,KAMALAMPAKA,SHAMA
KATAVI,50,MLELE,503,INYONGA,50301,KAMALAMPAKA,TURIENI
KATAVI,50,MLELE,503,NSENKWA,50310,NSEKWA,KONDAMOYO A
KATAVI,50,MLELE,503,NSENKWA,50310,NSEKWA,KONDAMOYO B
KATAVI,50,MLELE,503,NSENKWA,50310,NSEKWA,KONDAMOYO C
KATAVI,50,MLELE,503,NSENKWA,50310,NSEKWA,WAKEREKETWA A
KATAVI,50,MLELE,503,NSENKWA,50310,NSEKWA,WAKEREKETWA B
KATAVI,50,MLELE,503,NSENKWA,50310,NSEKWA,SHIKAJEMBE A
KATAVI,50,MLELE,503,NSENKWA,50310,NSEKWA,SHIKAJEMBE B
KATAVI,50,MLELE,503,NSENKWA,50310,NSEKWA,LEMBELI A
KATAVI,50,MLELE,503,NSENKWA,50310,KAULOLO,KAULOLO
KATAVI,50,MLELE,503,NSENKWA,50310,KAULOLO,MAPINDUZI
KATAVI,50,MLELE,503,NSENKWA,50310,KAULOLO,MAENDELEO
KATAVI,50,MLELE,503,NSENKWA,50310,MTAKUJA,IGALULA
KATAVI,50,MLELE,503,NSENKWA,50310,MTAKUJA,SOMGAMBELE
KATAVI,50,MLELE,503,NSENKWA,50310,MTAKUJA,MANDELA
KATAVI,50,MLELE,503,NSENKWA,50310,MTAKUJA,LEGEZAMWENDO A
KATAVI,50,MLELE,503,NSENKWA,50310,MTAKUJA,LEGEZAMWENDO B
KATAVI,50,MLELE,503,ILELA,50311,MAPILI,MOTOMOTO
KATAVI,50,MLELE,503,ILELA,50311,MAPILI,KAZAROHO
KATAVI,50,MLELE,503,ILELA,50311,MAPILI,MAPAMBANO
KATAVI,50,MLELE,503,ILELA,50311,MAPILI,MAHAMENI
KATAVI,50,MLELE,503,ILELA,50311,MAPILI,MAJENGO
KATAVI,50,MLELE,503,ILELA,50311,MAPILI,MLOGOLO
KATAVI,50,MLELE,503,ILELA,50311,IPWAGA,MAJENGO
KATAVI,50,MLELE,503,ILELA,50311,IPWAGA,MTAKUMBUKWA
KATAVI,50,MLELE,503,ILELA,50311,IPWAGA,GEZAULOLE
KATAVI,50,MLELE,503,ILELA,50311,IPWAGA,ILELA
KATAVI,50,MLELE,503,ILELA,50311,IPWAGA,MWONGOZO
KATAVI,50,MLELE,503,ILELA,50311,MASINGO,KILOLENI A
KATAVI,50,MLELE,503,ILELA,50311,MASINGO,SONGAMBELE
KATAVI,50,MLELE,503,ILELA,50311,MASINGO,CHEMCHEMI
KATAVI,50,MLELE,503,ILELA,50311,MASINGO,MAENDELEO
KATAVI,50,MLELE,503,ILELA,50311,MASINGO,KILOLENI B
KATAVI,50,MLELE,503,UTENDE,50312,UTENDE,MSHIKAMANO
KATAVI,50,MLELE,503,UTENDE,50312,UTENDE,MCHAKAMCHAKA
KATAVI,50,MLELE,503,UTENDE,50312,UTENDE,USALAMA
KATAVI,50,MLELE,503,UTENDE,50312,UTENDE,MAGEUZI
KATAVI,50,MLELE,503,UTENDE,50312,UTENDE,UZEGA
KATAVI,50,MLELE,503,UTENDE,50312,UTENDE,KATEGILE
KATAVI,50,MLELE,503,UTENDE,50312,MGOMBE,MAPAMBANO
KATAVI,50,MLELE,503,UTENDE,50312,MGOMBE,MUUNGANO
KATAVI,50,MLELE,503,UTENDE,50312,MGOMBE,SUNGUSUNGU
KATAVI,50,MLELE,503,UTENDE,50312,MGOMBE,MGOMBE
KATAVI,50,MLELE,503,UTENDE,50312,WACHAWASEME,MAKAO
KATAVI,50,MLELE,503,UTENDE,50312,WACHAWASEME,CHANG’OMBE
KATAVI,50,MLELE,503,UTENDE,50312,WACHAWASEME,SONGAMBELE
KATAVI,50,MLELE,503,UTENDE,50312,WACHAWASEME,MWENGE
KATAVI,50,MLELE,503,UTENDE,50312,WACHAWASEME,MSHIKAMANO
KATAVI,50,MLELE,503,UTENDE,50312,KANOGE,KAZIMOTO
KATAVI,50,MLELE,503,UTENDE,50312,KANOGE,KUSA
KATAVI,50,MLELE,503,UTENDE,50312,KANOGE,SONGAMBELE
KATAVI,50,MLELE,503,UTENDE,50312,KANOGE,KANOGE
KATAVI,50,MLELE,503,UTENDE,50312,KANOGE,CHANG’OMBE
KATAVI,50,MLELE,503,MBEDE,50315,MBEDE,MBEDE A
KATAVI,50,MLELE,503,MBEDE,50315,MBEDE,MBEDE B
KATAVI,50,MLELE,503,MBEDE,50315,MBEDE,MBEDE C
KATAVI,50,MLELE,503,MBEDE,50315,MBEDE,TUPINDO
KATAVI,50,MLELE,503,MBEDE,50315,MBEDE,MSISI
KATAVI,50,MLELE,503,MBEDE,50315,MBEDE,MKUSWE
KATAVI,50,MLELE,503,MBEDE,50315,MINYOSO,MSAWALA
KATAVI,50,MLELE,503,MBEDE,50315,MINYOSO,MINYOSO
KATAVI,50,MLELE,503,MBEDE,50315,MINYOSO,KIBOKO
KATAVI,50,MLELE,503,MBEDE,50315,MINYOSO,CHEMCHEM
KATAVI,50,MLELE,503,MBEDE,50315,MINYOSO,KATINDA
KATAVI,50,MLELE,503,MBEDE,50315,MINYOSO,TUPINDO A
KATAVI,50,MLELE,503,MBEDE,50315,MINYOSO,TUPINDO B
KATAVI,50,MLELE,503,MBEDE,50315,MWAMATIGA,MWAMATIGA A
KATAVI,50,MLELE,503,MBEDE,50315,MWAMATIGA,MIGUNDA
KATAVI,50,MLELE,503,MBEDE,50315,MWAMATIGA,MWAMATIGA B
KATAVI,50,MLELE,503,MBEDE,50315,MWAMATIGA,MWAMATIGA C
KATAVI,50,MLELE,503,MBEDE,50315,MWAMATIGA,MBUGANI
KATAVI,50,MLELE,503,MAMBA,50316,MAMBA,MAMBA MAGHARIBI
KATAVI,50,MLELE,503,MAMBA,50316,MAMBA,MAKONGORO
KATAVI,50,MLELE,503,MAMBA,50316,MAMBA,LUSANGA
KATAVI,50,MLELE,503,MAMBA,50316,MAMBA,ILINGAMILA
KATAVI,50,MLELE,503,MAMBA,50316,MAMBA B,MAMBA SOKONI
KATAVI,50,MLELE,503,MAMBA,50316,MAMBA B,MAMBA SHULENI
KATAVI,50,MLELE,503,MAMBA,50316,MAMBA B,MABAMBASI
KATAVI,50,MLELE,503,MAMBA,50316,MAMBA B,NTASWA A
KATAVI,50,MLELE,503,MAMBA,50316,MAMBA B,NTASWA B
KATAVI,50,MLELE,503,MAMBA,50316,KANINDI,KANINDI A
KATAVI,50,MLELE,503,MAMBA,50316,KANINDI,KANINDI B
KATAVI,50,MLELE,503,MAMBA,50316,KANINDI,KADE
KATAVI,50,MLELE,503,MAMBA,50316,KANINDI,MINO
KATAVI,50,MLELE,503,MAMBA,50316,KANINDI,MNYAMANDI
KATAVI,50,MLELE,503,MAMBA,50316,KANINDI,CHEMCHEM
KATAVI,50,MLELE,503,MAMBA,50316,KILIDA,KILIDA A
KATAVI,50,MLELE,503,MAMBA,50316,KILIDA,LUSINGA
KATAVI,50,MLELE,503,MAMBA,50316,KILIDA,MWEZYA
KATAVI,50,MLELE,503,MAMBA,50316,KILIDA,KASISI
KATAVI,50,MLELE,503,MAMBA,50316,KILIDA,MASANSO
KATAVI,50,MLELE,503,MAMBA,50316,KABUNDE,MAKUYUGU A
KATAVI,50,MLELE,503,MAMBA,50316,KABUNDE,MAKUYUGU B
KATAVI,50,MLELE,503,MAMBA,50316,KABUNDE,KAPELE A
KATAVI,50,MLELE,503,MAMBA,50316,KABUNDE,KAPELE B
KATAVI,50,MLELE,503,MAMBA,50316,KABUNDE,BANANE
KATAVI,50,MLELE,503,MAMBA,50316,KABUNDE,MPILIPILI A
KATAVI,50,MLELE,503,MAMBA,50316,KABUNDE,MPILIPILI B
KATAVI,50,MLELE,503,MAMBA,50316,KABUNDE,IZIWAKASHA
KATAVI,50,MLELE,503,MAMBA,50316,KABUNDE,KING’ANDA
KATAVI,50,MLELE,503,USEVYA,50317,USEVYA,MALIBOMBA
KATAVI,50,MLELE,503,USEVYA,50317,USEVYA,LAINI
KATAVI,50,MLELE,503,USEVYA,50317,USEVYA,NTOPOLA
KATAVI,50,MLELE,503,USEVYA,50317,USEVYA,MBUGANI
KATAVI,50,MLELE,503,USEVYA,50317,USEVYA,MKUYUNI
KATAVI,50,MLELE,503,USEVYA,50317,USEVYA,KAUNYALA
KATAVI,50,MLELE,503,USEVYA,50317,USEVYA,KAFUNZURU
KATAVI,50,MLELE,503,USEVYA,50317,USEVYA,KASHAMKULO
KATAVI,50,MLELE,503,USEVYA,50317,MSADYA,MSADYA A
KATAVI,50,MLELE,503,USEVYA,50317,MSADYA,MSADYA B
KATAVI,50,MLELE,503,USEVYA,50317,MSADYA,MANELO
KATAVI,50,MLELE,503,USEVYA,50317,MSADYA,MAGU
KATAVI,50,MLELE,503,USEVYA,50317,NYAMBWE,NYAMBWE A
KATAVI,50,MLELE,503,USEVYA,50317,NYAMBWE,NYAMBWE B
KATAVI,50,MLELE,503,USEVYA,50317,NYAMBWE,NYAMBWE C
KATAVI,50,MLELE,503,USEVYA,50317,NYAMBWE,NYAMBWE D
KATAVI,50,MLELE,503,USEVYA,50317,NYAMBWE,NYAMBWE E
KATAVI,50,MLELE,503,KIBAONI,50318,KIBAONI,USHIRIKA
KATAVI,50,MLELE,503,KIBAONI,50318,KIBAONI,ISAMVU
KATAVI,50,MLELE,503,KIBAONI,50318,KIBAONI,NDEMANILWA
KATAVI,50,MLELE,503,KIBAONI,50318,KIBAONI,KAKUNI
KATAVI,50,MLELE,503,KIBAONI,50318,KIBAONI,KAGERA
KATAVI,50,MLELE,503,KIBAONI,50318,KIBAONI,CHONGWE
KATAVI,50,MLELE,503,KIBAONI,50318,KIBAONI,LALANAYO
KATAVI,50,MLELE,503,KIBAONI,50318,MIRUMBA,MIRUMBA
KATAVI,50,MLELE,503,KIBAONI,50318,MIRUMBA,MTUKULA
KATAVI,50,MLELE,503,KIBAONI,50318,MIRUMBA,KITUMBA
KATAVI,50,MLELE,503,KIBAONI,50318,MIRUMBA,KATETE
KATAVI,50,MLELE,503,KIBAONI,50318,MIRUMBA,WAMPEMBE
KATAVI,50,MLELE,503,KIBAONI,50318,ILALANGULU,NGOMENI
KATAVI,50,MLELE,503,KIBAONI,50318,ILALANGULU,ILALANGULU
KATAVI,50,MLELE,503,KIBAONI,50318,ILALANGULU,NGWILO
KATAVI,50,MLELE,503,KIBAONI,50318,ILALANGULU,MKWAKWA
KATAVI,50,MLELE,503,KIBAONI,50318,ILALANGULU,KATANDALA
KATAVI,50,MLELE,503,KIBAONI,50318,ILALANGULU,MASANJA
KATAVI,50,MLELE,503,IKUBA,50319,IKUBA,ISENGA
KATAVI,50,MLELE,503,IKUBA,50319,IKUBA,MOBA
KATAVI,50,MLELE,503,IKUBA,50319,IKUBA,IGOGWE
KATAVI,50,MLELE,503,IKUBA,50319,IKUBA,UZUMBULA
KATAVI,50,MLELE,503,IKUBA,50319,IKUBA,KIKULWE
KATAVI,50,MLELE,503,IKUBA,50319,IKUBA,IPOTA
KATAVI,50,MLELE,503,IKUBA,50319,IKUBA,MNYAKASI
KATAVI,50,MLELE,503,IKUBA,50319,KASHISHI,KASHISHI KASKAZINI
KATAVI,50,MLELE,503,IKUBA,50319,KASHISHI,KASHISHI KATI
KATAVI,50,MLELE,503,IKUBA,50319,KASHISHI,KASHISHI KUSINI
KATAVI,50,MLELE,503,IKUBA,50319,KASHISHI,UNYONYI A
KATAVI,50,MLELE,503,IKUBA,50319,KASHISHI,UNYONYI B
KATAVI,50,MLELE,503,IKUBA,50319,KASHISHI,ITULA
KATAVI,50,MLELE,503,MAJIMOTO,50320,MAJIMOTO,MAJIMOTO
KATAVI,50,MLELE,503,MAJIMOTO,50320,MAJIMOTO,BHULA
KATAVI,50,MLELE,503,MAJIMOTO,50320,MAJIMOTO,NAMANYERE
KATAVI,50,MLELE,503,MAJIMOTO,50320,MAJIMOTO,CHANGI
KATAVI,50,MLELE,503,MAJIMOTO,50320,KITUPA,KITUPA BARABARANI
KATAVI,50,MLELE,503,MAJIMOTO,50320,KITUPA,KITUPA MLIMANI
KATAVI,50,MLELE,503,MAJIMOTO,50320,MKUYUNI,KIWANJANI
KATAVI,50,MLELE,503,MAJIMOTO,50320,MKUYUNI,KILIMAHEWA
KATAVI,50,MLELE,503,MAJIMOTO,50320,MKUYUNI,KOLEDYA
KATAVI,50,MLELE,503,MAJIMOTO,50320,MKUYUNI,MIGUNGA A
KATAVI,50,MLELE,503,MAJIMOTO,50320,MIGUNGA,MIGUNGA A
KATAVI,50,MLELE,503,MAJIMOTO,50320,MIGUNGA,MIGUNGA B
KATAVI,50,MLELE,503,MAJIMOTO,50320,MIGUNGA,MIGUNGA C
KATAVI,50,MLELE,503,MAJIMOTO,50320,MIGUNGA,SOMBO
KATAVI,50,MLELE,503,MAJIMOTO,50320,LUCHIMA,LUCHIMA A
KATAVI,50,MLELE,503,MAJIMOTO,50320,LUCHIMA,MASANGANO
KATAVI,50,MLELE,503,MAJIMOTO,50320,LUCHIMA,KING’ANDA A
KATAVI,50,MLELE,503,MAJIMOTO,50320,LUCHIMA,KIWANJANI A
KATAVI,50,MLELE,503,MAJIMOTO,50320,LUCHIMA,KAWANGA
KATAVI,50,MLELE,503,MAJIMOTO,50320,LUCHIMA,ILUNDA
KATAVI,50,MLELE,503,MAJIMOTO,50320,ILULWE,ILULWE A
KATAVI,50,MLELE,503,MAJIMOTO,50320,ILULWE,ILULWE B
KATAVI,50,MLELE,503,MAJIMOTO,50320,ILULWE,MADULU
KATAVI,50,MLELE,503,MAJIMOTO,50320,ILULWE,ISIMBA
KATAVI,50,MLELE,503,MAJIMOTO,50320,ILULWE,MGOLOKA
KATAVI,50,MLELE,503,KASANSA,50321,IGALUKILO,IGALUKILO A
KATAVI,50,MLELE,503,KASANSA,50321,IGALUKILO,IGALUKILO B
KATAVI,50,MLELE,503,KASANSA,50321,IGALUKILO,IGALUKILO C
KATAVI,50,MLELE,503,KASANSA,50321,IGALUKILO,KING’ANDA A
KATAVI,50,MLELE,503,KASANSA,50321,IGALUKILO,KING’ANDA B
KATAVI,50,MLELE,503,KASANSA,50321,KIKONKO,KIKONKO A
KATAVI,50,MLELE,503,KASANSA,50321,KIKONKO,KIKONKO B
KATAVI,50,MLELE,503,KASANSA,50321,KIKONKO,KIKONKO C
KATAVI,50,MLELE,503,KASANSA,50321,KIKONKO,KIKONKO D
KATAVI,50,MLELE,503,KASANSA,50321,KIKONKO,KIKONKO E
KATAVI,50,MLELE,503,KASANSA,50321,IZIWASUNGU,NG’ONGO
KATAVI,50,MLELE,503,KASANSA,50321,IZIWASUNGU,KAVUU
KATAVI,50,MLELE,503,KASANSA,50321,IZIWASUNGU,IZIWASUNGU
KATAVI,50,MLELE,503,KASANSA,50321,IZIWASUNGU,NSIMBO
KATAVI,50,MLELE,503,KASANSA,50321,NTIBILI,NTIBILI
KATAVI,50,MLELE,503,KASANSA,50321,NTIBILI,NTIBILI B
KATAVI,50,MLELE,503,KASANSA,50321,NTIBILI,NTIBILI C
KATAVI,50,MLELE,503,KASANSA,50321,NTIBILI,CHIFUNDA
KATAVI,50,MLELE,503,KASANSA,50321,NTIBILI,MANZISHE
KATAVI,50,MLELE,503,MWAMAPULI,50322,MWAMAPULI,MWAMAPULI A
KATAVI,50,MLELE,503,MWAMAPULI,50322,MWAMAPULI,MWAMAPULI B
KATAVI,50,MLELE,503,MWAMAPULI,50322,MWAMAPULI,ITOBANILO A
KATAVI,50,MLELE,503,MWAMAPULI,50322,MWAMAPULI,ITOBANILO B
KATAVI,50,MLELE,503,MWAMAPULI,50322,MWAMAPULI,MBUYUNI
KATAVI,50,MLELE,503,MWAMAPULI,50322,MWAMAPULI,NTATUA
KATAVI,50,MLELE,503,MWAMAPULI,50322,UKINGWAMINZI,UKINGWAMINZI A
KATAVI,50,MLELE,503,MWAMAPULI,50322,UKINGWAMINZI,UKINGWAMINZI B
KATAVI,50,MLELE,503,MWAMAPULI,50322,UKINGWAMINZI,UKINGWAMINZI C
KATAVI,50,MLELE,503,MWAMAPULI,50322,UKINGWAMINZI,ITUMBA A
KATAVI,50,MLELE,503,MWAMAPULI,50322,UKINGWAMINZI,ITUMBA B
KATAVI,50,MLELE,503,MWAMAPULI,50322,LUNGUYA,LUNGUYA A
KATAVI,50,MLELE,503,MWAMAPULI,50322,LUNGUYA,LUNGUYA B
KATAVI,50,MLELE,503,MWAMAPULI,50322,LUNGUYA,LUNGUYA C
KATAVI,50,MLELE,503,MWAMAPULI,50322,LUNGUYA,MADULU A
KATAVI,50,MLELE,503,MWAMAPULI,50322,LUNGUYA,MADULU B
KATAVI,50,MLELE,503,ILUNDE,50324,ILUNDE,KIVUKONI
KATAVI,50,MLELE,503,ILUNDE,50324,ILUNDE,ILAMBWE
KATAVI,50,MLELE,503,ILUNDE,50324,ILUNDE,KAUYE
KATAVI,50,MLELE,503,ILUNDE,50324,ILUNDE,KALANGALI
KATAVI,50,MLELE,503,ILUNDE,50324,ISENGENEZYA,ISENGENEZYA
KATAVI,50,MLELE,503,ILUNDE,50324,ISENGENEZYA,MJIMWEMA
KATAVI,50,MLELE,503,ILUNDE,50324,ISENGENEZYA,SHAMA A
KATAVI,50,MLELE,503,ILUNDE,50324,ISENGENEZYA,SHAMA B
KATAVI,50,MLELE,503,KAMSISI,50325,KAMSISI,KAMSISI
KATAVI,50,MLELE,503,KAMSISI,50325,KAMSISI,MAGURUWE
KATAVI,50,MLELE,503,KAMSISI,50325,KAMSISI,SHAMANDUME
KATAVI,50,MLELE,503,KAMSISI,50325,SONGAMBELE,SONGAMBELE
KATAVI,50,MLELE,503,KAMSISI,50325,SONGAMBELE,ILELANDA
KATAVI,50,MLELE,503,KAMSISI,50325,SONGAMBELE,SHAMARA
KATAVI,50,MLELE,503,KAMSISI,50325,IMALAUDUKI,IMALAUDUKI
KATAVI,50,MLELE,503,KAMSISI,50325,IMALAUDUKI,ILANGA
KATAVI,50,MLELE,503,KAMSISI,50325,IMALAUDUKI,KANYUMBU
KATAVI,50,MLELE,503,CHAMALENDI,50326,CHAMALENDI,CHAMALENDI A
KATAVI,50,MLELE,503,CHAMALENDI,50326,CHAMALENDI,CHAMALENDI B
KATAVI,50,MLELE,503,CHAMALENDI,50326,CHAMALENDI,MAHIMBA
KATAVI,50,MLELE,503,CHAMALENDI,50326,CHAMALENDI,MABAMBASI A
KATAVI,50,MLELE,503,CHAMALENDI,50326,CHAMALENDI,MABAMBASI B
KATAVI,50,MLELE,503,CHAMALENDI,50326,MKWAJUNI,MKWAJUNI
KATAVI,50,MLELE,503,CHAMALENDI,50326,MKWAJUNI,MANELA A
KATAVI,50,MLELE,503,CHAMALENDI,50326,MKWAJUNI,MANELA B
KATAVI,50,MLELE,503,CHAMALENDI,50326,MKWAJUNI,MSADYA A
KATAVI,50,MLELE,503,CHAMALENDI,50326,MKWAJUNI,MSADYA B
