REGION,POSTCODE,DISTRICT,POSTCODE,WARD,POSTCODE,STREET,PLACES
KIGOMA,47,"KIGOMA
CBD",471,KIGOMA,47101,KATONGA,
KIGOMA,47,"KIGOMA
CBD",471,KIGOMA,47101,MJI MWEMA,
KIGOMA,47,"KIGOMA
CBD",471,KIGOMA,47101,SHEDE,
KIGOMA,47,"KIGOMA
CBD",471,KIGOMA,47101,LUMUMBA,
KIGOMA,47,"KIGOMA
CBD",471,BANGWE,47102,KATONGA MASHARIKI,
KIGOMA,47,"KIGOMA
CBD",471,BANGWE,47102,KATONGA MAGHARIBI,
KIGOMA,47,"KIGOMA
CBD",471,BANGWE,47102,KAMALA MASHARIKI A,
KIGOMA,47,"KIGOMA
CBD",471,BANGWE,47102,KAMALA MASHARIKI B,
KIGOMA,47,"KIGOMA
CBD",471,BANGWE,47102,KAMALA MAGHARIBI,
KIGOMA,47,"KIGOMA
CBD",471,BANGWE,47102,KAMALA KISIWANI,
KIGOMA,47,"KIGOMA
CBD",471,BANGWE,47102,KAMALA KATI,
KIGOMA,47,"KIGOMA
CBD",471,BANGWE,47102,KAMALA KATI,
KIGOMA,47,"KIGOMA
CBD",471,BANGWE,47102,BUTEKO,
KIGOMA,47,"KIGOMA
CBD",471,BANGWE,47102,BUTEKO,
KIGOMA,47,"KIGOMA
CBD",471,MWANGA KASKAZINI,47103,KISANGANI,
KIGOMA,47,"KIGOMA
CBD",471,MWANGA KASKAZINI,47103,MLOLE,
KIGOMA,47,"KIGOMA
CBD",471,MWANGA KASKAZINI,47103,UJENZI,
KIGOMA,47,"KIGOMA
CBD",471,MWANGA KASKAZINI,47103,UJENZI,
KIGOMA,47,"KIGOMA
CBD",471,MWANGA KUSINI,47104,KILIMA HEWA,
KIGOMA,47,"KIGOMA
CBD",471,MWANGA KUSINI,47104,MSIKITI,
KIGOMA,47,"KIGOMA
CBD",471,MWANGA KUSINI,47104,SHAURIMOYO,
KIGOMA,47,"KIGOMA
CBD",471,MWANGA KUSINI,47104,GAME,
KIGOMA,47,"KIGOMA
CBD",471,MWANGA KUSINI,47104,LUMUMBA,
KIGOMA,47,"KIGOMA
CBD",471,MWANGA KUSINI,47104,SIMU,
KIGOMA,47,"KIGOMA
CBD",471,MWANGA KUSINI,47104,YUSUFU,
KIGOMA,47,"KIGOMA
CBD",471,MWANGA KUSINI,47104,RUSIMBI,
KIGOMA,47,"KIGOMA
CBD",471,MWANGA KUSINI,47104,MUHOGWE,
KIGOMA,47,"KIGOMA
CBD",471,MWANGA KUSINI,47104,VAMIA,
KIGOMA,47,"KIGOMA
CBD",471,MWANGA KUSINI,47104,VAMIA,
KIGOMA,47,"KIGOMA
CBD",471,GUNGU,47105,BUSHABANI,
KIGOMA,47,"KIGOMA
CBD",471,GUNGU,47105,BUTUNGA,
KIGOMA,47,"KIGOMA
CBD",471,GUNGU,47105,BURONGE,
KIGOMA,47,"KIGOMA
CBD",471,GUNGU,47105,MWENGE,
KIGOMA,47,"KIGOMA
CBD",471,GUNGU,47105,GEZAULOLE,
KIGOMA,47,"KIGOMA
CBD",471,GUNGU,47105,MASANGA,
KIGOMA,47,"KIGOMA
CBD",471,GUNGU,47105,KIKUNGU,
KIGOMA,47,"KIGOMA
CBD",471,GUNGU,47105,KIKUNGU,
KIGOMA,47,"KIGOMA
CBD",471,BUHANDA,47106,MSUFINI,
KIGOMA,47,"KIGOMA
CBD",471,BUHANDA,47106,MGEO,
KIGOMA,47,"KIGOMA
CBD",471,BUHANDA,47106,MASANGA,
KIGOMA,47,"KIGOMA
CBD",471,BUHANDA,47106,MUNGONYA,
KIGOMA,47,"KIGOMA
CBD",471,BUHANDA,47106,MUNGONYA,
KIGOMA,47,"KIGOMA
CBD",471,KITONGONI,47107,MNAZI MMOJA,
KIGOMA,47,"KIGOMA
CBD",471,KITONGONI,47107,WAFIPA,
KIGOMA,47,"KIGOMA
CBD",471,KITONGONI,47107,RUTALE,
KIGOMA,47,"KIGOMA
CBD",471,KITONGONI,47107,KAWAWA,
KIGOMA,47,"KIGOMA
CBD",471,KITONGONI,47107,KABONDO,
KIGOMA,47,"KIGOMA
CBD",471,KITONGONI,47107,KABONDO,
KIGOMA,47,"KIGOMA
CBD",471,KASINGIRIMA,47108,LIVINGSTONE,
KIGOMA,47,"KIGOMA
CBD",471,KASINGIRIMA,47108,MATOFALINI,
KIGOMA,47,"KIGOMA
CBD",471,KASINGIRIMA,47108,KASUKI,
KIGOMA,47,"KIGOMA
CBD",471,KASINGIRIMA,47108,MGOMBEWA,
KIGOMA,47,"KIGOMA
CBD",471,KASINGIRIMA,47108,MGOMBEWA,
KIGOMA,47,"KIGOMA
CBD",471,MACHINJIONI,47109,UKUMBI,
KIGOMA,47,"KIGOMA
CBD",471,MACHINJIONI,47109,WAKUHA,
KIGOMA,47,"KIGOMA
CBD",471,MACHINJIONI,47109,KIRUGA,
KIGOMA,47,"KIGOMA
CBD",471,MACHINJIONI,47109,KITENGE,
KIGOMA,47,"KIGOMA
CBD",471,MACHINJIONI,47109,KITENGE,
KIGOMA,47,"KIGOMA
CBD",471,MAJENGO,47110,BOGOGWA,
KIGOMA,47,"KIGOMA
CBD",471,MAJENGO,47110,RUSIMBI,
KIGOMA,47,"KIGOMA
CBD",471,MAJENGO,47110,KATONYANGA,
KIGOMA,47,"KIGOMA
CBD",471,MAJENGO,47110,BONDE,
KIGOMA,47,"KIGOMA
CBD",471,MAJENGO,47110,BONDE,
KIGOMA,47,"KIGOMA
CBD",471,RUBUGA,47111,NDARABU,
KIGOMA,47,"KIGOMA
CBD",471,RUBUGA,47111,RUBUGA,
KIGOMA,47,"KIGOMA
CBD",471,RUBUGA,47111,WAHOMBO,
KIGOMA,47,"KIGOMA
CBD",471,RUBUGA,47111,KIPANDE,
KIGOMA,47,"KIGOMA
CBD",471,RUBUGA,47111,KIPANDE,
KIGOMA,47,"KIGOMA
CBD",471,KASIMBU,47112,NDAHIRIYO,
KIGOMA,47,"KIGOMA
CBD",471,KASIMBU,47112,BUSOMERO,
KIGOMA,47,"KIGOMA
CBD",471,KASIMBU,47112,MASHINE,
KIGOMA,47,"KIGOMA
CBD",471,KASIMBU,47112,LUMUMBA,
KIGOMA,47,"KIGOMA
CBD",471,KASIMBU,47112,LUMUMBA,
KIGOMA,47,"KIGOMA
CBD",471,KAGERA,47113,KANSWA,
KIGOMA,47,"KIGOMA
CBD",471,KAGERA,47113,MGUMILE,
KIGOMA,47,"KIGOMA
CBD",471,KAGERA,47113,MKESE,
KIGOMA,47,"KIGOMA
CBD",471,KAGERA,47113,KIBWE,
KIGOMA,47,"KIGOMA
CBD",471,KAGERA,47113,KIBWE,
KIGOMA,47,"KIGOMA
CBD",471,RUSIMBI,47114,SOKOINE,
KIGOMA,47,"KIGOMA
CBD",471,RUSIMBI,47114,LAKE TANGANYIKA,
KIGOMA,47,"KIGOMA
CBD",471,RUSIMBI,47114,TAIFA,
KIGOMA,47,"KIGOMA
CBD",471,RUSIMBI,47114,KAWAWA,
KIGOMA,47,"KIGOMA
CBD",471,RUSIMBI,47114,BUREGA,
KIGOMA,47,"KIGOMA
CBD",471,RUSIMBI,47114,BUREGA,
KIGOMA,47,"KIGOMA
CBD",471,RUSIMBI,47114,BUREGA,
KIGOMA,47,"KIGOMA
CBD",471,KATUBUKA,47115,MWANGA SOKONI,
KIGOMA,47,"KIGOMA
CBD",471,KATUBUKA,47115,KATUBUKA,
KIGOMA,47,"KIGOMA
CBD",471,KATUBUKA,47115,UWANJA NDEGE,
KIGOMA,47,"KIGOMA
CBD",471,KATUBUKA,47115,UWANJA NDEGE,
KIGOMA,47,"KIGOMA
CBD",471,KIBIRIZI,47116,KIBIRIZII A,
KIGOMA,47,"KIGOMA
CBD",471,KIBIRIZI,47116,KIBIRIZI B,
KIGOMA,47,"KIGOMA
CBD",471,KIBIRIZI,47116,RASINI,
KIGOMA,47,"KIGOMA
CBD",471,KIBIRIZI,47116,KATANDALA,
KIGOMA,47,"KIGOMA
CBD",471,KIBIRIZI,47116,BUSHABANI,
KIGOMA,47,"KIGOMA
CBD",471,KIBIRIZI,47116,KICHWELE,
KIGOMA,47,"KIGOMA
CBD",471,KIBIRIZI,47116,KAHABWA,
KIGOMA,47,"KIGOMA
CBD",471,KIBIRIZI,47116,MGOMBEWA,
KIGOMA,47,"KIGOMA
CBD",471,KIBIRIZI,47116,BUTUNGA,
KIGOMA,47,"KIGOMA
CBD",471,KIBIRIZI,47116,MTOLELE,
KIGOMA,47,"KIGOMA
CBD",471,KIBIRIZI,47116,BURONGE,
KIGOMA,47,"KIGOMA
CBD",471,KIBIRIZI,47116,BURONGE,
KIGOMA,47,"KIGOMA
CBD",471,BUZEBAZEBA,47117,VAMIA,
KIGOMA,47,"KIGOMA
CBD",471,BUZEBAZEBA,47117,TANU,
KIGOMA,47,"KIGOMA
CBD",471,BUZEBAZEBA,47117,SOKOINE,
KIGOMA,47,"KIGOMA
CBD",471,BUZEBAZEBA,47117,SHINDIKA,
KIGOMA,47,"KIGOMA
CBD",471,BUZEBAZEBA,47117,SAMORA,
KIGOMA,47,"KIGOMA
CBD",471,BUZEBAZEBA,47117,NGWANDU,
KIGOMA,47,"KIGOMA
CBD",471,BUZEBAZEBA,47117,MIKOROSHINI,
KIGOMA,47,"KIGOMA
CBD",471,BUZEBAZEBA,47117,MANDELA,
KIGOMA,47,"KIGOMA
CBD",471,BUZEBAZEBA,47117,LUMUMBA,
KIGOMA,47,"KIGOMA
CBD",471,BUZEBAZEBA,47117,LAKE TANGANYIKA,
KIGOMA,47,"KIGOMA
CBD",471,BUZEBAZEBA,47117,KARUTA,
KIGOMA,47,"KIGOMA
CBD",471,BUZEBAZEBA,47117,JUMBE,
KIGOMA,47,"KIGOMA
CBD",471,BUZEBAZEBA,47117,BUREGA,
KIGOMA,47,"KIGOMA
CBD",471,BUZEBAZEBA,47117,BUREGA,
KIGOMA,47,"KIGOMA
CBD",471,KIPAMPA,47118,KAWAWA,
KIGOMA,47,"KIGOMA
CBD",471,KIPAMPA,47118,BOIHARO,
KIGOMA,47,"KIGOMA
CBD",471,KIPAMPA,47118,KAZAROHO,
KIGOMA,47,"KIGOMA
CBD",471,KIPAMPA,47118,RUTALE,
KIGOMA,47,"KIGOMA
CBD",471,KIPAMPA,47118,RUTALE,
KIGOMA,47,"KIGOMA
CBD",471,BUSINDE,47119,KIRUGU,
KIGOMA,47,"KIGOMA
CBD",471,BUSINDE,47119,MWANZINI,
KIGOMA,47,"KIGOMA
CBD",471,BUSINDE,47119,MSIKITINI,
KIGOMA,47,"KIGOMA
CBD",471,BUSINDE,47119,PIMA,
KIGOMA,47,"KIGOMA
CBD",471,BUSINDE,47119,TORO,
KIGOMA,47,"KIGOMA
CBD",471,BUSINDE,47119,MNAZIMOJA,
KIGOMA,47,"KIGOMA
CBD",471,BUSINDE,47119,BIDYOHA,
KIGOMA,47,"KIGOMA
CBD",471,BUSINDE,47119,KITWALO,
KIGOMA,47,"KIGOMA
CBD",471,BUSINDE,47119,RUBABI,
KIGOMA,47,"KIGOMA
CBD",471,BUSINDE,47119,RUBABI,
KIGOMA,47,KIGOMA,472,MAHEMBE,47201,MAHEMBE,MAHEMBE
KIGOMA,47,KIGOMA,472,MAHEMBE,47201,MAHEMBE,NDELEMBELA A
KIGOMA,47,KIGOMA,472,MAHEMBE,47201,MAHEMBE,KASEKE
KIGOMA,47,KIGOMA,472,MAHEMBE,47201,MAHEMBE,KAGULWE
KIGOMA,47,KIGOMA,472,MAHEMBE,47201,MAHEMBE,KWISAMILO
KIGOMA,47,KIGOMA,472,MAHEMBE,47201,MAHEMBE,KALOLENI
KIGOMA,47,KIGOMA,472,MAHEMBE,47201,MAHEMBE,NDELEMELA B
KIGOMA,47,KIGOMA,472,MAHEMBE,47201,NKUNGWE,MAHINGWE
KIGOMA,47,KIGOMA,472,MAHEMBE,47201,NKUNGWE,KACHELELE
KIGOMA,47,KIGOMA,472,MAHEMBE,47201,NKUNGWE,KILOMBERO
KIGOMA,47,KIGOMA,472,MAHEMBE,47201,NKUNGWE,BIGELE
KIGOMA,47,KIGOMA,472,MAHEMBE,47201,NKUNGWE,MNYENYI
KIGOMA,47,KIGOMA,472,MAHEMBE,47201,NKUNGWE,KITEMA
KIGOMA,47,KIGOMA,472,MAHEMBE,47201,NKUNGWE,KABUTA A
KIGOMA,47,KIGOMA,472,MAHEMBE,47201,NKUNGWE,KABUTA B
KIGOMA,47,KIGOMA,472,MAHEMBE,47201,NKUNGWE,RUSUNU A
KIGOMA,47,KIGOMA,472,MAHEMBE,47201,NKUNGWE,RUSUNU B
KIGOMA,47,KIGOMA,472,MAHEMBE,47201,CHANKABWIMBA,CHANKABWIMBA
KIGOMA,47,KIGOMA,472,MAHEMBE,47201,CHANKABWIMBA,KABANGA
KIGOMA,47,KIGOMA,472,MAHEMBE,47201,CHANKABWIMBA,MSHINGISHA
KIGOMA,47,KIGOMA,472,MAHEMBE,47201,CHANKABWIMBA,KICHANGACHUI
KIGOMA,47,KIGOMA,472,BITALE,47202,KIZENGA,KASEKE
KIGOMA,47,KIGOMA,472,BITALE,47202,KIZENGA,UZINZA
KIGOMA,47,KIGOMA,472,BITALE,47202,KIZENGA,KATANDALA
KIGOMA,47,KIGOMA,472,BITALE,47202,KIZENGA,KUMNEGE
KIGOMA,47,KIGOMA,472,BITALE,47202,KIZENGA,NYAKIGA STOO
KIGOMA,47,KIGOMA,472,BITALE,47202,KIZENGA,KIZENGA KATI
KIGOMA,47,KIGOMA,472,BITALE,47202,BITALE,NKURUBA
KIGOMA,47,KIGOMA,472,BITALE,47202,BITALE,KISANGARANI
KIGOMA,47,KIGOMA,472,BITALE,47202,BITALE,KAYOGORO
KIGOMA,47,KIGOMA,472,BITALE,47202,BITALE,MLEGE
KIGOMA,47,KIGOMA,472,BITALE,47202,BITALE,BOLELO
KIGOMA,47,KIGOMA,472,BITALE,47202,BITALE,BITALE SOKONI
KIGOMA,47,KIGOMA,472,BITALE,47202,BITALE,BITALE SHULENI
KIGOMA,47,KIGOMA,472,BITALE,47202,MKONGORO,NYAMWEHA JUU
KIGOMA,47,KIGOMA,472,BITALE,47202,MKONGORO,NYAMWEHA CHINI
KIGOMA,47,KIGOMA,472,BITALE,47202,MKONGORO,NYETE JUU
KIGOMA,47,KIGOMA,472,BITALE,47202,MKONGORO,KASAGAMBA
KIGOMA,47,KIGOMA,472,BITALE,47202,MKONGORO,KASEKE
KIGOMA,47,KIGOMA,472,BITALE,47202,MKONGORO,CCM CENTRE
KIGOMA,47,KIGOMA,472,BITALE,47202,MKONGORO,MAJENGO A
KIGOMA,47,KIGOMA,472,BITALE,47202,MKONGORO,MAJENGO B
KIGOMA,47,KIGOMA,472,BITALE,47202,NYAMHOZA,NYAMHOZA HILL
KIGOMA,47,KIGOMA,472,BITALE,47202,NYAMHOZA,NYAMHOZA SHULENI
KIGOMA,47,KIGOMA,472,BITALE,47202,NYAMHOZA,SUMPA
KIGOMA,47,KIGOMA,472,BITALE,47202,NYAMHOZA,NYABIGUFA
KIGOMA,47,KIGOMA,472,BITALE,47202,NYAMHOZA,MLWANGA
KIGOMA,47,KIGOMA,472,BITALE,47202,CHANKELE,MBALIZI
KIGOMA,47,KIGOMA,472,BITALE,47202,CHANKELE,BUHAGALA
KIGOMA,47,KIGOMA,472,BITALE,47202,CHANKELE,MLAMBI
KIGOMA,47,KIGOMA,472,BITALE,47202,CHANKELE,HWAZI
KIGOMA,47,KIGOMA,472,BITALE,47202,CHANKELE,KITELAMA
KIGOMA,47,KIGOMA,472,BITALE,47202,BUBANGO,KABASAKA
KIGOMA,47,KIGOMA,472,BITALE,47202,BUBANGO,NYAHANDE
KIGOMA,47,KIGOMA,472,BITALE,47202,BUBANGO,KIRUNDO
KIGOMA,47,KIGOMA,472,BITALE,47202,BUBANGO,MWIGOGI
KIGOMA,47,KIGOMA,472,BITALE,47202,BUBANGO,NYACHANGA
KIGOMA,47,KIGOMA,472,BITALE,47202,BUBANGO,HWAZI
KIGOMA,47,KIGOMA,472,BITALE,47202,BUBANGO,KUMSENGA
KIGOMA,47,KIGOMA,472,MKONGORO,47203,MKONGORO,
KIGOMA,47,KIGOMA,472,MKONGORO,47203,CHANKERE,
KIGOMA,47,KIGOMA,472,MKONGORO,47203,NYAMHOZA,
KIGOMA,47,KIGOMA,472,MATENDO,47204,MATENDO,KINOGODO
KIGOMA,47,KIGOMA,472,MATENDO,47204,MATENDO,KIBALINI
KIGOMA,47,KIGOMA,472,MATENDO,47204,MATENDO,MAJENGO
KIGOMA,47,KIGOMA,472,MATENDO,47204,MATENDO,KIBUMBA
KIGOMA,47,KIGOMA,472,MATENDO,47204,MATENDO,KUMUHAMA
KIGOMA,47,KIGOMA,472,MATENDO,47204,SAMWA,NYAMIAGA
KIGOMA,47,KIGOMA,472,MATENDO,47204,SAMWA,MKUTI
KIGOMA,47,KIGOMA,472,MATENDO,47204,SAMWA,TUNGURUZA SHULENI
KIGOMA,47,KIGOMA,472,MATENDO,47204,KIDAHWE,KIDAHWE KATI
KIGOMA,47,KIGOMA,472,MATENDO,47204,KIDAHWE,MSUNUZI
KIGOMA,47,KIGOMA,472,MATENDO,47204,KIDAHWE,NYANGWE
KIGOMA,47,KIGOMA,472,MATENDO,47204,KIDAHWE,LUGOGONI
KIGOMA,47,KIGOMA,472,MATENDO,47204,KIDAHWE,KAFUNZO
KIGOMA,47,KIGOMA,472,MATENDO,47204,KIDAHWE,NYAKURASA
KIGOMA,47,KIGOMA,472,MATENDO,47204,PAMILA,PAMILA
KIGOMA,47,KIGOMA,472,MATENDO,47204,PAMILA,SAMWA
KIGOMA,47,KIGOMA,472,MATENDO,47204,PAMILA,MIBANGANI
KIGOMA,47,KIGOMA,472,MATENDO,47204,PAMILA,RUKARANKA
KIGOMA,47,KIGOMA,472,MKIGO,47205,MKIGO,KILEMBA
KIGOMA,47,KIGOMA,472,MKIGO,47205,MKIGO,KUMSASA
KIGOMA,47,KIGOMA,472,MKIGO,47205,MKIGO,KIBIMBA
KIGOMA,47,KIGOMA,472,MKIGO,47205,MKIGO,MSENGA A
KIGOMA,47,KIGOMA,472,MKIGO,47205,MKIGO,MSENGA B
KIGOMA,47,KIGOMA,472,MKIGO,47205,MKIGO,MTIKAMBA
KIGOMA,47,KIGOMA,472,MKIGO,47205,MKIGO,NYAMSHISHA
KIGOMA,47,KIGOMA,472,MKIGO,47205,MKIGO,KATONYANGA
KIGOMA,47,KIGOMA,472,MKIGO,47205,NYARUBANDA,NYABUTUSI
KIGOMA,47,KIGOMA,472,MKIGO,47205,NYARUBANDA,KASANGE
KIGOMA,47,KIGOMA,472,MKIGO,47205,NYARUBANDA,KITERAMA
KIGOMA,47,KIGOMA,472,MKIGO,47205,NYARUBANDA,SHONGE
KIGOMA,47,KIGOMA,472,MKIGO,47205,NYARUBANDA,NYAMAGANA
KIGOMA,47,KIGOMA,472,KALINZI,47206,KALINZI,KIVUMU A
KIGOMA,47,KIGOMA,472,KALINZI,47206,KALINZI,KIVUMU B
KIGOMA,47,KIGOMA,472,KALINZI,47206,KALINZI,MLANGALA
KIGOMA,47,KIGOMA,472,KALINZI,47206,KALINZI,RUSUVIWE
KIGOMA,47,KIGOMA,472,KALINZI,47206,KALINZI,MLESI
KIGOMA,47,KIGOMA,472,KALINZI,47206,KALINZI,MGANZA
KIGOMA,47,KIGOMA,472,KALINZI,47206,KALINZI,BUSINDE
KIGOMA,47,KIGOMA,472,KALINZI,47206,KALINZI,KISOZI
KIGOMA,47,KIGOMA,472,KALINZI,47206,KALINZI,KABALE
KIGOMA,47,KIGOMA,472,KALINZI,47206,KALINZI,KALINZI
KIGOMA,47,KIGOMA,472,KALINZI,47206,MATYAZO,MATYAZO A
KIGOMA,47,KIGOMA,472,KALINZI,47206,MATYAZO,MATYAZO B
KIGOMA,47,KIGOMA,472,KALINZI,47206,MATYAZO,LAMIYA
KIGOMA,47,KIGOMA,472,KALINZI,47206,MATYAZO,KIBISA
KIGOMA,47,KIGOMA,472,KALINZI,47206,MATYAZO,LUKINZO
KIGOMA,47,KIGOMA,472,KALINZI,47206,MATYAZO,BUSINGO
KIGOMA,47,KIGOMA,472,KALINZI,47206,MATYAZO,MSHENYI
KIGOMA,47,KIGOMA,472,KALINZI,47206,MKABOGO,RUHINGA A
KIGOMA,47,KIGOMA,472,KALINZI,47206,MKABOGO,MSENGA
KIGOMA,47,KIGOMA,472,KALINZI,47206,MKABOGO,KINYABWAMI
KIGOMA,47,KIGOMA,472,KALINZI,47206,MKABOGO,MKABOGO
KIGOMA,47,KIGOMA,472,KALINZI,47206,MKABOGO,BUGALE
KIGOMA,47,KIGOMA,472,KALINZI,47206,MKABOGO,MILINZI
KIGOMA,47,KIGOMA,472,KALINZI,47206,MKABOGO,RUHINGA B
KIGOMA,47,KIGOMA,472,KALINZI,47206,MKABOGO,KILIABILA
KIGOMA,47,KIGOMA,472,KAGUNGA,47207,ZASHE,MKWALE
KIGOMA,47,KIGOMA,472,KAGUNGA,47207,ZASHE,MWIBONA
KIGOMA,47,KIGOMA,472,KAGUNGA,47207,ZASHE,NGONYA
KIGOMA,47,KIGOMA,472,KAGUNGA,47207,ZASHE,MISEMELE
KIGOMA,47,KIGOMA,472,KAGUNGA,47207,ZASHE,MIBOMBO
KIGOMA,47,KIGOMA,472,KAGUNGA,47207,KAGUNGA,NYAMIRAMBO
KIGOMA,47,KIGOMA,472,KAGUNGA,47207,KAGUNGA,KAGUNGA NA.  1
KIGOMA,47,KIGOMA,472,KAGUNGA,47207,KAGUNGA,MAKOMBE
KIGOMA,47,KIGOMA,472,KAGUNGA,47207,KAGUNGA,RUSOLO
KIGOMA,47,KIGOMA,472,KAGUNGA,47207,KAGUNGA,MRAMAKAHONO
KIGOMA,47,KIGOMA,472,KAGUNGA,47207,KAGUNGA,MKWALE
KIGOMA,47,KIGOMA,472,MWAMGONGO,47208,MWAMGONGO,BUSORO
KIGOMA,47,KIGOMA,472,MWAMGONGO,47208,MWAMGONGO,KASHOKA
KIGOMA,47,KIGOMA,472,MWAMGONGO,47208,MWAMGONGO,MPEMBA
KIGOMA,47,KIGOMA,472,MWAMGONGO,47208,MWAMGONGO,MGAZO
KIGOMA,47,KIGOMA,472,MWAMGONGO,47208,MWAMGONGO,BUSEKE
KIGOMA,47,KIGOMA,472,MWAMGONGO,47208,MWAMGONGO,NYANDIGA
KIGOMA,47,KIGOMA,472,MWAMGONGO,47208,MWAMGONGO,KAMASA
KIGOMA,47,KIGOMA,472,MWAMGONGO,47208,MWAMGONGO,GOMBE
KIGOMA,47,KIGOMA,472,MWAMGONGO,47208,KIZIBA,KATANDALA
KIGOMA,47,KIGOMA,472,MWAMGONGO,47208,KIZIBA,KIZIBA
KIGOMA,47,KIGOMA,472,MWAMGONGO,47208,KIZIBA,NYABUREBO
KIGOMA,47,KIGOMA,472,MWAMGONGO,47208,KIZIBA,LEGEZA
KIGOMA,47,KIGOMA,472,MWAMGONGO,47208,KIZIBA,ZASHE MTONI
KIGOMA,47,KIGOMA,472,MWAMGONGO,47208,KIZIBA,BUMBA
KIGOMA,47,KIGOMA,472,MWAMGONGO,47208,KIZIBA,KIGARA
KIGOMA,47,KIGOMA,472,MWAMGONGO,47208,KIZIBA,KASUGWE
KIGOMA,47,KIGOMA,472,MWAMGONGO,47208,BUGAMBA,KIHANGWE
KIGOMA,47,KIGOMA,472,MWAMGONGO,47208,BUGAMBA,MLOLWA
KIGOMA,47,KIGOMA,472,MWAMGONGO,47208,BUGAMBA,KALULU
KIGOMA,47,KIGOMA,472,MWAMGONGO,47208,BUGAMBA,MATIAZO
KIGOMA,47,KIGOMA,472,MWAMGONGO,47208,BUGAMBA,MWITANGA
KIGOMA,47,KIGOMA,472,MWAMGONGO,47208,BUGAMBA,SAKWE
KIGOMA,47,KIGOMA,472,MWAMGONGO,47208,BUGAMBA,MISONGA
KIGOMA,47,KIGOMA,472,MWAMGONGO,47208,BUGAMBA,MUNKU
KIGOMA,47,KIGOMA,472,KAGONGO,47209,KIGALYE,KIGALYE
KIGOMA,47,KIGOMA,472,KAGONGO,47209,KIGALYE,KAGONGO ZIWANI
KIGOMA,47,KIGOMA,472,KAGONGO,47209,KIGALYE,NYANTORE
KIGOMA,47,KIGOMA,472,KAGONGO,47209,KIGALYE,KAHAMIYE
KIGOMA,47,KIGOMA,472,KAGONGO,47209,KAGONGO,BUNGU
KIGOMA,47,KIGOMA,472,KAGONGO,47209,KAGONGO,SANZE
KIGOMA,47,KIGOMA,472,KAGONGO,47209,KAGONGO,BUROMBO
KIGOMA,47,KIGOMA,472,KAGONGO,47209,KAGONGO,BULUNDA
KIGOMA,47,KIGOMA,472,KAGONGO,47209,KAGONGO,KALUKOZI
KIGOMA,47,KIGOMA,472,KAGONGO,47209,KAGONGO,KITAKATA
KIGOMA,47,KIGOMA,472,KAGONGO,47209,KALALANGABO,KALALANGABO
KIGOMA,47,KIGOMA,472,KAGONGO,47209,KALALANGABO,ZIWANI B
KIGOMA,47,KIGOMA,472,KAGONGO,47209,KALALANGABO,LUGONGONI
KIGOMA,47,KIGOMA,472,KAGONGO,47209,KALALANGABO,KICHANGANI
KIGOMA,47,KIGOMA,472,KAGONGO,47209,MGARAGANZA,KILEMBELA
KIGOMA,47,KIGOMA,472,KAGONGO,47209,MGARAGANZA,MLATI
KIGOMA,47,KIGOMA,472,KAGONGO,47209,MGARAGANZA,KATOMBO
KIGOMA,47,KIGOMA,472,KAGONGO,47209,MGARAGANZA,MSELA
KIGOMA,47,KIGOMA,472,KAGONGO,47209,MGARAGANZA,KAGINA
KIGOMA,47,KIGOMA,472,KAGONGO,47209,MGARAGANZA,MGARAGANZA
KIGOMA,47,KIGOMA,472,KAGONGO,47209,MTANGA,MTANGA A
KIGOMA,47,KIGOMA,472,KAGONGO,47209,MTANGA,MTANGA B
KIGOMA,47,KIGOMA,472,KAGONGO,47209,MTANGA,NGELWA
KIGOMA,47,KIGOMA,472,KAGONGO,47209,MTANGA,MIRAMBA
KIGOMA,47,KIGOMA,472,KAGONGO,47209,MTANGA,KIZUKA
KIGOMA,47,KIGOMA,472,KAGONGO,47209,MTANGA,KAZINGA
KIGOMA,47,KIGOMA,472,KAMARA,47210,KAMARA,KAMARA
KIGOMA,47,KIGOMA,472,KAMARA,47210,KAMARA,RUFITI
KIGOMA,47,KIGOMA,472,KAMARA,47210,KAMARA,KIHINGA
KIGOMA,47,KIGOMA,472,KAMARA,47210,KAMARA,KANGUGO
KIGOMA,47,KIGOMA,472,KAMARA,47210,KAMARA,KALONGELONGE
KIGOMA,47,KIGOMA,472,KAMARA,47210,MSIMBA,KAZEGUNGA A
KIGOMA,47,KIGOMA,472,KAMARA,47210,MSIMBA,KAZEGUNGA B
KIGOMA,47,KIGOMA,472,KAMARA,47210,MSIMBA,KASAKA JUU
KIGOMA,47,KIGOMA,472,KAMARA,47210,MSIMBA,KASAKA CHINI
KIGOMA,47,KIGOMA,472,KAMARA,47210,MSIMBA,MSIMBA A
KIGOMA,47,KIGOMA,472,KAMARA,47210,MSIMBA,MSIMBA B
KIGOMA,47,KIGOMA,472,MWANDIGA,47211,MWANDIGA,MGERA A
KIGOMA,47,KIGOMA,472,MWANDIGA,47211,MWANDIGA,MGERA B
KIGOMA,47,KIGOMA,472,MWANDIGA,47211,MWANDIGA,MAJENGO
KIGOMA,47,KIGOMA,472,MWANDIGA,47211,MWANDIGA,SOKONI
KIGOMA,47,KIGOMA,472,MWANDIGA,47211,MWANDIGA,MWANDIGA MASHARIKI
KIGOMA,47,KIGOMA,472,MWANDIGA,47211,MWANDIGA,MWANDIGA KASKAZINI
KIGOMA,47,KIGOMA,472,MWANDIGA,47211,MWANDIGA,MWANDIGA MAGHARIBI
KIGOMA,47,KIGOMA,472,MWANDIGA,47211,MWANDIGA,UWANJANI
KIGOMA,47,KIGOMA,472,MWANDIGA,47211,KIBINGO,KIBINGO A
KIGOMA,47,KIGOMA,472,MWANDIGA,47211,KIBINGO,KIBINGO B
KIGOMA,47,KIGOMA,472,MWANDIGA,47211,KIBINGO,BIGABIRO A
KIGOMA,47,KIGOMA,472,MWANDIGA,47211,KIBINGO,BIGABIRO B
KIGOMA,47,KIGOMA,472,MWANDIGA,47211,KIBINGO,KASESA
KIGOMA,47,KIGOMA,472,MWANDIGA,47211,KIGANZA,BWERU A
KIGOMA,47,KIGOMA,472,MWANDIGA,47211,KIGANZA,BWERU B
KIGOMA,47,KIGOMA,472,MWANDIGA,47211,KIGANZA,KIGANZA CCM
KIGOMA,47,KIGOMA,472,MWANDIGA,47211,KIGANZA,KIGANZA SENTA
KIGOMA,47,KIGOMA,472,MWANDIGA,47211,KIGANZA,BUKEMBA
KIGOMA,47,KIGOMA,472,MWANDIGA,47211,KIGANZA,KITOBE
KIGOMA,47,KIGOMA,472,MWANDIGA,47211,KIGANZA,KAZIBA
KIGOMA,47,KIGOMA,472,MWANDIGA,47211,KIGANZA,KIGANZA KATI
KIGOMA,47,KASULU,473,KASULU MJINI,47301,KIGANZA,MURUBONA
KIGOMA,47,KASULU,473,KASULU MJINI,47301,KIGANZA,MWILAMVYA
KIGOMA,47,KASULU,473,KASULU MJINI,47301,KIGANZA,MURUSI
KIGOMA,47,KASULU,473,KASULU MJINI,47301,KIGANZA,KAGUNGA
KIGOMA,47,KASULU,473,KASULU MJINI,47301,KIGANZA,KUMNYIKA
KIGOMA,47,KASULU,473,KASULU MJINI,47301,KIGANZA,KIMOBWA
KIGOMA,47,KASULU,473,KASULU MJINI,47301,KIGANZA,KUMSENGA
KIGOMA,47,KASULU,473,KWAGA,47302,KWAGA,KWAGA ‘A’
KIGOMA,47,KASULU,473,KWAGA,47302,KWAGA,KWAGA ‘B’
KIGOMA,47,KASULU,473,KWAGA,47302,KWAGA,KISUNU
KIGOMA,47,KASULU,473,KWAGA,47302,KWAGA,MUBATAMBO
KIGOMA,47,KASULU,473,KWAGA,47302,KWAGA,MAJENGO ‘A’
KIGOMA,47,KASULU,473,KWAGA,47302,KWAGA,MAJENGO ‘B’
KIGOMA,47,KASULU,473,KWAGA,47302,KALELA,MULONZI
KIGOMA,47,KASULU,473,KWAGA,47302,KALELA,KATI
KIGOMA,47,KASULU,473,KWAGA,47302,KALELA,MKATANGA
KIGOMA,47,KASULU,473,KWAGA,47302,KALELA,RUGUNGA
KIGOMA,47,KASULU,473,KWAGA,47302,KALELA,SYOSYO
KIGOMA,47,KASULU,473,RUSESA,47303,RUSESA,NYANDAGO
KIGOMA,47,KASULU,473,RUSESA,47303,RUSESA,KANYIRU
KIGOMA,47,KASULU,473,RUSESA,47303,RUSESA,MKIBILA
KIGOMA,47,KASULU,473,RUSESA,47303,RUSESA,KAKILUNGU
KIGOMA,47,KASULU,473,RUSESA,47303,RUSESA,MTAKOLOLA
KIGOMA,47,KASULU,473,RUSESA,47303,RUSESA,RUSESA
KIGOMA,47,KASULU,473,RUSESA,47303,ZEZE,MSONGENI
KIGOMA,47,KASULU,473,RUSESA,47303,ZEZE,RUHOMBE
KIGOMA,47,KASULU,473,RUSESA,47303,ZEZE,NYAKITANGA
KIGOMA,47,KASULU,473,RUSESA,47303,ZEZE,MAZUNGWE
KIGOMA,47,KASULU,473,MUZYE,47304,MUZYE,KAMBALI
KIGOMA,47,KASULU,473,MUZYE,47304,MUZYE,KWITANGI
KIGOMA,47,KASULU,473,MUZYE,47304,MUZYE,MUGOGWE
KIGOMA,47,KASULU,473,MUZYE,47304,MUZYE,MVUVUMA
KIGOMA,47,KASULU,473,MUZYE,47304,MUTALA,MAJENGO
KIGOMA,47,KASULU,473,MUZYE,47304,MUTALA,MUTALA
KIGOMA,47,KASULU,473,MUZYE,47304,MUTALA,KIGUNGA
KIGOMA,47,KASULU,473,MUZYE,47304,MUTALA,MAVUMA
KIGOMA,47,KASULU,473,MUZYE,47304,KAMEMBE,KASHISHI
KIGOMA,47,KASULU,473,MUZYE,47304,KAMEMBE,KAMEMBE
KIGOMA,47,KASULU,473,MUZYE,47304,KAMEMBE,KASENGEZI
KIGOMA,47,KASULU,473,MUZYE,47304,KAMEMBE,NYAMWAMBA
KIGOMA,47,KASULU,473,MUZYE,47304,KAMEMBE,NYABWERU
KIGOMA,47,KASULU,473,MUZYE,47304,KAMEMBE,KUMLAMA
KIGOMA,47,KASULU,473,MUZYE,47304,KAMEMBE,NYABEHO
KIGOMA,47,KASULU,473,MUZYE,47304,KAMEMBE,UMOJA
KIGOMA,47,KASULU,473,MUZYE,47304,KAMEMBE,MAJENGO
KIGOMA,47,KASULU,473,MUZYE,47304,KAMEMBE,KANANI
KIGOMA,47,KASULU,473,MUZYE,47304,KAMEMBE,KOLOLA
KIGOMA,47,KASULU,473,MUZYE,47304,KAMEMBE,MAYONGA
KIGOMA,47,KASULU,473,RUNGWE MPYA,47305,RUNGWE MPYA,BURENGA ‘A’
KIGOMA,47,KASULU,473,RUNGWE MPYA,47305,RUNGWE MPYA,BURENGA ‘B’
KIGOMA,47,KASULU,473,RUNGWE MPYA,47305,RUNGWE MPYA,NYAFYEKE
KIGOMA,47,KASULU,473,RUNGWE MPYA,47305,RUNGWE MPYA,MANYOVU
KIGOMA,47,KASULU,473,RUNGWE MPYA,47305,RUNGWE MPYA,KINAGANA
KIGOMA,47,KASULU,473,RUNGWE MPYA,47305,KAGURUKA,MUMATANGA
KIGOMA,47,KASULU,473,RUNGWE MPYA,47305,KAGURUKA,KWIKUNGU
KIGOMA,47,KASULU,473,MURUFITI,47306,MURUFITI,NYAMGOMBELO A
KIGOMA,47,KASULU,473,MURUFITI,47306,MURUFITI,NYAMGOMBELO B
KIGOMA,47,KASULU,473,MURUFITI,47306,MURUFITI,NYABUYANGE A
KIGOMA,47,KASULU,473,MURUFITI,47306,MURUFITI,NYABUYANGE B
KIGOMA,47,KASULU,473,MURUFITI,47306,MURUFITI,NYANGWA
KIGOMA,47,KASULU,473,MURUFITI,47306,NYANTARE,BUSEKO
KIGOMA,47,KASULU,473,MURUFITI,47306,NYANTARE,NYANTARE
KIGOMA,47,KASULU,473,MURUFITI,47306,NYANTARE,MTAMBO
KIGOMA,47,KASULU,473,MURUFITI,47306,NYANSHA,KIBAGWE
KIGOMA,47,KASULU,473,MURUFITI,47306,NYANSHA,KILOMBERO
KIGOMA,47,KASULU,473,MURUFITI,47306,NYANSHA,MUGANDAZI
KIGOMA,47,KASULU,473,MURUFITI,47306,NYANSHA,KIGUHU
KIGOMA,47,KASULU,473,MURUFITI,47306,NYANSHA,KUMUBANGA
KIGOMA,47,KASULU,473,MUSAMBARA,47307,KABANGA,MULINGA
KIGOMA,47,KASULU,473,MUSAMBARA,47307,KABANGA,KIDUGUDA A
KIGOMA,47,KASULU,473,MUSAMBARA,47307,KABANGA,KIDUGUDA B
KIGOMA,47,KASULU,473,MUSAMBARA,47307,KABANGA,MASANZE
KIGOMA,47,KASULU,473,MUSAMBARA,47307,KABANGA,NYAMTUKULA
KIGOMA,47,KASULU,473,MUSAMBARA,47307,MUSAMBARA,JUNGA
KIGOMA,47,KASULU,473,MUSAMBARA,47307,MUSAMBARA,RUNYONGOZA
KIGOMA,47,KASULU,473,MUSAMBARA,47307,MUSAMBARA,MURUNGWA
KIGOMA,47,KASULU,473,MUSAMBARA,47307,MUSAMBARA,MGONGO
KIGOMA,47,KASULU,473,MUSAMBARA,47307,MUSAMBARA,MLANGO
KIGOMA,47,KASULU,473,MUSAMBARA,47307,MUSAMBARA,KATANDALA
KIGOMA,47,KASULU,473,KIGONDO,47308,KIGONDO,KIGONDO A
KIGOMA,47,KASULU,473,KIGONDO,47308,KIGONDO,KIGONDO B
KIGOMA,47,KASULU,473,KIGONDO,47308,KIGONDO,CHEYA
KIGOMA,47,KASULU,473,KIGONDO,47308,KIGONDO,KIGULE
KIGOMA,47,KASULU,473,KIGONDO,47308,KIGONDO,NYANGOVA
KIGOMA,47,KASULU,473,KIGONDO,47308,KIDYAMA,MUGURUSI
KIGOMA,47,KASULU,473,KIGONDO,47308,KIDYAMA,HWAZI
KIGOMA,47,KASULU,473,KIGONDO,47308,KIDYAMA,NYARUMANGA
KIGOMA,47,KASULU,473,KIGONDO,47308,KIDYAMA,NYAKIJIMA
KIGOMA,47,KASULU,473,RUHITA,47309,RUHITA,RUBABI A
KIGOMA,47,KASULU,473,RUHITA,47309,RUHITA,RUBABI B
KIGOMA,47,KASULU,473,RUHITA,47309,RUHITA,MAJENGO
KIGOMA,47,KASULU,473,RUHITA,47309,RUHITA,BUHIRIMA A
KIGOMA,47,KASULU,473,RUHITA,47309,RUHITA,BUHIRIMA B
KIGOMA,47,KASULU,473,RUHITA,47309,KANAZI,LUSILAMPENE
KIGOMA,47,KASULU,473,RUHITA,47309,KANAZI,TABIRUNGU
KIGOMA,47,KASULU,473,RUHITA,47309,KANAZI,MUMUNYIKA
KIGOMA,47,KASULU,473,RUHITA,47309,KANAZI,NKONA
KIGOMA,47,KASULU,473,RUHITA,47309,KANAZI,NYANGWE
KIGOMA,47,KASULU,473,RUHITA,47309,NYENGE,KIMILANGETE
KIGOMA,47,KASULU,473,RUHITA,47309,NYENGE,NYEGE KATI
KIGOMA,47,KASULU,473,RUHITA,47309,NYENGE,KIGOMA
KIGOMA,47,KASULU,473,RUHITA,47309,MIGUNGA,KAPANA
KIGOMA,47,KASULU,473,RUHITA,47309,MIGUNGA,KIGUNDULWA
KIGOMA,47,KASULU,473,RUHITA,47309,MIGUNGA,MTUNDU
KIGOMA,47,KASULU,473,RUHITA,47309,MIGUNGA,NYABAGENI
KIGOMA,47,KASULU,473,RUHITA,47309,MIGUNGA,MSEBEI
KIGOMA,47,KASULU,473,TITYE,47310,TITYE,MUBUNGA
KIGOMA,47,KASULU,473,TITYE,47310,TITYE,NYANKOLE
KIGOMA,47,KASULU,473,TITYE,47310,TITYE,MLALANKONA
KIGOMA,47,KASULU,473,TITYE,47310,TITYE,MAJENGO
KIGOMA,47,KASULU,473,TITYE,47310,LALAMBE,MANYOVU
KIGOMA,47,KASULU,473,TITYE,47310,LALAMBE,NYAMUNYINYA
KIGOMA,47,KASULU,473,TITYE,47310,LALAMBE,KINYIKA
KIGOMA,47,KASULU,473,TITYE,47310,LALAMBE,BUKUBA
KIGOMA,47,KASULU,473,NYAMUNYUSI,47311,NYAMUNYUSI,KISUMA
KIGOMA,47,KASULU,473,NYAMUNYUSI,47311,NYAMUNYUSI,KAGEMBE A
KIGOMA,47,KASULU,473,NYAMUNYUSI,47311,NYAMUNYUSI,KAGEMBE B
KIGOMA,47,KASULU,473,NYAMUNYUSI,47311,NYAMUNYUSI,WILU
KIGOMA,47,KASULU,473,NYAMUNYUSI,47311,KITEMA,MWENGE
KIGOMA,47,KASULU,473,NYAMUNYUSI,47311,KITEMA,NYAMIYAGA
KIGOMA,47,KASULU,473,NYAMUNYUSI,47311,KITEMA,MIGONGO
KIGOMA,47,KASULU,473,NYAMUNYUSI,47311,KITEMA,KIGOMA
KIGOMA,47,KASULU,473,NYAMUNYUSI,47311,MKIHETA,MJIMWEMA
KIGOMA,47,KASULU,473,NYAMUNYUSI,47311,MKIHETA,KWITANGI
KIGOMA,47,KASULU,473,NYAMUNYUSI,47311,MKIHETA,KUMUBANGA
KIGOMA,47,KASULU,473,NYAMUNYUSI,47311,MKIHETA,JANGWANI
KIGOMA,47,KASULU,473,NYAMUNYUSI,47311,MKIHETA,MAHANGA
KIGOMA,47,KASULU,473,BUHORO,47312,BUHORO,KIBUGWA A (NYANUMBU)
KIGOMA,47,KASULU,473,BUHORO,47312,BUHORO,KIBUGWA B (MSALANGE)
KIGOMA,47,KASULU,473,BUHORO,47312,BUHORO,KAHUNGA A (NYAMULAGA)
KIGOMA,47,KASULU,473,BUHORO,47312,BUHORO,KAHUNGA B (KISHIHA)
KIGOMA,47,KASULU,473,BUHORO,47312,BUHORO,NYAMUSANZE A
KIGOMA,47,KASULU,473,BUHORO,47312,BUHORO,NYAMUSANZE B
KIGOMA,47,KASULU,473,BUHORO,47312,SHUNGA,LUGOMA
KIGOMA,47,KASULU,473,BUHORO,47312,SHUNGA,RUNYINYA
KIGOMA,47,KASULU,473,BUHORO,47312,SHUNGA,RUBIMBA
KIGOMA,47,KASULU,473,BUHORO,47312,SHUNGA,BUSINDE
KIGOMA,47,KASULU,473,BUHORO,47312,SHUNGA,KITOBO
KIGOMA,47,KASULU,473,BUHORO,47312,KIBILIZI,NYAGWE
KIGOMA,47,KASULU,473,BUHORO,47312,KIBILIZI,MURUTUNGURU
KIGOMA,47,KASULU,473,BUHORO,47312,KIBILIZI,KIBILIZI
KIGOMA,47,KASULU,473,NYAKITONTO,47313,NYAKITONTO,KWITANGI
KIGOMA,47,KASULU,473,NYAKITONTO,47313,NYAKITONTO,NYAKATOLE
KIGOMA,47,KASULU,473,NYAKITONTO,47313,NYAKITONTO,MKESHA ‘A’
KIGOMA,47,KASULU,473,NYAKITONTO,47313,NYAKITONTO,MKESHA  ‘B’
KIGOMA,47,KASULU,473,NYAKITONTO,47313,NYAKITONTO,MUNGANO
KIGOMA,47,KASULU,473,NYAKITONTO,47313,NYAKITONTO,MURUBANGA
KIGOMA,47,KASULU,473,NYAKITONTO,47313,MUGOMBE,MUGOMBE A
KIGOMA,47,KASULU,473,NYAKITONTO,47313,MUGOMBE,MUGOMBE B
KIGOMA,47,KASULU,473,NYAKITONTO,47313,MUGOMBE,KATONGA  A
KIGOMA,47,KASULU,473,NYAKITONTO,47313,MUGOMBE,KATONGA B
KIGOMA,47,KASULU,473,NYAKITONTO,47313,MUGOMBE,BUCHUMA
KIGOMA,47,KASULU,473,KITAGATA,47314,KITAGATA,KASASA
KIGOMA,47,KASULU,473,KITAGATA,47314,KITAGATA,NYABARARO
KIGOMA,47,KASULU,473,KITAGATA,47314,KITAGATA,NYUNDO
KIGOMA,47,KASULU,473,KITAGATA,47314,MAKERE,GWANGUGE
KIGOMA,47,KASULU,473,KITAGATA,47314,MAKERE,NYANGWA
KIGOMA,47,KASULU,473,KITAGATA,47314,MAKERE,KALIMUNGOMA
KIGOMA,47,KASULU,473,KITAGATA,47314,MAKERE,KAHEHE
KIGOMA,47,KASULU,473,KAGERA NKANDA,47315,KAGERA NKANDA,KAGUNGA
KIGOMA,47,KASULU,473,KAGERA NKANDA,47315,KAGERA NKANDA,NYANZAZA
KIGOMA,47,KASULU,473,KAGERA NKANDA,47315,KAGERA NKANDA,MUKAMBA
KIGOMA,47,KASULU,473,KAGERA NKANDA,47315,KAGERA NKANDA,KATOTO
KIGOMA,47,KASULU,473,KAGERA NKANDA,47315,MVINZA,NYAMALEBE
KIGOMA,47,KASULU,473,KAGERA NKANDA,47315,MVINZA,KATOHOKWA
KIGOMA,47,KASULU,473,KAGERA NKANDA,47315,MVINZA,SONGAMBELE
KIGOMA,47,KASULU,473,NYAMIDAHO,47316,NYAMIDAHO,MAJENGO
KIGOMA,47,KASULU,473,NYAMIDAHO,47316,NYAMIDAHO,KUMANAZI
KIGOMA,47,KASULU,473,NYAMIDAHO,47316,NYAMIDAHO,NYAMIDAHO JUU
KIGOMA,47,KASULU,473,NYAMIDAHO,47316,MVUGWE,MVUGWE KATI
KIGOMA,47,KASULU,473,NYAMIDAHO,47316,MVUGWE,MVUGWE JUU
KIGOMA,47,KASULU,473,NYAMIDAHO,47316,MVUGWE,MVUGWE CHINI
KIGOMA,47,KASULU,473,HERU USHINGO,47317,HERU USHINGO,MAHONELO
KIGOMA,47,KASULU,473,HERU USHINGO,47317,HERU USHINGO,ZEGEZEGE
KIGOMA,47,KASULU,473,HERU USHINGO,47317,HERU USHINGO,KISHIHA
KIGOMA,47,KASULU,473,HERU USHINGO,47317,HERU USHINGO,KIGADYE
KIGOMA,47,KASULU,473,HERU USHINGO,47317,NYARUGUSU,CHILOLENYA
KIGOMA,47,KASULU,473,HERU USHINGO,47317,NYARUGUSU,NYABUZEBA
KIGOMA,47,KASULU,473,HERU USHINGO,47317,NYARUGUSU,MILANGO
KIGOMA,47,KASULU,473,HERU USHINGO,47317,KIGADYE,BAMBA
KIGOMA,47,KASULU,473,HERU USHINGO,47317,KIGADYE,NYABUKARI
KIGOMA,47,KASULU,473,HERU USHINGO,47317,KIGADYE,KIBAGABAGA
KIGOMA,47,KASULU,473,HERU USHINGO,47317,KIGADYE,KIGADYE
KIGOMA,47,KASULU,473,KITANGA,47318,KITANGA,KARIBA
KIGOMA,47,KASULU,473,KITANGA,47318,KITANGA,MAJENGO
KIGOMA,47,KASULU,473,KITANGA,47318,KITANGA,TUMBIKO
KIGOMA,47,KASULU,473,MUHUNGA,47319,MARUMBA,NYAMILEMBE
KIGOMA,47,KASULU,473,MUHUNGA,47319,MARUMBA,KIHOLOLO
KIGOMA,47,KASULU,473,MUHUNGA,47319,MARUMBA,MULUSI
KIGOMA,47,KASULU,473,MUHUNGA,47319,MARUMBA,WANYAMA
KIGOMA,47,KASULU,473,MUHUNGA,47319,MARUMBA,MBANGANO
KIGOMA,47,KASULU,473,MUHUNGA,47319,MUHUNGA,LABILO
KIGOMA,47,KASULU,473,MUHUNGA,47319,MUHUNGA,LUGONDO
KIGOMA,47,KASULU,473,MUHUNGA,47319,MUHUNGA,KINYIKA
KIGOMA,47,KASULU,473,MUHUNGA,47319,MUHUNGA,KAYANZA
KIGOMA,47,KASULU,473,MUHUNGA,47319,HERU JUU,KUMLAMA
KIGOMA,47,KASULU,473,MUHUNGA,47319,HERU JUU,KIKANGALA
KIGOMA,47,KASULU,473,MUHUNGA,47319,HERU JUU,SOKONI
KIGOMA,47,KASULU,473,MUHUNGA,47319,HERU JUU,CHOGO
KIGOMA,47,KASULU,473,MUHUNGA,47319,HERU JUU,CHONA
KIGOMA,47,KASULU,473,MUHUNGA,47319,HERU JUU,NYAKELELA
KIGOMA,47,KASULU,473,MUHUNGA,47319,KARUNGA,KAHAGA
KIGOMA,47,KASULU,473,MUHUNGA,47319,KARUNGA,MSUMPA
KIGOMA,47,KASULU,473,MUHUNGA,47319,KARUNGA,KUMGAZO
KIGOMA,47,KASULU,473,MUHUNGA,47319,KARUNGA,KINYANGE
KIGOMA,47,KASULU,473,MUHUNGA,47319,KARUNGA,MULULINZI
KIGOMA,47,KASULU,473,MUHUNGA,47319,NYANDURA,KIBIMBA
KIGOMA,47,KASULU,473,MUHUNGA,47319,NYANDURA,BIGINA
KIGOMA,47,KASULU,473,MUHUNGA,47319,NYANDURA,KATANGA
KIGOMA,47,KASULU,473,MUHUNGA,47319,NYANDURA,NYAKABUNGO
KIGOMA,47,KASULU,473,MUHUNGA,47319,NYANDURA,KIVUMO
KIGOMA,47,KASULU,473,MUHUNGA,47319,NYANDURA,NYABUKI
KIGOMA,47,KASULU,473,MUHUNGA,47319,GWANYAMA,GWANYAMA
KIGOMA,47,KASULU,473,MUHUNGA,47319,GWANYAMA,MLILO
KIGOMA,47,KASULU,473,MUHUNGA,47319,GWANYAMA,MBANGANO
KIGOMA,47,KASULU,473,MUHUNGA,47319,KIRUNGWE,KIKANGALA
KIGOMA,47,KASULU,473,MUHUNGA,47319,KIRUNGWE,KIHWAHURU
KIGOMA,47,KASULU,473,MUHUNGA,47319,KIRUNGWE,SOKONI
KIGOMA,47,KASULU,473,MUHUNGA,47319,KIRUNGWE,KUMAKAMA
KIGOMA,47,KASULU,473,MUHUNGA,47319,KASANGE,KUMGAZO
KIGOMA,47,KASULU,473,MUHUNGA,47319,KASANGE,KIYANGE
KIGOMA,47,KASULU,473,MUHUNGA,47319,KASANGE,MUBIGOBE
KIGOMA,47,KASULU,473,BUGAGA,47320,BUGAGA,KIGARAMA
KIGOMA,47,KASULU,473,BUGAGA,47320,BUGAGA,SHOLI
KIGOMA,47,KASULU,473,BUGAGA,47320,BUGAGA,BUKOBA
KIGOMA,47,KASULU,473,BUGAGA,47320,BUGAGA,MURUBANGA
KIGOMA,47,KASULU,473,BUGAGA,47320,BUGAGA,NYABUSARU
KIGOMA,47,KASULU,473,BUGAGA,47320,NKUNDUTSI,STENDI
KIGOMA,47,KASULU,473,BUGAGA,47320,NKUNDUTSI,SOKONI
KIGOMA,47,KASULU,473,BUGAGA,47320,NKUNDUTSI,MISHENI
KIGOMA,47,KASULU,473,BUGAGA,47320,NKUNDUTSI,SHULENI
KIGOMA,47,KASULU,473,KIGEMBE,47321,KIGEMBE,MUMITUNDU
KIGOMA,47,KASULU,473,KIGEMBE,47321,KIGEMBE,MUKWEZA
KIGOMA,47,KASULU,473,KIGEMBE,47321,KIGEMBE,RUVUVU
KIGOMA,47,KASULU,473,KIGEMBE,47321,KIGEMBE,KUMUHAMA
KIGOMA,47,KASULU,473,KIGEMBE,47321,KASANGEZI,KAMABUYE
KIGOMA,47,KASULU,473,KIGEMBE,47321,KASANGEZI,MWIOHERU
KIGOMA,47,KASULU,473,KIGEMBE,47321,KASANGEZI,SANZE
KIGOMA,47,KASULU,473,KIGEMBE,47321,KASANGEZI,NYAMWAMBA
KIGOMA,47,KASULU,473,KIGEMBE,47321,KASANGEZI,KASANGEZI
KIGOMA,47,KASULU,473,NYUMBIGWA,47322,NYUMBIGWA,MWENDA
KIGOMA,47,KASULU,473,NYUMBIGWA,47322,NYUMBIGWA,MWIHUNGA
KIGOMA,47,KASULU,473,NYUMBIGWA,47322,NYUMBIGWA,MNANILA
KIGOMA,47,KASULU,473,NYUMBIGWA,47322,KASYENENE,KUMBUKUBUKU
KIGOMA,47,KASULU,473,NYUMBIGWA,47322,KASYENENE,KATI
KIGOMA,47,KASULU,473,ASANTE NYERERE,47323,ASANTE NYERERE,KIBANDA
KIGOMA,47,KASULU,473,ASANTE NYERERE,47323,ASANTE NYERERE,RUCHUNGI
KIGOMA,47,KASULU,473,ASANTE NYERERE,47323,ASANTE NYERERE,NYARUKUTA
KIGOMA,47,KASULU,473,ASANTE NYERERE,47323,SOGEENI KWILIBA,KWILIBA
KIGOMA,47,KASULU,473,ASANTE NYERERE,47323,SOGEENI KWILIBA,KUMLEMBELA A
KIGOMA,47,KASULU,473,ASANTE NYERERE,47323,SOGEENI KWILIBA,KUMLEMBELA B
KIGOMA,47,KASULU,473,KURUGONGO,47324,KURUGONGO,NYARUBABA
KIGOMA,47,KASULU,473,KURUGONGO,47324,KURUGONGO,NYAMANO
KIGOMA,47,KASULU,473,KURUGONGO,47324,CHEKENYA,NYAKAFUMBE
KIGOMA,47,KASULU,473,KURUGONGO,47324,CHEKENYA,NYAKABITI
KIGOMA,47,KASULU,473,KURUGONGO,47324,CHEKENYA,MTUNDU
KIGOMA,47,KASULU,473,KURUGONGO,47324,CHEKENYA,NYARUGUNGA
KIGOMA,47,KASULU,473,KURUGONGO,47324,CHEKENYA,MSEBEYI
KIGOMA,47,KASULU,473,KURUGONGO,47324,CHEKENYA,CHEKENYA
KIGOMA,47,KASULU,473,KURUGONGO,47324,KABULANZWILI,KIVULI
KIGOMA,47,KASULU,473,KURUGONGO,47324,KABULANZWILI,MGUMILE
KIGOMA,47,KASULU,473,KURUGONGO,47324,KABULANZWILI,NYABAGENI
KIGOMA,47,KASULU,473,KURUGONGO,47324,KABULANZWILI,MULUBABI
KIGOMA,47,KASULU,473,KURUGONGO,47324,KABULANZWILI,MAYUNGI
KIGOMA,47,KASULU,473,SHUNGULIBA,47325,SHUNGULIBA,MNYAMWEZI
KIGOMA,47,KASULU,473,SHUNGULIBA,47325,SHUNGULIBA,KISHOKO
KIGOMA,47,KASULU,473,SHUNGULIBA,47325,SHUNGULIBA,SHUNGHULIBA
KIGOMA,47,KASULU,473,SHUNGULIBA,47325,MALALO,NYAKASANDA
KIGOMA,47,KASULU,473,SHUNGULIBA,47325,MALALO,MALALO
KIGOMA,47,KASULU,473,SHUNGULIBA,47325,MALALO,KAMULE
KIGOMA,47,KASULU,473,SHUNGULIBA,47325,KAZAGE,MTOTI
KIGOMA,47,KASULU,473,SHUNGULIBA,47325,KAZAGE,KAZAGE
KIGOMA,47,KASULU,473,SHUNGULIBA,47325,KAZAGE,NYAKAYAGA
KIGOMA,47,KASULU,473,NYACHENDA,47326,NYACHENDA,VOGO
KIGOMA,47,KASULU,473,NYACHENDA,47326,NYACHENDA,NYAKASANDA
KIGOMA,47,KASULU,473,NYACHENDA,47326,NYACHENDA,NYAMBOGO
KIGOMA,47,KASULU,473,NYACHENDA,47326,NYACHENDA,FUGWE
KIGOMA,47,KASULU,473,NYACHENDA,47326,MWALI,RUSESA
KIGOMA,47,KASULU,473,NYACHENDA,47326,MWALI,NYABAGENI.
KIGOMA,47,KASULU,473,NYACHENDA,47326,MWALI,NYAKELELA
KIGOMA,47,KASULU,473,NYACHENDA,47326,MWALI,KANYINABEZA
KIGOMA,47,KASULU,473,NYACHENDA,47326,MWALI,NYAMAGATA
KIGOMA,47,KASULU,473,NYACHENDA,47326,MWALI,NDAYAGAYAGA
KIGOMA,47,KASULU,473,MUGANZA,47327,MUGANZA,MUGANZA
KIGOMA,47,KASULU,473,MUGANZA,47327,MUGANZA,NYATENGE
KIGOMA,47,KASULU,473,MUGANZA,47327,MUGANZA,MWIBUYE
KIGOMA,47,KASULU,473,MUGANZA,47327,MUGANZA,NYAMAKALA
KIGOMA,47,KASULU,473,MUGANZA,47327,MWANGA,KIDIMBA
KIGOMA,47,KASULU,473,MUGANZA,47327,MWANGA,NYANGERE
KIGOMA,47,KASULU,473,MUGANZA,47327,MWANGA,MAGOMENI
KIGOMA,47,KASULU,473,MUGANZA,47327,MWANGA,KALAMBI
KIGOMA,47,KIBONDO,474,KIBONDO  MJINI,47401,KIBONDO,BOMA
KIGOMA,47,KIBONDO,474,KIBONDO  MJINI,47401,KIBONDO,KUMWAYI
KIGOMA,47,KIBONDO,474,KIBONDO  MJINI,47401,KIBONDO,SOKONI
KIGOMA,47,KIBONDO,474,KIBONDO  MJINI,47401,KIBONDO,KUMWERULO
KIGOMA,47,KIBONDO,474,KIBONDO  MJINI,47401,KIBONDO,KUMWERULO
KIGOMA,47,KIBONDO,474,KIBONDO  MJINI,47401,KIBONDO,UWANJANI
KIGOMA,47,KIBONDO,474,KIBONDO  MJINI,47401,KIBONDO,KUMWERULO KATI
KIGOMA,47,KIBONDO,474,KIBONDO  MJINI,47401,KIBONDO,KATUNGURU
KIGOMA,47,KIBONDO,474,KIBONDO  MJINI,47401,KIBONDO,KATELELA
KIGOMA,47,KIBONDO,474,KIBONDO  MJINI,47401,KIBONDO,KANYAMAHELA
KIGOMA,47,KIBONDO,474,KIBONDO  MJINI,47401,KIBONDO,USWAHILINI
KIGOMA,47,KIBONDO,474,KIBONDO  MJINI,47401,KIBONDO,NANKUYE
KIGOMA,47,KIBONDO,474,KIBONDO  MJINI,47401,NENGO,NENGO KATI
KIGOMA,47,KIBONDO,474,KIBONDO  MJINI,47401,NENGO,MAJENGO  MAPYA
KIGOMA,47,KIBONDO,474,KIBONDO  MJINI,47401,NENGO,KASANDA
KIGOMA,47,KIBONDO,474,KIBONDO  MJINI,47401,NENGO,RUCHAMISANGA
KIGOMA,47,KIBONDO,474,KIBONDO  MJINI,47401,NENGO,KUMBIZI MTONI
KIGOMA,47,KIBONDO,474,KIBONDO  MJINI,47401,NENGO,KUMBIZI
KIGOMA,47,KIBONDO,474,KIBONDO  MJINI,47401,NENGO,MLESHA
KIGOMA,47,KIBONDO,474,KIBONDO  MJINI,47401,NENGO,KANYINYA A
KIGOMA,47,KIBONDO,474,KIBONDO  MJINI,47401,NENGO,NYAMISIVYI
KIGOMA,47,KIBONDO,474,KIBONDO  MJINI,47401,NENGO,NENGO SHULENI
KIGOMA,47,KIBONDO,474,KIBONDO  MJINI,47401,KUMWAMBU,KIBINGO
KIGOMA,47,KIBONDO,474,KIBONDO  MJINI,47401,KUMWAMBU,KUMGARIKA
KIGOMA,47,KIBONDO,474,KIBONDO  MJINI,47401,KUMWAMBU,KUMKENGA
KIGOMA,47,KIBONDO,474,KIBONDO  MJINI,47401,KUMWAMBU,KINGORO
KIGOMA,47,KIBONDO,474,KIBONDO  MJINI,47401,KUMWAMBU,KABWIGWA
KIGOMA,47,KIBONDO,474,KIBONDO  MJINI,47401,KUMWAMBU,KUMWAMBU
KIGOMA,47,KIBONDO,474,KIBONDO  MJINI,47401,KUMWAMBU,NAKAYUKI
KIGOMA,47,KIBONDO,474,KIBONDO  MJINI,47401,NABUHIMA,KUMWAI
KIGOMA,47,KIBONDO,474,KIBONDO  MJINI,47401,NABUHIMA,NABUHIMA
KIGOMA,47,KIBONDO,474,KIBONDO  MJINI,47401,NABUHIMA,MSIKITINI
KIGOMA,47,KIBONDO,474,KIBONDO  MJINI,47401,NABUHIMA,NYAMWELA
KIGOMA,47,KIBONDO,474,KIBONDO  MJINI,47401,BITURANA,NYAMPENGERE
KIGOMA,47,KIBONDO,474,KIBONDO  MJINI,47401,BITURANA,NYARUGOTI
KIGOMA,47,KIBONDO,474,KIBONDO  MJINI,47401,BITURANA,BITURANA MASHARIKI
KIGOMA,47,KIBONDO,474,KIBONDO  MJINI,47401,BITURANA,MLENGASEMO
KIGOMA,47,KIBONDO,474,KIBONDO  MJINI,47401,BITURANA,BITURANA MAGHARIBI
KIGOMA,47,KIBONDO,474,KIBONDO  MJINI,47401,BITURANA,BITURANA SHULENI
KIGOMA,47,KIBONDO,474,KIBONDO  MJINI,47401,BITURANA,BITURANA MTONI
KIGOMA,47,KIBONDO,474,KIBONDO  MJINI,47401,BITURANA,NYAMPENGERE
KIGOMA,47,KIBONDO,474,KIBONDO  MJINI,47401,BITURANA,RUGIMBA
KIGOMA,47,KIBONDO,474,KIBONDO  MJINI,47401,BITURANA,NAYAKAYUKI
KIGOMA,47,KIBONDO,474,MURUNGU,47402,KUMHASHA,NDUTA
KIGOMA,47,KIBONDO,474,MURUNGU,47402,KUMHASHA,KATAZI
KIGOMA,47,KIBONDO,474,MURUNGU,47402,KUMHASHA,KUMHASHA
KIGOMA,47,KIBONDO,474,MURUNGU,47402,KUMHASHA,MBUGANI
KIGOMA,47,KIBONDO,474,MURUNGU,47402,KUMHASHA,KWISENGA
KIGOMA,47,KIBONDO,474,MURUNGU,47402,KUMHASHA,CHIGAZULE
KIGOMA,47,KIBONDO,474,MURUNGU,47402,KUMHASHA,IBEHELO
KIGOMA,47,KIBONDO,474,MURUNGU,47402,KUMHASHA,MIGOMBANI
KIGOMA,47,KIBONDO,474,MURUNGU,47402,KUMHASHA,RUKANGALIZO
KIGOMA,47,KIBONDO,474,MURUNGU,47402,KUMHASHA,NYAMATA
KIGOMA,47,KIBONDO,474,MURUNGU,47402,KUMBANGA,KUMGERA
KIGOMA,47,KIBONDO,474,MURUNGU,47402,KUMBANGA,NYAMBEGA
KIGOMA,47,KIBONDO,474,MURUNGU,47402,KUMBANGA,KUMANA
KIGOMA,47,KIBONDO,474,MURUNGU,47402,KUMBANGA,KUMBANGA
KIGOMA,47,KIBONDO,474,MURUNGU,47402,KUMBANGA,RUMAMBO
KIGOMA,47,KIBONDO,474,MURUNGU,47402,KUMBANGA,KWIBHILIGA
KIGOMA,47,KIBONDO,474,MURUNGU,47402,KUMBANGA,KABOGI
KIGOMA,47,KIBONDO,474,MURUNGU,47402,KUMBANGA,KATOBHANZOVU
KIGOMA,47,KIBONDO,474,MURUNGU,47402,KUMBANGA,KABHADALALA
KIGOMA,47,KIBONDO,474,MURUNGU,47402,KUMBANGA,KAYEZI
KIGOMA,47,KIBONDO,474,MISEZERO,47403,TWABAGONDOZI,NYESOGO
KIGOMA,47,KIBONDO,474,MISEZERO,47403,KUMUKUGWA,KANYAMAJELI
KIGOMA,47,KIBONDO,474,MISEZERO,47403,KUMUKUGWA,MAJENGO MAPYA
KIGOMA,47,KIBONDO,474,MISEZERO,47403,KUMUKUGWA,RUBANGA
KIGOMA,47,KIBONDO,474,MISEZERO,47403,KUMUKUGWA,KAMILANZOVU
KIGOMA,47,KIBONDO,474,MISEZERO,47403,KUMUKUGWA,BITARE KATA
KIGOMA,47,KIBONDO,474,MISEZERO,47403,KUMUKUGWA,MALENGA
KIGOMA,47,KIBONDO,474,MISEZERO,47403,KUMUKUGWA,NYAMIHANDA A
KIGOMA,47,KIBONDO,474,MISEZERO,47403,KUMUKUGWA,NYAMIHANDA B
KIGOMA,47,KIBONDO,474,MISEZERO,47403,KUMUKUGWA,MAYENGO
KIGOMA,47,KIBONDO,474,MISEZERO,47403,KUMUKUGWA,MISEZERO
KIGOMA,47,KIBONDO,474,MISEZERO,47403,KUMUKUGWA,KUMGOBOKA
KIGOMA,47,KIBONDO,474,MISEZERO,47403,KUMUKUGWA,KIYAGALA
KIGOMA,47,KIBONDO,474,MISEZERO,47403,KUMUKUGWA,KIMLOMBO
KIGOMA,47,KIBONDO,474,MISEZERO,47403,KUMUKUGWA,NYAVYUGI
KIGOMA,47,KIBONDO,474,MISEZERO,47403,KUMUKUGWA,KUMUHAMA A
KIGOMA,47,KIBONDO,474,MISEZERO,47403,KUMUKUGWA,KUMUHAMA B
KIGOMA,47,KIBONDO,474,MISEZERO,47403,KUMUKUGWA,KISONZOLA
KIGOMA,47,KIBONDO,474,MISEZERO,47403,KUMUKUGWA,MTAHO A
KIGOMA,47,KIBONDO,474,MISEZERO,47403,KUMUKUGWA,MTAHO B
KIGOMA,47,KIBONDO,474,MISEZERO,47403,KUMUKUGWA,NARUKINGA
KIGOMA,47,KIBONDO,474,MISEZERO,47403,KUMUKUGWA,NYERERE
KIGOMA,47,KIBONDO,474,MISEZERO,47403,KUMUKUGWA,NAMUYANGE
KIGOMA,47,KIBONDO,474,MISEZERO,47403,KUMUKUGWA,NYAMATA
KIGOMA,47,KIBONDO,474,MISEZERO,47403,KUMUKUGWA,NYETABHI
KIGOMA,47,KIBONDO,474,MISEZERO,47403,KUMUKUGWA,KICHAMATE
KIGOMA,47,KIBONDO,474,MISEZERO,47403,KUMUKUGWA,RUBANGA
KIGOMA,47,KIBONDO,474,MISEZERO,47403,KUMUKUGWA,MPEBHE
KIGOMA,47,KIBONDO,474,MISEZERO,47403,KUMUKUGWA,VYIGERO
KIGOMA,47,KIBONDO,474,MISEZERO,47403,KUMUKUGWA,NTAKABALAGI
KIGOMA,47,KIBONDO,474,MISEZERO,47403,KUMUKUGWA,KAMLAMA
KIGOMA,47,KIBONDO,474,MISEZERO,47403,KUMUKUGWA,KAVURUGA
KIGOMA,47,KIBONDO,474,MISEZERO,47403,KUMUKUGWA,MKUBEZI A
KIGOMA,47,KIBONDO,474,MISEZERO,47403,KUMUKUGWA,MKUBEZI B
KIGOMA,47,KIBONDO,474,MISEZERO,47403,KUMUKUGWA,MKUBEZI C
KIGOMA,47,KIBONDO,474,MISEZERO,47403,KUMUKUGWA,NYANGWE
KIGOMA,47,KIBONDO,474,MISEZERO,47403,KUMUKUGWA,MIBHALE A
KIGOMA,47,KIBONDO,474,MISEZERO,47403,KUMUKUGWA,MIBHALE B
KIGOMA,47,KIBONDO,474,MISEZERO,47403,KUMUKUGWA,MIBHALE C
KIGOMA,47,KIBONDO,474,MISEZERO,47403,KUMUKUGWA,MIBHALE D
KIGOMA,47,KIBONDO,474,BUNYAMBO,47404,MINYINYA,NYAMSOMA A
KIGOMA,47,KIBONDO,474,BUNYAMBO,47404,MINYINYA,NYAMSOMA B
KIGOMA,47,KIBONDO,474,BUNYAMBO,47404,MINYINYA,UWANJA NDEGE A
KIGOMA,47,KIBONDO,474,BUNYAMBO,47404,MINYINYA,UWANJA NDEGE B
KIGOMA,47,KIBONDO,474,BUNYAMBO,47404,MINYINYA,BAVUNJA A
KIGOMA,47,KIBONDO,474,BUNYAMBO,47404,MINYINYA,BAVUNJA B
KIGOMA,47,KIBONDO,474,BUNYAMBO,47404,MINYINYA,BUSTANI
KIGOMA,47,KIBONDO,474,BUNYAMBO,47404,MINYINYA,MUGOBOKA
KIGOMA,47,KIBONDO,474,BUNYAMBO,47404,MINYINYA,MINYINYA
KIGOMA,47,KIBONDO,474,BUNYAMBO,47404,MINYINYA,MLIMA NDENEZE
KIGOMA,47,KIBONDO,474,BUNYAMBO,47404,BUNYAMBO,MTAHO A
KIGOMA,47,KIBONDO,474,BUNYAMBO,47404,BUNYAMBO,MTAHO B
KIGOMA,47,KIBONDO,474,BUNYAMBO,47404,BUNYAMBO,BUNYAMBO
KIGOMA,47,KIBONDO,474,BUNYAMBO,47404,BUNYAMBO,MAKINGI A
KIGOMA,47,KIBONDO,474,BUNYAMBO,47404,BUNYAMBO,MAKINGI B
KIGOMA,47,KIBONDO,474,BUNYAMBO,47404,BUNYAMBO,NYANGWA
KIGOMA,47,KIBONDO,474,BUNYAMBO,47404,BUNYAMBO,MJIGOJIGO
KIGOMA,47,KIBONDO,474,BUNYAMBO,47404,BUNYAMBO,MROMBO
KIGOMA,47,KIBONDO,474,BUNYAMBO,47404,BUNYAMBO,NTAUTUNZE
KIGOMA,47,KIBONDO,474,BUNYAMBO,47404,BUNYAMBO,NAKIBHONDO
KIGOMA,47,KIBONDO,474,BUNYAMBO,47404,SAMVURA,NYANGWA A
KIGOMA,47,KIBONDO,474,BUNYAMBO,47404,SAMVURA,NYANGWA B
KIGOMA,47,KIBONDO,474,BUNYAMBO,47404,SAMVURA,NYAMIGINA
KIGOMA,47,KIBONDO,474,BUNYAMBO,47404,SAMVURA,RUTENGE
KIGOMA,47,KIBONDO,474,BUNYAMBO,47404,SAMVURA,NYARUBOGO A
KIGOMA,47,KIBONDO,474,BUNYAMBO,47404,SAMVURA,BUYEZI
KIGOMA,47,KIBONDO,474,BUNYAMBO,47404,SAMVURA,SENJOGO
KIGOMA,47,KIBONDO,474,BUNYAMBO,47404,SAMVURA,MGURUKA
KIGOMA,47,KIBONDO,474,BUNYAMBO,47404,SAMVURA,NYAMATORE
KIGOMA,47,KIBONDO,474,BUNYAMBO,47404,SAMVURA,SAMVURA
KIGOMA,47,KIBONDO,474,RUGONGWE,47405,KICHANANGA,MAENDELEO
KIGOMA,47,KIBONDO,474,RUGONGWE,47405,KICHANANGA,MLIMANI
KIGOMA,47,KIBONDO,474,RUGONGWE,47405,KICHANANGA,NYAKICHACHA
KIGOMA,47,KIBONDO,474,RUGONGWE,47405,KICHANANGA,MREMA
KIGOMA,47,KIBONDO,474,RUGONGWE,47405,KICHANANGA,KUMEKUCHA
KIGOMA,47,KIBONDO,474,RUGONGWE,47405,KICHANANGA,NYERENDA
KIGOMA,47,KIBONDO,474,RUGONGWE,47405,KICHANANGA,MKOGABO
KIGOMA,47,KIBONDO,474,RUGONGWE,47405,KICHANANGA,MNAZI MMOJA
KIGOMA,47,KIBONDO,474,RUGONGWE,47405,KICHANANGA,NYASHIMBA
KIGOMA,47,KIBONDO,474,RUGONGWE,47405,MAGARAMA,IOGOZA
KIGOMA,47,KIBONDO,474,RUGONGWE,47405,MAGARAMA,MSAMAHE
KIGOMA,47,KIBONDO,474,RUGONGWE,47405,MAGARAMA,NYABWAI
KIGOMA,47,KIBONDO,474,RUGONGWE,47405,MAGARAMA,MAHAHA
KIGOMA,47,KIBONDO,474,RUGONGWE,47405,MAGARAMA,KISANDA
KIGOMA,47,KIBONDO,474,RUGONGWE,47405,MAGARAMA,KAHOBE
KIGOMA,47,KIBONDO,474,RUGONGWE,47405,MAGARAMA,SOZAFYISI
KIGOMA,47,KIBONDO,474,RUGONGWE,47405,MAGARAMA,MNYANKONI
KIGOMA,47,KIBONDO,474,RUGONGWE,47405,MAGARAMA,RUBUMBA
KIGOMA,47,KIBONDO,474,RUGONGWE,47405,KIGAGA,KIGAGA B
KIGOMA,47,KIBONDO,474,RUGONGWE,47405,KIGAGA,RUZUNZANGOMA
KIGOMA,47,KIBONDO,474,RUGONGWE,47405,KIGAGA,KINANI
KIGOMA,47,KIBONDO,474,RUGONGWE,47405,KIGAGA,NYESEKE
KIGOMA,47,KIBONDO,474,RUGONGWE,47405,KIGAGA,MPOME
KIGOMA,47,KIBONDO,474,RUGONGWE,47405,KIGAGA,KAYOGOLO
KIGOMA,47,KIBONDO,474,RUGONGWE,47405,KIGAGA,SAKUNYANGE
KIGOMA,47,KIBONDO,474,RUGONGWE,47405,KIGAGA,MAGA
KIGOMA,47,KIBONDO,474,RUGONGWE,47405,KIGINA,RUBUMBA
KIGOMA,47,KIBONDO,474,RUGONGWE,47405,KIGINA,KISHINDWI
KIGOMA,47,KIBONDO,474,RUGONGWE,47405,KIGINA,BAMBAZIBA
KIGOMA,47,KIBONDO,474,RUGONGWE,47405,KIGINA,MSHENYI
KIGOMA,47,KIBONDO,474,RUGONGWE,47405,KIGINA,RUSUNWE
KIGOMA,47,KIBONDO,474,RUGONGWE,47405,KIGINA,INGELE
KIGOMA,47,KIBONDO,474,RUGONGWE,47405,KIGINA,MALIMBI
KIGOMA,47,KIBONDO,474,RUGONGWE,47405,KIGINA,MLINYI
KIGOMA,47,KIBONDO,474,RUGONGWE,47405,KIGINA,KAROLE
KIGOMA,47,KIBONDO,474,RUGONGWE,47405,KISOGWE,NYAMBILEMBI B
KIGOMA,47,KIBONDO,474,RUGONGWE,47405,KISOGWE,NYAMBILEMBI C
KIGOMA,47,KIBONDO,474,RUGONGWE,47405,KISOGWE,NYESATO
KIGOMA,47,KIBONDO,474,RUGONGWE,47405,KISOGWE,RUBURA
KIGOMA,47,KIBONDO,474,RUGONGWE,47405,KISOGWE,NYABWA A
KIGOMA,47,KIBONDO,474,RUGONGWE,47405,KISOGWE,NYABWA B
KIGOMA,47,KIBONDO,474,RUGONGWE,47405,KISOGWE,KUMNAZI
KIGOMA,47,KIBONDO,474,RUGONGWE,47405,KISOGWE,KUMWELULO A
KIGOMA,47,KIBONDO,474,RUGONGWE,47405,KISOGWE,KUMWELULO B
KIGOMA,47,KIBONDO,474,BUSUNZU,47406,BUSUNZU,MANDELA
KIGOMA,47,KIBONDO,474,BUSUNZU,47406,BUSUNZU,KOLIMBA
KIGOMA,47,KIBONDO,474,BUSUNZU,47406,BUSUNZU,NYAMUGURUMA A
KIGOMA,47,KIBONDO,474,BUSUNZU,47406,BUSUNZU,NYAMUGURUMA B
KIGOMA,47,KIBONDO,474,BUSUNZU,47406,BUSUNZU,SAMORA
KIGOMA,47,KIBONDO,474,BUSUNZU,47406,BUSUNZU,KABEGERA
KIGOMA,47,KIBONDO,474,BUSUNZU,47406,BUSUNZU,KADIDA
KIGOMA,47,KIBONDO,474,BUSUNZU,47406,BUSUNZU,MBUGANI
KIGOMA,47,KIBONDO,474,BUSUNZU,47406,BUSUNZU,KAZAROHO
KIGOMA,47,KIBONDO,474,BUSUNZU,47406,NYAKWI,NYARULANGA
KIGOMA,47,KIBONDO,474,BUSUNZU,47406,NYAKWI,KARUME
KIGOMA,47,KIBONDO,474,BUSUNZU,47406,NYAKWI,MANDELA
KIGOMA,47,KIBONDO,474,BUSUNZU,47406,NYAKWI,VUMILIA
KIGOMA,47,KIBONDO,474,BUSUNZU,47406,NYAKWI,MTAKUJA
KIGOMA,47,KIBONDO,474,BUSUNZU,47406,NYAKWI,SONGAMBELE
KIGOMA,47,KIBONDO,474,BUSUNZU,47406,NYAKWI,NYERERE
KIGOMA,47,KIBONDO,474,BUSUNZU,47406,NYAKWI,MTUNTU
KIGOMA,47,KIBONDO,474,BUSUNZU,47406,NYAKWI,SAMORA
KIGOMA,47,KIBONDO,474,BUSAGARA,47407,KIFURA,NYENTAMBA
KIGOMA,47,KIBONDO,474,BUSAGARA,47407,KIFURA,BUSAGARA A
KIGOMA,47,KIBONDO,474,BUSAGARA,47407,KIFURA,BUSAGARA B
KIGOMA,47,KIBONDO,474,BUSAGARA,47407,KIFURA,KIBAMBO
KIGOMA,47,KIBONDO,474,BUSAGARA,47407,KIFURA,SONGAMBELE
KIGOMA,47,KIBONDO,474,BUSAGARA,47407,KIFURA,KIHERA A
KIGOMA,47,KIBONDO,474,BUSAGARA,47407,KIFURA,KIHERA B
KIGOMA,47,KIBONDO,474,BUSAGARA,47407,KIFURA,SHULENI
KIGOMA,47,KIBONDO,474,BUSAGARA,47407,KIFURA,KIMANGA
KIGOMA,47,KIBONDO,474,BUSAGARA,47407,KIFURA,KASANDA
KIGOMA,47,KIBONDO,474,BUSAGARA,47407,KIGENDEKA,NTAKAMA B
KIGOMA,47,KIBONDO,474,BUSAGARA,47407,KIGENDEKA,MUMANA A
KIGOMA,47,KIBONDO,474,BUSAGARA,47407,KIGENDEKA,MUMANA B
KIGOMA,47,KIBONDO,474,BUSAGARA,47407,KIGENDEKA,MAGARAMA A
KIGOMA,47,KIBONDO,474,BUSAGARA,47407,KIGENDEKA,MAGARAMA B
KIGOMA,47,KIBONDO,474,BUSAGARA,47407,KIGENDEKA,KARUNDO A
KIGOMA,47,KIBONDO,474,BUSAGARA,47407,KIGENDEKA,KARUNDO B
KIGOMA,47,KIBONDO,474,BUSAGARA,47407,KIGENDEKA,KUMSHINDWI A
KIGOMA,47,KIBONDO,474,BUSAGARA,47407,KIGENDEKA,KUMSHINDWI B
KIGOMA,47,KIBONDO,474,BUSAGARA,47407,NYARUYOBA,NYARUYOBA
KIGOMA,47,KIBONDO,474,BUSAGARA,47407,NYARUYOBA,ITALE
KIGOMA,47,KIBONDO,474,BUSAGARA,47407,NYARUYOBA,KUMKUYU
KIGOMA,47,KIBONDO,474,BUSAGARA,47407,NYARUYOBA,BUGOLEBUKE
KIGOMA,47,KIBONDO,474,BUSAGARA,47407,NYARUYOBA,KALUTALE
KIGOMA,47,KIBONDO,474,BUSAGARA,47407,NYARUYOBA,BITAMA
KIGOMA,47,KIBONDO,474,BUSAGARA,47407,NYARUYOBA,NYESATO
KIGOMA,47,KIBONDO,474,BUSAGARA,47407,NYARUYOBA,NYAMAFYISI
KIGOMA,47,KIBONDO,474,BUSAGARA,47407,NYARUYOBA,MGAZI MMOJA
KIGOMA,47,KIBONDO,474,BUSAGARA,47407,NYARUYOBA,NYAKIYONA
KIGOMA,47,KIBONDO,474,BUSAGARA,47407,NYARUYOBA,BUSORO
KIGOMA,47,KIBONDO,474,BUSAGARA,47407,NYARUYOBA,MSARASI
KIGOMA,47,KIBONDO,474,BUSAGARA,47407,NYARUYOBA,NYENYERI
KIGOMA,47,KIBONDO,474,BUSAGARA,47407,NYARUYOBA,MURAGONE
KIGOMA,47,KIBONDO,474,BUSAGARA,47407,NYARUYOBA,MIHAMA
KIGOMA,47,KIBONDO,474,BUSAGARA,47407,KASAKA,MUGALIKA
KIGOMA,47,KIBONDO,474,BUSAGARA,47407,KASAKA,MCHANGANI
KIGOMA,47,KIBONDO,474,BUSAGARA,47407,KASAKA,NYAMITELEKELO
KIGOMA,47,KIBONDO,474,BUSAGARA,47407,KASAKA,KABAYANGE
KIGOMA,47,KIBONDO,474,BUSAGARA,47407,KASAKA,MRANGALA
KIGOMA,47,KIBONDO,474,BUSAGARA,47407,KASAKA,MPEMVYI
KIGOMA,47,KIBONDO,474,BUSAGARA,47407,KASAKA,NYAKAVYILU
KIGOMA,47,KIBONDO,474,BUSAGARA,47407,KASAKA,KASAKA
KIGOMA,47,KIBONDO,474,BUSAGARA,47407,KASAKA,KANIGA
KIGOMA,47,KIBONDO,474,BUSAGARA,47407,KASAKA,MIHENO
KIGOMA,47,KIBONDO,474,MABAMBA,47408,NYANGE,NYANGE A
KIGOMA,47,KIBONDO,474,MABAMBA,47408,NYANGE,NYANGE B
KIGOMA,47,KIBONDO,474,MABAMBA,47408,NYANGE,KALILA A
KIGOMA,47,KIBONDO,474,MABAMBA,47408,NYANGE,KALILA B
KIGOMA,47,KIBONDO,474,MABAMBA,47408,NYANGE,MARIBA A
KIGOMA,47,KIBONDO,474,MABAMBA,47408,NYANGE,MARIBA B
KIGOMA,47,KIBONDO,474,MABAMBA,47408,NYANGE,MUTEZI
KIGOMA,47,KIBONDO,474,MABAMBA,47408,NYANGE,BOGORO
KIGOMA,47,KIBONDO,474,MABAMBA,47408,NYANGE,KAZAMOYO
KIGOMA,47,KIBONDO,474,MABAMBA,47408,NYANGE,MPOSTA
KIGOMA,47,KIBONDO,474,MABAMBA,47408,MABAMBA,MJINI
KIGOMA,47,KIBONDO,474,MABAMBA,47408,MABAMBA,KUMWAYI
KIGOMA,47,KIBONDO,474,MABAMBA,47408,MABAMBA,NYAGWILONGE
KIGOMA,47,KIBONDO,474,MABAMBA,47408,MABAMBA,DWT
KIGOMA,47,KIBONDO,474,MABAMBA,47408,MABAMBA,MUSHENYI
KIGOMA,47,KIBONDO,474,MABAMBA,47408,MABAMBA,SILABU
KIGOMA,47,KIBONDO,474,MABAMBA,47408,MABAMBA,NYAKUSHUNGWA
KIGOMA,47,KIBONDO,474,MABAMBA,47408,MABAMBA,UHURU
KIGOMA,47,KIBONDO,474,MABAMBA,47408,MABAMBA,MISHENI
KIGOMA,47,KIBONDO,474,MABAMBA,47408,MABAMBA,NYAKIMONOMONO
KIGOMA,47,KIBONDO,474,MABAMBA,47408,MKARAZI,STENDI
KIGOMA,47,KIBONDO,474,MABAMBA,47408,MKARAZI,KIVUMU
KIGOMA,47,KIBONDO,474,MABAMBA,47408,MKARAZI,NYAKABHILIZI
KIGOMA,47,KIBONDO,474,MABAMBA,47408,MKARAZI,OFISINI
KIGOMA,47,KIBONDO,474,MABAMBA,47408,MKARAZI,NYAKAFUNZO
KIGOMA,47,KIBONDO,474,MABAMBA,47408,MKARAZI,SHULENI
KIGOMA,47,KIBONDO,474,MABAMBA,47408,MKARAZI,KIKINGA
KIGOMA,47,KIBONDO,474,MABAMBA,47408,MKARAZI,MPAKANI
KIGOMA,47,KIBONDO,474,MABAMBA,47408,MKARAZI,KIJANGARA
KIGOMA,47,KIBONDO,474,MABAMBA,47408,MKARAZI,NYAMIGOMBERO
KIGOMA,47,KIBONDO,474,MABAMBA,47408,NYAKASANDA,KUJWINEMBI
KIGOMA,47,KIBONDO,474,MABAMBA,47408,NYAKASANDA,KIUONGA
KIGOMA,47,KIBONDO,474,MABAMBA,47408,NYAKASANDA,NTOYOYO
KIGOMA,47,KIBONDO,474,MABAMBA,47408,NYAKASANDA,NYABUKOLE
KIGOMA,47,KIBONDO,474,MABAMBA,47408,NYAKASANDA,MUALASAMDA
KIGOMA,47,KIBONDO,474,MABAMBA,47408,NYAKASANDA,LATA
KIGOMA,47,KIBONDO,474,MABAMBA,47408,NYAKASANDA,NYAKASANDA KASKAZINI
KIGOMA,47,KIBONDO,474,MABAMBA,47408,NYAKASANDA,KIKOBE
KIGOMA,47,KIBONDO,474,MABAMBA,47408,NYAKASANDA,NYABULIMBI
KIGOMA,47,KIBONDO,474,MABAMBA,47408,NYAKASANDA,NYAMAGAFU
KIGOMA,47,KIBONDO,474,MABAMBA,47408,NYAKASANDA,KUMKUYU
KIGOMA,47,KIBONDO,474,KIZAZI,47409,NYARUGUSU,BUGWANA
KIGOMA,47,KIBONDO,474,KIZAZI,47409,NYARUGUSU,NGULILO
KIGOMA,47,KIBONDO,474,KIZAZI,47409,NYARUGUSU,RUSANGE
KIGOMA,47,KIBONDO,474,KIZAZI,47409,NYARUGUSU,SAMBA
KIGOMA,47,KIBONDO,474,KIZAZI,47409,NYARUGUSU,IGAMBILIRO
KIGOMA,47,KIBONDO,474,KIZAZI,47409,NYARUGUSU,KANGEZE
KIGOMA,47,KIBONDO,474,KIZAZI,47409,NYARUGUSU,KIBHIMBA
KIGOMA,47,KIBONDO,474,KIZAZI,47409,NYARUGUSU,RUBALI
KIGOMA,47,KIBONDO,474,KIZAZI,47409,NYARUGUSU,KIZAZI
KIGOMA,47,KIBONDO,474,KIZAZI,47409,NYABITAKA,MAJENGO
KIGOMA,47,KIBONDO,474,KIZAZI,47409,NYABITAKA,KASANA
KIGOMA,47,KIBONDO,474,KIZAZI,47409,NYABITAKA,MTAKUJA
KIGOMA,47,KIBONDO,474,KIZAZI,47409,NYABITAKA,NYAMAYOKA
KIGOMA,47,KIBONDO,474,KIZAZI,47409,NYABITAKA,IKANIKO
KIGOMA,47,KIBONDO,474,KIZAZI,47409,NYABITAKA,MSHENYI
KIGOMA,47,KIBONDO,474,KIZAZI,47409,NYABITAKA,NCHILAKANYAMA
KIGOMA,47,KIBONDO,474,KIZAZI,47409,NYABITAKA,KIMANGA
KIGOMA,47,KIBONDO,474,KIZAZI,47409,NYABITAKA,NYABULIMBI
KIGOMA,47,KIBONDO,474,KIZAZI,47409,NYABITAKA,AZIMIO
KIGOMA,47,KIBONDO,474,KIZAZI,47409,KUMSHWABURE,NYARUNANGA
KIGOMA,47,KIBONDO,474,KIZAZI,47409,KUMSHWABURE,NYAMIGAYE
KIGOMA,47,KIBONDO,474,KIZAZI,47409,KUMSHWABURE,KUMSHWABURE
KIGOMA,47,KIBONDO,474,KIZAZI,47409,KUMSHWABURE,KAFWANDI
KIGOMA,47,KIBONDO,474,KIZAZI,47409,KUMSHWABURE,KURUSUMU
KIGOMA,47,KIBONDO,474,KIZAZI,47409,KUMSHWABURE,NYAMIKONKO
KIGOMA,47,KIBONDO,474,KIZAZI,47409,KUMSHWABURE,KATOVU
KIGOMA,47,KIBONDO,474,KIZAZI,47409,KUMSHWABURE,KIGARAMA
KIGOMA,47,KIBONDO,474,KIZAZI,47409,KUMSHWABURE,KIBIMBA
KIGOMA,47,KIBONDO,474,KIZAZI,47409,KUMSHWABURE,NYARUGUNGA
KIGOMA,47,KIBONDO,474,KUMSENGA,47410,KUMSENGA,LILOAMA
KIGOMA,47,KIBONDO,474,KUMSENGA,47410,KUMSENGA,LOTAAGPA
KIGOMA,47,KIBONDO,474,KUMSENGA,47410,KUMSENGA,KIGWE
KIGOMA,47,KIBONDO,474,KUMSENGA,47410,KUMSENGA,KUMSENGA
KIGOMA,47,KIBONDO,474,KUMSENGA,47410,KUMSENGA,CHEMCHEMI
KIGOMA,47,KIBONDO,474,KUMSENGA,47410,KUMSENGA,BWOZI A
KIGOMA,47,KIBONDO,474,KUMSENGA,47410,KUMSENGA,BWOZI B
KIGOMA,47,KIBONDO,474,KUMSENGA,47410,KUMSENGA,NYABUSARO
KIGOMA,47,KIBONDO,474,KUMSENGA,47410,KUMSENGA,NYABIHUMA
KIGOMA,47,KIBONDO,474,KUMSENGA,47410,KIBUYE,KIBUYE
KIGOMA,47,KIBONDO,474,KUMSENGA,47410,KIBUYE,NYAMPANDE
KIGOMA,47,KIBONDO,474,KUMSENGA,47410,KIBUYE,KUMBANGA
KIGOMA,47,KIBONDO,474,KUMSENGA,47410,KIBUYE,GWANZE
KIGOMA,47,KIBONDO,474,KUMSENGA,47410,KIBUYE,MKIKE
KIGOMA,47,KIBONDO,474,KUMSENGA,47410,KIBUYE,SONGAMBELE
KIGOMA,47,KIBONDO,474,KUMSENGA,47410,KIBUYE,MHESHU
KIGOMA,47,KIBONDO,474,KUMSENGA,47410,KIBUYE,MIKONKO
KIGOMA,47,KIBONDO,474,KUMSENGA,47410,KIBUYE,MUKONI
KIGOMA,47,KIBONDO,474,KUMSENGA,47410,KAGEZI,RUNGARUNGA
KIGOMA,47,KIBONDO,474,KUMSENGA,47410,KAGEZI,KIGUNGA
KIGOMA,47,KIBONDO,474,KUMSENGA,47410,KAGEZI,MAGA
KIGOMA,47,KIBONDO,474,KUMSENGA,47410,KAGEZI,MIKONKO
KIGOMA,47,KIBONDO,474,KUMSENGA,47410,KAGEZI,SHULENI
KIGOMA,47,KIBONDO,474,KUMSENGA,47410,KAGEZI,NZIZI
KIGOMA,47,KIBONDO,474,KUMSENGA,47410,KAGEZI,NGOSHI
KIGOMA,47,KIBONDO,474,KUMSENGA,47410,KAGEZI,KAGEZI
KIGOMA,47,KIBONDO,474,KUMSENGA,47410,KAGEZI,BISAKO
KIGOMA,47,KIBONDO,474,KUMSENGA,47410,KAGEZI,MLANGE
KIGOMA,47,KIBONDO,474,ITABA,47411,BUYEZI,RUHWITI
KIGOMA,47,KIBONDO,474,ITABA,47411,BUYEZI,RUKERE
KIGOMA,47,KIBONDO,474,ITABA,47411,BUYEZI,KUMSEMA
KIGOMA,47,KIBONDO,474,ITABA,47411,BUYEZI,KAYANZE
KIGOMA,47,KIBONDO,474,ITABA,47411,BUYEZI,MAKIMBA
KIGOMA,47,KIBONDO,474,ITABA,47411,BUYEZI,NYAMIKINGO
KIGOMA,47,KIBONDO,474,ITABA,47411,BUYEZI,KAHARAWE
KIGOMA,47,KIBONDO,474,ITABA,47411,BUYEZI,RUSHINDWI
KIGOMA,47,KIBONDO,474,ITABA,47411,BUYEZI,KARUGENDO
KIGOMA,47,KIBONDO,474,ITABA,47411,MUKABUYE,MURUGUNGA
KIGOMA,47,KIBONDO,474,ITABA,47411,MUKABUYE,KABUYE
KIGOMA,47,KIBONDO,474,ITABA,47411,MUKABUYE,KAGEYO
KIGOMA,47,KIBONDO,474,ITABA,47411,MUKABUYE,KASAGWE
KIGOMA,47,KIBONDO,474,ITABA,47411,MUKABUYE,MUGALIKA
KIGOMA,47,KIBONDO,474,ITABA,47411,MUKABUYE,GWANUMPU
KIGOMA,47,KIBONDO,474,ITABA,47411,MUKABUYE,KUMWAYI
KIGOMA,47,KIBONDO,474,ITABA,47411,MUKABUYE,MURUSANGE
KIGOMA,47,KIBONDO,474,ITABA,47411,MUKABUYE,NYAMPFA
KIGOMA,47,KIBONDO,474,ITABA,47411,MUKABUYE,NYAKILENDA
KIGOMA,47,KIBONDO,474,ITABA,47411,KIGOGO,RUBABA
KIGOMA,47,KIBONDO,474,ITABA,47411,KIGOGO,BIKERA
KIGOMA,47,KIBONDO,474,ITABA,47411,KIGOGO,KAGOMERO
KIGOMA,47,KIBONDO,474,ITABA,47411,KIGOGO,SERUSHIKANA
KIGOMA,47,KIBONDO,474,ITABA,47411,KIGOGO,RUKOME
KIGOMA,47,KIBONDO,474,ITABA,47411,KIGOGO,KAMUNAZI
KIGOMA,47,KIBONDO,474,ITABA,47411,KIGOGO,NYAMIHWI
KIGOMA,47,KIBONDO,474,ITABA,47411,KIGOGO,NTAKIBAYE
KIGOMA,47,KIBONDO,474,ITABA,47411,KIGOGO,KAMUNA
KIGOMA,47,KIBONDO,474,ITABA,47411,KIGOGO,NYAMAFUNDI
KIGOMA,47,BUHIGWE,475,BUHIGWE,47501,BUHIGWE,MSUKA ‘A’
KIGOMA,47,BUHIGWE,475,BUHIGWE,47501,BUHIGWE,MSUKA ‘B’
KIGOMA,47,BUHIGWE,475,BUHIGWE,47501,BUHIGWE,BUYONGWA
KIGOMA,47,BUHIGWE,475,BUHIGWE,47501,BUHIGWE,RUBUMBA
KIGOMA,47,BUHIGWE,475,BUHIGWE,47501,NYANKORONKO,KIGABIKA
KIGOMA,47,BUHIGWE,475,BUHIGWE,47501,NYANKORONKO,KIFULIFULI
KIGOMA,47,BUHIGWE,475,BUHIGWE,47501,NYANKORONKO,NYAKIBINGO
KIGOMA,47,BUHIGWE,475,BUHIGWE,47501,NYANKORONKO,BUJURU
KIGOMA,47,BUHIGWE,475,BUHIGWE,47501,MULERA,MZENGA
KIGOMA,47,BUHIGWE,475,BUHIGWE,47501,MULERA,LUSANGE
KIGOMA,47,BUHIGWE,475,BUHIGWE,47501,MULERA,LULALO
KIGOMA,47,BUHIGWE,475,BUHIGWE,47501,MULERA,KIMAZI
KIGOMA,47,BUHIGWE,475,BUHIGWE,47501,KAVOMO,NYANDERA
KIGOMA,47,BUHIGWE,475,BUHIGWE,47501,KAVOMO,MUNYANGA
KIGOMA,47,BUHIGWE,475,BUHIGWE,47501,KAVOMO,KITULO
KIGOMA,47,BUHIGWE,475,BUHIGWE,47501,KAVOMO,KITAGATA
KIGOMA,47,BUHIGWE,475,MUNZEZE,47502,MUNZEZE,NYABIGELE
KIGOMA,47,BUHIGWE,475,MUNZEZE,47502,MUNZEZE,NYAKAME
KIGOMA,47,BUHIGWE,475,MUNZEZE,47502,MUNZEZE,NYAKALELA
KIGOMA,47,BUHIGWE,475,MUNZEZE,47502,KIGOGWE,NYAKATONGATI
KIGOMA,47,BUHIGWE,475,MUNZEZE,47502,KIGOGWE,MAWASILIANO
KIGOMA,47,BUHIGWE,475,MUNZEZE,47502,KIGOGWE,MUUNGANO
KIGOMA,47,BUHIGWE,475,MUNZEZE,47502,MURUNGU,BIGINA
KIGOMA,47,BUHIGWE,475,MUNZEZE,47502,MURUNGU,RUSEKE
KIGOMA,47,BUHIGWE,475,MUNZEZE,47502,MURUNGU,KAHEGAMO
KIGOMA,47,BUHIGWE,475,MUNZEZE,47502,MURUNGU,NYAMIHANGA
KIGOMA,47,BUHIGWE,475,MUNZEZE,47502,MURUNGU,MURUNGU
KIGOMA,47,BUHIGWE,475,MUNZEZE,47502,KISHANGA,NYAMIGETE
KIGOMA,47,BUHIGWE,475,MUNZEZE,47502,KISHANGA,NYAKAME
KIGOMA,47,BUHIGWE,475,MUNZEZE,47502,KISHANGA,KISHANGA
KIGOMA,47,BUHIGWE,475,RUSABA,47503,RUSABA,RUSABA A
KIGOMA,47,BUHIGWE,475,RUSABA,47503,RUSABA,RUSABA B
KIGOMA,47,BUHIGWE,475,RUSABA,47503,RUSABA,MKATANGA
KIGOMA,47,BUHIGWE,475,RUSABA,47503,RUSABA,KAVUMU
KIGOMA,47,BUHIGWE,475,RUSABA,47503,RUSABA,KIGARA
KIGOMA,47,BUHIGWE,475,RUSABA,47503,RUSABA,NDOHA
KIGOMA,47,BUHIGWE,475,RUSABA,47503,RUSABA,NYARUMANGA
KIGOMA,47,BUHIGWE,475,RUSABA,47503,RUSABA,RABIRO
KIGOMA,47,BUHIGWE,475,RUSABA,47503,RUSABA,KABUYE
KIGOMA,47,BUHIGWE,475,RUSABA,47503,KINAZI,KAZINGU
KIGOMA,47,BUHIGWE,475,RUSABA,47503,KINAZI,KIMARA
KIGOMA,47,BUHIGWE,475,RUSABA,47503,KINAZI,KILEMBELA
KIGOMA,47,BUHIGWE,475,RUSABA,47503,KINAZI,KABANGA
KIGOMA,47,BUHIGWE,475,RUSABA,47503,KINAZI,MKOZA
KIGOMA,47,BUHIGWE,475,RUSABA,47503,KIMALA,NYAMBWANGA
KIGOMA,47,BUHIGWE,475,RUSABA,47503,KIMALA,MURUVUMU
KIGOMA,47,BUHIGWE,475,RUSABA,47503,KIMALA,RUGAMIKO
KIGOMA,47,BUHIGWE,475,RUSABA,47503,KIMALA,KAMANGA
KIGOMA,47,BUHIGWE,475,RUSABA,47503,KIMALA,NYAMKWALE
KIGOMA,47,BUHIGWE,475,RUSABA,47503,KIMALA,NYARUMANGA
KIGOMA,47,BUHIGWE,475,JANDA,47504,JANDA,BUTAGARA
KIGOMA,47,BUHIGWE,475,JANDA,47504,JANDA,KUMSENGA/NKONA
KIGOMA,47,BUHIGWE,475,JANDA,47504,JANDA,JANDA JUU
KIGOMA,47,BUHIGWE,475,JANDA,47504,JANDA,JANDA MBELE
KIGOMA,47,BUHIGWE,475,JANDA,47504,JANDA,NYANGAMBA/KISOVU
KIGOMA,47,BUHIGWE,475,JANDA,47504,BUKUBA,MWANAGA ‘A’
KIGOMA,47,BUHIGWE,475,JANDA,47504,BUKUBA,MWANAGA ‘B’
KIGOMA,47,BUHIGWE,475,JANDA,47504,BUKUBA,GWANDAMULA
KIGOMA,47,BUHIGWE,475,JANDA,47504,BUKUBA,NKUNGWE ‘A’
KIGOMA,47,BUHIGWE,475,JANDA,47504,BUKUBA,NKUNGWE ‘B’
KIGOMA,47,BUHIGWE,475,JANDA,47504,MAHANGA,MKWANGA
KIGOMA,47,BUHIGWE,475,JANDA,47504,MAHANGA,MUVYILIZI B
KIGOMA,47,BUHIGWE,475,JANDA,47504,MAHANGA,BUZEBAZEBA
KIGOMA,47,BUHIGWE,475,JANDA,47504,MAHANGA,MUVYILIZI
KIGOMA,47,BUHIGWE,475,JANDA,47504,NYAMIHANGA,NYAMIHANGA
KIGOMA,47,BUHIGWE,475,JANDA,47504,NYAMIHANGA,MKIPIPI
KIGOMA,47,BUHIGWE,475,JANDA,47504,NYAMIHANGA,
KIGOMA,47,BUHIGWE,475,MUNYEGERA,47505,MUNYEGERA,KABUYE
KIGOMA,47,BUHIGWE,475,MUNYEGERA,47505,MUNYEGERA,NYAKITANGA
KIGOMA,47,BUHIGWE,475,MUNYEGERA,47505,MUNYEGERA,SAMGARI
KIGOMA,47,BUHIGWE,475,MUNYEGERA,47505,SONGAMBELE,KUMSENGA
KIGOMA,47,BUHIGWE,475,MUNYEGERA,47505,SONGAMBELE,KATENDA
KIGOMA,47,BUHIGWE,475,MUNYEGERA,47505,SONGAMBELE,BUYONGA
KIGOMA,47,BUHIGWE,475,MUNYEGERA,47505,SONGAMBELE,RUHUMBA
KIGOMA,47,BUHIGWE,475,MUGANZA,47506,MUGANZA,MUGANZA
KIGOMA,47,BUHIGWE,475,MUGANZA,47506,MUGANZA,NYATENGE
KIGOMA,47,BUHIGWE,475,MUGANZA,47506,MUGANZA,KISABA
KIGOMA,47,BUHIGWE,475,MUGANZA,47506,NYAMAKALA,NYAMAKALA
KIGOMA,47,BUHIGWE,475,MUGANZA,47506,NYAMAKALA,KISAGI
KIGOMA,47,BUHIGWE,475,MUGANZA,47506,NYAMAKALA,KAFUMBE
KIGOMA,47,BUHIGWE,475,MUGANZA,47506,MSIVYI,NYANTENGA
KIGOMA,47,BUHIGWE,475,MUGANZA,47506,MSIVYI,MBUGABHUGE
KIGOMA,47,BUHIGWE,475,MUGANZA,47506,MSIVYI,NYANSUSA
KIGOMA,47,BUHIGWE,475,MUGANZA,47506,MWIBUYE,FUMBAGU
KIGOMA,47,BUHIGWE,475,MUGANZA,47506,MWIBUYE,KIYANGE
KIGOMA,47,BUHIGWE,475,MWANGA B,47507,MWANGA B,MUKATANGA
KIGOMA,47,BUHIGWE,475,MWANGA B,47507,MWANGA B,KASASA
KIGOMA,47,BUHIGWE,475,MWANGA B,47507,MWANGA B,MSASANI
KIGOMA,47,BUHIGWE,475,MWANGA B,47507,MWANGA B,MAKOKO
KIGOMA,47,BUHIGWE,475,MWANGA B,47507,MUSANGA,KIBANGA
KIGOMA,47,BUHIGWE,475,MWANGA B,47507,MUSANGA,MAGOMENI
KIGOMA,47,BUHIGWE,475,MUYAMA,47508,NYANGA,NYASORE
KIGOMA,47,BUHIGWE,475,MUYAMA,47508,NYANGA,MADUKANI
KIGOMA,47,BUHIGWE,475,MUYAMA,47508,NYANGA,NYAMPEMBA JUU
KIGOMA,47,BUHIGWE,475,MUYAMA,47508,NYANGA,NYAMPEMBA CHINI
KIGOMA,47,BUHIGWE,475,MUYAMA,47508,KALEGE,KALEGE
KIGOMA,47,BUHIGWE,475,MUYAMA,47508,KALEGE,KAVURUGA
KIGOMA,47,BUHIGWE,475,MUYAMA,47508,KALEGE,NYAMPEMBA
KIGOMA,47,BUHIGWE,475,MUYAMA,47508,KALEGE,NYARUBANGA
KIGOMA,47,BUHIGWE,475,MUYAMA,47508,KASUMO,KASUMO
KIGOMA,47,BUHIGWE,475,MUYAMA,47508,KASUMO,KAMANA
KIGOMA,47,BUHIGWE,475,MUYAMA,47508,KASUMO,MIHESU
KIGOMA,47,BUHIGWE,475,MUYAMA,47508,KASUMO,KISHIGWE
KIGOMA,47,BUHIGWE,475,KAJANA,47509,KAJANA,KAJANA
KIGOMA,47,BUHIGWE,475,KAJANA,47509,KAJANA,KWIKUNGU
KIGOMA,47,BUHIGWE,475,KAJANA,47509,KAJANA,KISENGA
KIGOMA,47,BUHIGWE,475,KAJANA,47509,KAJANA,RUBUGA
KIGOMA,47,BUHIGWE,475,KAJANA,47509,KAJANA,MUNYIKA
KIGOMA,47,BUHIGWE,475,KAJANA,47509,KAJANA,NYARUSHANGA
KIGOMA,47,BUHIGWE,475,KAJANA,47509,KATUNDU,RUBONA
KIGOMA,47,BUHIGWE,475,KAJANA,47509,KATUNDU,NYARUDAHO
KIGOMA,47,BUHIGWE,475,KAJANA,47509,KATUNDU,NYAMALEMBE
KIGOMA,47,BUHIGWE,475,KAJANA,47509,KATUNDU,MUGONGO
KIGOMA,47,BUHIGWE,475,KILELEMA,47510,KILELEMA,KIDYAMA
KIGOMA,47,BUHIGWE,475,KILELEMA,47510,KILELEMA,NYAMORI
KIGOMA,47,BUHIGWE,475,KILELEMA,47510,KILELEMA,MINAZI
KIGOMA,47,BUHIGWE,475,KILELEMA,47510,MIGONGO,LEGEZAMWENDO
KIGOMA,47,BUHIGWE,475,KILELEMA,47510,MIGONGO,MAKUNGU
KIGOMA,47,BUHIGWE,475,KILELEMA,47510,MIGONGO,SONGAMBELE
KIGOMA,47,BUHIGWE,475,KILELEMA,47510,MIGONGO,LUYANGE
KIGOMA,47,BUHIGWE,475,NYAMUGALI,47511,NYAMUGALI,SOKONI
KIGOMA,47,BUHIGWE,475,NYAMUGALI,47511,NYAMUGALI,LUKUNDA
KIGOMA,47,BUHIGWE,475,NYAMUGALI,47511,NYAMUGALI,KIKULAZO
KIGOMA,47,BUHIGWE,475,NYAMUGALI,47511,NYAMUGALI,NYOMVYI
KIGOMA,47,BUHIGWE,475,NYAMUGALI,47511,BULIMANYI,BWERA
KIGOMA,47,BUHIGWE,475,NYAMUGALI,47511,BULIMANYI,BUHINDA
KIGOMA,47,BUHIGWE,475,NYAMUGALI,47511,BULIMANYI,LULENGELA
KIGOMA,47,BUHIGWE,475,NYAMUGALI,47511,KIGEGE,MUBANGA
KIGOMA,47,BUHIGWE,475,NYAMUGALI,47511,KIGEGE,KIGEGE
KIGOMA,47,BUHIGWE,475,NYAMUGALI,47511,KIGEGE,KURUGONGO
KIGOMA,47,BUHIGWE,475,MUNANILA,47512,MUNANILA,BIGARA
KIGOMA,47,BUHIGWE,475,MUNANILA,47512,MUNANILA,KARO
KIGOMA,47,BUHIGWE,475,MUNANILA,47512,MUNANILA,MAWASILIANO
KIGOMA,47,BUHIGWE,475,MUNANILA,47512,MUNANILA,RABHILO
KIGOMA,47,BUHIGWE,475,MUNANILA,47512,MUNANILA,NYAMIHINI
KIGOMA,47,BUHIGWE,475,MUNANILA,47512,KITAMBUKA,NYAMISARE
KIGOMA,47,BUHIGWE,475,MUNANILA,47512,KITAMBUKA,RUVUMU
KIGOMA,47,BUHIGWE,475,MUNANILA,47512,KITAMBUKA,MLEMLE
KIGOMA,47,BUHIGWE,475,MUNANILA,47512,KITAMBUKA,MHALULO
KIGOMA,47,BUHIGWE,475,MUNANILA,47512,KITAMBUKA,CHERAMUNDA
KIGOMA,47,BUHIGWE,475,MUNANILA,47512,KITAMBUKA,KITAMBUKA
KIGOMA,47,BUHIGWE,475,MUNANILA,47512,MKATANGA,MSAGARA
KIGOMA,47,BUHIGWE,475,MUNANILA,47512,MKATANGA,NAYAMUGIHA
KIGOMA,47,BUHIGWE,475,MUNANILA,47512,MKATANGA,MUYUGALILO
KIGOMA,47,BUHIGWE,475,MUNANILA,47512,MKATANGA,NYARUKAZA
KIGOMA,47,BUHIGWE,475,MUNANILA,47512,MKATANGA,KAYOMBE
KIGOMA,47,BUHIGWE,475,MUNANILA,47512,MKATANGA,MUNGWANGA
KIGOMA,47,BUHIGWE,475,MUNANILA,47512,NYAKIMWE,MUSHA
KIGOMA,47,BUHIGWE,475,MUNANILA,47512,NYAKIMWE,KISORO
KIGOMA,47,BUHIGWE,475,MUNANILA,47512,NYAKIMWE,MUGWAGA
KIGOMA,47,BUHIGWE,475,MUNANILA,47512,NYAKIMWE,NYARUTAMBWE ‘A’
KIGOMA,47,BUHIGWE,475,MUNANILA,47512,NYAKIMWE,NYARUTAMBWE ‘B’
KIGOMA,47,BUHIGWE,475,MUNANILA,47512,NYARUTABWE,GWAMABUNGA
KIGOMA,47,BUHIGWE,475,MUNANILA,47512,NYARUTABWE,GWANILO
KIGOMA,47,BUHIGWE,475,MUNANILA,47512,NYARUTABWE,BWAWANI
KIGOMA,47,BUHIGWE,475,MUNANILA,47512,NYARUTABWE,NYAKULAZO
KIGOMA,47,BUHIGWE,475,MUNANILA,47512,MNANILA B,KARO
KIGOMA,47,BUHIGWE,475,MUNANILA,47512,MNANILA B,MGURUKA
KIGOMA,47,BUHIGWE,475,MUNANILA,47512,MNANILA B,BIGARA
KIGOMA,47,BUHIGWE,475,MUNANILA,47512,MNANILA B,LEGEZAMWENDO
KIGOMA,47,BUHIGWE,475,MUNANILA,47512,MSAGARA,NYAKELU
KIGOMA,47,BUHIGWE,475,MUNANILA,47512,MSAGARA,MUBUGERA
KIGOMA,47,BUHIGWE,475,MUNANILA,47512,MSAGARA,KUNGARA
KIGOMA,47,BUHIGWE,475,MUNANILA,47512,MSAGARA,KAYANGE
KIGOMA,47,BUHIGWE,475,MUNANILA,47512,KISHENGEZI,MILENDA
KIGOMA,47,BUHIGWE,475,MUNANILA,47512,KISHENGEZI,RUCHUNYA
KIGOMA,47,BUHIGWE,475,MUNANILA,47512,KISHENGEZI,MLAMBI
KIGOMA,47,BUHIGWE,475,MUNANILA,47512,KISHENGEZI,MRUKAZA
KIGOMA,47,BUHIGWE,475,MUNANILA,47512,KISHENGEZI,MKWABULE
KIGOMA,47,BUHIGWE,475,MUNANILA,47512,KISHENGEZI,KIYANGE
KIGOMA,47,BUHIGWE,475,MUNANILA,47512,KAFENE,KACHELELE
KIGOMA,47,BUHIGWE,475,MUNANILA,47512,KAFENE,MKATANGA
KIGOMA,47,BUHIGWE,475,MUNANILA,47512,KAFENE,NYAMAGUGE
KIGOMA,47,BUHIGWE,475,MUNANILA,47512,KAFENE,KUMSENGA
KIGOMA,47,BUHIGWE,475,MUHINDA,47513,MUHINDA,MUHINDA KATI
KIGOMA,47,BUHIGWE,475,MUHINDA,47513,MUHINDA,MUBWERU
KIGOMA,47,BUHIGWE,475,MUHINDA,47513,MUHINDA,RUHUBA
KIGOMA,47,BUHIGWE,475,MUHINDA,47513,MUBANGA,NYAKITUNDU
KIGOMA,47,BUHIGWE,475,MUHINDA,47513,MUBANGA,KAFUNYA
KIGOMA,47,BUHIGWE,475,MUHINDA,47513,MUBANGA,CHENGWE
KIGOMA,47,BUHIGWE,475,MUHINDA,47513,NYARUBOZA,NYARUBOZA
KIGOMA,47,BUHIGWE,475,MUHINDA,47513,NYARUBOZA,NYAKELERA
KIGOMA,47,BUHIGWE,475,MUHINDA,47513,NYARUBOZA,KURUGOMA
KIGOMA,47,BUHIGWE,475,MUHINDA,47513,CHANGWE,CHAGWE
KIGOMA,47,BUHIGWE,475,MUHINDA,47513,CHANGWE,KITANGA
KIGOMA,47,BUHIGWE,475,MUHINDA,47513,CHANGWE,CHUNAMWA
KIGOMA,47,BUHIGWE,475,MUHINDA,47513,CHANGWE,GWANZOVU
KIGOMA,47,BUHIGWE,475,MUHINDA,47513,CHANGWE,KAPUHUNYA
KIGOMA,47,BUHIGWE,475,MUHINDA,47513,MBWERU,HUGAUMBIYE
KIGOMA,47,BUHIGWE,475,MUHINDA,47513,MBWERU,MWILIKA
KIGOMA,47,BUHIGWE,475,MUHINDA,47513,MBWERU,KAGARAGARA
KIGOMA,47,BUHIGWE,475,MUHINDA,47513,MBWERU,KILILA
KIGOMA,47,BUHIGWE,475,MUHINDA,47513,RUHORORO,KIBILA
KIGOMA,47,BUHIGWE,475,MUHINDA,47513,RUHORORO,MKALAKALA
KIGOMA,47,BUHIGWE,475,MUHINDA,47513,RUHORORO,BUZEBAZEBA
KIGOMA,47,BUHIGWE,475,MUHINDA,47513,RUHORORO,BIGERA
KIGOMA,47,BUHIGWE,475,MUHINDA,47513,RUHORORO,NYARUYOKA
KIGOMA,47,BUHIGWE,475,MUHINDA,47513,RUHORORO,RUHORORO
KIGOMA,47,BUHIGWE,475,MUHINDA,47513,RUHORORO,KASUNU
KIGOMA,47,BUHIGWE,475,MUHINDA,47513,RUHORORO,NYABUTUTSI
KIGOMA,47,BUHIGWE,475,MUGERA,47514,MUGERA,MUGERA
KIGOMA,47,BUHIGWE,475,MUGERA,47514,MUGERA,KISHINA
KIGOMA,47,BUHIGWE,475,MUGERA,47514,MUGERA,MAJENGO
KIGOMA,47,BUHIGWE,475,MUGERA,47514,MUGERA,LUYANGE
KIGOMA,47,BUHIGWE,475,MUGERA,47514,KATUNDU,
KIGOMA,47,BUHIGWE,475,BIHARU,47515,BIHARU,KAGURUKA
KIGOMA,47,BUHIGWE,475,BIHARU,47515,BIHARU,MUSENGA
KIGOMA,47,BUHIGWE,475,BIHARU,47515,BIHARU,KAGUNGA
KIGOMA,47,BUHIGWE,475,BIHARU,47515,KIGEGE,LULEMBA
KIGOMA,47,BUHIGWE,475,BIHARU,47515,KIGEGE,KULUGONGONI
KIGOMA,47,BUHIGWE,475,BIHARU,47515,KIGEGE,KIGEGE
KIGOMA,47,BUHIGWE,475,KIBANDE,47516,KIBANDE,NYABISINDU
KIGOMA,47,BUHIGWE,475,KIBANDE,47516,KIBANDE,KILUNDO
KIGOMA,47,BUHIGWE,475,KIBANDE,47516,KIBANDE,MASEKELO
KIGOMA,47,BUHIGWE,475,KIBANDE,47516,KIBANDE,KIBANDE
KIGOMA,47,BUHIGWE,475,KIBANDE,47516,BWERANKA,MWILALA
KIGOMA,47,BUHIGWE,475,KIBANDE,47516,BWERANKA,MUVYIRU
KIGOMA,47,BUHIGWE,475,KIBANDE,47516,BWERANKA,BWERANKA
KIGOMA,47,BUHIGWE,475,MWAYAYA,47517,MWAYAYA,MWAYAYA
KIGOMA,47,BUHIGWE,475,MWAYAYA,47517,MWAYAYA,KAGURUKA
KIGOMA,47,BUHIGWE,475,MWAYAYA,47517,MWAYAYA,RUHORORO
KIGOMA,47,BUHIGWE,475,MWAYAYA,47517,KIBWIGWA,KIBWIGWA
KIGOMA,47,BUHIGWE,475,MWAYAYA,47517,KIBWIGWA,BUYANGA
KIGOMA,47,BUHIGWE,475,MWAYAYA,47517,KIBWIGWA,KISHENGEZI ‘A’
KIGOMA,47,BUHIGWE,475,MWAYAYA,47517,KIBWIGWA,KISHENGEZI ‘ B’
KIGOMA,47,BUHIGWE,475,MWAYAYA,47517,KIBWIGWA,MUYEBE
KIGOMA,47,UVINZA,476,UVINZA,47601,MWAMILA,SONGAMBELE
KIGOMA,47,UVINZA,476,UVINZA,47601,MWAMILA,MTAKUJA
KIGOMA,47,UVINZA,476,UVINZA,47601,MWAMILA,MIBANGANI
KIGOMA,47,UVINZA,476,UVINZA,47601,MWAMILA,KAZAROHO
KIGOMA,47,UVINZA,476,UVINZA,47601,CHAKULU,KAGEMBE
KIGOMA,47,UVINZA,476,UVINZA,47601,CHAKULU,KITALI
KIGOMA,47,UVINZA,476,UVINZA,47601,CHAKULU,RUKAKI
KIGOMA,47,UVINZA,476,UVINZA,47601,CHAKULU,ILUNDE
KIGOMA,47,UVINZA,476,UVINZA,47601,CHAKULU,CHAKULU
KIGOMA,47,UVINZA,476,UVINZA,47601,BASANZA,NYAKARAKARA A
KIGOMA,47,UVINZA,476,UVINZA,47601,BASANZA,NYAKARAKARA B
KIGOMA,47,UVINZA,476,UVINZA,47601,BASANZA,DARAJANI
KIGOMA,47,UVINZA,476,UVINZA,47601,BASANZA,MLUBANGA
KIGOMA,47,UVINZA,476,UVINZA,47601,BASANZA,TULASHASHE
KIGOMA,47,UVINZA,476,UVINZA,47601,BASANZA,SUNZU
KIGOMA,47,UVINZA,476,UVINZA,47601,BASANZA,KAKONKO
KIGOMA,47,UVINZA,476,UVINZA,47601,BASANZA,NKORONKWA
KIGOMA,47,UVINZA,476,UVINZA,47601,BASANZA,MAJENGO
KIGOMA,47,UVINZA,476,UVINZA,47601,BASANZA,MLYABIBI
KIGOMA,47,UVINZA,476,UVINZA,47601,BASANZA,MSEBEHI
KIGOMA,47,UVINZA,476,UVINZA,47601,UVINZA,UVINZA KATI
KIGOMA,47,UVINZA,476,UVINZA,47601,UVINZA,KASULU ROAD
KIGOMA,47,UVINZA,476,UVINZA,47601,UVINZA,MAJENGO
KIGOMA,47,UVINZA,476,UVINZA,47601,UVINZA,JUMUIYA
KIGOMA,47,UVINZA,476,UVINZA,47601,UVINZA,LOGONGONI
KIGOMA,47,UVINZA,476,UVINZA,47601,UVINZA,KAZAROHO
KIGOMA,47,UVINZA,476,UVINZA,47601,UVINZA,RUCHUGI
KIGOMA,47,UVINZA,476,UVINZA,47601,UVINZA,MSIMBA
KIGOMA,47,UVINZA,476,UVINZA,47601,UVINZA,KANSIBU
KIGOMA,47,UVINZA,476,UVINZA,47601,UVINZA,NYANZA
KIGOMA,47,UVINZA,476,UVINZA,47601,UVINZA,GUNGU
KIGOMA,47,UVINZA,476,UVINZA,47601,UVINZA,KASHARI
KIGOMA,47,UVINZA,476,UVINZA,47601,UVINZA,
KIGOMA,47,UVINZA,476,NGURUKA,47602,BWERU,BWERU KASKAZINI
KIGOMA,47,UVINZA,476,NGURUKA,47602,BWERU,KAGURUKA
KIGOMA,47,UVINZA,476,NGURUKA,47602,BWERU,RUHAMA
KIGOMA,47,UVINZA,476,NGURUKA,47602,BWERU,MAJENGO
KIGOMA,47,UVINZA,476,NGURUKA,47602,BWERU,BWERU  KUSINI
KIGOMA,47,UVINZA,476,NGURUKA,47602,NGURUKA,NGURUKA KASKAZINI
KIGOMA,47,UVINZA,476,NGURUKA,47602,NGURUKA,NGURUKA KUSINI
KIGOMA,47,UVINZA,476,NGURUKA,47602,NGURUKA,MKORONGA
KIGOMA,47,UVINZA,476,NGURUKA,47602,NGURUKA,CHEMCHEM
KIGOMA,47,UVINZA,476,NGURUKA,47602,NYANGABO,NYANGABO KASKAZINI
KIGOMA,47,UVINZA,476,NGURUKA,47602,NYANGABO,NYANGABO KATI
KIGOMA,47,UVINZA,476,NGURUKA,47602,NYANGABO,NYANGABO KUSINI
KIGOMA,47,UVINZA,476,NGURUKA,47602,NYANGABO,BULILANG’OMBE
KIGOMA,47,UVINZA,476,NGURUKA,47602,NYANGABO,ZEGI
KIGOMA,47,UVINZA,476,NGURUKA,47602,NYANGABO,HUMULE
KIGOMA,47,UVINZA,476,NGURUKA,47602,NYANGABO,RELI MPYA
KIGOMA,47,UVINZA,476,NGURUKA,47602,ITEBULA,ITEBULA
KIGOMA,47,UVINZA,476,NGURUKA,47602,ITEBULA,LUGONGONI
KIGOMA,47,UVINZA,476,NGURUKA,47602,ITEBULA,KAMFUBA
KIGOMA,47,UVINZA,476,NGURUKA,47602,ITEBULA,KALEMELA
KIGOMA,47,UVINZA,476,NGURUKA,47602,ITEBULA,SONGATI A
KIGOMA,47,UVINZA,476,NGURUKA,47602,ITEBULA,SONGATI B
KIGOMA,47,UVINZA,476,BUHINGU,47603,KALILANI,KABUKUYUNGU
KIGOMA,47,UVINZA,476,BUHINGU,47603,KALILANI,MAHASA
KIGOMA,47,UVINZA,476,BUHINGU,47603,KALILANI,KATUMBA
KIGOMA,47,UVINZA,476,BUHINGU,47603,KALILANI,KALOLWA
KIGOMA,47,UVINZA,476,BUHINGU,47603,NKONKWA,KASHELA
KIGOMA,47,UVINZA,476,BUHINGU,47603,NKONKWA,KATEMBWE
KIGOMA,47,UVINZA,476,BUHINGU,47603,KATUMBI,MTEME
KIGOMA,47,UVINZA,476,BUHINGU,47603,KATUMBI,KARIAKOO
KIGOMA,47,UVINZA,476,BUHINGU,47603,KATUMBI,TUNDE
KIGOMA,47,UVINZA,476,BUHINGU,47603,KATUMBI,MINAGO
KIGOMA,47,UVINZA,476,BUHINGU,47603,BUHINGU,MADUKANI
KIGOMA,47,UVINZA,476,BUHINGU,47603,BUHINGU,RUBUNDUI
KIGOMA,47,UVINZA,476,BUHINGU,47603,BUHINGU,VILONGWA
KIGOMA,47,UVINZA,476,BUHINGU,47603,BUHINGU,BUHINGU A
KIGOMA,47,UVINZA,476,BUHINGU,47603,BUHINGU,BUHINGU B
KIGOMA,47,UVINZA,476,SIGUNGA,47604,KAPARAMSENGA,KAPARAMSENGA MASHARIKI
KIGOMA,47,UVINZA,476,SIGUNGA,47604,KAPARAMSENGA,KAPARAMSENGA KUSINI
KIGOMA,47,UVINZA,476,SIGUNGA,47604,KAPARAMSENGA,ITIGI/KAPARA MAGHARIBI
KIGOMA,47,UVINZA,476,SIGUNGA,47604,KAPARAMSENGA,ITIGI/KAPARA KASKAZINI
KIGOMA,47,UVINZA,476,SIGUNGA,47604,KAPARAMSENGA,ITIGI/KAPARA MAGHARIBI
KIGOMA,47,UVINZA,476,SIGUNGA,47604,KAPARAMSENGA,PUNGU
KIGOMA,47,UVINZA,476,SIGUNGA,47604,KAPARAMSENGA,ITIGA MASHARIKI
KIGOMA,47,UVINZA,476,SIGUNGA,47604,KAPARAMSENGA,LUSAMBO
KIGOMA,47,UVINZA,476,SIGUNGA,47604,SIGUNGA,MGANGASIMA
KIGOMA,47,UVINZA,476,SIGUNGA,47604,SIGUNGA,KAHAMA
KIGOMA,47,UVINZA,476,SIGUNGA,47604,SIGUNGA,SIGOMA
KIGOMA,47,UVINZA,476,SIGUNGA,47604,SIGUNGA,KATALE
KIGOMA,47,UVINZA,476,SIGUNGA,47604,SIGUNGA,KIBOKO
KIGOMA,47,UVINZA,476,SIGUNGA,47604,SIGUNGA,KAGWENA
KIGOMA,47,UVINZA,476,SIGUNGA,47604,SIGUNGA,KICHANGANI
KIGOMA,47,UVINZA,476,SIGUNGA,47604,SIGUNGA,KAHWIBILI
KIGOMA,47,UVINZA,476,SIGUNGA,47604,HEREMBE,MTAKUJA
KIGOMA,47,UVINZA,476,SIGUNGA,47604,HEREMBE,HERAMBE
KIGOMA,47,UVINZA,476,SIGUNGA,47604,HEREMBE,MGOROGORO
KIGOMA,47,UVINZA,476,SIGUNGA,47604,HEREMBE,KALELA ‐ NKASI
KIGOMA,47,UVINZA,476,KALYA,47605,SIBWESA,MTAKUJA
KIGOMA,47,UVINZA,476,KALYA,47605,SIBWESA,TUPENDANE
KIGOMA,47,UVINZA,476,KALYA,47605,SIBWESA,KATOBELO
KIGOMA,47,UVINZA,476,KALYA,47605,SIBWESA,TUJITEGEMEE
KIGOMA,47,UVINZA,476,KALYA,47605,SIBWESA,SONGAMBELE
KIGOMA,47,UVINZA,476,KALYA,47605,KALYA,KATUNKA
KIGOMA,47,UVINZA,476,KALYA,47605,KALYA,KANKUBA
KIGOMA,47,UVINZA,476,KALYA,47605,KALYA,KAPAMA
KIGOMA,47,UVINZA,476,KALYA,47605,KALYA,MLELA
KIGOMA,47,UVINZA,476,KALYA,47605,KALYA,KAGWILA
KIGOMA,47,UVINZA,476,KALYA,47605,KALYA,TUMBUSHE
KIGOMA,47,UVINZA,476,KALYA,47605,KASHUGHULU,MJIMWEMA
KIGOMA,47,UVINZA,476,KALYA,47605,KASHUGHULU,MPANGA
KIGOMA,47,UVINZA,476,KALYA,47605,KASHUGHULU,KISINSA
KIGOMA,47,UVINZA,476,KALYA,47605,KASHUGHULU,KAMPISA
KIGOMA,47,UVINZA,476,KALYA,47605,KASHUGHULU,LUFUBU
KIGOMA,47,UVINZA,476,KALYA,47605,KASHUGHULU,UGALABA
KIGOMA,47,UVINZA,476,KALYA,47605,KASHUGHULU,UBANDA
KIGOMA,47,UVINZA,476,SIMBO,47606,SIMBO,SIMBO A KATI
KIGOMA,47,UVINZA,476,SIMBO,47606,SIMBO,SIMBO B KATI
KIGOMA,47,UVINZA,476,SIMBO,47606,SIMBO,MIZIZINI A
KIGOMA,47,UVINZA,476,SIMBO,47606,SIMBO,MIZIZINI B
KIGOMA,47,UVINZA,476,SIMBO,47606,SIMBO,MACHAZO A
KIGOMA,47,UVINZA,476,SIMBO,47606,SIMBO,MACHAZO B
KIGOMA,47,UVINZA,476,SIMBO,47606,SIMBO,MACHAZO C
KIGOMA,47,UVINZA,476,SIMBO,47606,KASUKU,BONDO
KIGOMA,47,UVINZA,476,SIMBO,47606,KASUKU,KASUKU 120. MIEMBENI
KIGOMA,47,UVINZA,476,SIMBO,47606,KASUKU,KASUKU KATI
KIGOMA,47,UVINZA,476,SIMBO,47606,KASUKU,KASUKU KASKAZINI
KIGOMA,47,UVINZA,476,SIMBO,47606,KASUKU,KASUKU KUSINI
KIGOMA,47,UVINZA,476,SIMBO,47606,NYAMOLI,STENDI
KIGOMA,47,UVINZA,476,SIMBO,47606,NYAMOLI,MAJENGO
KIGOMA,47,UVINZA,476,SIMBO,47606,NYAMOLI,MTAKUJA
KIGOMA,47,UVINZA,476,SIMBO,47606,NYAMOLI,MZINDAKAYA
KIGOMA,47,UVINZA,476,SIMBO,47606,NYAMOLI,MANYOVU
KIGOMA,47,UVINZA,476,SIMBO,47606,KASEKE,MWAMKO
KIGOMA,47,UVINZA,476,SIMBO,47606,KASEKE,JITEGEMEE
KIGOMA,47,UVINZA,476,SIMBO,47606,KASEKE,MTAKUJA
KIGOMA,47,UVINZA,476,SIMBO,47606,KASEKE,MAENDELEO
KIGOMA,47,UVINZA,476,SIMBO,47606,KASEKE,KILIMAHEWA
KIGOMA,47,UVINZA,476,SIMBO,47606,KASEKE,KACHAKALA
KIGOMA,47,UVINZA,476,SIMBO,47606,KASEKE,ZIWANI B
KIGOMA,47,UVINZA,476,SIMBO,47606,KASEKE,KABUNGO
KIGOMA,47,UVINZA,476,KANDAGA,47607,MLELA,NYAMABUYE
KIGOMA,47,UVINZA,476,KANDAGA,47607,MLELA,IBOLELO
KIGOMA,47,UVINZA,476,KANDAGA,47607,MLELA,KATARAGUSA
KIGOMA,47,UVINZA,476,KANDAGA,47607,MLELA,KITELEMA
KIGOMA,47,UVINZA,476,KANDAGA,47607,MLELA,KAYANA
KIGOMA,47,UVINZA,476,KANDAGA,47607,MLELA,BITALE A
KIGOMA,47,UVINZA,476,KANDAGA,47607,MLELA,BITALE B
KIGOMA,47,UVINZA,476,KANDAGA,47607,KANDAGA,HUDUMANI
KIGOMA,47,UVINZA,476,KANDAGA,47607,KANDAGA,NYAMPONDA
KIGOMA,47,UVINZA,476,KANDAGA,47607,KANDAGA,KALINZI A
KIGOMA,47,UVINZA,476,KANDAGA,47607,KANDAGA,KALINZI B
KIGOMA,47,UVINZA,476,KANDAGA,47607,KANDAGA,KAGUNGA A
KIGOMA,47,UVINZA,476,KANDAGA,47607,KANDAGA,KAGUNGA B
KIGOMA,47,UVINZA,476,KANDAGA,47607,KANDAGA,KAFUNZO
KIGOMA,47,UVINZA,476,KANDAGA,47607,KAZURAMIMBA,KILELEMA A
KIGOMA,47,UVINZA,476,KANDAGA,47607,KAZURAMIMBA,KILELEMA B
KIGOMA,47,UVINZA,476,KANDAGA,47607,KAZURAMIMBA,RUBONA A
KIGOMA,47,UVINZA,476,KANDAGA,47607,KAZURAMIMBA,RUBONA B
KIGOMA,47,UVINZA,476,KANDAGA,47607,KAZURAMIMBA,KILELEMA C
KIGOMA,47,UVINZA,476,KANDAGA,47607,KAZURAMIMBA,TAMBUKARELI MASHARIKI
KIGOMA,47,UVINZA,476,KANDAGA,47607,KAZURAMIMBA,TAMBUKARELI MAGHARIBI
KIGOMA,47,UVINZA,476,KANDAGA,47607,KAZURAMIMBA,RUBONA C
KIGOMA,47,UVINZA,476,KANDAGA,47607,KAZURAMIMBA,KIDEA
KIGOMA,47,UVINZA,476,KANDAGA,47607,KALENGE,HUDUMANI
KIGOMA,47,UVINZA,476,KANDAGA,47607,KALENGE,MAJENGO
KIGOMA,47,UVINZA,476,KANDAGA,47607,KALENGE,KINOMBE
KIGOMA,47,UVINZA,476,KANDAGA,47607,KALENGE,KILEMBA
KIGOMA,47,UVINZA,476,KANDAGA,47607,KALENGE,NYANZALI
KIGOMA,47,UVINZA,476,KANDAGA,47607,KALENGE,SHUZA
KIGOMA,47,UVINZA,476,KANDAGA,47607,KALENGE,KIBINGWE
KIGOMA,47,UVINZA,476,KANDAGA,47607,NYANGANGA,MAJENGO
KIGOMA,47,UVINZA,476,KANDAGA,47607,NYANGANGA,HUDUMANI
KIGOMA,47,UVINZA,476,KANDAGA,47607,NYANGANGA,NYABULAMBA
KIGOMA,47,UVINZA,476,KANDAGA,47607,NYANGANGA,MZUNGWE
KIGOMA,47,UVINZA,476,KANDAGA,47607,NYANGANGA,MIBANGANI A
KIGOMA,47,UVINZA,476,KANDAGA,47607,NYANGANGA,MIBANGANI B
KIGOMA,47,UVINZA,476,KANDAGA,47607,NYANGANGA,MIBANGANI B
KIGOMA,47,UVINZA,476,SUNUKA,47608,KIRANDO,NYAMAMBA
KIGOMA,47,UVINZA,476,SUNUKA,47608,KIRANDO,KIRANDO
KIGOMA,47,UVINZA,476,SUNUKA,47608,KIRANDO,NYAMKIMA
KIGOMA,47,UVINZA,476,SUNUKA,47608,KIRANDO,MSEHEZI
KIGOMA,47,UVINZA,476,SUNUKA,47608,KIRANDO,NYAMSIMBI
KIGOMA,47,UVINZA,476,SUNUKA,47608,LYABUSENDE,LYABUSENDE
KIGOMA,47,UVINZA,476,SUNUKA,47608,LYABUSENDE,MTAKUJA
KIGOMA,47,UVINZA,476,SUNUKA,47608,LYABUSENDE,KABONGO
KIGOMA,47,UVINZA,476,SUNUKA,47608,KARAGO,MWAMKO
KIGOMA,47,UVINZA,476,SUNUKA,47608,KARAGO,KITEKATI
KIGOMA,47,UVINZA,476,SUNUKA,47608,KARAGO,MVIGA
KIGOMA,47,UVINZA,476,SUNUKA,47608,KARAGO,KITENTAKUJA
KIGOMA,47,UVINZA,476,SUNUKA,47608,KARAGO,LEGEZAMWENDO
KIGOMA,47,UVINZA,476,SUNUKA,47608,KARAGO,KANYWANGILI
KIGOMA,47,UVINZA,476,SUNUKA,47608,SUNUKA,SUNUKA
KIGOMA,47,UVINZA,476,SUNUKA,47608,SUNUKA,KINYABA
KIGOMA,47,UVINZA,476,SUNUKA,47608,SUNUKA,MSOMBWEZI
KIGOMA,47,UVINZA,476,SUNUKA,47608,SUNUKA,LULINGA
KIGOMA,47,UVINZA,476,SUNUKA,47608,SUNUKA,MAFUNDIKANI
KIGOMA,47,UVINZA,476,SUNUKA,47608,SONGAMBELE,NYANDIGA
KIGOMA,47,UVINZA,476,SUNUKA,47608,SONGAMBELE,GAMBAZI
KIGOMA,47,UVINZA,476,SUNUKA,47608,SONGAMBELE,GAGWE
KIGOMA,47,UVINZA,476,SUNUKA,47608,SONGAMBELE,ILOLO
KIGOMA,47,UVINZA,476,SUNUKA,47608,SONGAMBELE,ANZERANI
KIGOMA,47,UVINZA,476,ILAGALA,47609,MWAKIZEGA,MUYOMBOZI
KIGOMA,47,UVINZA,476,ILAGALA,47609,MWAKIZEGA,KIMBA
KIGOMA,47,UVINZA,476,ILAGALA,47609,MWAKIZEGA,KAMPANDE
KIGOMA,47,UVINZA,476,ILAGALA,47609,MWAKIZEGA,KABEBA
KIGOMA,47,UVINZA,476,ILAGALA,47609,MWAKIZEGA,KAMUNYOVU
KIGOMA,47,UVINZA,476,ILAGALA,47609,ILAGALA,LUGOGONI
KIGOMA,47,UVINZA,476,ILAGALA,47609,ILAGALA,KATETE
KIGOMA,47,UVINZA,476,ILAGALA,47609,ILAGALA,LUGONGONI
KIGOMA,47,UVINZA,476,ILAGALA,47609,ILAGALA,MACHAZO
KIGOMA,47,UVINZA,476,ILAGALA,47609,ILAGALA,MAHANGA
KIGOMA,47,UVINZA,476,ILAGALA,47609,ILAGALA,KABUYANGE
KIGOMA,47,UVINZA,476,ILAGALA,47609,ILAGALA,MSAMBARA
KIGOMA,47,UVINZA,476,ILAGALA,47609,KAJEJE,KAJEJE A
KIGOMA,47,UVINZA,476,ILAGALA,47609,KAJEJE,KAJEJE B
KIGOMA,47,UVINZA,476,ILAGALA,47609,KAJEJE,TUNDEGAMBAZI
KIGOMA,47,UVINZA,476,ILAGALA,47609,KAJEJE,MKANGA
KIGOMA,47,KAKONKO,477,KAKONKO,47701,KAKONKO,KANYAGA
KIGOMA,47,KAKONKO,477,KAKONKO,47701,KAKONKO,MIGOMBANI
KIGOMA,47,KAKONKO,477,KAKONKO,47701,KAKONKO,KUMUYUMPU
KIGOMA,47,KAKONKO,477,KAKONKO,47701,KAKONKO,KUKIMANGA
KIGOMA,47,KAKONKO,477,KAKONKO,47701,KAKONKO,KANYOMVI
KIGOMA,47,KAKONKO,477,KAKONKO,47701,KAKONKO,MUSUFINI
KIGOMA,47,KAKONKO,477,KAKONKO,47701,MBIZI,KIZINDA A
KIGOMA,47,KAKONKO,477,KAKONKO,47701,MBIZI,KIZINDA B
KIGOMA,47,KAKONKO,477,KAKONKO,47701,MBIZI,KIZINDA C
KIGOMA,47,KAKONKO,477,KAKONKO,47701,MBIZI,MBIZI JUU
KIGOMA,47,KAKONKO,477,KAKONKO,47701,MBIZI,MBIZI CHINI
KIGOMA,47,KAKONKO,477,KAKONKO,47701,MBIZI,MBIZI KATI
KIGOMA,47,KAKONKO,477,KAKONKO,47701,MBIZI,KUMKELA
KIGOMA,47,KAKONKO,477,KAKONKO,47701,MBIZI,CHALABUYO
KIGOMA,47,KAKONKO,477,KAKONKO,47701,MBIZI,KULIMGUNGA
KIGOMA,47,KAKONKO,477,KAKONKO,47701,MBIZI,MAJIMAJI
KIGOMA,47,KAKONKO,477,KAKONKO,47701,ITUMBUKO,IBUGA A
KIGOMA,47,KAKONKO,477,KAKONKO,47701,ITUMBUKO,IBUGA B
KIGOMA,47,KAKONKO,477,KAKONKO,47701,ITUMBUKO,IBUGA C
KIGOMA,47,KAKONKO,477,KAKONKO,47701,ITUMBUKO,KANYAGA A
KIGOMA,47,KAKONKO,477,KAKONKO,47701,ITUMBUKO,KANYAGA B
KIGOMA,47,KAKONKO,477,KAKONKO,47701,ITUMBUKO,KANYAGA C
KIGOMA,47,KAKONKO,477,KAKONKO,47701,ITUMBUKO,KANYAGA D
KIGOMA,47,KAKONKO,477,KAKONKO,47701,ITUMBUKO,ITUMBIKO A
KIGOMA,47,KAKONKO,477,KAKONKO,47701,ITUMBUKO,ITUMBIKO B
KIGOMA,47,KAKONKO,477,KAKONKO,47701,ITUMBUKO,ITUMBIKO C
KIGOMA,47,KAKONKO,477,KAKONKO,47701,MUGANZA,GEZAULOLE
KIGOMA,47,KAKONKO,477,KAKONKO,47701,MUGANZA,NYAKAVYIRU
KIGOMA,47,KAKONKO,477,KAKONKO,47701,MUGANZA,MUHWAZI
KIGOMA,47,KAKONKO,477,KAKONKO,47701,MUGANZA,RUFIKI
KIGOMA,47,KAKONKO,477,KAKONKO,47701,MUGANZA,CHERABURO
KIGOMA,47,KAKONKO,477,KAKONKO,47701,MUGANZA,MLIMANI
KIGOMA,47,KAKONKO,477,KAKONKO,47701,MUGANZA,MKUYUNI
KIGOMA,47,KAKONKO,477,KAKONKO,47701,MUGANZA,MWEMBENI
KIGOMA,47,KAKONKO,477,KAKONKO,47701,MUGANZA,KANYAGA
KIGOMA,47,KAKONKO,477,KAKONKO,47701,MUGANZA,KUMTUKURA
KIGOMA,47,KAKONKO,477,KAKONKO,47701,KANYONZA,CHERABURO A
KIGOMA,47,KAKONKO,477,KAKONKO,47701,KANYONZA,CHERABURO B
KIGOMA,47,KAKONKO,477,KAKONKO,47701,KANYONZA,CHERABURO C
KIGOMA,47,KAKONKO,477,KAKONKO,47701,KANYONZA,CHERABURO D
KIGOMA,47,KAKONKO,477,KAKONKO,47701,KANYONZA,NYAMALEBE A
KIGOMA,47,KAKONKO,477,KAKONKO,47701,KANYONZA,NYAMALEBE B
KIGOMA,47,KAKONKO,477,KAKONKO,47701,KANYONZA,NYAMALEBE C
KIGOMA,47,KAKONKO,477,KAKONKO,47701,KANYONZA,KUMWIYANDO A
KIGOMA,47,KAKONKO,477,KAKONKO,47701,KANYONZA,KUMWIYANDO B
KIGOMA,47,KAKONKO,477,KAKONKO,47701,KANYONZA,KUMWIYANDO C
KIGOMA,47,KAKONKO,477,KAKONKO,47701,KABINGO,MTAKUJA A
KIGOMA,47,KAKONKO,477,KAKONKO,47701,KABINGO,MTAKUJA B
KIGOMA,47,KAKONKO,477,KAKONKO,47701,KABINGO,SONGAMBELE
KIGOMA,47,KAKONKO,477,KAKONKO,47701,KABINGO,MBUGANI
KIGOMA,47,KAKONKO,477,KAKONKO,47701,KABINGO,KANYARA
KIGOMA,47,KAKONKO,477,KAKONKO,47701,KABINGO,MUSELELEKO
KIGOMA,47,KAKONKO,477,KAKONKO,47701,KABINGO,ILELA
KIGOMA,47,KAKONKO,477,KAKONKO,47701,KABINGO,KAZAMWENDO
KIGOMA,47,KAKONKO,477,KASANDA,47702,KASANDA,CHILAMBO
KIGOMA,47,KAKONKO,477,KASANDA,47702,KASANDA,MPAGO
KIGOMA,47,KAKONKO,477,KASANDA,47702,KASANDA,NYAMAHASA
KIGOMA,47,KAKONKO,477,KASANDA,47702,KASANDA,NKUBA A
KIGOMA,47,KAKONKO,477,KASANDA,47702,KASANDA,NKUBA B
KIGOMA,47,KAKONKO,477,KASANDA,47702,KASANDA,KASANDA
KIGOMA,47,KAKONKO,477,KASANDA,47702,KASANDA,KUMRUGWE
KIGOMA,47,KAKONKO,477,KASANDA,47702,KASANDA,KAGOTI
KIGOMA,47,KAKONKO,477,KASANDA,47702,KASANDA,KEZA
KIGOMA,47,KAKONKO,477,KASANDA,47702,KASANDA,KEWE
KIGOMA,47,KAKONKO,477,KASANDA,47702,CHILAMBO,RUKOTO
KIGOMA,47,KAKONKO,477,KASANDA,47702,CHILAMBO,KULIZUBA
KIGOMA,47,KAKONKO,477,KASANDA,47702,CHILAMBO,MUHWAZI
KIGOMA,47,KAKONKO,477,KASANDA,47702,CHILAMBO,KICHACHA
KIGOMA,47,KAKONKO,477,KASANDA,47702,CHILAMBO,NGULITO
KIGOMA,47,KAKONKO,477,KASANDA,47702,KAZILAMIHUNDA,KANYETAMO
KIGOMA,47,KAKONKO,477,KASANDA,47702,KAZILAMIHUNDA,KUMKWABURE
KIGOMA,47,KAKONKO,477,KASANDA,47702,KAZILAMIHUNDA,KUMUNZOYA
KIGOMA,47,KAKONKO,477,KASANDA,47702,KAZILAMIHUNDA,KUMUKOMAKOMA
KIGOMA,47,KAKONKO,477,KASANDA,47702,KAZILAMIHUNDA,NADYIBHA A
KIGOMA,47,KAKONKO,477,KASANDA,47702,KAZILAMIHUNDA,NADYIBHA B
KIGOMA,47,KAKONKO,477,MUGUNZU,47703,MUGUNZU,KANYOGORO A
KIGOMA,47,KAKONKO,477,MUGUNZU,47703,MUGUNZU,KAHAMBWE A
KIGOMA,47,KAKONKO,477,MUGUNZU,47703,MUGUNZU,KAHAMBWE B
KIGOMA,47,KAKONKO,477,MUGUNZU,47703,MUGUNZU,KAHAMBWE C
KIGOMA,47,KAKONKO,477,MUGUNZU,47703,MUGUNZU,KAFUNZO A
KIGOMA,47,KAKONKO,477,MUGUNZU,47703,MUGUNZU,SHULENI
KIGOMA,47,KAKONKO,477,MUGUNZU,47703,MUGUNZU,NARUBURA A
KIGOMA,47,KAKONKO,477,MUGUNZU,47703,MUGUNZU,NARUBURA B
KIGOMA,47,KAKONKO,477,MUGUNZU,47703,MUGUNZU,MAJENGO
KIGOMA,47,KAKONKO,477,MUGUNZU,47703,KIDUDUYE,KUMVUMU
KIGOMA,47,KAKONKO,477,MUGUNZU,47703,KIDUDUYE,MAHULILO
KIGOMA,47,KAKONKO,477,MUGUNZU,47703,KIDUDUYE,KUMNAZI
KIGOMA,47,KAKONKO,477,MUGUNZU,47703,KIDUDUYE,KAYOGORO
KIGOMA,47,KAKONKO,477,MUGUNZU,47703,KIDUDUYE,KITABAMBOGO
KIGOMA,47,KAKONKO,477,MUGUNZU,47703,KIDUDUYE,NYABUGOLE
KIGOMA,47,KAKONKO,477,MUGUNZU,47703,KIDUDUYE,KUMHONA
KIGOMA,47,KAKONKO,477,MUGUNZU,47703,KIDUDUYE,KIDUDUYE
KIGOMA,47,KAKONKO,477,MUGUNZU,47703,KIDUDUYE,NYAKASANDA
KIGOMA,47,KAKONKO,477,MUGUNZU,47703,KIDUDUYE,KUMGARIKA
KIGOMA,47,KAKONKO,477,MUGUNZU,47703,NYAGWIJIMA,KANYAMANZA A
KIGOMA,47,KAKONKO,477,MUGUNZU,47703,NYAGWIJIMA,KANYAMANZA B
KIGOMA,47,KAKONKO,477,MUGUNZU,47703,NYAGWIJIMA,KAHONGORO
KIGOMA,47,KAKONKO,477,MUGUNZU,47703,NYAGWIJIMA,KINIHA
KIGOMA,47,KAKONKO,477,MUGUNZU,47703,NYAGWIJIMA,MASABILO
KIGOMA,47,KAKONKO,477,MUGUNZU,47703,NYAGWIJIMA,RUTAMBA
KIGOMA,47,KAKONKO,477,MUGUNZU,47703,NYAGWIJIMA,MUHELO
KIGOMA,47,KAKONKO,477,MUGUNZU,47703,NYAGWIJIMA,RUKOLELO
KIGOMA,47,KAKONKO,477,MUGUNZU,47703,NYAGWIJIMA,NYAGWIJIMA
KIGOMA,47,KAKONKO,477,MUGUNZU,47703,NYAGWIJIMA,NYAMGAYE
KIGOMA,47,KAKONKO,477,GWANUMPU,47704,GWANUMPU,GWANUMPU A
KIGOMA,47,KAKONKO,477,GWANUMPU,47704,GWANUMPU,GWANUMPU B
KIGOMA,47,KAKONKO,477,GWANUMPU,47704,GWANUMPU,NAKISENGA A
KIGOMA,47,KAKONKO,477,GWANUMPU,47704,GWANUMPU,NAKISENGA B
KIGOMA,47,KAKONKO,477,GWANUMPU,47704,GWANUMPU,NGOMELO A
KIGOMA,47,KAKONKO,477,GWANUMPU,47704,GWANUMPU,NGOMELO B
KIGOMA,47,KAKONKO,477,GWANUMPU,47704,GWANUMPU,KATANGA A
KIGOMA,47,KAKONKO,477,GWANUMPU,47704,GWANUMPU,NKONI A
KIGOMA,47,KAKONKO,477,GWANUMPU,47704,GWANUMPU,NKONI B
KIGOMA,47,KAKONKO,477,GWANUMPU,47704,GWANUMPU,NKONI C
KIGOMA,47,KAKONKO,477,GWANUMPU,47704,KATANGA,KASHAWE
KIGOMA,47,KAKONKO,477,GWANUMPU,47704,KATANGA,NYAKAMANGA
KIGOMA,47,KAKONKO,477,GWANUMPU,47704,KATANGA,KARUTAMBWE
KIGOMA,47,KAKONKO,477,GWANUMPU,47704,KATANGA,KIBATE
KIGOMA,47,KAKONKO,477,GWANUMPU,47704,KATANGA,KIGEZI
KIGOMA,47,KAKONKO,477,GWANUMPU,47704,KATANGA,NYAMSENGA
KIGOMA,47,KAKONKO,477,GWANUMPU,47704,KATANGA,BUGARAMA
KIGOMA,47,KAKONKO,477,GWANUMPU,47704,KATANGA,SOKONI
KIGOMA,47,KAKONKO,477,GWANUMPU,47704,KATANGA,KAGUNGA
KIGOMA,47,KAKONKO,477,GWANUMPU,47704,KATANGA,KABINGO
KIGOMA,47,KAKONKO,477,GWANUMPU,47704,BUKIRILO,KITAGURA
KIGOMA,47,KAKONKO,477,GWANUMPU,47704,BUKIRILO,NAMHONA
KIGOMA,47,KAKONKO,477,GWANUMPU,47704,BUKIRILO,KAVUMU A
KIGOMA,47,KAKONKO,477,GWANUMPU,47704,BUKIRILO,KAVUMU B
KIGOMA,47,KAKONKO,477,GWANUMPU,47704,BUKIRILO,LANYILU
KIGOMA,47,KAKONKO,477,GWANUMPU,47704,BUKIRILO,LUSENGA
KIGOMA,47,KAKONKO,477,GWANUMPU,47704,BUKIRILO,KAMUYANGE
KIGOMA,47,KAKONKO,477,GWANUMPU,47704,BUKIRILO,KUMNAZI
KIGOMA,47,KAKONKO,477,GWANUMPU,47704,BUKIRILO,KUMUKWABURE
KIGOMA,47,KAKONKO,477,GWANUMPU,47704,BUKIRILO,KIVURUGA
KIGOMA,47,KAKONKO,477,GWANUMPU,47704,ILABIRO,KINGWA
KIGOMA,47,KAKONKO,477,GWANUMPU,47704,ILABIRO,KAMUYANGE
KIGOMA,47,KAKONKO,477,GWANUMPU,47704,ILABIRO,KILAHINDA
KIGOMA,47,KAKONKO,477,GWANUMPU,47704,ILABIRO,MWENGE
KIGOMA,47,KAKONKO,477,GWANUMPU,47704,ILABIRO,NYAMUSENGA
KIGOMA,47,KAKONKO,477,GWANUMPU,47704,ILABIRO,KUMHAMA
KIGOMA,47,KAKONKO,477,GWANUMPU,47704,ILABIRO,KIKONKO
KIGOMA,47,KAKONKO,477,GWANUMPU,47704,ILABIRO,BITATI
KIGOMA,47,KAKONKO,477,GWANUMPU,47704,ILABIRO,RUSOHOKO
KIGOMA,47,KAKONKO,477,GWANUMPU,47704,ILABIRO,BUHINYUZA
KIGOMA,47,KAKONKO,477,KIZIGUZIGU,47705,KIZIGUZIGU,KANYONZA
KIGOMA,47,KAKONKO,477,KIZIGUZIGU,47705,KIZIGUZIGU,SHAURIMOYO A
KIGOMA,47,KAKONKO,477,KIZIGUZIGU,47705,KIZIGUZIGU,SHAURIMOYO B
KIGOMA,47,KAKONKO,477,KIZIGUZIGU,47705,KIZIGUZIGU,NGUVUKAZI A
KIGOMA,47,KAKONKO,477,KIZIGUZIGU,47705,KIZIGUZIGU,NGUVUKAZI B
KIGOMA,47,KAKONKO,477,KIZIGUZIGU,47705,KIZIGUZIGU,NGUVUKAZI C
KIGOMA,47,KAKONKO,477,KIZIGUZIGU,47705,KIYOBERA,KAMANYU A
KIGOMA,47,KAKONKO,477,KIZIGUZIGU,47705,KIYOBERA,KAMANYU B
KIGOMA,47,KAKONKO,477,KIZIGUZIGU,47705,KIYOBERA,KAMANYU C
KIGOMA,47,KAKONKO,477,KIZIGUZIGU,47705,KIYOBERA,KIHOGAZI
KIGOMA,47,KAKONKO,477,KASUGA,47706,KASUGA,KUMULANGALANGA A
KIGOMA,47,KAKONKO,477,KASUGA,47706,KASUGA,KUMULANGALANGA B
KIGOMA,47,KAKONKO,477,KASUGA,47706,KASUGA,MJINI A
KIGOMA,47,KAKONKO,477,KASUGA,47706,KASUGA,MJINI B
KIGOMA,47,KAKONKO,477,KASUGA,47706,KASUGA,KAGANYI
KIGOMA,47,KAKONKO,477,KASUGA,47706,KASUGA,. KUMUYUMPU
KIGOMA,47,KAKONKO,477,KASUGA,47706,KASUGA,KEWE
KIGOMA,47,KAKONKO,477,KASUGA,47706,KASUGA,MARIMBA A
KIGOMA,47,KAKONKO,477,KASUGA,47706,KASUGA,MARIMBA B
KIGOMA,47,KAKONKO,477,KASUGA,47706,KASUGA,KIHOMOKA
KIGOMA,47,KAKONKO,477,KASUGA,47706,KINONKO,NTANYERERE
KIGOMA,47,KAKONKO,477,KASUGA,47706,KINONKO,NARUTAMO
KIGOMA,47,KAKONKO,477,KASUGA,47706,KINONKO,NJOOMULOLE
KIGOMA,47,KAKONKO,477,KASUGA,47706,KINONKO,KIMANGA
KIGOMA,47,KAKONKO,477,KASUGA,47706,KINONKO,KUMTUKURA A
KIGOMA,47,KAKONKO,477,KASUGA,47706,KINONKO,KUMTUKURA B
KIGOMA,47,KAKONKO,477,KASUGA,47706,KINONKO,KABINGO
KIGOMA,47,KAKONKO,477,KASUGA,47706,KINONKO,KAYENGELE A
KIGOMA,47,KAKONKO,477,KASUGA,47706,KINONKO,KAYENGELE B
KIGOMA,47,KAKONKO,477,KASUGA,47706,KINONKO,KAUBA BUJO
KIGOMA,47,KAKONKO,477,KASUGA,47706,KINONKO,KEWE
KIGOMA,47,KAKONKO,477,KASUGA,47706,NYAKAYENZI,KATAHOKWA A
KIGOMA,47,KAKONKO,477,KASUGA,47706,NYAKAYENZI,KATAHOKWA B
KIGOMA,47,KAKONKO,477,KASUGA,47706,NYAKAYENZI,KATAHOKWA C
KIGOMA,47,KAKONKO,477,KASUGA,47706,NYAKAYENZI,KAMUTUKULA A
KIGOMA,47,KAKONKO,477,KASUGA,47706,NYAKAYENZI,KAMUTUKULA B
KIGOMA,47,KAKONKO,477,KASUGA,47706,NYAKAYENZI,BIHARE
KIGOMA,47,KAKONKO,477,KASUGA,47706,NYAKAYENZI,KAMRERE
KIGOMA,47,KAKONKO,477,KASUGA,47706,NYAKAYENZI,BIZIBILINZAMBA A
KIGOMA,47,KAKONKO,477,KASUGA,47706,NYAKAYENZI,BIZIBILINZAMBA B
KIGOMA,47,KAKONKO,477,KASUGA,47706,NYAKAYENZI,BIZIBILINZAMBA C
KIGOMA,47,KAKONKO,477,RUGENGE,47707,KIGA,KIBILIZI A
KIGOMA,47,KAKONKO,477,RUGENGE,47707,KIGA,KIBILIZI B
KIGOMA,47,KAKONKO,477,RUGENGE,47707,KIGA,KATOTO
KIGOMA,47,KAKONKO,477,RUGENGE,47707,KIGA,KIGA A
KIGOMA,47,KAKONKO,477,RUGENGE,47707,KIGA,KIGA B
KIGOMA,47,KAKONKO,477,RUGENGE,47707,KIGA,VYUGAZO
KIGOMA,47,KAKONKO,477,RUGENGE,47707,KIGA,MUGWANDA A
KIGOMA,47,KAKONKO,477,RUGENGE,47707,KIGA,MUGWANDA B
KIGOMA,47,KAKONKO,477,RUGENGE,47707,KIGA,MUGWANDA C
KIGOMA,47,KAKONKO,477,RUGENGE,47707,KIGA,MUGWANDA D
KIGOMA,47,KAKONKO,477,RUGENGE,47707,KASONGATI,KIHINDA A
KIGOMA,47,KAKONKO,477,RUGENGE,47707,KASONGATI,KIHINDA B
KIGOMA,47,KAKONKO,477,RUGENGE,47707,KASONGATI,BWILINDE A
KIGOMA,47,KAKONKO,477,RUGENGE,47707,KASONGATI,BWILINDE C
KIGOMA,47,KAKONKO,477,RUGENGE,47707,KASONGATI,RUSALAZA
KIGOMA,47,KAKONKO,477,RUGENGE,47707,KASONGATI,KAKULAZO A
KIGOMA,47,KAKONKO,477,RUGENGE,47707,KASONGATI,KAKULAZO B
KIGOMA,47,KAKONKO,477,RUGENGE,47707,KASONGATI,KASONGATI A
KIGOMA,47,KAKONKO,477,RUGENGE,47707,KASONGATI,KASONGATI B
KIGOMA,47,KAKONKO,477,RUGENGE,47707,KASONGATI,KUMLAMA
KIGOMA,47,KAKONKO,477,MUHANGE,47708,GWARAMA,VYESATO A
KIGOMA,47,KAKONKO,477,MUHANGE,47708,GWARAMA,VYESATO B
KIGOMA,47,KAKONKO,477,MUHANGE,47708,GWARAMA,SESAMAGEMBE
KIGOMA,47,KAKONKO,477,MUHANGE,47708,GWARAMA,VUGIZO A
KIGOMA,47,KAKONKO,477,MUHANGE,47708,GWARAMA,VUGIZO B
KIGOMA,47,KAKONKO,477,MUHANGE,47708,GWARAMA,VUGIZO C
KIGOMA,47,KAKONKO,477,MUHANGE,47708,GWARAMA,MAJENGO MAPYA
KIGOMA,47,KAKONKO,477,MUHANGE,47708,GWARAMA,KIBIMBA A
KIGOMA,47,KAKONKO,477,MUHANGE,47708,GWARAMA,KIBIMBA B
KIGOMA,47,KAKONKO,477,MUHANGE,47708,GWARAMA,KIBIMBA C
KIGOMA,47,KAKONKO,477,MUHANGE,47708,KABARE,KIVURUGA
KIGOMA,47,KAKONKO,477,MUHANGE,47708,KABARE,KIMANGA
KIGOMA,47,KAKONKO,477,MUHANGE,47708,KABARE,NYARUBUNGO
KIGOMA,47,KAKONKO,477,MUHANGE,47708,KABARE,RUVUMELA
KIGOMA,47,KAKONKO,477,MUHANGE,47708,KABARE,KANYEMBAMBA
KIGOMA,47,KAKONKO,477,MUHANGE,47708,KABARE,KATAHOKWA
KIGOMA,47,KAKONKO,477,MUHANGE,47708,KABARE,MUGEMBEZI
KIGOMA,47,KAKONKO,477,MUHANGE,47708,KABARE,NYABIGOMBO
KIGOMA,47,KAKONKO,477,MUHANGE,47708,KABARE,MIKOBE
KIGOMA,47,KAKONKO,477,MUHANGE,47708,KABARE,NYABIHERE
KIGOMA,47,KAKONKO,477,MUHANGE,47708,MUHANGE,MADUKANI
KIGOMA,47,KAKONKO,477,MUHANGE,47708,MUHANGE,MAGWEZI A
KIGOMA,47,KAKONKO,477,MUHANGE,47708,MUHANGE,MAGWEZI B
KIGOMA,47,KAKONKO,477,MUHANGE,47708,MUHANGE,MUIKOMELO A
KIGOMA,47,KAKONKO,477,MUHANGE,47708,MUHANGE,KAMUGALULA
KIGOMA,47,KAKONKO,477,MUHANGE,47708,MUHANGE,KIVOGA
KIGOMA,47,KAKONKO,477,MUHANGE,47708,MUHANGE,KANYENAMA
KIGOMA,47,KAKONKO,477,MUHANGE,47708,MUHANGE,NYANENGE
KIGOMA,47,KAKONKO,477,MUHANGE,47708,MUHANGE,MUGEMBEZI
KIGOMA,47,KAKONKO,477,MUHANGE,47708,MUHANGE,KANYENTALE
KIGOMA,47,KAKONKO,477,MUHANGE,47708,MUHANGE,KANYENTALE
KIGOMA,47,KAKONKO,477,NYABIBUYE,47709,RUMASHI,KATONGATI
KIGOMA,47,KAKONKO,477,NYABIBUYE,47709,RUMASHI,MWIRUZI
KIGOMA,47,KAKONKO,477,NYABIBUYE,47709,RUMASHI,SANGABANA
KIGOMA,47,KAKONKO,477,NYABIBUYE,47709,RUMASHI,KABINGO
KIGOMA,47,KAKONKO,477,NYABIBUYE,47709,RUMASHI,KALINZI
KIGOMA,47,KAKONKO,477,NYABIBUYE,47709,RUMASHI,KIBUYE
KIGOMA,47,KAKONKO,477,NYABIBUYE,47709,RUMASHI,KADUHA
KIGOMA,47,KAKONKO,477,NYABIBUYE,47709,RUMASHI,KAVUMU A
KIGOMA,47,KAKONKO,477,NYABIBUYE,47709,RUMASHI,KAVUMU B
KIGOMA,47,KAKONKO,477,NYABIBUYE,47709,RUMASHI,KAVUMU C
KIGOMA,47,KAKONKO,477,NYABIBUYE,47709,NYABIBUYE,KITAMO A
KIGOMA,47,KAKONKO,477,NYABIBUYE,47709,NYABIBUYE,KITAMO B
KIGOMA,47,KAKONKO,477,NYABIBUYE,47709,NYABIBUYE,RUBONGO A
KIGOMA,47,KAKONKO,477,NYABIBUYE,47709,NYABIBUYE,RUBONGO B
KIGOMA,47,KAKONKO,477,NYABIBUYE,47709,NYABIBUYE,BUREMBO A
KIGOMA,47,KAKONKO,477,NYABIBUYE,47709,NYABIBUYE,NYABIBUYE A
KIGOMA,47,KAKONKO,477,NYABIBUYE,47709,NYABIBUYE,NYABIBUYE B
KIGOMA,47,KAKONKO,477,NYABIBUYE,47709,NYABIBUYE,NYABIBUYE C
KIGOMA,47,KAKONKO,477,NYABIBUYE,47709,NYABIBUYE,KASHOZA
KIGOMA,47,KAKONKO,477,NYABIBUYE,47709,NYABIBUYE,KIFUNZO
KIGOMA,47,KAKONKO,477,NYABIBUYE,47709,NYAMTUKUZA,MURUHAMA
KIGOMA,47,KAKONKO,477,NYABIBUYE,47709,NYAMTUKUZA,KIRAHINDA
KIGOMA,47,KAKONKO,477,NYABIBUYE,47709,NYAMTUKUZA,MWIRUZI
KIGOMA,47,KAKONKO,477,NYABIBUYE,47709,NYAMTUKUZA,KAHANAMA
KIGOMA,47,KAKONKO,477,NYABIBUYE,47709,NYAMTUKUZA,MURUBANGA
KIGOMA,47,KAKONKO,477,NYABIBUYE,47709,NYAMTUKUZA,MKUYUNI
KIGOMA,47,KAKONKO,477,NYABIBUYE,47709,NYAMTUKUZA,NAKASERO
KIGOMA,47,KAKONKO,477,NYABIBUYE,47709,NYAMTUKUZA,LUGANDO
KIGOMA,47,KAKONKO,477,NYABIBUYE,47709,NYAMTUKUZA,NYAGWONGA
KIGOMA,47,KAKONKO,477,NYABIBUYE,47709,KINYINYA,KAMTUKULA
KIGOMA,47,KAKONKO,477,NYABIBUYE,47709,KINYINYA,MWEMBENI
KIGOMA,47,KAKONKO,477,NYABIBUYE,47709,KINYINYA,UKWELI NA UKWELI
KIGOMA,47,KAKONKO,477,NYABIBUYE,47709,KINYINYA,NYABULIKO
KIGOMA,47,KAKONKO,477,NYABIBUYE,47709,KINYINYA,MAGEUZI
KIGOMA,47,KAKONKO,477,NYABIBUYE,47709,KINYINYA,MUUNGANO
KIGOMA,47,KAKONKO,477,NYABIBUYE,47709,KINYINYA,KUMSUGA
KIGOMA,47,KAKONKO,477,NYABIBUYE,47709,KINYINYA,KUKIHANGA
KIGOMA,47,KAKONKO,477,NYABIBUYE,47709,KINYINYA,MAPAMBANO
KIGOMA,47,KAKONKO,477,NYABIBUYE,47709,KINYINYA,KUMKOMAKOMA
KIGOMA,47,KAKONKO,477,NYABIBUYE,47709,CHUZARO,MWONGOZO
KIGOMA,47,KAKONKO,477,NYABIBUYE,47709,CHUZARO,KIFUNZO A
KIGOMA,47,KAKONKO,477,NYABIBUYE,47709,CHUZARO,KIFUNZO B
KIGOMA,47,KAKONKO,477,NYABIBUYE,47709,CHUZARO,KUMKERI
KIGOMA,47,KAKONKO,477,NYABIBUYE,47709,CHUZARO,SONGAMBELE
KIGOMA,47,KAKONKO,477,NYABIBUYE,47709,CHUZARO,KAZANA
KIGOMA,47,KAKONKO,477,NYABIBUYE,47709,CHUZARO,TULIZANA
KIGOMA,47,KAKONKO,477,NYABIBUYE,47709,CHUZARO,KITAHANA
KIGOMA,47,KAKONKO,477,NYABIBUYE,47709,CHUZARO,LEGEZAMWENDO
KIGOMA,47,KAKONKO,477,NYABIBUYE,47709,CHUZARO,KUMULEMELE
