REGION,POSTCODE,DISTRICT,POSTCODE,WARD,POSTCODE,STREET,PLACES
KILIMANJARO,25,MOSHI CBD,251,MAWENZI,25101,HINDU,
KILIMANJARO,25,MOSHI CBD,251,MAWENZI,25101,MAWENZI,
KILIMANJARO,25,MOSHI CBD,251,KILIMANJARO,25102,KILIMANJARO,
KILIMANJARO,25,MOSHI CBD,251,KILIMANJARO,25102,MAKONGORO,
KILIMANJARO,25,MOSHI CBD,251,KILIMANJARO,25102,MAWENZI,
KILIMANJARO,25,MOSHI CBD,251,RAU,25103,KARIKACHA,
KILIMANJARO,25,MOSHI CBD,251,RAU,25103,KARIWA CHINI,
KILIMANJARO,25,MOSHI CBD,251,RAU,25103,SABASABA,
KILIMANJARO,25,MOSHI CBD,251,MAJENGO,25104,SOKONI,
KILIMANJARO,25,MOSHI CBD,251,MAJENGO,25104,MAKANGE,
KILIMANJARO,25,MOSHI CBD,251,MAJENGO,25104,SHAURIMOYO,
KILIMANJARO,25,MOSHI CBD,251,NJORO,25105,DOBI,
KILIMANJARO,25,MOSHI CBD,251,NJORO,25105,RAILWAY,
KILIMANJARO,25,MOSHI CBD,251,NJORO,25105,SOKONI,
KILIMANJARO,25,MOSHI CBD,251,NJORO,25105,VIWANDA,
KILIMANJARO,25,MOSHI CBD,251,BONDENI,25106,MBUYUNI,
KILIMANJARO,25,MOSHI CBD,251,BONDENI,25106,SOKONI,
KILIMANJARO,25,MOSHI CBD,251,KIUSA,25107,KIUSA SOKONI,
KILIMANJARO,25,MOSHI CBD,251,KIUSA,25107,KIUSA LINE,
KILIMANJARO,25,MOSHI CBD,251,KORONGONI,25108,KORONGONI,
KILIMANJARO,25,MOSHI CBD,251,KORONGONI,25108,VIJANA,
KILIMANJARO,25,MOSHI CBD,251,KORONGONI,25108,VIWANDA,
KILIMANJARO,25,MOSHI CBD,251,PASUA,25109,MAJENGO MAPYA,
KILIMANJARO,25,MOSHI CBD,251,PASUA,25109,GETI FONGA,
KILIMANJARO,25,MOSHI CBD,251,PASUA,25109,MATINDIGANI,
KILIMANJARO,25,MOSHI CBD,251,KALOLENI,25110,KALIMANI,
KILIMANJARO,25,MOSHI CBD,251,KALOLENI,25110,KALOLENI,
KILIMANJARO,25,MOSHI CBD,251,MJI MPYA,25111,KWA KOMBA,
KILIMANJARO,25,MOSHI CBD,251,MJI MPYA,25111,KWA MTEI,
KILIMANJARO,25,MOSHI CBD,251,MJI MPYA,25111,LANGONI,
KILIMANJARO,25,MOSHI CBD,251,MJI MPYA,25111,SOKONI,
KILIMANJARO,25,MOSHI CBD,251,MSARANGA,25112,MSARANGA,
KILIMANJARO,25,MOSHI CBD,251,MSARANGA,25112,MSUFINI,
KILIMANJARO,25,MOSHI CBD,251,MSARANGA,25112,RAUYA,
KILIMANJARO,25,MOSHI CBD,251,KIBORLONI,25113,KDC,
KILIMANJARO,25,MOSHI CBD,251,KIBORLONI,25113,MNAZI MMOJA,
KILIMANJARO,25,MOSHI CBD,251,KIBORLONI,25113,SOKONI,
KILIMANJARO,25,MOSHI CBD,251,SOWETO,25114,SABASABA,
KILIMANJARO,25,MOSHI CBD,251,SOWETO,25114,WAILES,
KILIMANJARO,25,MOSHI CBD,251,SOWETO,25114,KHAMBAITA,
KILIMANJARO,25,MOSHI CBD,251,KARANGA,25115,MAGEREZA,
KILIMANJARO,25,MOSHI CBD,251,KARANGA,25115,KATANINI,
KILIMANJARO,25,MOSHI CBD,251,LONGUO,25116,KATI,
KILIMANJARO,25,MOSHI CBD,251,LONGUO,25116,KIBO,
KILIMANJARO,25,MOSHI CBD,251,LONGUO,25116,KITANDU,
KILIMANJARO,25,MOSHI CBD,251,MIEMBENI,25117,MIEMBENI,
KILIMANJARO,25,MOSHI CBD,251,MIEMBENI,25117,ARABICA,
KILIMANJARO,25,MOSHI CBD,251,MIEMBENI,25117,MJI MWEMA,
KILIMANJARO,25,MOSHI CBD,251,NG'AMBO,25118,MNAZI,
KILIMANJARO,25,MOSHI CBD,251,NG'AMBO,25118,LOMBETA,
KILIMANJARO,25,MOSHI CBD,251,NG'AMBO,25118,NG'AMBO,
KILIMANJARO,25,MOSHI CBD,251,SHIRIMATUNDA,25119,KIGONGONI,
KILIMANJARO,25,MOSHI CBD,251,SHIRIMATUNDA,25119,BONITE,
KILIMANJARO,25,MOSHI CBD,251,BOMAMBUZI,25120,BOMAMBUZI,
KILIMANJARO,25,MOSHI CBD,251,BOMAMBUZI,25120,SOKONI,
KILIMANJARO,25,MOSHI CBD,251,BOMAMBUZI,25120,KILIMANI,
KILIMANJARO,25,MOSHI CBD,251,BOMAMBUZI,25120,KANISANI,
KILIMANJARO,25,MOSHI CBD,251,BOMAMBUZI,25120,RELINI,
KILIMANJARO,25,MOSHI CBD,251,MFUMUNI,25121,MWERENI,
KILIMANJARO,25,MOSHI CBD,251,MFUMUNI,25121,USHIRIKA,
KILIMANJARO,25,MOSHI,252,MABOGINI,25201,CHEKERENI,MAKAO MAKUU
KILIMANJARO,25,MOSHI,252,MABOGINI,25201,CHEKERENI,CHEKERENI
KILIMANJARO,25,MOSHI,252,MABOGINI,25201,CHEKERENI,CHEKERENI RELINI
KILIMANJARO,25,MOSHI,252,MABOGINI,25201,CHEKERENI,MTAA WA WAURU
KILIMANJARO,25,MOSHI,252,MABOGINI,25201,MABOGINI,BOGINI JUU
KILIMANJARO,25,MOSHI,252,MABOGINI,25201,MABOGINI,HARUSINI
KILIMANJARO,25,MOSHI,252,MABOGINI,25201,MABOGINI,MPIRANI
KILIMANJARO,25,MOSHI,252,MABOGINI,25201,MABOGINI,MIJOHORONI
KILIMANJARO,25,MOSHI,252,MABOGINI,25201,MABOGINI,SANYA LINE ‘A
KILIMANJARO,25,MOSHI,252,MABOGINI,25201,MABOGINI,SANYA LINE ‘ B
KILIMANJARO,25,MOSHI,252,MABOGINI,25201,MABOGINI,SHABAHA
KILIMANJARO,25,MOSHI,252,MABOGINI,25201,MABOGINI,RAU MSHUFINI
KILIMANJARO,25,MOSHI,252,MABOGINI,25201,MABOGINI,SHULENI
KILIMANJARO,25,MOSHI,252,MABOGINI,25201,MTAKUJA,MABATINI
KILIMANJARO,25,MOSHI,252,MABOGINI,25201,MTAKUJA,RISAAVU
KILIMANJARO,25,MOSHI,252,MABOGINI,25201,MTAKUJA,JOSHO
KILIMANJARO,25,MOSHI,252,MABOGINI,25201,MTAKUJA,UPARENI
KILIMANJARO,25,MOSHI,252,MABOGINI,25201,MSEREKIA,REMITI
KILIMANJARO,25,MOSHI,252,MABOGINI,25201,MSEREKIA,MBEYA NDOGO
KILIMANJARO,25,MOSHI,252,MABOGINI,25201,MSEREKIA,MKWAJUNI
KILIMANJARO,25,MOSHI,252,MABOGINI,25201,MSEREKIA,MAFURIKO
KILIMANJARO,25,MOSHI,252,MABOGINI,25201,MSEREKIA,MBEYA KUBWA
KILIMANJARO,25,MOSHI,252,MABOGINI,25201,MUUNGANO,URU
KILIMANJARO,25,MOSHI,252,MABOGINI,25201,MUUNGANO,RELINI
KILIMANJARO,25,MOSHI,252,MABOGINI,25201,MUUNGANO,MWAMKO
KILIMANJARO,25,MOSHI,252,MABOGINI,25201,MUUNGANO,JITEGEMEE
KILIMANJARO,25,MOSHI,252,MABOGINI,25201,MUUNGANO,UJAMAA
KILIMANJARO,25,MOSHI,252,MABOGINI,25201,MAENDELEO,MAJENGO
KILIMANJARO,25,MOSHI,252,MABOGINI,25201,MAENDELEO,MSHIKAMANO
KILIMANJARO,25,MOSHI,252,MABOGINI,25201,MAENDELEO,KIBOSHO
KILIMANJARO,25,MOSHI,252,MABOGINI,25201,MAENDELEO,UARUSHANI
KILIMANJARO,25,MOSHI,252,MABOGINI,25201,MAENDELEO,NGUVUKAZI
KILIMANJARO,25,MOSHI,252,MABOGINI,25201,MJI MPYA,UJAMAA
KILIMANJARO,25,MOSHI,252,MABOGINI,25201,MJI MPYA,MADUKANI
KILIMANJARO,25,MOSHI,252,MABOGINI,25201,MJI MPYA,UTAMADUNI
KILIMANJARO,25,MOSHI,252,MABOGINI,25201,MJI MPYA,AZIMIO
KILIMANJARO,25,MOSHI,252,MABOGINI,25201,MJI MPYA,SHIRIKISHO
KILIMANJARO,25,MOSHI,252,MABOGINI,25201,MVULENI,MAPINDUZI
KILIMANJARO,25,MOSHI,252,MABOGINI,25201,MVULENI,MUUNGANO
KILIMANJARO,25,MOSHI,252,MABOGINI,25201,MVULENI,UHURU
KILIMANJARO,25,MOSHI,252,MABOGINI,25201,MVULENI,USALAMA
KILIMANJARO,25,MOSHI,252,KIMOCHI,25202,SANGO,KIFERENI
KILIMANJARO,25,MOSHI,252,KIMOCHI,25202,SANGO,MKOMA
KILIMANJARO,25,MOSHI,252,KIMOCHI,25202,SANGO,KILONGOYO
KILIMANJARO,25,MOSHI,252,KIMOCHI,25202,SANGO,KIWAKIA
KILIMANJARO,25,MOSHI,252,KIMOCHI,25202,SANGO,LUWANSI
KILIMANJARO,25,MOSHI,252,KIMOCHI,25202,SANGO,KOMUMBE
KILIMANJARO,25,MOSHI,252,KIMOCHI,25202,MDAWI,KUMBELE
KILIMANJARO,25,MOSHI,252,KIMOCHI,25202,MDAWI,NGASINI
KILIMANJARO,25,MOSHI,252,KIMOCHI,25202,MDAWI,HUYAKIMKOMBO
KILIMANJARO,25,MOSHI,252,KIMOCHI,25202,MDAWI,KITIMBILIHU
KILIMANJARO,25,MOSHI,252,KIMOCHI,25202,MDAWI,SELAMENGE
KILIMANJARO,25,MOSHI,252,KIMOCHI,25202,MDAWI,KOMFURU
KILIMANJARO,25,MOSHI,252,KIMOCHI,25202,SHIA,UUENI
KILIMANJARO,25,MOSHI,252,KIMOCHI,25202,SHIA,MAMULOSA
KILIMANJARO,25,MOSHI,252,KIMOCHI,25202,SHIA,LAMU
KILIMANJARO,25,MOSHI,252,KIMOCHI,25202,SHIA,KIRERENI
KILIMANJARO,25,MOSHI,252,KIMOCHI,25202,SHIA,MFUKONI
KILIMANJARO,25,MOSHI,252,KIMOCHI,25202,SHIA,MAJENGO
KILIMANJARO,25,MOSHI,252,KIMOCHI,25202,SHIA,KAMITI
KILIMANJARO,25,MOSHI,252,KIMOCHI,25202,MOWO,PICHINI
KILIMANJARO,25,MOSHI,252,KIMOCHI,25202,MOWO,LYANGOROKO
KILIMANJARO,25,MOSHI,252,KIMOCHI,25202,MOWO,MALIASELI
KILIMANJARO,25,MOSHI,252,KIMOCHI,25202,MOWO,NDOLAWENI
KILIMANJARO,25,MOSHI,252,KIMOCHI,25202,MOWO,KUULAHEMBE
KILIMANJARO,25,MOSHI,252,KIMOCHI,25202,KISASENI,HUYAMKOMBO
KILIMANJARO,25,MOSHI,252,KIMOCHI,25202,KISASENI,KITIMBIRINI
KILIMANJARO,25,MOSHI,252,KIMOCHI,25202,KISASENI,NGASINYI
KILIMANJARO,25,MOSHI,252,KIMOCHI,25202,KISASENI,MENGENI
KILIMANJARO,25,MOSHI,252,KIMOCHI,25202,KISASENI,SAHAA
KILIMANJARO,25,MOSHI,252,KIMOCHI,25202,LYAKOMBILA,MALYASENI
KILIMANJARO,25,MOSHI,252,KIMOCHI,25202,LYAKOMBILA,MRAHEMBE
KILIMANJARO,25,MOSHI,252,KIMOCHI,25202,LYAKOMBILA,NDOROWENI
KILIMANJARO,25,MOSHI,252,KIMOCHI,25202,LYAKOMBILA,KILYAROHO
KILIMANJARO,25,MOSHI,252,OLD MOSHI MASHARIKI,25203,TSUDUNI,KICHUNGUNI
KILIMANJARO,25,MOSHI,252,OLD MOSHI MASHARIKI,25203,TSUDUNI,KYOHUO
KILIMANJARO,25,MOSHI,252,OLD MOSHI MASHARIKI,25203,TSUDUNI,NGASINYI
KILIMANJARO,25,MOSHI,252,OLD MOSHI MASHARIKI,25203,KIKARARA,MAEMBENI
KILIMANJARO,25,MOSHI,252,OLD MOSHI MASHARIKI,25203,KIKARARA,MODONI
KILIMANJARO,25,MOSHI,252,OLD MOSHI MASHARIKI,25203,KIKARARA,KITAHIYE
KILIMANJARO,25,MOSHI,252,OLD MOSHI MASHARIKI,25203,KIKARARA,MUMINI
KILIMANJARO,25,MOSHI,252,OLD MOSHI MASHARIKI,25203,KIKARARA,MAKOMBA
KILIMANJARO,25,MOSHI,252,OLD MOSHI MASHARIKI,25203,MAHOMA,NGALACHU
KILIMANJARO,25,MOSHI,252,OLD MOSHI MASHARIKI,25203,MAHOMA,KISERECHA
KILIMANJARO,25,MOSHI,252,OLD MOSHI MASHARIKI,25203,MAHOMA,MENYERI
KILIMANJARO,25,MOSHI,252,OLD MOSHI MASHARIKI,25203,MAHOMA,MAKITIHA
KILIMANJARO,25,MOSHI,252,OLD MOSHI MASHARIKI,25203,KIDIA,MALISENI
KILIMANJARO,25,MOSHI,252,OLD MOSHI MASHARIKI,25203,KIDIA,MSHIUNI
KILIMANJARO,25,MOSHI,252,OLD MOSHI MASHARIKI,25203,KIDIA,KIRAMA
KILIMANJARO,25,MOSHI,252,OLD MOSHI MASHARIKI,25203,KIDIA,MAKYARENI
KILIMANJARO,25,MOSHI,252,OLD MOSHI MASHARIKI,25203,KIDIA,KIMARINI
KILIMANJARO,25,MOSHI,252,OLD MOSHI MASHARIKI,25203,KIDIA,KISANGADA
KILIMANJARO,25,MOSHI,252,OLD MOSHI MASHARIKI,25203,KIDIA,KIFUMVU
KILIMANJARO,25,MOSHI,252,OLD MOSHI MAGHARIBI,25204,TELLA,OSMON
KILIMANJARO,25,MOSHI,252,OLD MOSHI MAGHARIBI,25204,TELLA,MORI
KILIMANJARO,25,MOSHI,252,OLD MOSHI MAGHARIBI,25204,TELLA,ORU
KILIMANJARO,25,MOSHI,252,OLD MOSHI MAGHARIBI,25204,MANDE,KITELA
KILIMANJARO,25,MOSHI,252,OLD MOSHI MAGHARIBI,25204,MANDE,OSUMUURA
KILIMANJARO,25,MOSHI,252,OLD MOSHI MAGHARIBI,25204,MANDE,KIREMBENI
KILIMANJARO,25,MOSHI,252,OLD MOSHI MAGHARIBI,25204,MANDE,MARINGENI
KILIMANJARO,25,MOSHI,252,OLD MOSHI MAGHARIBI,25204,MANDE,MAKUPA
KILIMANJARO,25,MOSHI,252,OLD MOSHI MAGHARIBI,25204,MANDAKA MNONO,MWANANGURUWE
KILIMANJARO,25,MOSHI,252,OLD MOSHI MAGHARIBI,25204,MANDAKA MNONO,MWANASOTA
KILIMANJARO,25,MOSHI,252,OLD MOSHI MAGHARIBI,25204,MANDAKA MNONO,MNONO KATI
KILIMANJARO,25,MOSHI,252,OLD MOSHI MAGHARIBI,25204,MANDAKA MNONO,USWAHILINI
KILIMANJARO,25,MOSHI,252,OLD MOSHI MAGHARIBI,25204,MANDAKA MNONO,SANINGO
KILIMANJARO,25,MOSHI,252,URU KUSINI,25205,LONGUO 'A',USHARIKA WA NEEMA
KILIMANJARO,25,MOSHI,252,URU KUSINI,25205,LONGUO 'A',KARUME
KILIMANJARO,25,MOSHI,252,URU KUSINI,25205,LONGUO 'A',MONGOYA
KILIMANJARO,25,MOSHI,252,URU KUSINI,25205,OKASENI,OKASENI CHINI
KILIMANJARO,25,MOSHI,252,URU KUSINI,25205,OKASENI,OKASENI KATI
KILIMANJARO,25,MOSHI,252,URU KUSINI,25205,OKASENI,OKASENI JUU
KILIMANJARO,25,MOSHI,252,URU KUSINI,25205,KARIWA,KARIWA KASKAZINI
KILIMANJARO,25,MOSHI,252,URU KUSINI,25205,KARIWA,KARIWA KATI
KILIMANJARO,25,MOSHI,252,URU KUSINI,25205,KARIWA,KARIWA KUSINI
KILIMANJARO,25,MOSHI,252,URU KUSINI,25205,RAU,PANGALENI
KILIMANJARO,25,MOSHI,252,URU KUSINI,25205,RAU,MRUKUTU
KILIMANJARO,25,MOSHI,252,URU KUSINI,25205,KITANDU,MKWALENI
KILIMANJARO,25,MOSHI,252,URU KUSINI,25205,KITANDU,KIFUMBU
KILIMANJARO,25,MOSHI,252,URU KUSINI,25205,KITANDU,KISOMBOKO
KILIMANJARO,25,MOSHI,252,URU KUSINI,25205,KIMANGANUNI,KIMANGANUNI JUU
KILIMANJARO,25,MOSHI,252,URU KUSINI,25205,KIMANGANUNI,KIMANGANUNI KATI.
KILIMANJARO,25,MOSHI,252,URU KUSINI,25205,KIMANGANUNI,KIMANGANUNI CHINI.
KILIMANJARO,25,MOSHI,252,URU KUSINI,25205,SHINGA,SHINGA
KILIMANJARO,25,MOSHI,252,URU KUSINI,25205,SHINGA,KITONGORO
KILIMANJARO,25,MOSHI,252,URU KUSINI,25205,SHINGA,MINJA
KILIMANJARO,25,MOSHI,252,URU MASHARIKI,25206,MATERUNI,KITERINI JUU
KILIMANJARO,25,MOSHI,252,URU MASHARIKI,25206,MATERUNI,KITERINI CHINI
KILIMANJARO,25,MOSHI,252,URU MASHARIKI,25206,MATERUNI,KITOWO JUU
KILIMANJARO,25,MOSHI,252,URU MASHARIKI,25206,MATERUNI,KITOWO CHINI
KILIMANJARO,25,MOSHI,252,URU MASHARIKI,25206,MATERUNI,WONDO
KILIMANJARO,25,MOSHI,252,URU MASHARIKI,25206,MRUWIA,MINJENI
KILIMANJARO,25,MOSHI,252,URU MASHARIKI,25206,MRUWIA,CHUWENI
KILIMANJARO,25,MOSHI,252,URU MASHARIKI,25206,MRUWIA,MTALONI
KILIMANJARO,25,MOSHI,252,URU MASHARIKI,25206,MRUWIA,NJAUNI
KILIMANJARO,25,MOSHI,252,URU MASHARIKI,25206,KYASENI,PALA
KILIMANJARO,25,MOSHI,252,URU MASHARIKI,25206,KYASENI,LYAWELA
KILIMANJARO,25,MOSHI,252,URU MASHARIKI,25206,KYASENI,ORIONI
KILIMANJARO,25,MOSHI,252,URU MASHARIKI,25206,KYASENI,NJAUNI
KILIMANJARO,25,MOSHI,252,URU MASHARIKI,25206,MNINI,USAWINI
KILIMANJARO,25,MOSHI,252,URU MASHARIKI,25206,MNINI,MOLANGI
KILIMANJARO,25,MOSHI,252,URU MASHARIKI,25206,MNINI,KYARONGA
KILIMANJARO,25,MOSHI,252,URU MASHARIKI,25206,MNINI,NERUO
KILIMANJARO,25,MOSHI,252,URU MASHARIKI,25206,MNINI,MACHOMBO
KILIMANJARO,25,MOSHI,252,URU MASHARIKI,25206,MNINI,MANJARO
KILIMANJARO,25,MOSHI,252,URU MASHARIKI,25206,KISHUMUNDU,KISHUMUNDU KATI
KILIMANJARO,25,MOSHI,252,URU MASHARIKI,25206,KISHUMUNDU,SERAMFO
KILIMANJARO,25,MOSHI,252,URU MASHARIKI,25206,KISHUMUNDU,KIKOWONI
KILIMANJARO,25,MOSHI,252,URU MASHARIKI,25206,KISHUMUNDU,KIFUMBU
KILIMANJARO,25,MOSHI,252,URU MASHARIKI,25206,KISHUMUNDU,MARARONI
KILIMANJARO,25,MOSHI,252,URU MASHARIKI,25206,KISHUMUNDU,KIFUNI
KILIMANJARO,25,MOSHI,252,URU MASHARIKI,25206,KISHUMUNDU,NGANYENI
KILIMANJARO,25,MOSHI,252,URU MASHARIKI,25206,KISHUMUNDU,NDISHINI
KILIMANJARO,25,MOSHI,252,URU MASHARIKI,25206,KISHUMUNDU,MSUKO
KILIMANJARO,25,MOSHI,252,URU MASHARIKI,25206,MWASI KASKAZINI,MRIA
KILIMANJARO,25,MOSHI,252,URU MASHARIKI,25206,MWASI KASKAZINI,TSUDUNI
KILIMANJARO,25,MOSHI,252,URU MASHARIKI,25206,MWASI KASKAZINI,MSINANGONI
KILIMANJARO,25,MOSHI,252,URU MASHARIKI,25206,MWASI KASKAZINI,KIFUMBU
KILIMANJARO,25,MOSHI,252,URU MASHARIKI,25206,MWASI KASKAZINI,MSESEWENI
KILIMANJARO,25,MOSHI,252,URU MASHARIKI,25206,MWASI KASKAZINI,KWARIMU
KILIMANJARO,25,MOSHI,252,URU MASHARIKI,25206,MWASI KUSINI,MAMBOLEO
KILIMANJARO,25,MOSHI,252,URU MASHARIKI,25206,MWASI KUSINI,MWITINI
KILIMANJARO,25,MOSHI,252,URU MASHARIKI,25206,MWASI KUSINI,SERAMFO
KILIMANJARO,25,MOSHI,252,URU MASHARIKI,25206,MWASI KUSINI,KIKOWONI
KILIMANJARO,25,MOSHI,252,URU MASHARIKI,25206,MWASI KUSINI,SANGENI
KILIMANJARO,25,MOSHI,252,URU MASHARIKI,25206,MWASI KUSINI,MAMONDO
KILIMANJARO,25,MOSHI,252,URU KASKAZINI,25207,MSUNI,WASALE
KILIMANJARO,25,MOSHI,252,URU KASKAZINI,25207,MSUNI,KYASENI
KILIMANJARO,25,MOSHI,252,URU KASKAZINI,25207,MSUNI,TAWINGO
KILIMANJARO,25,MOSHI,252,URU KASKAZINI,25207,ONGOMA,ONGOMA KUSINI
KILIMANJARO,25,MOSHI,252,URU KASKAZINI,25207,ONGOMA,ONGOMA MAMBA
KILIMANJARO,25,MOSHI,252,URU KASKAZINI,25207,ONGOMA,MANOSHI
KILIMANJARO,25,MOSHI,252,URU KASKAZINI,25207,MRAWI,KIRISHI
KILIMANJARO,25,MOSHI,252,URU KASKAZINI,25207,MRAWI,KISIMENI
KILIMANJARO,25,MOSHI,252,URU KASKAZINI,25207,MRAWI,SHINGA
KILIMANJARO,25,MOSHI,252,URU KASKAZINI,25207,NJARI,KYAURINDE
KILIMANJARO,25,MOSHI,252,URU KASKAZINI,25207,NJARI,NJARI WAMI
KILIMANJARO,25,MOSHI,252,URU KASKAZINI,25207,NJARI,WAMI
KILIMANJARO,25,MOSHI,252,URU KASKAZINI,25207,NJARI,RONONI ONGO
KILIMANJARO,25,MOSHI,252,URU SHIMBWE,25208,SHIMBWE JUU,TESHENI
KILIMANJARO,25,MOSHI,252,URU SHIMBWE,25208,SHIMBWE JUU,KOWERE
KILIMANJARO,25,MOSHI,252,URU SHIMBWE,25208,SHIMBWE JUU,NGARUMA
KILIMANJARO,25,MOSHI,252,URU SHIMBWE,25208,SHIMBWE CHINI,KIREIYO
KILIMANJARO,25,MOSHI,252,URU SHIMBWE,25208,SHIMBWE CHINI,SIA
KILIMANJARO,25,MOSHI,252,URU SHIMBWE,25208,SHIMBWE CHINI,SHIMBWE KATI
KILIMANJARO,25,MOSHI,252,URU SHIMBWE,25208,SHIMBWE CHINI,TEMBENI
KILIMANJARO,25,MOSHI,252,MBOKOMU,25209,KORINI JUU,BAMBUU
KILIMANJARO,25,MOSHI,252,MBOKOMU,25209,KORINI JUU,MARANA
KILIMANJARO,25,MOSHI,252,MBOKOMU,25209,KORINI JUU,FUKENI
KILIMANJARO,25,MOSHI,252,MBOKOMU,25209,KORINI JUU,MMBEDE
KILIMANJARO,25,MOSHI,252,MBOKOMU,25209,KORINI JUU,KYARONI
KILIMANJARO,25,MOSHI,252,MBOKOMU,25209,KORINI KUSINI,KIWALAA
KILIMANJARO,25,MOSHI,252,MBOKOMU,25209,KORINI KUSINI,MACHADI
KILIMANJARO,25,MOSHI,252,MBOKOMU,25209,KORINI KUSINI,KASKAZINI
KILIMANJARO,25,MOSHI,252,MBOKOMU,25209,KORINI KUSINI,MACHADI KUSINI
KILIMANJARO,25,MOSHI,252,MBOKOMU,25209,KORINI KUSINI,MANAMBENI
KILIMANJARO,25,MOSHI,252,MBOKOMU,25209,KORINI KUSINI,RAU KDC
KILIMANJARO,25,MOSHI,252,MBOKOMU,25209,KORINI KUSINI,MPIRANI
KILIMANJARO,25,MOSHI,252,MBOKOMU,25209,KORINI KUSINI,NG`ONE
KILIMANJARO,25,MOSHI,252,MBOKOMU,25209,TEMA,MAEDENI
KILIMANJARO,25,MOSHI,252,MBOKOMU,25209,TEMA,FOYENI
KILIMANJARO,25,MOSHI,252,MBOKOMU,25209,TEMA,KIMAMBONI
KILIMANJARO,25,MOSHI,252,MBOKOMU,25209,TEMA,MWIKA
KILIMANJARO,25,MOSHI,252,MBOKOMU,25209,TEMA,TEMA
KILIMANJARO,25,MOSHI,252,MBOKOMU,25209,KORINI KATI,SHIMBO MARANA
KILIMANJARO,25,MOSHI,252,MBOKOMU,25209,KORINI KATI,SAHONI
KILIMANJARO,25,MOSHI,252,MBOKOMU,25209,KORINI KATI,KIU
KILIMANJARO,25,MOSHI,252,ARUSHA CHINI,25210,CHEMCHEM,KIJIJINI
KILIMANJARO,25,MOSHI,252,ARUSHA CHINI,25210,CHEMCHEM,MISWAKINI
KILIMANJARO,25,MOSHI,252,ARUSHA CHINI,25210,CHEMCHEM,FORODHANI
KILIMANJARO,25,MOSHI,252,ARUSHA CHINI,25210,CHEMCHEM,CHAMBOGO
KILIMANJARO,25,MOSHI,252,ARUSHA CHINI,25210,CHEMCHEM,MAJENGO
KILIMANJARO,25,MOSHI,252,ARUSHA CHINI,25210,MIKOCHENI,MIKOCHENI ‘ A
KILIMANJARO,25,MOSHI,252,ARUSHA CHINI,25210,MIKOCHENI,MIKOCHENI ‘ B
KILIMANJARO,25,MOSHI,252,ARUSHA CHINI,25210,MIKOCHENI,MASAINI
KILIMANJARO,25,MOSHI,252,ARUSHA CHINI,25210,MIKOCHENI,KIRUNGU
KILIMANJARO,25,MOSHI,252,KIBOSHO KIRIMA,25211,KIRIMA JUU,ISIYE KASKAZINI
KILIMANJARO,25,MOSHI,252,KIBOSHO KIRIMA,25211,KIRIMA JUU,ISIYE KUSINI
KILIMANJARO,25,MOSHI,252,KIBOSHO KIRIMA,25211,KIRIMA JUU,KARANGA KUSINI
KILIMANJARO,25,MOSHI,252,KIBOSHO KIRIMA,25211,KIRIMA JUU,KARANGA KASKAZINI
KILIMANJARO,25,MOSHI,252,KIBOSHO KIRIMA,25211,KIRIMA KATI,KIDACHINI
KILIMANJARO,25,MOSHI,252,KIBOSHO KIRIMA,25211,KIRIMA KATI,NGIRINI
KILIMANJARO,25,MOSHI,252,KIBOSHO KIRIMA,25211,KIRIMA KATI,MASOKA
KILIMANJARO,25,MOSHI,252,KIBOSHO KIRIMA,25211,BORO,BORO CHINI
KILIMANJARO,25,MOSHI,252,KIBOSHO KIRIMA,25211,BORO,BORO JUU
KILIMANJARO,25,MOSHI,252,KIBOSHO KIRIMA,25211,BORO,BORO KATI
KILIMANJARO,25,MOSHI,252,KIBOSHO KIRIMA,25211,BORO,SANGITI
KILIMANJARO,25,MOSHI,252,KINDI,25212,KINDI,KISOMOWO
KILIMANJARO,25,MOSHI,252,KINDI,25212,KINDI,IRUWA
KILIMANJARO,25,MOSHI,252,KINDI,25212,KINDI,DUNGI
KILIMANJARO,25,MOSHI,252,KINDI,25212,KINDI,NGANGU
KILIMANJARO,25,MOSHI,252,KINDI,25212,KINDI,KINAMIRI
KILIMANJARO,25,MOSHI,252,KINDI,25212,KINDI,NGAYO
KILIMANJARO,25,MOSHI,252,KINDI,25212,KINDI MSASANI,POSTA
KILIMANJARO,25,MOSHI,252,KINDI,25212,KINDI MSASANI,KERYA
KILIMANJARO,25,MOSHI,252,KINDI,25212,KINDI MSASANI,MVULENI
KILIMANJARO,25,MOSHI,252,KINDI,25212,KINDI MSASANI,KATANINI
KILIMANJARO,25,MOSHI,252,KINDI,25212,CHEKERENI WERUWERU,KATANINI
KILIMANJARO,25,MOSHI,252,KINDI,25212,CHEKERENI WERUWERU,MIEMBENI
KILIMANJARO,25,MOSHI,252,KINDI,25212,CHEKERENI WERUWERU,RELINI
KILIMANJARO,25,MOSHI,252,KINDI,25212,CHEKERENI WERUWERU,BOMBANI
KILIMANJARO,25,MOSHI,252,KINDI,25212,CHEKERENI WERUWERU,KISIWANI
KILIMANJARO,25,MOSHI,252,KINDI,25212,SAMBARAI,MARY BENET
KILIMANJARO,25,MOSHI,252,KINDI,25212,SAMBARAI,KIMARORONI
KILIMANJARO,25,MOSHI,252,KINDI,25212,SAMBARAI,EKA
KILIMANJARO,25,MOSHI,252,KINDI,25212,KINDI JUU,OSHINI
KILIMANJARO,25,MOSHI,252,KINDI,25212,KINDI JUU,KIMALA
KILIMANJARO,25,MOSHI,252,KINDI,25212,KINDI JUU,KYAROWI
KILIMANJARO,25,MOSHI,252,KINDI,25212,KINDI JUU,KITOMAEMBE
KILIMANJARO,25,MOSHI,252,KIBOSHO OKAONI,25213,OMARINI,OSAKI
KILIMANJARO,25,MOSHI,252,KIBOSHO OKAONI,25213,OMARINI,MONUNI
KILIMANJARO,25,MOSHI,252,KIBOSHO OKAONI,25213,OMARINI,KIWERA
KILIMANJARO,25,MOSHI,252,KIBOSHO OKAONI,25213,OMARINI,SINDE YA MMARI
KILIMANJARO,25,MOSHI,252,KIBOSHO OKAONI,25213,OMARINI,KOMBOKO
KILIMANJARO,25,MOSHI,252,KIBOSHO OKAONI,25213,OMARINI,MKUMU
KILIMANJARO,25,MOSHI,252,KIBOSHO OKAONI,25213,KITANDU,WASA
KILIMANJARO,25,MOSHI,252,KIBOSHO OKAONI,25213,KITANDU,KOLILA
KILIMANJARO,25,MOSHI,252,KIBOSHO OKAONI,25213,KITANDU,MALANJA
KILIMANJARO,25,MOSHI,252,KIBOSHO OKAONI,25213,MLOE,MANGO
KILIMANJARO,25,MOSHI,252,KIBOSHO OKAONI,25213,MLOE,MRINGENI
KILIMANJARO,25,MOSHI,252,KIBOSHO OKAONI,25213,MLOE,MRINANGAONI
KILIMANJARO,25,MOSHI,252,KIBOSHO OKAONI,25213,SISAMARO,MARO
KILIMANJARO,25,MOSHI,252,KIBOSHO OKAONI,25213,SISAMARO,KYARENI
KILIMANJARO,25,MOSHI,252,KIBOSHO OKAONI,25213,SISAMARO,SISA
KILIMANJARO,25,MOSHI,252,KIBOSHO OKAONI,25213,DAKAU,NKONYAKU
KILIMANJARO,25,MOSHI,252,KIBOSHO OKAONI,25213,DAKAU,DAKAU KATI
KILIMANJARO,25,MOSHI,252,KIBOSHO OKAONI,25213,DAKAU,MAEMBE
KILIMANJARO,25,MOSHI,252,KIBOSHO OKAONI,25213,MKOMILO,SAWE
KILIMANJARO,25,MOSHI,252,KIBOSHO OKAONI,25213,MKOMILO,MKOSHAU
KILIMANJARO,25,MOSHI,252,KIBOSHO OKAONI,25213,MKOMILO,MKOMILO
KILIMANJARO,25,MOSHI,252,KIBOSHO OKAONI,25213,MKOMILO,SISA
KILIMANJARO,25,MOSHI,252,KIBOSHO OKAONI,25213,MKOMILO,KINANGALO
KILIMANJARO,25,MOSHI,252,KIBOSHO KATI,25214,URI,URI
KILIMANJARO,25,MOSHI,252,KIBOSHO KATI,25214,URI,MASESEWENI JUU
KILIMANJARO,25,MOSHI,252,KIBOSHO KATI,25214,URI,MASESEWENI CHINI
KILIMANJARO,25,MOSHI,252,KIBOSHO KATI,25214,URI,KIMBUCHI
KILIMANJARO,25,MOSHI,252,KIBOSHO KATI,25214,URI,ODUKENI
KILIMANJARO,25,MOSHI,252,KIBOSHO KATI,25214,OTARUNI,ODELEA
KILIMANJARO,25,MOSHI,252,KIBOSHO KATI,25214,OTARUNI,NKONNA
KILIMANJARO,25,MOSHI,252,KIBOSHO KATI,25214,OTARUNI,NGOROSHI
KILIMANJARO,25,MOSHI,252,KIBOSHO KATI,25214,OTARUNI,MARINGA
KILIMANJARO,25,MOSHI,252,KIBOSHO KATI,25214,OTARUNI,NGUMITU
KILIMANJARO,25,MOSHI,252,KIBOSHO KATI,25214,UCHAU KASKAZINI,MSHAMANENI
KILIMANJARO,25,MOSHI,252,KIBOSHO KATI,25214,UCHAU KASKAZINI,LIMA
KILIMANJARO,25,MOSHI,252,KIBOSHO KATI,25214,UCHAU KASKAZINI,SAA
KILIMANJARO,25,MOSHI,252,KIBOSHO KATI,25214,UCHAU KASKAZINI,MNDORI
KILIMANJARO,25,MOSHI,252,KIBOSHO KATI,25214,UCHAU KUSINI,NKOLA
KILIMANJARO,25,MOSHI,252,KIBOSHO KATI,25214,UCHAU KUSINI,MCHONA
KILIMANJARO,25,MOSHI,252,KIBOSHO KATI,25214,UCHAU KUSINI,OROSISE
KILIMANJARO,25,MOSHI,252,KIBOSHO KATI,25214,MAUA,MAUA THELLA
KILIMANJARO,25,MOSHI,252,KIBOSHO KATI,25214,MAUA,FUMBUNDUNI
KILIMANJARO,25,MOSHI,252,KIBOSHO KATI,25214,MAUA,MAUA MARAMBO
KILIMANJARO,25,MOSHI,252,KIBOSHO MAGHARIBI,25215,MANUSHI NDOO,MARAWE MWENGE
KILIMANJARO,25,MOSHI,252,KIBOSHO MAGHARIBI,25215,MANUSHI NDOO,MARAWA MAGHARIBI
KILIMANJARO,25,MOSHI,252,KIBOSHO MAGHARIBI,25215,MANUSHI NDOO,MAKAO
KILIMANJARO,25,MOSHI,252,KIBOSHO MAGHARIBI,25215,MANUSHI SINDE,SERENI
KILIMANJARO,25,MOSHI,252,KIBOSHO MAGHARIBI,25215,MANUSHI SINDE,OFISI
KILIMANJARO,25,MOSHI,252,KIBOSHO MAGHARIBI,25215,MANUSHI SINDE,SOKONI
KILIMANJARO,25,MOSHI,252,KIBOSHO MAGHARIBI,25215,MANUSHI SINDE,SHULE
KILIMANJARO,25,MOSHI,252,KIBOSHO MAGHARIBI,25215,MANUSHI SINDE,KAMWEKA
KILIMANJARO,25,MOSHI,252,KIBOSHO MAGHARIBI,25215,KOMBO,MANLA
KILIMANJARO,25,MOSHI,252,KIBOSHO MAGHARIBI,25215,KOMBO,MNARA
KILIMANJARO,25,MOSHI,252,KIBOSHO MAGHARIBI,25215,KOMBO,MAKASHU
KILIMANJARO,25,MOSHI,252,KIBOSHO MAGHARIBI,25215,KOMBO,MKWARUU
KILIMANJARO,25,MOSHI,252,KIBOSHO MAGHARIBI,25215,MKOMONGO,MANGALO
KILIMANJARO,25,MOSHI,252,KIBOSHO MAGHARIBI,25215,MKOMONGO,SERENI
KILIMANJARO,25,MOSHI,252,KIBOSHO MAGHARIBI,25215,MKOMONGO,MAKERESHO
KILIMANJARO,25,MOSHI,252,KIBOSHO MAGHARIBI,25215,MKOMONGO,MDUKA ODEDE
KILIMANJARO,25,MOSHI,252,KIBOSHO MAGHARIBI,25215,MKOMONGO,MWERENI
KILIMANJARO,25,MOSHI,252,KIBOSHO MAGHARIBI,25215,MKOMONGO,KARANGA
KILIMANJARO,25,MOSHI,252,KIBOSHO MAGHARIBI,25215,MKOMONGO,MAWIRI
KILIMANJARO,25,MOSHI,252,KIBOSHO MAGHARIBI,25215,UMBWE SINDE,WERENI
KILIMANJARO,25,MOSHI,252,KIBOSHO MAGHARIBI,25215,UMBWE SINDE,FOINI ‘A
KILIMANJARO,25,MOSHI,252,KIBOSHO MAGHARIBI,25215,UMBWE SINDE,FOINI ‘B
KILIMANJARO,25,MOSHI,252,KIBOSHO MAGHARIBI,25215,UMBWE SINDE,MALIONI ‘B
KILIMANJARO,25,MOSHI,252,KIBOSHO MAGHARIBI,25215,KIFUNI,KIWEI
KILIMANJARO,25,MOSHI,252,KIBOSHO MAGHARIBI,25215,KIFUNI,MADUKANI
KILIMANJARO,25,MOSHI,252,KIBOSHO MAGHARIBI,25215,KIFUNI,MANDEENI
KILIMANJARO,25,MOSHI,252,KIBOSHO MAGHARIBI,25215,KIFUNI,NKONTIRA  LEONARD
KILIMANJARO,25,MOSHI,252,KIBOSHO MAGHARIBI,25215,UMBWE ONANA,MWARIENI
KILIMANJARO,25,MOSHI,252,KIBOSHO MAGHARIBI,25215,UMBWE ONANA,KISIWANI
KILIMANJARO,25,MOSHI,252,KIBOSHO MAGHARIBI,25215,UMBWE ONANA,KICHARE
KILIMANJARO,25,MOSHI,252,KIBOSHO MAGHARIBI,25215,UMBWE ONANA,MAKUNA
KILIMANJARO,25,MOSHI,252,KIBOSHO MAGHARIBI,25215,UMBWE ONANA,KITOLI
KILIMANJARO,25,MOSHI,252,KIBOSHO MAGHARIBI,25215,MUNISHI SINDE MASHARIKI,SHULE
KILIMANJARO,25,MOSHI,252,KIBOSHO MAGHARIBI,25215,MUNISHI SINDE MASHARIKI,SOKONI
KILIMANJARO,25,MOSHI,252,KIBOSHO MAGHARIBI,25215,MUNISHI SINDE MASHARIKI,OFISI
KILIMANJARO,25,MOSHI,252,KIBOSHO MAGHARIBI,25215,MANUSHI KATI,MASERINI
KILIMANJARO,25,MOSHI,252,KIBOSHO MAGHARIBI,25215,MANUSHI KATI,MUUNGANO
KILIMANJARO,25,MOSHI,252,KIBOSHO MAGHARIBI,25215,MANUSHI KATI,MAPINDUZI
KILIMANJARO,25,MOSHI,252,KIBOSHO MAGHARIBI,25215,UMBWE KATI,TELENGO
KILIMANJARO,25,MOSHI,252,KIBOSHO MAGHARIBI,25215,UMBWE KATI,MASSAWENI
KILIMANJARO,25,MOSHI,252,KIBOSHO MAGHARIBI,25215,UMBWE KATI,CHAMINI
KILIMANJARO,25,MOSHI,252,KIBOSHO MAGHARIBI,25215,UMBWE KATI,MALIONI ‘A
KILIMANJARO,25,MOSHI,252,KIBOSHO MASHARIKI,25216,SINGA,SINGA JUU
KILIMANJARO,25,MOSHI,252,KIBOSHO MASHARIKI,25216,SINGA,SINGA KIFUENI
KILIMANJARO,25,MOSHI,252,KIBOSHO MASHARIKI,25216,SINGA,SINGA KATI
KILIMANJARO,25,MOSHI,252,KIBOSHO MASHARIKI,25216,SINGA,SINGA CHINI
KILIMANJARO,25,MOSHI,252,KIBOSHO MASHARIKI,25216,MWEKA,OMI
KILIMANJARO,25,MOSHI,252,KIBOSHO MASHARIKI,25216,MWEKA,OLELE
KILIMANJARO,25,MOSHI,252,KIBOSHO MASHARIKI,25216,MWEKA,MWEKA JUU
KILIMANJARO,25,MOSHI,252,KIBOSHO MASHARIKI,25216,MWEKA,MWEKA CHINI
KILIMANJARO,25,MOSHI,252,KIBOSHO MASHARIKI,25216,MWEKA,KIFURA
KILIMANJARO,25,MOSHI,252,KIBOSHO MASHARIKI,25216,MWEKA,KICHAO
KILIMANJARO,25,MOSHI,252,KIBOSHO MASHARIKI,25216,MWEKA,ORERA
KILIMANJARO,25,MOSHI,252,KIBOSHO MASHARIKI,25216,SUNGU,KYARENI
KILIMANJARO,25,MOSHI,252,KIBOSHO MASHARIKI,25216,SUNGU,MBORENI
KILIMANJARO,25,MOSHI,252,KIBOSHO MASHARIKI,25216,SUNGU,NKOITIKO
KILIMANJARO,25,MOSHI,252,KIBOSHO MASHARIKI,25216,SUNGU,KICHANGIRI
KILIMANJARO,25,MOSHI,252,MWIKA KUSINI,25217,KIMANGARO,SHOKONYI
KILIMANJARO,25,MOSHI,252,MWIKA KUSINI,25217,KIMANGARO,KIMANGARO KATI
KILIMANJARO,25,MOSHI,252,MWIKA KUSINI,25217,KIMANGARO,KOONGO
KILIMANJARO,25,MOSHI,252,MWIKA KUSINI,25217,KIMANGARO,SAGHAI
KILIMANJARO,25,MOSHI,252,MWIKA KUSINI,25217,KIMANGARO,MORE
KILIMANJARO,25,MOSHI,252,MWIKA KUSINI,25217,KIMANGARO,KOMORI
KILIMANJARO,25,MOSHI,252,MWIKA KUSINI,25217,KIRUWENI,KIRUWENI KATI
KILIMANJARO,25,MOSHI,252,MWIKA KUSINI,25217,KIRUWENI,MEERA
KILIMANJARO,25,MOSHI,252,MWIKA KUSINI,25217,KIRUWENI,MAWANDA
KILIMANJARO,25,MOSHI,252,MWIKA KUSINI,25217,KONDENI,ONYONYA
KILIMANJARO,25,MOSHI,252,MWIKA KUSINI,25217,KONDENI,KISHARINI
KILIMANJARO,25,MOSHI,252,MWIKA KUSINI,25217,KONDENI,MENGENI
KILIMANJARO,25,MOSHI,252,MWIKA KUSINI,25217,MAWANJENI,RIATA
KILIMANJARO,25,MOSHI,252,MWIKA KUSINI,25217,MAWANJENI,BARABARANI
KILIMANJARO,25,MOSHI,252,MWIKA KUSINI,25217,MAWANJENI,BARANGO A
KILIMANJARO,25,MOSHI,252,MWIKA KUSINI,25217,MAWANJENI,BARANGO B
KILIMANJARO,25,MOSHI,252,MWIKA KUSINI,25217,MAWANJENI,KARORO
KILIMANJARO,25,MOSHI,252,MWIKA KUSINI,25217,MAWANJENI,KILAANGA
KILIMANJARO,25,MOSHI,252,MWIKA KUSINI,25217,MAWANJENI,MAWANJENI
KILIMANJARO,25,MOSHI,252,MWIKA KUSINI,25217,MATALA,KIRUWA
KILIMANJARO,25,MOSHI,252,MWIKA KUSINI,25217,MATALA,KYARONGA
KILIMANJARO,25,MOSHI,252,MWIKA KUSINI,25217,MATALA,MRITI
KILIMANJARO,25,MOSHI,252,MWIKA KUSINI,25217,MATALA,MSUFINI
KILIMANJARO,25,MOSHI,252,MWIKA KASKAZINI,25218,MRIMBO UUO,MRIMBO KATI
KILIMANJARO,25,MOSHI,252,MWIKA KASKAZINI,25218,MRIMBO UUO,UUWO KATI
KILIMANJARO,25,MOSHI,252,MWIKA KASKAZINI,25218,MRIMBO UUO,PANGARA
KILIMANJARO,25,MOSHI,252,MWIKA KASKAZINI,25218,MRIMBO UUO,KIRIMENI
KILIMANJARO,25,MOSHI,252,MWIKA KASKAZINI,25218,MRIMBO UUO,SEMBETI
KILIMANJARO,25,MOSHI,252,MWIKA KASKAZINI,25218,MRIMBO UUO,KISHINGONI
KILIMANJARO,25,MOSHI,252,MWIKA KASKAZINI,25218,MARINGA,MARINGA KATI
KILIMANJARO,25,MOSHI,252,MWIKA KASKAZINI,25218,MARINGA,KOMONGORO
KILIMANJARO,25,MOSHI,252,MWIKA KASKAZINI,25218,MARINGA,KONDIKI
KILIMANJARO,25,MOSHI,252,MWIKA KASKAZINI,25218,MARINGA,MACHAME
KILIMANJARO,25,MOSHI,252,MWIKA KASKAZINI,25218,LOLE MARERA,KOMAKUNDI
KILIMANJARO,25,MOSHI,252,MWIKA KASKAZINI,25218,LOLE MARERA,MARERA KATI
KILIMANJARO,25,MOSHI,252,MWIKA KASKAZINI,25218,LOLE MARERA,MAJENGO
KILIMANJARO,25,MOSHI,252,MWIKA KASKAZINI,25218,MSAE NGANYENI,KONGOWI
KILIMANJARO,25,MOSHI,252,MWIKA KASKAZINI,25218,MSAE NGANYENI,NYANGENI
KILIMANJARO,25,MOSHI,252,MWIKA KASKAZINI,25218,MSAE NGANYENI,KOSURU
KILIMANJARO,25,MOSHI,252,MWIKA KASKAZINI,25218,MSAE KINYAMVUO,MONGAI
KILIMANJARO,25,MOSHI,252,MWIKA KASKAZINI,25218,MSAE KINYAMVUO,MSESEWENI
KILIMANJARO,25,MOSHI,252,MWIKA KASKAZINI,25218,MSAE KINYAMVUO,IWURA
KILIMANJARO,25,MOSHI,252,MWIKA KASKAZINI,25218,MSAE KINYAMVUO,CHONA
KILIMANJARO,25,MOSHI,252,MWIKA KASKAZINI,25218,MSAE KINYAMVUO,MAHA
KILIMANJARO,25,MOSHI,252,MWIKA KASKAZINI,25218,MSAE KINYAMVUO,MBERERENI
KILIMANJARO,25,MOSHI,252,MWIKA KASKAZINI,25218,MSAE KINYAMVUO,MMBALE
KILIMANJARO,25,MOSHI,252,MWIKA KASKAZINI,25218,LOLE,RIKERE
KILIMANJARO,25,MOSHI,252,MWIKA KASKAZINI,25218,LOLE,KOKIRAMU
KILIMANJARO,25,MOSHI,252,MWIKA KASKAZINI,25218,LOLE,KOOMOLO
KILIMANJARO,25,MOSHI,252,MWIKA KASKAZINI,25218,LOLE,KOKIPURA
KILIMANJARO,25,MOSHI,252,MAMBA KUSINI,25219,MKOLOWONY,BARAZANI
KILIMANJARO,25,MOSHI,252,MAMBA KUSINI,25219,MKOLOWONY,WAZAZI
KILIMANJARO,25,MOSHI,252,MAMBA KUSINI,25219,MKOLOWONY,USHIRIKA
KILIMANJARO,25,MOSHI,252,MAMBA KUSINI,25219,MKOLOWONY,ZAHATI
KILIMANJARO,25,MOSHI,252,MAMBA KUSINI,25219,MKOLOWONY,MKOLOWONY     KUSINI
KILIMANJARO,25,MOSHI,252,MAMBA KUSINI,25219,LEKURA,LATENI
KILIMANJARO,25,MOSHI,252,MAMBA KUSINI,25219,LEKURA,KATI
KILIMANJARO,25,MOSHI,252,MAMBA KUSINI,25219,LEKURA,KANISANI
KILIMANJARO,25,MOSHI,252,MAMBA KUSINI,25219,LEKURA,MADUKANI
KILIMANJARO,25,MOSHI,252,MAMBA KUSINI,25219,LEKURA,KYERIKOURI
KILIMANJARO,25,MOSHI,252,MAMBA KUSINI,25219,KIRIA,MSEROE
KILIMANJARO,25,MOSHI,252,MAMBA KUSINI,25219,KIRIA,KIRIA KATI
KILIMANJARO,25,MOSHI,252,MAMBA KUSINI,25219,KIRIA,RAUYA
KILIMANJARO,25,MOSHI,252,MAMBA KUSINI,25219,KIRIA,SHOKONY
KILIMANJARO,25,MOSHI,252,MAMBA KUSINI,25219,KIMBOGHO,KOMKENDI
KILIMANJARO,25,MOSHI,252,MAMBA KUSINI,25219,KIMBOGHO,KITOWO
KILIMANJARO,25,MOSHI,252,MAMBA KUSINI,25219,KIMBOGHO,MSENGONI
KILIMANJARO,25,MOSHI,252,MAMBA KUSINI,25219,KIMBOGHO,KING`ARONI
KILIMANJARO,25,MOSHI,252,MAMBA KUSINI,25219,KIMANGARA,MTOMTOM
KILIMANJARO,25,MOSHI,252,MAMBA KUSINI,25219,KIMANGARA,KOWARO
KILIMANJARO,25,MOSHI,252,MAMBA KUSINI,25219,KIMANGARA,MKERONGONI
KILIMANJARO,25,MOSHI,252,MAMBA KASKAZINI,25220,KOTELA,KOTELA MASHARIKI
KILIMANJARO,25,MOSHI,252,MAMBA KASKAZINI,25220,KOTELA,KOKIRIE MASHARIKI
KILIMANJARO,25,MOSHI,252,MAMBA KASKAZINI,25220,KOTELA,KOTELA MAGHARIBI
KILIMANJARO,25,MOSHI,252,MAMBA KASKAZINI,25220,KOKIRIE,MASIA MAMBA
KILIMANJARO,25,MOSHI,252,MAMBA KASKAZINI,25220,KOKIRIE,KOKIRIE MASHARIKI
KILIMANJARO,25,MOSHI,252,MAMBA KASKAZINI,25220,KOKIRIE,KOKIRIE MAGHARIBI
KILIMANJARO,25,MOSHI,252,MAMBA KASKAZINI,25220,KOMAKUNDI,MROCHA
KILIMANJARO,25,MOSHI,252,MAMBA KASKAZINI,25220,KOMAKUNDI,RINA
KILIMANJARO,25,MOSHI,252,MAMBA KASKAZINI,25220,KOMAKUNDI,LANZI
KILIMANJARO,25,MOSHI,252,MAMBA KASKAZINI,25220,MBONI,MAANDE
KILIMANJARO,25,MOSHI,252,MAMBA KASKAZINI,25220,MBONI,MBONI
KILIMANJARO,25,MOSHI,252,MAMBA KASKAZINI,25220,MBONI,TOORA
KILIMANJARO,25,MOSHI,252,MARANGU MASHARIKI,25221,LYAMRAKANA,MOORI
KILIMANJARO,25,MOSHI,252,MARANGU MASHARIKI,25221,LYAMRAKANA,LYAMRAKANA
KILIMANJARO,25,MOSHI,252,MARANGU MASHARIKI,25221,LYAMRAKANA,SENGIA
KILIMANJARO,25,MOSHI,252,MARANGU MASHARIKI,25221,SEMBETI,SEMBETI
KILIMANJARO,25,MOSHI,252,MARANGU MASHARIKI,25221,SEMBETI,KILEFURE
KILIMANJARO,25,MOSHI,252,MARANGU MASHARIKI,25221,RAUYA,RAUYA
KILIMANJARO,25,MOSHI,252,MARANGU MASHARIKI,25221,RAUYA,KOTENU
KILIMANJARO,25,MOSHI,252,MARANGU MASHARIKI,25221,RAUYA,MROKORA
KILIMANJARO,25,MOSHI,252,MARANGU MASHARIKI,25221,LYASONGORO,MARAWE
KILIMANJARO,25,MOSHI,252,MARANGU MASHARIKI,25221,LYASONGORO,KOTETE
KILIMANJARO,25,MOSHI,252,MARANGU MASHARIKI,25221,LYASONGORO,LEFURI
KILIMANJARO,25,MOSHI,252,MARANGU MASHARIKI,25221,LYASONGORO,RONGI
KILIMANJARO,25,MOSHI,252,MARANGU MASHARIKI,25221,SAMANGA,MAUWO
KILIMANJARO,25,MOSHI,252,MARANGU MASHARIKI,25221,SAMANGA,TELA
KILIMANJARO,25,MOSHI,252,MARANGU MASHARIKI,25221,SAMANGA,KISHINGONI
KILIMANJARO,25,MOSHI,252,MARANGU MASHARIKI,25221,SAMANGA,MKORONGONI
KILIMANJARO,25,MOSHI,252,MARANGU MASHARIKI,25221,SAMANGA,KONIKO ‘A
KILIMANJARO,25,MOSHI,252,MARANGU MASHARIKI,25221,SAMANGA,KONIKO ‘B
KILIMANJARO,25,MOSHI,252,MARANGU MASHARIKI,25221,ARISI,MORI ‘A
KILIMANJARO,25,MOSHI,252,MARANGU MASHARIKI,25221,ARISI,MORI ‘B
KILIMANJARO,25,MOSHI,252,MARANGU MASHARIKI,25221,ARISI,MNANDENY ‘A
KILIMANJARO,25,MOSHI,252,MARANGU MASHARIKI,25221,ARISI,MNANDENY ‘B
KILIMANJARO,25,MOSHI,252,MARANGU MASHARIKI,25221,ARISI,WANYA
KILIMANJARO,25,MOSHI,252,MARANGU MASHARIKI,25221,ASHIRA,MAUWO
KILIMANJARO,25,MOSHI,252,MARANGU MASHARIKI,25221,ASHIRA,RENGONI
KILIMANJARO,25,MOSHI,252,MARANGU MASHARIKI,25221,ASHIRA,MSHIRI
KILIMANJARO,25,MOSHI,252,MARANGU MASHARIKI,25221,MSHIRI,MASIA
KILIMANJARO,25,MOSHI,252,MARANGU MASHARIKI,25221,MSHIRI,MSHIRI KASKAZINI
KILIMANJARO,25,MOSHI,252,MARANGU MAGHARIBI,25222,KOMALYANGOE,IKUNDA
KILIMANJARO,25,MOSHI,252,MARANGU MAGHARIBI,25222,KOMALYANGOE,MAJENGO
KILIMANJARO,25,MOSHI,252,MARANGU MAGHARIBI,25222,KOMALYANGOE,RUWANGAMBO
KILIMANJARO,25,MOSHI,252,MARANGU MAGHARIBI,25222,KOMALYANGOE,KISU
KILIMANJARO,25,MOSHI,252,MARANGU MAGHARIBI,25222,KITOWO,MEERI JUU
KILIMANJARO,25,MOSHI,252,MARANGU MAGHARIBI,25222,KITOWO,MEERI CHINI
KILIMANJARO,25,MOSHI,252,MARANGU MAGHARIBI,25222,KITOWO,KOMRETE JUU
KILIMANJARO,25,MOSHI,252,MARANGU MAGHARIBI,25222,KITOWO,KOMRETE CHINI
KILIMANJARO,25,MOSHI,252,MARANGU MAGHARIBI,25222,KITOWO,ULALA
KILIMANJARO,25,MOSHI,252,MARANGU MAGHARIBI,25222,KITOWO,MTANUNI
KILIMANJARO,25,MOSHI,252,MARANGU MAGHARIBI,25222,KITOWO,MENGENI
KILIMANJARO,25,MOSHI,252,MARANGU MAGHARIBI,25222,KITOWO,RAU
KILIMANJARO,25,MOSHI,252,MARANGU MAGHARIBI,25222,KITOWO,KIIMA
KILIMANJARO,25,MOSHI,252,MARANGU MAGHARIBI,25222,KIRARACHA,IKIONU
KILIMANJARO,25,MOSHI,252,MARANGU MAGHARIBI,25222,KIRARACHA,KARISIA
KILIMANJARO,25,MOSHI,252,MARANGU MAGHARIBI,25222,KIRARACHA,NGUA
KILIMANJARO,25,MOSHI,252,MARANGU MAGHARIBI,25222,KIRARACHA,MAKOKENI
KILIMANJARO,25,MOSHI,252,MARANGU MAGHARIBI,25222,KIRARACHA,RAWARA
KILIMANJARO,25,MOSHI,252,MARANGU MAGHARIBI,25222,NDUWENI,KIRIMBOCHONI
KILIMANJARO,25,MOSHI,252,MARANGU MAGHARIBI,25222,NDUWENI,MTEMBONI
KILIMANJARO,25,MOSHI,252,MARANGU MAGHARIBI,25222,NDUWENI,MUUNGU
KILIMANJARO,25,MOSHI,252,MARANGU MAGHARIBI,25222,NDUWENI,MRERENI
KILIMANJARO,25,MOSHI,252,MARANGU MAGHARIBI,25222,NDUWENI,KISIMA
KILIMANJARO,25,MOSHI,252,MARANGU MAGHARIBI,25222,KYALA,KYALA MASERENI
KILIMANJARO,25,MOSHI,252,MARANGU MAGHARIBI,25222,KYALA,KYALA KATI
KILIMANJARO,25,MOSHI,252,MARANGU MAGHARIBI,25222,KYALA,KYALA CHINI
KILIMANJARO,25,MOSHI,252,MARANGU MAGHARIBI,25222,MBAHE,KOROWI
KILIMANJARO,25,MOSHI,252,MARANGU MAGHARIBI,25222,MBAHE,WAMBAA
KILIMANJARO,25,MOSHI,252,MARANGU MAGHARIBI,25222,MBAHE,BONDENI
KILIMANJARO,25,MOSHI,252,MARANGU MAGHARIBI,25222,KOMELA,KOMELA KASKAZINI
KILIMANJARO,25,MOSHI,252,MARANGU MAGHARIBI,25222,KOMELA,KOMASOY
KILIMANJARO,25,MOSHI,252,MARANGU MAGHARIBI,25222,KOMELA,KOLEWARI
KILIMANJARO,25,MOSHI,252,MARANGU MAGHARIBI,25222,KOMELA,KOMELA KUSINI
KILIMANJARO,25,MOSHI,252,MAKUYUNI (HIMO),25223,KOMELA,MIERESINI B
KILIMANJARO,25,MOSHI,252,MAKUYUNI (HIMO),25223,KOMELA,MIERESINI A
KILIMANJARO,25,MOSHI,252,MAKUYUNI (HIMO),25223,KOMELA,NYAWENDA
KILIMANJARO,25,MOSHI,252,MAKUYUNI (HIMO),25223,KOMELA,FURAHA
KILIMANJARO,25,MOSHI,252,MAKUYUNI (HIMO),25223,KOMELA,MIEMBENI
KILIMANJARO,25,MOSHI,252,MAKUYUNI (HIMO),25223,KOMELA,MBUYUNI
KILIMANJARO,25,MOSHI,252,MAKUYUNI (HIMO),25223,KOMELA,ZILIPENDWA
KILIMANJARO,25,MOSHI,252,MAKUYUNI (HIMO),25223,KOMELA,MTEMBONI
KILIMANJARO,25,MOSHI,252,MAKUYUNI (HIMO),25223,KOMELA,KIRICHE
KILIMANJARO,25,MOSHI,252,MAKUYUNI (HIMO),25223,KOMELA,SAIDINGI
KILIMANJARO,25,MOSHI,252,MAKUYUNI (HIMO),25223,KOMELA,KIFULA
KILIMANJARO,25,MOSHI,252,MAKUYUNI (HIMO),25223,KOMELA,SAGHANA
KILIMANJARO,25,MOSHI,252,MAKUYUNI (HIMO),25223,KOMELA,MSUFINI
KILIMANJARO,25,MOSHI,252,MAKUYUNI (HIMO),25223,KOMELA,KISIMANI
KILIMANJARO,25,MOSHI,252,KILEMA KASKAZINI,25224,RUWA,KILAY
KILIMANJARO,25,MOSHI,252,KILEMA KASKAZINI,25224,RUWA,KIRUMUNI
KILIMANJARO,25,MOSHI,252,KILEMA KASKAZINI,25224,RUWA,MENGENI
KILIMANJARO,25,MOSHI,252,KILEMA KASKAZINI,25224,MAKAMI JUU,MKUU
KILIMANJARO,25,MOSHI,252,KILEMA KASKAZINI,25224,MAKAMI JUU,MAMRECHA
KILIMANJARO,25,MOSHI,252,KILEMA KASKAZINI,25224,MAKAMI JUU,NGUMENI
KILIMANJARO,25,MOSHI,252,KILEMA KASKAZINI,25224,MAKAMI JUU,KILOWA
KILIMANJARO,25,MOSHI,252,KILEMA KASKAZINI,25224,MAKAMI JUU,MAMBOYENI
KILIMANJARO,25,MOSHI,252,KILEMA KASKAZINI,25224,MAKAMI JUU,SANGO
KILIMANJARO,25,MOSHI,252,KILEMA KASKAZINI,25224,KYOU,MOSHENI
KILIMANJARO,25,MOSHI,252,KILEMA KASKAZINI,25224,KYOU,KYOU KATI
KILIMANJARO,25,MOSHI,252,KILEMA KASKAZINI,25224,KYOU,KYOU KUSINI
KILIMANJARO,25,MOSHI,252,KILEMA KASKAZINI,25224,MAKAMI CHINI,MARIMASI
KILIMANJARO,25,MOSHI,252,KILEMA KASKAZINI,25224,MAKAMI CHINI,KISENENI
KILIMANJARO,25,MOSHI,252,KILEMA KASKAZINI,25224,MAKAMI CHINI,SANGO
KILIMANJARO,25,MOSHI,252,KILEMA KATI,25225,ROSHO,MRAKANA
KILIMANJARO,25,MOSHI,252,KILEMA KATI,25225,ROSHO,SUWE
KILIMANJARO,25,MOSHI,252,KILEMA KATI,25225,ROSHO,MAKISHENI
KILIMANJARO,25,MOSHI,252,KILEMA KATI,25225,KIMARORONI,MAKURUMA
KILIMANJARO,25,MOSHI,252,KILEMA KATI,25225,KIMARORONI,SAWARE
KILIMANJARO,25,MOSHI,252,KILEMA KATI,25225,KIMARORONI,KWETIMA
KILIMANJARO,25,MOSHI,252,KILEMA KATI,25225,KIMARORONI,KIMARORONI
KILIMANJARO,25,MOSHI,252,KILEMA KATI,25225,MKYASHI,MKYASHI KASKAZINI
KILIMANJARO,25,MOSHI,252,KILEMA KATI,25225,MKYASHI,MKYASHI KUSINI
KILIMANJARO,25,MOSHI,252,KILEMA KATI,25225,MKYASHI,MKYASHI KATI
KILIMANJARO,25,MOSHI,252,KILEMA KATI,25225,NGANGU,IMMI
KILIMANJARO,25,MOSHI,252,KILEMA KATI,25225,NGANGU,KYUU
KILIMANJARO,25,MOSHI,252,KILEMA KUSINI,25226,MARAWE KYURA,UWT
KILIMANJARO,25,MOSHI,252,KILEMA KUSINI,25226,MARAWE KYURA,OFISINI
KILIMANJARO,25,MOSHI,252,KILEMA KUSINI,25226,MARAWE KYURA,KYANGA
KILIMANJARO,25,MOSHI,252,KILEMA KUSINI,25226,MARAWE KYURA,MAKERE
KILIMANJARO,25,MOSHI,252,KILEMA KUSINI,25226,MARAWE KYURA,KICHINDA
KILIMANJARO,25,MOSHI,252,KILEMA KUSINI,25226,MASAERA,MASAERA KUSINI
KILIMANJARO,25,MOSHI,252,KILEMA KUSINI,25226,MASAERA,MASAERA KATI
KILIMANJARO,25,MOSHI,252,KILEMA KUSINI,25226,MASAERA,MASAERA KASKAZINI.
KILIMANJARO,25,MOSHI,252,KILEMA KUSINI,25226,LEGHOMULO,MULO
KILIMANJARO,25,MOSHI,252,KILEMA KUSINI,25226,LEGHOMULO,FUMVUNI
KILIMANJARO,25,MOSHI,252,KILEMA KUSINI,25226,LEGHOMULO,KOLYAKITE
KILIMANJARO,25,MOSHI,252,KILEMA KUSINI,25226,LEGHOMULO,NGOROROMUNI
KILIMANJARO,25,MOSHI,252,KILEMA KUSINI,25226,LEGHOMULO,RARI
KILIMANJARO,25,MOSHI,252,KILEMA KUSINI,25226,KILEMA  CHINI,USAGARA
KILIMANJARO,25,MOSHI,252,KILEMA KUSINI,25226,KILEMA  CHINI,MENGENI
KILIMANJARO,25,MOSHI,252,KILEMA KUSINI,25226,KILEMA  CHINI,MRERENI
KILIMANJARO,25,MOSHI,252,KILEMA KUSINI,25226,KILEMA  CHINI,MANDAKA KUSINI
KILIMANJARO,25,MOSHI,252,KIRUA VUNJO KUSINI,25227,MABUNGO,MAENDELEO
KILIMANJARO,25,MOSHI,252,KIRUA VUNJO KUSINI,25227,MABUNGO,KIRICHE JUU
KILIMANJARO,25,MOSHI,252,KIRUA VUNJO KUSINI,25227,MABUNGO,KIRICHE CHINI
KILIMANJARO,25,MOSHI,252,KIRUA VUNJO KUSINI,25227,MABUNGO,MIKABABUNI
KILIMANJARO,25,MOSHI,252,KIRUA VUNJO KUSINI,25227,MABUNGO,KILINDINI
KILIMANJARO,25,MOSHI,252,KIRUA VUNJO KUSINI,25227,MABUNGO,BARABARA CHINI
KILIMANJARO,25,MOSHI,252,KIRUA VUNJO KUSINI,25227,YAMU MAKAA,PUMWANI  A
KILIMANJARO,25,MOSHI,252,KIRUA VUNJO KUSINI,25227,YAMU MAKAA,PUMWANI  B
KILIMANJARO,25,MOSHI,252,KIRUA VUNJO KUSINI,25227,YAMU MAKAA,MBUYUNI
KILIMANJARO,25,MOSHI,252,KIRUA VUNJO KUSINI,25227,YAMU MAKAA,KIUO  A
KILIMANJARO,25,MOSHI,252,KIRUA VUNJO KUSINI,25227,YAMU MAKAA,KIUO  B
KILIMANJARO,25,MOSHI,252,KIRUA VUNJO KUSINI,25227,YAMU MAKAA,KAWAWA
KILIMANJARO,25,MOSHI,252,KIRUA VUNJO KUSINI,25227,YAMU,YAMU JUU
KILIMANJARO,25,MOSHI,252,KIRUA VUNJO KUSINI,25227,YAMU,YAMU KATI
KILIMANJARO,25,MOSHI,252,KIRUA VUNJO KUSINI,25227,YAMU,KIATSONI
KILIMANJARO,25,MOSHI,252,KIRUA VUNJO KUSINI,25227,YAMU,MRIENI
KILIMANJARO,25,MOSHI,252,KIRUA VUNJO KUSINI,25227,YAMU,MBUYUNI
KILIMANJARO,25,MOSHI,252,KIRUA VUNJO KUSINI,25227,YAMU,KIRARACHA
KILIMANJARO,25,MOSHI,252,KIRUA VUNJO KUSINI,25227,YAMU,MASIA
KILIMANJARO,25,MOSHI,252,KIRUA VUNJO KUSINI,25227,YAMU,UPARO
KILIMANJARO,25,MOSHI,252,KIRUA VUNJO KUSINI,25227,YAMU,MANDANGENI
KILIMANJARO,25,MOSHI,252,KIRUA VUNJO KUSINI,25227,YAMU,MAANDE
KILIMANJARO,25,MOSHI,252,KIRUA VUNJO KUSINI,25227,YAMU,SUMI
KILIMANJARO,25,MOSHI,252,KIRUA VUNJO KUSINI,25227,YAMU,IWALENI
KILIMANJARO,25,MOSHI,252,KIRUA VUNJO KUSINI,25227,UCHIRA,KARAMSINGI
KILIMANJARO,25,MOSHI,252,KIRUA VUNJO KUSINI,25227,UCHIRA,KATI JUU
KILIMANJARO,25,MOSHI,252,KIRUA VUNJO KUSINI,25227,UCHIRA,KATI CHINI
KILIMANJARO,25,MOSHI,252,KIRUA VUNJO KUSINI,25227,KORESA,MIWALENI
KILIMANJARO,25,MOSHI,252,KIRUA VUNJO KUSINI,25227,KORESA,TELLA JUU
KILIMANJARO,25,MOSHI,252,KIRUA VUNJO KUSINI,25227,KORESA,TELA CHINI
KILIMANJARO,25,MOSHI,252,KIRUA VUNJO MASHARIKI,25228,NGANJONI,NGANJONI JUU
KILIMANJARO,25,MOSHI,252,KIRUA VUNJO MASHARIKI,25228,NGANJONI,SOWOKO
KILIMANJARO,25,MOSHI,252,KIRUA VUNJO MASHARIKI,25228,NGANJONI,KITUMURA
KILIMANJARO,25,MOSHI,252,KIRUA VUNJO MASHARIKI,25228,NGANJONI,MUE
KILIMANJARO,25,MOSHI,252,KIRUA VUNJO MASHARIKI,25228,NGANJONI,NGANJONI CHINI
KILIMANJARO,25,MOSHI,252,KIRUA VUNJO MASHARIKI,25228,NGANJONI,URENGA
KILIMANJARO,25,MOSHI,252,KIRUA VUNJO MASHARIKI,25228,MRUMENI,MRIA
KILIMANJARO,25,MOSHI,252,KIRUA VUNJO MASHARIKI,25228,MRUMENI,MFIRIWENI
KILIMANJARO,25,MOSHI,252,KIRUA VUNJO MASHARIKI,25228,MRUMENI,LESHAKU
KILIMANJARO,25,MOSHI,252,KIRUA VUNJO MASHARIKI,25228,MRUMENI,MENGENI
KILIMANJARO,25,MOSHI,252,KIRUA VUNJO MASHARIKI,25228,KILEUWO,KILEUO
KILIMANJARO,25,MOSHI,252,KIRUA VUNJO MASHARIKI,25228,KILEUWO,KILEUO KATI
KILIMANJARO,25,MOSHI,252,KIRUA VUNJO MASHARIKI,25228,KILEUWO,MANZAONI
KILIMANJARO,25,MOSHI,252,KIRUA VUNJO MASHARIKI,25228,KILEUWO,KOTULE
KILIMANJARO,25,MOSHI,252,KIRUA VUNJO MASHARIKI,25228,KILEUWO,MSUFINI
KILIMANJARO,25,MOSHI,252,KIRUA VUNJO MASHARIKI,25228,MERO,USANGI
KILIMANJARO,25,MOSHI,252,KIRUA VUNJO MASHARIKI,25228,MERO,LASSO
KILIMANJARO,25,MOSHI,252,KIRUA VUNJO MASHARIKI,25228,MERO,KOLARIA
KILIMANJARO,25,MOSHI,252,KIRUA VUNJO MASHARIKI,25228,MERO,MERRO KATI
KILIMANJARO,25,MOSHI,252,KIRUA VUNJO MAGHARIBI,25229,NDUONI,CHACKY MALYA
KILIMANJARO,25,MOSHI,252,KIRUA VUNJO MAGHARIBI,25229,NDUONI,MSACKY
KILIMANJARO,25,MOSHI,252,KIRUA VUNJO MAGHARIBI,25229,NDUONI,PAKULA
KILIMANJARO,25,MOSHI,252,KIRUA VUNJO MAGHARIBI,25229,NDUONI,MLINGI
KILIMANJARO,25,MOSHI,252,KIRUA VUNJO MAGHARIBI,25229,KWAMARE,FUMVUNI
KILIMANJARO,25,MOSHI,252,KIRUA VUNJO MAGHARIBI,25229,KWAMARE,LYAMBONGO
KILIMANJARO,25,MOSHI,252,KIRUA VUNJO MAGHARIBI,25229,KWAMARE,KWAMARE KATI
KILIMANJARO,25,MOSHI,252,KIRUA VUNJO MAGHARIBI,25229,KWAMARE,KWAMARE IWA
KILIMANJARO,25,MOSHI,252,KIRUA VUNJO MAGHARIBI,25229,IWA,KOLYAMANGURA
KILIMANJARO,25,MOSHI,252,KIRUA VUNJO MAGHARIBI,25229,IWA,KOMBELA
KILIMANJARO,25,MOSHI,252,KIRUA VUNJO MAGHARIBI,25229,IWA,TELA KATI
KILIMANJARO,25,MOSHI,252,KIRUA VUNJO MAGHARIBI,25229,IWA,KOLYAMBUA
KILIMANJARO,25,MOSHI,252,KIRUA VUNJO MAGHARIBI,25229,IWA,SUMI
KILIMANJARO,25,MOSHI,252,KIRUA VUNJO MAGHARIBI,25229,IWA,KOPACHI
KILIMANJARO,25,MOSHI,252,KIRUA VUNJO MAGHARIBI,25229,IWA,MANDANGENI
KILIMANJARO,25,MOSHI,252,KIRUA VUNJO MAGHARIBI,25229,KANJI,KOMKARI
KILIMANJARO,25,MOSHI,252,KIRUA VUNJO MAGHARIBI,25229,KANJI,LASO JUU
KILIMANJARO,25,MOSHI,252,KIRUA VUNJO MAGHARIBI,25229,KANJI,LASO KATI
KILIMANJARO,25,MOSHI,252,KIRUA VUNJO MAGHARIBI,25229,KANJI,KOSHAYO
KILIMANJARO,25,MOSHI,252,KIRUA VUNJO MAGHARIBI,25229,KANJI,KANJI KATI
KILIMANJARO,25,MOSHI,252,KIRUA VUNJO MAGHARIBI,25229,MANU,KOCHACKY
KILIMANJARO,25,MOSHI,252,KIRUA VUNJO MAGHARIBI,25229,MANU,MCHIMA
KILIMANJARO,25,MOSHI,252,KIRUA VUNJO MAGHARIBI,25229,MANU,MRAEMBE
KILIMANJARO,25,MOSHI,252,KIRUA VUNJO MAGHARIBI,25229,MANU,LOLE
KILIMANJARO,25,MOSHI,252,KIRUA VUNJO MAGHARIBI,25229,MANU,KOSAA
KILIMANJARO,25,MOSHI,252,KIRUA VUNJO MAGHARIBI,25229,KANANGO,KANANGO JUU
KILIMANJARO,25,MOSHI,252,KIRUA VUNJO MAGHARIBI,25229,KANANGO,KANANGO CHINI
KILIMANJARO,25,MOSHI,252,KIRUA VUNJO MAGHARIBI,25229,KANANGO,WANDENI
KILIMANJARO,25,MOSHI,252,KIRUA VUNJO MAGHARIBI,25229,KANANGO,MACHA MLINGI
KILIMANJARO,25,MOSHI,252,KIRUA VUNJO MAGHARIBI,25229,MARUA,MARUA ‘A
KILIMANJARO,25,MOSHI,252,KIRUA VUNJO MAGHARIBI,25229,MARUA,MARUA ‘B
KILIMANJARO,25,MOSHI,252,KIRUA VUNJO MAGHARIBI,25229,MARUA,MAKUNDUSHI
KILIMANJARO,25,MOSHI,252,KIRUA VUNJO MAGHARIBI,25229,MARUA,MKONJA
KILIMANJARO,25,MOSHI,252,KIRUA VUNJO MAGHARIBI,25229,MARUA,MANAENAENI
KILIMANJARO,25,MOSHI,252,KAHE MAGHARIBI,25230,NGASINYI,MASELELA
KILIMANJARO,25,MOSHI,252,KAHE MAGHARIBI,25230,NGASINYI,UPURUNI
KILIMANJARO,25,MOSHI,252,KAHE MAGHARIBI,25230,NGASINYI,MALILO
KILIMANJARO,25,MOSHI,252,KAHE MAGHARIBI,25230,NGASINYI,NGASINYI
KILIMANJARO,25,MOSHI,252,KAHE MAGHARIBI,25230,NGASINYI,MWARU
KILIMANJARO,25,MOSHI,252,KAHE MAGHARIBI,25230,NGASINYI,MBEU
KILIMANJARO,25,MOSHI,252,KAHE MAGHARIBI,25230,NGASINYI,KISEGHENYI
KILIMANJARO,25,MOSHI,252,KAHE MAGHARIBI,25230,NGASINYI B,MADUKANI
KILIMANJARO,25,MOSHI,252,KAHE MAGHARIBI,25230,NGASINYI B,LENGESAI
KILIMANJARO,25,MOSHI,252,KAHE MAGHARIBI,25230,NGASINYI B,LOWIRI
KILIMANJARO,25,MOSHI,252,KAHE MAGHARIBI,25230,NGASINYI B,LONGONI
KILIMANJARO,25,MOSHI,252,KAHE MAGHARIBI,25230,NGASINYI B,KING’ORI
KILIMANJARO,25,MOSHI,252,KAHE MAGHARIBI,25230,NGASINYI B,DEHU
KILIMANJARO,25,MOSHI,252,KAHE MAGHARIBI,25230,MWANGARIA,USANGI
KILIMANJARO,25,MOSHI,252,KAHE MAGHARIBI,25230,MWANGARIA,KIYAYA
KILIMANJARO,25,MOSHI,252,KAHE MAGHARIBI,25230,MWANGARIA,KIMALA
KILIMANJARO,25,MOSHI,252,KAHE MAGHARIBI,25230,MWANGARIA,OLUBWA
KILIMANJARO,25,MOSHI,252,KAHE MAGHARIBI,25230,MWANGARIA,KIMALA RELINI
KILIMANJARO,25,MOSHI,252,KAHE MAGHARIBI,25230,KISANGESANGENI,KISANGENISANGENI ‘A
KILIMANJARO,25,MOSHI,252,KAHE MAGHARIBI,25230,KISANGESANGENI,KISANGENISANGENI ‘B
KILIMANJARO,25,MOSHI,252,KAHE MAGHARIBI,25230,KISANGESANGENI,MAHURU
KILIMANJARO,25,MOSHI,252,KAHE MAGHARIBI,25230,ORIA,MWISHO WA SHAMBA
KILIMANJARO,25,MOSHI,252,KAHE MAGHARIBI,25230,ORIA,RELI ‘A
KILIMANJARO,25,MOSHI,252,KAHE MAGHARIBI,25230,ORIA,STESHENI
KILIMANJARO,25,MOSHI,252,KAHE MAGHARIBI,25230,ORIA,RELI ‘B
KILIMANJARO,25,MOSHI,252,KAHE MAGHARIBI,25230,ORIA,MKONGA
KILIMANJARO,25,MOSHI,252,KAHE MAGHARIBI,25230,ORIA,MADUKANI
KILIMANJARO,25,MOSHI,252,KAHE MAGHARIBI,25230,ORIA,KIZUNGO
KILIMANJARO,25,MOSHI,252,KAHE MAGHARIBI,25230,ORIA,MAKONGENI
KILIMANJARO,25,MOSHI,252,KAHE MAGHARIBI,25230,ORIA,KWAGINJA
KILIMANJARO,25,MOSHI,252,KAHE MAGHARIBI,25230,RAU RIVER,MWISHO WA SHAMBA
KILIMANJARO,25,MOSHI,252,KAHE MAGHARIBI,25230,RAU RIVER,LEMBENI
KILIMANJARO,25,MOSHI,252,KAHE MAGHARIBI,25230,RAU RIVER,MKONGA
KILIMANJARO,25,MOSHI,252,KAHE MAGHARIBI,25230,RAU RIVER,RAU-MSUFINI
KILIMANJARO,25,MOSHI,252,KAHE MAGHARIBI,25230,RAU RIVER,RAU KATI
KILIMANJARO,25,MOSHI,252,KAHE MAGHARIBI,25230,MAWALA,WAWALA KATI
KILIMANJARO,25,MOSHI,252,KAHE MAGHARIBI,25230,MAWALA,MASAINI
KILIMANJARO,25,MOSHI,252,KAHE MAGHARIBI,25230,MAWALA,SAMACHI
KILIMANJARO,25,MOSHI,252,KAHE MAGHARIBI,25230,MIWALENI,MADUKANI
KILIMANJARO,25,MOSHI,252,KAHE MAGHARIBI,25230,MIWALENI,MKONGO JUU
KILIMANJARO,25,MOSHI,252,KAHE MAGHARIBI,25230,MIWALENI,MKONGA CHINI
KILIMANJARO,25,MOSHI,252,KAHE MASHARIKI,25231,SOKO,DEHU
KILIMANJARO,25,MOSHI,252,KAHE MASHARIKI,25231,SOKO,SOKO
KILIMANJARO,25,MOSHI,252,KAHE MASHARIKI,25231,SOKO,MKUYUNI
KILIMANJARO,25,MOSHI,252,KAHE MASHARIKI,25231,KYOMU,KYOMU
KILIMANJARO,25,MOSHI,252,KAHE MASHARIKI,25231,KYOMU,MAJENGO
KILIMANJARO,25,MOSHI,252,KAHE MASHARIKI,25231,KYOMU,KALIMANI
KILIMANJARO,25,MOSHI,252,KAHE MASHARIKI,25231,KYOMU,PAPLIKI
KILIMANJARO,25,MOSHI,252,KAHE MASHARIKI,25231,KYOMU,MSUFINI
KILIMANJARO,25,MOSHI,252,KAHE MASHARIKI,25231,GHONA,GHONA ‘ A
KILIMANJARO,25,MOSHI,252,KAHE MASHARIKI,25231,GHONA,GHONA MJINI
KILIMANJARO,25,MOSHI,252,KAHE MASHARIKI,25231,GHONA,GHONA ‘ B
KILIMANJARO,25,MOSHI,252,KAHE MASHARIKI,25231,KOCHAKINDO,KOCHAKINDO KATI
KILIMANJARO,25,MOSHI,252,KAHE MASHARIKI,25231,KOCHAKINDO,KITIVO
KILIMANJARO,25,MOSHI,252,KAHE MASHARIKI,25231,KOCHAKINDO,KAMBINI
KILIMANJARO,25,MOSHI,252,KAHE MASHARIKI,25231,KOCHAKINDO,NGARAMTONI
KILIMANJARO,25,MOSHI,252,KAHE MASHARIKI,25231,KITERINI,RELINI
KILIMANJARO,25,MOSHI,252,KAHE MASHARIKI,25231,KITERINI,RELI KATI
KILIMANJARO,25,MOSHI,252,KAHE MASHARIKI,25231,KITERINI,RELI CHINI
KILIMANJARO,25,MOSHI,252,KAHE MASHARIKI,25231,MIKAMENI,NJORO
KILIMANJARO,25,MOSHI,252,KAHE MASHARIKI,25231,MIKAMENI,KILOTOTONI
KILIMANJARO,25,MOSHI,252,KAHE MASHARIKI,25231,MIKAMENI,MAKONGENI
KILIMANJARO,25,MOSHI,252,KAHE MASHARIKI,25231,MIKAMENI,MPEPERA
KILIMANJARO,25,MOSHI,252,NJIA PANDA,25232,MIKAMENI,NJIA PANDA MASHARIKI
KILIMANJARO,25,MOSHI,252,NJIA PANDA,25232,MIKAMENI,NJIA PANDA MAGHARIBI
KILIMANJARO,25,MOSHI,252,NJIA PANDA,25232,MIKAMENI,DARAJANI
KILIMANJARO,25,MOSHI,252,NJIA PANDA,25232,MIKAMENI,FARU
KILIMANJARO,25,HAI,253,MACHAME MASHARIKI,25301,LYAMUNGO-KILANYA,NKWASALA
KILIMANJARO,25,HAI,253,MACHAME MASHARIKI,25301,LYAMUNGO-KILANYA,NKWELAO
KILIMANJARO,25,HAI,253,MACHAME MASHARIKI,25301,LYAMUNGO-KILANYA,NKIWASEKERI
KILIMANJARO,25,HAI,253,MACHAME MASHARIKI,25301,LYAMUNGO-KATI,KIBERA
KILIMANJARO,25,HAI,253,MACHAME MASHARIKI,25301,LYAMUNGO-KATI,NKWAMAKWELA
KILIMANJARO,25,HAI,253,MACHAME MASHARIKI,25301,LYAMUNGO-KATI,UMBURI KATI
KILIMANJARO,25,HAI,253,MACHAME MASHARIKI,25301,LYAMUNGO-KATI,UMBURI NDALEN
KILIMANJARO,25,HAI,253,MACHAME MASHARIKI,25301,LYAMUNGO-KATI,NKWAMWARA NA.4
KILIMANJARO,25,HAI,253,MACHAME MASHARIKI,25301,LYAMUNGO-SINDE,MOWE
KILIMANJARO,25,HAI,253,MACHAME MASHARIKI,25301,LYAMUNGO-SINDE,WERU WERU
KILIMANJARO,25,HAI,253,MACHAME MASHARIKI,25301,LYAMUNGO-SINDE,SAA
KILIMANJARO,25,HAI,253,MACHAME MASHARIKI,25301,LYAMUNGO-SINDE,UCHARA
KILIMANJARO,25,HAI,253,MACHAME MASHARIKI,25301,NKUU NDOO,KIMBUSHI NDOO
KILIMANJARO,25,HAI,253,MACHAME MASHARIKI,25301,NKUU NDOO,NDEREN MWOWE
KILIMANJARO,25,HAI,253,MACHAME MASHARIKI,25301,NKUU NDOO,NKUU KATI
KILIMANJARO,25,HAI,253,MACHAME MASHARIKI,25301,NKUU NDOO,NKWESHOO
KILIMANJARO,25,HAI,253,MACHAME MASHARIKI,25301,NKUU SINDE,SINDE KATI
KILIMANJARO,25,HAI,253,MACHAME MASHARIKI,25301,NKUU SINDE,KIMBUSHI SINDE
KILIMANJARO,25,HAI,253,MACHAME MASHARIKI,25301,NKUU SINDE,NDOO SINDE
KILIMANJARO,25,HAI,253,MACHAME MASHARIKI,25301,NKUU SINDE,NDERENI
KILIMANJARO,25,HAI,253,MACHAME MASHARIKI,25301,NKUU SINDE,REMBU
KILIMANJARO,25,HAI,253,MACHAME MASHARIKI,25301,NKUU SINDE,KISERENI
KILIMANJARO,25,HAI,253,MACHAME NARUMU,25302,TELLA,TELLA SINDE
KILIMANJARO,25,HAI,253,MACHAME NARUMU,25302,TELLA,NG’UNDENI
KILIMANJARO,25,HAI,253,MACHAME NARUMU,25302,TELLA,KILALI
KILIMANJARO,25,HAI,253,MACHAME NARUMU,25302,TELLA,WERUWERU
KILIMANJARO,25,HAI,253,MACHAME NARUMU,25302,TELLA,UCHARA
KILIMANJARO,25,HAI,253,MACHAME NARUMU,25302,TELLA,MOE
KILIMANJARO,25,HAI,253,MACHAME NARUMU,25302,TELLA,MAFUJINI
KILIMANJARO,25,HAI,253,MACHAME NARUMU,25302,TELLA,MKUUNI
KILIMANJARO,25,HAI,253,MACHAME NARUMU,25302,ORORI,SERENI  A
KILIMANJARO,25,HAI,253,MACHAME NARUMU,25302,ORORI,SERENI  B
KILIMANJARO,25,HAI,253,MACHAME NARUMU,25302,ORORI,MULA
KILIMANJARO,25,HAI,253,MACHAME NARUMU,25302,USARI,ISAREN
KILIMANJARO,25,HAI,253,MACHAME NARUMU,25302,USARI,KICHANGIRI
KILIMANJARO,25,HAI,253,MACHAME NARUMU,25302,USARI,SERENI
KILIMANJARO,25,HAI,253,MACHAME NARUMU,25302,MULAMA,MULAMA
KILIMANJARO,25,HAI,253,MACHAME NARUMU,25302,MULAMA,MARAKULI
KILIMANJARO,25,HAI,253,MACHAME NARUMU,25302,MULAMA,MBABUNI
KILIMANJARO,25,HAI,253,WERUWERU,25303,NGOSERO,NGOSERO
KILIMANJARO,25,HAI,253,WERUWERU,25303,NGOSERO,MADUKANI
KILIMANJARO,25,HAI,253,WERUWERU,25303,NGOSERO,KANISANI
KILIMANJARO,25,HAI,253,WERUWERU,25303,NGOSERO,JITENGENI
KILIMANJARO,25,HAI,253,WERUWERU,25303,NGOSERO,LAND
KILIMANJARO,25,HAI,253,WERUWERU,25303,MBATAKERO,KINAMIRI
KILIMANJARO,25,HAI,253,WERUWERU,25303,MBATAKERO,KISIMANI
KILIMANJARO,25,HAI,253,WERUWERU,25303,MBATAKERO,KWAMBESERE
KILIMANJARO,25,HAI,253,WERUWERU,25303,MBATAKERO,MLIMAFARU
KILIMANJARO,25,HAI,253,WERUWERU,25303,KIKAVU CHINI,MADUKANI
KILIMANJARO,25,HAI,253,WERUWERU,25303,KIKAVU CHINI,UPARENI
KILIMANJARO,25,HAI,253,WERUWERU,25303,KIKAVU CHINI,MABATINI
KILIMANJARO,25,HAI,253,WERUWERU,25303,KIKAVU CHINI,RC
KILIMANJARO,25,HAI,253,WERUWERU,25303,KIKAVU CHINI,LAND
KILIMANJARO,25,HAI,253,WERUWERU,25303,LONGOI,NGUZO MOJA
KILIMANJARO,25,HAI,253,WERUWERU,25303,LONGOI,NGUZO NNE
KILIMANJARO,25,HAI,253,WERUWERU,25303,LONGOI,RELINI
KILIMANJARO,25,HAI,253,WERUWERU,25303,LONGOI,KIRIMA
KILIMANJARO,25,HAI,253,WERUWERU,25303,LONGOI,MBUYUNI
KILIMANJARO,25,HAI,253,MNADANI,25304,SHIRI NJORO,NJORO JUU
KILIMANJARO,25,HAI,253,MNADANI,25304,SHIRI NJORO,NJORO CHINI
KILIMANJARO,25,HAI,253,MNADANI,25304,SHIRI NJORO,MAILI SITA MADUKANI
KILIMANJARO,25,HAI,253,MNADANI,25304,SHIRI NJORO,MSUFINI
KILIMANJARO,25,HAI,253,MNADANI,25304,SHIRI NJORO,KITIFU JUU
KILIMANJARO,25,HAI,253,MNADANI,25304,SHIRI NJORO,KITIFU CHINI
KILIMANJARO,25,HAI,253,MNADANI,25304,SHIRI NJORO,KILADEDA
KILIMANJARO,25,HAI,253,MNADANI,25304,SHIRI MGUNGANI,WERUWERU
KILIMANJARO,25,HAI,253,MNADANI,25304,SHIRI MGUNGANI,MGUNGANI
KILIMANJARO,25,HAI,253,MNADANI,25304,SHIRI MGUNGANI,BONDENI
KILIMANJARO,25,HAI,253,MNADANI,25304,SHIRI MGUNGANI,RELINI
KILIMANJARO,25,HAI,253,MNADANI,25304,SHIRI MGUNGANI,MIEMBENI
KILIMANJARO,25,HAI,253,MNADANI,25304,KIMASHUKU,WERUWERU
KILIMANJARO,25,HAI,253,MNADANI,25304,KIMASHUKU,MNADANI
KILIMANJARO,25,HAI,253,MNADANI,25304,KIMASHUKU,KIMASHUKU KATI
KILIMANJARO,25,HAI,253,MNADANI,25304,KIMASHUKU,KINYALU
KILIMANJARO,25,HAI,253,MNADANI,25304,KIMASHUKU,KIANGAA
KILIMANJARO,25,HAI,253,MNADANI,25304,KWATITO,KWATITO RELINI
KILIMANJARO,25,HAI,253,MNADANI,25304,KWATITO,BWAWANI
KILIMANJARO,25,HAI,253,MNADANI,25304,KWATITO,MGUNGANI
KILIMANJARO,25,HAI,253,MNADANI,25304,KWATITO,KASENDERO
KILIMANJARO,25,HAI,253,MNADANI,25304,KWATITO,JUHUDI
KILIMANJARO,25,HAI,253,MNADANI,25304,MIJONGWENI,KIJIWENI
KILIMANJARO,25,HAI,253,MNADANI,25304,MIJONGWENI,MIEMBENI
KILIMANJARO,25,HAI,253,MNADANI,25304,MIJONGWENI,MSUFINI
KILIMANJARO,25,HAI,253,MNADANI,25304,MIJONGWENI,OFISINI
KILIMANJARO,25,HAI,253,MNADANI,25304,MIJONGWENI,KIYUNGI DARAJANI
KILIMANJARO,25,HAI,253,MNADANI,25304,MIJONGWENI,KWA KANOTI
KILIMANJARO,25,HAI,253,MNADANI,25304,MIJONGWENI,KIYUNGI MADUKANI
KILIMANJARO,25,HAI,253,MNADANI,25304,MIJONGWENI,MIJONGWENI CHINI
KILIMANJARO,25,HAI,253,MNADANI,25304,MIJONGWENI,TINDIGANI
KILIMANJARO,25,HAI,253,MNADANI,25304,MIJONGWENI,DARAJANI
KILIMANJARO,25,HAI,253,MNADANI,25304,MIJONGWENI,OSTERBAY
KILIMANJARO,25,HAI,253,MNADANI,25304,SHIRIMATUNDA,MATUNDA
KILIMANJARO,25,HAI,253,MNADANI,25304,SHIRIMATUNDA,MNGERE
KILIMANJARO,25,HAI,253,MNADANI,25304,SHIRIMATUNDA,KILADEDA
KILIMANJARO,25,HAI,253,MNADANI,25304,SHIRIMATUNDA,KILIMAMBILI
KILIMANJARO,25,HAI,253,MNADANI,25304,SHIRIMATUNDA,MASIKA
KILIMANJARO,25,HAI,253,MACHAME UROKI,25305,MAMBA,NKYAKURA NDOO
KILIMANJARO,25,HAI,253,MACHAME UROKI,25305,MAMBA,NKYAKURA SINDE
KILIMANJARO,25,HAI,253,MACHAME UROKI,25305,MAMBA,UROKI
KILIMANJARO,25,HAI,253,MACHAME UROKI,25305,MAMBA,NNKO
KILIMANJARO,25,HAI,253,MACHAME UROKI,25305,MAMBA,MAOSHO
KILIMANJARO,25,HAI,253,MACHAME UROKI,25305,USWAA,MAKARO
KILIMANJARO,25,HAI,253,MACHAME UROKI,25305,USWAA,MASAMU
KILIMANJARO,25,HAI,253,MACHAME UROKI,25305,USWAA,MBWEERA
KILIMANJARO,25,HAI,253,MACHAME UROKI,25305,USWAA,MAKIWERU
KILIMANJARO,25,HAI,253,MACHAME UROKI,25305,URAA,KISHARE
KILIMANJARO,25,HAI,253,MACHAME UROKI,25305,URAA,BWANI
KILIMANJARO,25,HAI,253,MACHAME UROKI,25305,URAA,KIKOLO
KILIMANJARO,25,HAI,253,MACHAME UROKI,25305,KISELU,KISHIMBWE
KILIMANJARO,25,HAI,253,MACHAME UROKI,25305,KISELU,UROU
KILIMANJARO,25,HAI,253,MACHAME UROKI,25305,KISELU,KENGYE
KILIMANJARO,25,HAI,253,MACHAME UROKI,25305,KISELU,KATI
KILIMANJARO,25,HAI,253,MACHAME MAGHARIBI,25306,NRONGA,NALUTI
KILIMANJARO,25,HAI,253,MACHAME MAGHARIBI,25306,NRONGA,NKWAKISHU
KILIMANJARO,25,HAI,253,MACHAME MAGHARIBI,25306,NRONGA,NKWELENGYA
KILIMANJARO,25,HAI,253,MACHAME MAGHARIBI,25306,NRONGA,NKWAMANDAA
KILIMANJARO,25,HAI,253,MACHAME MAGHARIBI,25306,NRONGA,NRWAA
KILIMANJARO,25,HAI,253,MACHAME MAGHARIBI,25306,NRONGA,MIASENI
KILIMANJARO,25,HAI,253,MACHAME MAGHARIBI,25306,NRONGA,NKWAMAKYA
KILIMANJARO,25,HAI,253,MACHAME MAGHARIBI,25306,KYEERI,KYEERI NDOO
KILIMANJARO,25,HAI,253,MACHAME MAGHARIBI,25306,KYEERI,KYEERI SINDE
KILIMANJARO,25,HAI,253,MACHAME MAGHARIBI,25306,KYEERI,MAANGA
KILIMANJARO,25,HAI,253,MACHAME MAGHARIBI,25306,KYEERI,WOONGO
KILIMANJARO,25,HAI,253,MACHAME MAGHARIBI,25306,KYEERI,IWALA
KILIMANJARO,25,HAI,253,MACHAME KASKAZINI,25307,FOO,NSHIRON
KILIMANJARO,25,HAI,253,MACHAME KASKAZINI,25307,FOO,MANYILE
KILIMANJARO,25,HAI,253,MACHAME KASKAZINI,25307,FOO,NKWANSHUA
KILIMANJARO,25,HAI,253,MACHAME KASKAZINI,25307,FOO,NKWAMWASI
KILIMANJARO,25,HAI,253,MACHAME KASKAZINI,25307,FOO,KYALIA
KILIMANJARO,25,HAI,253,MACHAME KASKAZINI,25307,FOO,NKWEWOYO
KILIMANJARO,25,HAI,253,MACHAME KASKAZINI,25307,FOO,NKWAMEMBI
KILIMANJARO,25,HAI,253,MACHAME KASKAZINI,25307,FOO,NKWAKUNDU
KILIMANJARO,25,HAI,253,MACHAME KASKAZINI,25307,FOO,KYARWAA
KILIMANJARO,25,HAI,253,MACHAME KASKAZINI,25307,WARI NDOO,KYALIA
KILIMANJARO,25,HAI,253,MACHAME KASKAZINI,25307,WARI NDOO,NKWANAMBOO
KILIMANJARO,25,HAI,253,MACHAME KASKAZINI,25307,WARI NDOO,MMASENI
KILIMANJARO,25,HAI,253,MACHAME KASKAZINI,25307,WARI NDOO,IFIYO
KILIMANJARO,25,HAI,253,MACHAME KASKAZINI,25307,WARI NDOO,MMI
KILIMANJARO,25,HAI,253,MACHAME KASKAZINI,25307,WARI SINDE,URAA
KILIMANJARO,25,HAI,253,MACHAME KASKAZINI,25307,WARI SINDE,KALALI
KILIMANJARO,25,HAI,253,MACHAME KASKAZINI,25307,WARI SINDE,MWERA
KILIMANJARO,25,HAI,253,MACHAME KASKAZINI,25307,WARI SINDE,MAFOI
KILIMANJARO,25,HAI,253,MACHAME KASKAZINI,25307,WARI SINDE,KISAU
KILIMANJARO,25,HAI,253,MACHAME KASKAZINI,25307,NSHARA,LAMBO
KILIMANJARO,25,HAI,253,MACHAME KASKAZINI,25307,NSHARA,MURO
KILIMANJARO,25,HAI,253,MACHAME KASKAZINI,25307,NSHARA,MWARA
KILIMANJARO,25,HAI,253,MACHAME KASKAZINI,25307,NSHARA,MARUKENI
KILIMANJARO,25,HAI,253,MACHAME KASKAZINI,25307,NSHARA,MASHARE
KILIMANJARO,25,HAI,253,MACHAME KASKAZINI,25307,NSHARA,NNYAMA
KILIMANJARO,25,HAI,253,MACHAME KASKAZINI,25307,NSHARA,MAFURENI
KILIMANJARO,25,HAI,253,MACHAME KASKAZINI,25307,NSHARA,LAMBO ESTATE
KILIMANJARO,25,HAI,253,MACHAME KASKAZINI,25307,UDURU,USERI
KILIMANJARO,25,HAI,253,MACHAME KASKAZINI,25307,UDURU,MWANA
KILIMANJARO,25,HAI,253,MACHAME KASKAZINI,25307,UDURU,IKOLA
KILIMANJARO,25,HAI,253,MASAMA MAGHARIBI,25308,LUKANI,URERENY
KILIMANJARO,25,HAI,253,MASAMA MAGHARIBI,25308,LUKANI,NKUMBI
KILIMANJARO,25,HAI,253,MASAMA MAGHARIBI,25308,LUKANI,NKWATUKE
KILIMANJARO,25,HAI,253,MASAMA MAGHARIBI,25308,NKWANSIRA,NKWANSIRA  KATI
KILIMANJARO,25,HAI,253,MASAMA MAGHARIBI,25308,NKWANSIRA,MRIMUMU
KILIMANJARO,25,HAI,253,MASAMA MAGHARIBI,25308,NKWANSIRA,TAMAYA
KILIMANJARO,25,HAI,253,MASAMA MAGHARIBI,25308,KYUU,KYUU KATI
KILIMANJARO,25,HAI,253,MASAMA MAGHARIBI,25308,KYUU,MANDUNGU
KILIMANJARO,25,HAI,253,MASAMA MAGHARIBI,25308,KYUU,LORIKO
KILIMANJARO,25,HAI,253,MASAMA MAGHARIBI,25308,KYUU,MAIPUTA
KILIMANJARO,25,HAI,253,MASAMA MAGHARIBI,25308,MASHUA,NSONGORO
KILIMANJARO,25,HAI,253,MASAMA MAGHARIBI,25308,MASHUA,SUFI
KILIMANJARO,25,HAI,253,MASAMA MAGHARIBI,25308,MASHUA,YURI
KILIMANJARO,25,HAI,253,MASAMA MAGHARIBI,25308,MASHUA,MASHUA
KILIMANJARO,25,HAI,253,MASAMA MAGHARIBI,25308,LOSAA,SHOSHE
KILIMANJARO,25,HAI,253,MASAMA MAGHARIBI,25308,LOSAA,MUNGOMAE
KILIMANJARO,25,HAI,253,MASAMA KUSINI,25309,KWASADALA,MJINI
KILIMANJARO,25,HAI,253,MASAMA KUSINI,25309,KWASADALA,MSASANI
KILIMANJARO,25,HAI,253,MASAMA KUSINI,25309,KWASADALA,DIPU
KILIMANJARO,25,HAI,253,MASAMA KUSINI,25309,KWASADALA,MATOUWO
KILIMANJARO,25,HAI,253,MASAMA KUSINI,25309,KWASADALA,MAKUNA
KILIMANJARO,25,HAI,253,MASAMA KUSINI,25309,KWARE,KENGELE
KILIMANJARO,25,HAI,253,MASAMA KUSINI,25309,KWARE,UDORO
KILIMANJARO,25,HAI,253,MASAMA KUSINI,25309,KWARE,KWARE MADUKANI
KILIMANJARO,25,HAI,253,MASAMA KUSINI,25309,KWARE,BOMA KATI
KILIMANJARO,25,HAI,253,MASAMA KUSINI,25309,MUNGUSHI,MASINONDA
KILIMANJARO,25,HAI,253,MASAMA KUSINI,25309,MUNGUSHI,MWANGAZA
KILIMANJARO,25,HAI,253,MASAMA KUSINI,25309,MUNGUSHI,MUNGUSHI KATI
KILIMANJARO,25,HAI,253,MASAMA KUSINI,25309,MUNGUSHI,NKWAMAKUU
KILIMANJARO,25,HAI,253,MASAMA KUSINI,25309,MKOMBOZI,ZARAU
KILIMANJARO,25,HAI,253,MASAMA KUSINI,25309,MKOMBOZI,KORONGONI
KILIMANJARO,25,HAI,253,MASAMA KUSINI,25309,MKOMBOZI,MBOLOLO
KILIMANJARO,25,HAI,253,MASAMA RUNDUGAI,25310,KAWAYA,LONGOI LAND
KILIMANJARO,25,HAI,253,MASAMA RUNDUGAI,25310,KAWAYA,MAPACHA
KILIMANJARO,25,HAI,253,MASAMA RUNDUGAI,25310,KAWAYA,NJORO
KILIMANJARO,25,HAI,253,MASAMA RUNDUGAI,25310,KAWAYA,KAWAYA KATI
KILIMANJARO,25,HAI,253,MASAMA RUNDUGAI,25310,KAWAYA,KITUONI
KILIMANJARO,25,HAI,253,MASAMA RUNDUGAI,25310,KAWAYA,KISIMANI
KILIMANJARO,25,HAI,253,MASAMA RUNDUGAI,25310,MKALAMA,MLIMA MSWAKI
KILIMANJARO,25,HAI,253,MASAMA RUNDUGAI,25310,MKALAMA,MWASITI
KILIMANJARO,25,HAI,253,MASAMA RUNDUGAI,25310,MKALAMA,MBUGUNI
KILIMANJARO,25,HAI,253,MASAMA RUNDUGAI,25310,MKALAMA,YAMNONO
KILIMANJARO,25,HAI,253,MASAMA RUNDUGAI,25310,MKALAMA,LONGOI KATI
KILIMANJARO,25,HAI,253,MASAMA RUNDUGAI,25310,CHEKIMAJI,JITENGENI
KILIMANJARO,25,HAI,253,MASAMA RUNDUGAI,25310,CHEKIMAJI,CHEKERENI
KILIMANJARO,25,HAI,253,MASAMA RUNDUGAI,25310,CHEKIMAJI,DIPU
KILIMANJARO,25,HAI,253,MASAMA RUNDUGAI,25310,CHEKIMAJI,MAJENGO
KILIMANJARO,25,HAI,253,MASAMA RUNDUGAI,25310,CHEKIMAJI,MAGADINI
KILIMANJARO,25,HAI,253,MASAMA RUNDUGAI,25310,CHEMKA,KAMBI YA CHOKAA
KILIMANJARO,25,HAI,253,MASAMA RUNDUGAI,25310,CHEMKA,KIKULETWA
KILIMANJARO,25,HAI,253,MASAMA RUNDUGAI,25310,CHEMKA,TINDIGANI
KILIMANJARO,25,HAI,253,MASAMA RUNDUGAI,25310,CHEMKA,NGULU CHINI
KILIMANJARO,25,HAI,253,MASAMA RUNDUGAI,25310,CHEMKA,NGULU  JUU
KILIMANJARO,25,HAI,253,MASAMA RUNDUGAI,25310,RUNDUGAI,LEMBENI A
KILIMANJARO,25,HAI,253,MASAMA RUNDUGAI,25310,RUNDUGAI,LEMBENI  B
KILIMANJARO,25,HAI,253,MASAMA RUNDUGAI,25310,RUNDUGAI,IRAMBA
KILIMANJARO,25,HAI,253,KIA,25311,TINDIGANI,TINDIGANI
KILIMANJARO,25,HAI,253,KIA,25311,TINDIGANI,BONZA
KILIMANJARO,25,HAI,253,KIA,25311,TINDIGANI,UKAMBANI
KILIMANJARO,25,HAI,253,KIA,25311,TINDIGANI,UMASAINI
KILIMANJARO,25,HAI,253,KIA,25311,SANYA STATION,SOKONI
KILIMANJARO,25,HAI,253,KIA,25311,SANYA STATION,PALESTINA
KILIMANJARO,25,HAI,253,KIA,25311,SANYA STATION,RAILWAY
KILIMANJARO,25,HAI,253,KIA,25311,SANYA STATION,ROAD TOLL
KILIMANJARO,25,HAI,253,KIA,25311,SANYA STATION,DARAJANI
KILIMANJARO,25,HAI,253,KIA,25311,MTAKUJA,SHAURIMOYO
KILIMANJARO,25,HAI,253,KIA,25311,MTAKUJA,KIGUGUMO
KILIMANJARO,25,HAI,253,KIA,25311,MTAKUJA,MAKAO MAPYA
KILIMANJARO,25,HAI,253,KIA,25311,MTAKUJA,UPARENI
KILIMANJARO,25,HAI,253,KIA,25311,MTAKUJA,UKAMBANI
KILIMANJARO,25,HAI,253,KIA,25311,MTAKUJA,KIA
KILIMANJARO,25,HAI,253,BOMANG'OMBE,25312,MTAKUJA,KIBAONI
KILIMANJARO,25,HAI,253,BOMANG'OMBE,25312,MTAKUJA,BOMANI
KILIMANJARO,25,HAI,253,BOMANG'OMBE,25312,MTAKUJA,MSIKITINI
KILIMANJARO,25,HAI,253,BOMANG'OMBE,25312,MTAKUJA,UZUNGUNI
KILIMANJARO,25,HAI,253,BOMANG'OMBE,25312,MTAKUJA,GEZAULOLE
KILIMANJARO,25,HAI,253,MASAMA MASHARIKI,25313,MBWEERA,MBWEERA
KILIMANJARO,25,HAI,253,MASAMA MASHARIKI,25313,MBWEERA,SAMBUREN
KILIMANJARO,25,HAI,253,MASAMA MASHARIKI,25313,MBORENY,TEMA
KILIMANJARO,25,HAI,253,MASAMA MASHARIKI,25313,MBORENY,NSARO
KILIMANJARO,25,HAI,253,MASAMA MASHARIKI,25313,NGIRA,NGIRA
KILIMANJARO,25,HAI,253,MASAMA MASHARIKI,25313,NGIRA,MIASENI
KILIMANJARO,25,HAI,253,MASAMA MASHARIKI,25313,SONU,MOMBO
KILIMANJARO,25,HAI,253,MASAMA MASHARIKI,25313,SONU,LOLOMU
KILIMANJARO,25,HAI,253,MASAMA MASHARIKI,25313,SONU,MUNGYULU
KILIMANJARO,25,HAI,253,MASAMA MASHARIKI,25313,SONU,TEMA
KILIMANJARO,25,HAI,253,MASAMA MASHARIKI,25313,SONU,MROWONY
KILIMANJARO,25,HAI,253,MASAMA MASHARIKI,25313,SAAWE,ITUUNI
KILIMANJARO,25,HAI,253,MASAMA MASHARIKI,25313,SAAWE,SAMANGA
KILIMANJARO,25,HAI,253,MASAMA MASHARIKI,25313,SAAWE,NGASIN
KILIMANJARO,25,HAI,253,MASAMA MASHARIKI,25313,SAAWE,MAKOWO
KILIMANJARO,25,HAI,253,MASAMA MASHARIKI,25313,SAAWE,SAAWE NDOO
KILIMANJARO,25,HAI,253,MASAMA KATI,25314,MBOSHO,KASHINI
KILIMANJARO,25,HAI,253,MASAMA KATI,25314,MBOSHO,MBOSHO KATI
KILIMANJARO,25,HAI,253,MASAMA KATI,25314,MBOSHO,KAMWA
KILIMANJARO,25,HAI,253,MASAMA KATI,25314,MBOSHO,MBOSHO SINDE
KILIMANJARO,25,HAI,253,MASAMA KATI,25314,MROMA,KIDURUNI  A
KILIMANJARO,25,HAI,253,MASAMA KATI,25314,MROMA,UFISHI
KILIMANJARO,25,HAI,253,MASAMA KATI,25314,MROMA,UWAU
KILIMANJARO,25,HAI,253,MASAMA KATI,25314,LEMIRA KATI,KIRUMBIU
KILIMANJARO,25,HAI,253,MASAMA KATI,25314,LEMIRA KATI,NKOROMU
KILIMANJARO,25,HAI,253,MASAMA KATI,25314,ISUKI,MAANGANI
KILIMANJARO,25,HAI,253,MASAMA KATI,25314,ISUKI,LOTORE
KILIMANJARO,25,HAI,253,MASAMA KATI,25314,ISUKI,ISUKI
KILIMANJARO,25,HAI,253,MASAMA KATI,25314,ISUKI,MWARA
KILIMANJARO,25,HAI,253,MASAMA KATI,25314,ISUKI,KAMWA
KILIMANJARO,25,HAI,253,MASAMA KATI,25314,NG'UNI,MATIKONI
KILIMANJARO,25,HAI,253,MASAMA KATI,25314,NG'UNI,NURE
KILIMANJARO,25,HAI,253,MASAMA KATI,25314,NG'UNI,MARUKENI
KILIMANJARO,25,HAI,253,MASAMA KATI,25314,NG'UNI,NRWASHOFU
KILIMANJARO,25,HAI,253,ROMU,25315,ROO NDOO,KYANGWE
KILIMANJARO,25,HAI,253,ROMU,25315,ROO NDOO,IWOU
KILIMANJARO,25,HAI,253,ROMU,25315,ROO NDOO,SHIAFIRA
KILIMANJARO,25,HAI,253,ROMU,25315,ROO NDOO,KIBOHEHE
KILIMANJARO,25,HAI,253,ROMU,25315,ROO SINDE,NKOTUMA
KILIMANJARO,25,HAI,253,ROMU,25315,ROO SINDE,KITIFU
KILIMANJARO,25,HAI,253,ROMU,25315,ROO SINDE,KISHARE
KILIMANJARO,25,HAI,253,ROMU,25315,ISAWERWA,ISAWERWA
KILIMANJARO,25,HAI,253,ROMU,25315,ISAWERWA,BONDENI
KILIMANJARO,25,HAI,253,ROMU,25315,ISAWERWA,KILIMANI
KILIMANJARO,25,HAI,253,ROMU,25315,ISAWERWA,IWALENY
KILIMANJARO,25,HAI,253,ROMU,25315,KIMIRA,KIMIRA
KILIMANJARO,25,HAI,253,ROMU,25315,KIMIRA,MAJENGO
KILIMANJARO,25,HAI,253,ROMU,25315,KIMIRA,NKWAMANGI
KILIMANJARO,25,HAI,253,ROMU,25315,KIMIRA,UDORO
KILIMANJARO,25,HAI,253,ROMU,25315,MUDIO,NKWARUMBE
KILIMANJARO,25,HAI,253,ROMU,25315,MUDIO,KISANGARI
KILIMANJARO,25,HAI,253,ROMU,25315,MUDIO,KIBOHEHE
KILIMANJARO,25,HAI,253,MUUNGANO,25316,MUDIO,KAMBI YA RAHA
KILIMANJARO,25,HAI,253,MUUNGANO,25316,MUDIO,UMOJA
KILIMANJARO,25,HAI,253,MUUNGANO,25316,MUDIO,AMANI
KILIMANJARO,25,HAI,253,MUUNGANO,25316,MUDIO,NYERERE
KILIMANJARO,25,HAI,253,MUUNGANO,25316,MUDIO,MLIMA SHABAHA
KILIMANJARO,25,HAI,253,MUUNGANO,25316,MUDIO,JIWENI
KILIMANJARO,25,HAI,253,BONDENI,25317,MUDIO,KINGEREKA  A
KILIMANJARO,25,HAI,253,BONDENI,25317,MUDIO,KINGEREKA  B
KILIMANJARO,25,HAI,253,BONDENI,25317,MUDIO,MAGADINI
KILIMANJARO,25,HAI,253,BONDENI,25317,MUDIO,KAMBI YA NYUKI
KILIMANJARO,25,HAI,253,BONDENI,25317,MUDIO,LERAI
KILIMANJARO,25,HAI,253,BONDENI,25317,MUDIO,KILIMAMBOGO
KILIMANJARO,25,SIHA,254,IVAENY,25401,WANRI,WANRI KATI
KILIMANJARO,25,SIHA,254,IVAENY,25401,WANRI,BWANG'U
KILIMANJARO,25,SIHA,254,IVAENY,25401,MAE,MAE KATI
KILIMANJARO,25,SIHA,254,IVAENY,25401,MAE,MADUKANI
KILIMANJARO,25,SIHA,254,IVAENY,25401,KISHISHA,ISUHUNY
KILIMANJARO,25,SIHA,254,IVAENY,25401,KISHISHA,ORINGA
KILIMANJARO,25,SIHA,254,IVAENY,25401,MAE JUU,LOMATE
KILIMANJARO,25,SIHA,254,IVAENY,25401,MAE JUU,MAINGA
KILIMANJARO,25,SIHA,254,IVAENY,25401,MAE JUU,ISABILONYI
KILIMANJARO,25,SIHA,254,KASHASHI,25402,KASHASHI,SUHUNI
KILIMANJARO,25,SIHA,254,KASHASHI,25402,KASHASHI,MAVENI
KILIMANJARO,25,SIHA,254,KASHASHI,25402,KASHASHI,LOSAVANA
KILIMANJARO,25,SIHA,254,KASHASHI,25402,KYENGIA,ORUMWI
KILIMANJARO,25,SIHA,254,KASHASHI,25402,KYENGIA,KISHONA
KILIMANJARO,25,SIHA,254,KASHASHI,25402,KYENGIA,RAA
KILIMANJARO,25,SIHA,254,KASHASHI,25402,LOKIRI,LWANKAME
KILIMANJARO,25,SIHA,254,KASHASHI,25402,LOKIRI,NGABOBO
KILIMANJARO,25,SIHA,254,KASHASHI,25402,LOKIRI,MAENDELEO
KILIMANJARO,25,SIHA,254,KASHASHI,25402,LOKIRI,LOSAVARE
KILIMANJARO,25,SIHA,254,KASHASHI,25402,KIRISHA,NGASINYI
KILIMANJARO,25,SIHA,254,KASHASHI,25402,KIRISHA,KIRISHA
KILIMANJARO,25,SIHA,254,KASHASHI,25402,MANIO,MANIO
KILIMANJARO,25,SIHA,254,KASHASHI,25402,MANIO,KITAHEMWA
KILIMANJARO,25,SIHA,254,KASHASHI,25402,MANIO,MURI
KILIMANJARO,25,SIHA,254,KASHASHI,25402,MANIO,OHINY
KILIMANJARO,25,SIHA,254,KASHASHI,25402,NAWERU,NKWAMANIRE
KILIMANJARO,25,SIHA,254,KASHASHI,25402,NAWERU,NKWESHASHU
KILIMANJARO,25,SIHA,254,KASHASHI,25402,NAWERU,MWANYINGONY
KILIMANJARO,25,SIHA,254,KASHASHI,25402,NAWERU,NKWAMANYIRE
KILIMANJARO,25,SIHA,254,KARANSI,25403,KARANSI,KARANSI
KILIMANJARO,25,SIHA,254,KARANSI,25403,KARANSI,MITI MIREFU
KILIMANJARO,25,SIHA,254,KARANSI,25403,KARANSI,MLIMANI
KILIMANJARO,25,SIHA,254,KARANSI,25403,KANDASHI,KARIKASHA
KILIMANJARO,25,SIHA,254,KARANSI,25403,KANDASHI,SOITOLOMU
KILIMANJARO,25,SIHA,254,KARANSI,25403,KANDASHI,KANDASHI
KILIMANJARO,25,SIHA,254,KARANSI,25403,LEKRIMUNI,LIKRIMUNI
KILIMANJARO,25,SIHA,254,KARANSI,25403,LEKRIMUNI,ORKONG
KILIMANJARO,25,SIHA,254,KARANSI,25403,LEKRIMUNI,ORTING'A
KILIMANJARO,25,SIHA,254,KARANSI,25403,ASHENGAI,ASHENGAI
KILIMANJARO,25,SIHA,254,KARANSI,25403,ASHENGAI,MIANZINI
KILIMANJARO,25,SIHA,254,KARANSI,25403,ASHENGAI,ZIWANI
KILIMANJARO,25,SIHA,254,KARANSI,25403,MENDAI,MENDAI
KILIMANJARO,25,SIHA,254,KARANSI,25403,MENDAI,TAUKA
KILIMANJARO,25,SIHA,254,KARANSI,25403,MENDAI,NGULELO
KILIMANJARO,25,SIHA,254,KARANSI,25403,NDINYIKA,MADUKANI
KILIMANJARO,25,SIHA,254,KARANSI,25403,NDINYIKA,KILIMASHIMBA
KILIMANJARO,25,SIHA,254,KARANSI,25403,NDINYIKA,NDINYIKA
KILIMANJARO,25,SIHA,254,GARARAGUA,25404,WIRI,WIRI
KILIMANJARO,25,SIHA,254,GARARAGUA,25404,WIRI,DACHI KONA
KILIMANJARO,25,SIHA,254,GARARAGUA,25404,MAWASILIANO,MAWASILIANO
KILIMANJARO,25,SIHA,254,GARARAGUA,25404,MAWASILIANO,NEEMA
KILIMANJARO,25,SIHA,254,GARARAGUA,25404,MAGADINI,MAGADINI KATI
KILIMANJARO,25,SIHA,254,GARARAGUA,25404,MAGADINI,LENG'ONG
KILIMANJARO,25,SIHA,254,GARARAGUA,25404,MAGADINI,NACO
KILIMANJARO,25,SIHA,254,GARARAGUA,25404,MAGADINI,ZIWA MAGADINI
KILIMANJARO,25,SIHA,254,GARARAGUA,25404,MLANGONI,MLANGONI
KILIMANJARO,25,SIHA,254,GARARAGUA,25404,MLANGONI,KILARI
KILIMANJARO,25,SIHA,254,SANYA JUU,25405,SANYA JUU,MAJENGO
KILIMANJARO,25,SIHA,254,SANYA JUU,25405,SANYA JUU,ORENGETO
KILIMANJARO,25,SIHA,254,SANYA JUU,25405,SANYA JUU,PONGO
KILIMANJARO,25,SIHA,254,SANYA JUU,25405,SANYA HOYEE,SONGAMBELE
KILIMANJARO,25,SIHA,254,SANYA JUU,25405,SANYA HOYEE,MWAMKO
KILIMANJARO,25,SIHA,254,SANYA JUU,25405,SANYA HOYEE,MAKAO MAPYA
KILIMANJARO,25,SIHA,254,SANYA JUU,25405,KILINGI,KILINGI KATI
KILIMANJARO,25,SIHA,254,SANYA JUU,25405,KILINGI,KIKUYUNI
KILIMANJARO,25,SIHA,254,SANYA JUU,25405,KILINGI,MSINGI
KILIMANJARO,25,SIHA,254,SANYA JUU,25405,MERALI,MERALI JUU
KILIMANJARO,25,SIHA,254,SANYA JUU,25405,MERALI,MERALI KATI
KILIMANJARO,25,SIHA,254,SANYA JUU,25405,MERALI,MERALI CHINI
KILIMANJARO,25,SIHA,254,BIRIRI,25406,NAIBILIE,NAIBILIE
KILIMANJARO,25,SIHA,254,BIRIRI,25406,NAIBILIE,SABUKO
KILIMANJARO,25,SIHA,254,BIRIRI,25406,MAJENGO,BINGATI
KILIMANJARO,25,SIHA,254,BIRIRI,25406,MAJENGO,MAJENGO
KILIMANJARO,25,SIHA,254,BIRIRI,25406,MAJENGO,NYATI
KILIMANJARO,25,SIHA,254,MAKIWARU,25407,MAKIWARU,MAKIWARU
KILIMANJARO,25,SIHA,254,MAKIWARU,25407,MAKIWARU,MAKIWARU B
KILIMANJARO,25,SIHA,254,MAKIWARU,25407,MOWARA,MOWARA
KILIMANJARO,25,SIHA,254,MAKIWARU,25407,MOWARA,SERENGETI
KILIMANJARO,25,SIHA,254,MAKIWARU,25407,MWINUKO,MWINUKO
KILIMANJARO,25,SIHA,254,MAKIWARU,25407,MWINUKO,EKENYWA
KILIMANJARO,25,SIHA,254,MAKIWARU,25407,NGARITATI,NGARITATI
KILIMANJARO,25,SIHA,254,MAKIWARU,25407,NGARITATI,LAMBO
KILIMANJARO,25,SIHA,254,MAKIWARU,25407,NDARARA,NDARARA
KILIMANJARO,25,SIHA,254,MAKIWARU,25407,NDARARA,NURU MADUKANI
KILIMANJARO,25,SIHA,254,MAKIWARU,25407,TINDIGANI,TINDIGANI A
KILIMANJARO,25,SIHA,254,MAKIWARU,25407,TINDIGANI,TINDIGANI B
KILIMANJARO,25,SIHA,254,MAKIWARU,25407,TINDIGANI,TINDIGANI KATI
KILIMANJARO,25,SIHA,254,OLKOLILI,25408,MKOMBOZI,MKOMBOZI
KILIMANJARO,25,SIHA,254,OLKOLILI,25408,MKOMBOZI,MKOMBOZI B
KILIMANJARO,25,SIHA,254,OLKOLILI,25408,OLKOLILI,OLKOLILI
KILIMANJARO,25,SIHA,254,OLKOLILI,25408,OLKOLILI,SONGAMBELE
KILIMANJARO,25,SIHA,254,OLKOLILI,25408,OLKOLILI,KIDIRE
KILIMANJARO,25,SIHA,254,OLKOLILI,25408,OLKOLILI,MAKAO MAPYA
KILIMANJARO,25,SIHA,254,OLKOLILI,25408,OLKOLILI,ISINONI
KILIMANJARO,25,SIHA,254,LIVISHI,25409,MOWONJAMU,KYABO CHINI
KILIMANJARO,25,SIHA,254,LIVISHI,25409,MOWONJAMU,KYABO JUU
KILIMANJARO,25,SIHA,254,LIVISHI,25409,MOWONJAMU,OSANGARINY
KILIMANJARO,25,SIHA,254,LIVISHI,25409,MOWONJAMU,NJAMU
KILIMANJARO,25,SIHA,254,LIVISHI,25409,MOWONJAMU,NKYARE
KILIMANJARO,25,SIHA,254,LIVISHI,25409,SAMAKI MAINI,KISHAFO MFULONY
KILIMANJARO,25,SIHA,254,LIVISHI,25409,SAMAKI MAINI,KISHOFU LAKTORE
KILIMANJARO,25,SIHA,254,LIVISHI,25409,NGARONI,NGARONY MAINI
KILIMANJARO,25,SIHA,254,LIVISHI,25409,NGARONI,NGARONY SAMAKI
KILIMANJARO,25,SIHA,254,LIVISHI,25409,NGARONI,KIWANJANI NGARONY
KILIMANJARO,25,SIHA,254,LIVISHI,25409,MESE,MESE
KILIMANJARO,25,SIHA,254,LIVISHI,25409,MESE,KIRISHI
KILIMANJARO,25,SIHA,254,LIVISHI,25409,MESE,SAMANA
KILIMANJARO,25,SIHA,254,LIVISHI,25409,NSHEREHEHE,HEHE/LAKTORE
KILIMANJARO,25,SIHA,254,LIVISHI,25409,NSHEREHEHE,NSHEREKYOONGWA
KILIMANJARO,25,SIHA,254,NASAI,25410,KOBOKO KUSINI,KIKWE
KILIMANJARO,25,SIHA,254,NASAI,25410,KOBOKO KUSINI,OMARO
KILIMANJARO,25,SIHA,254,NASAI,25410,KOBOKO KUSINI,NAKAYALE
KILIMANJARO,25,SIHA,254,NASAI,25410,KOBOKO KASKAZINI,NASAI
KILIMANJARO,25,SIHA,254,NASAI,25410,KOBOKO KASKAZINI,OMARINY
KILIMANJARO,25,SIHA,254,NASAI,25410,KOBOKO KASKAZINI,MOSINY
KILIMANJARO,25,SIHA,254,NASAI,25410,NRAO KISANGARA,NRAO JUU
KILIMANJARO,25,SIHA,254,NASAI,25410,NRAO KISANGARA,NRAO IFUMU
KILIMANJARO,25,SIHA,254,NASAI,25410,NRAO KISANGARA,KISANGARA
KILIMANJARO,25,SIHA,254,NASAI,25410,NGIRINY,MANIKO
KILIMANJARO,25,SIHA,254,NASAI,25410,NGIRINY,TIRIRI
KILIMANJARO,25,SIHA,254,NASAI,25410,NGIRINY,NJARU
KILIMANJARO,25,SIHA,254,NGARENAIROBI,25411,NAMWAI,MOTOMATI
KILIMANJARO,25,SIHA,254,NGARENAIROBI,25411,NAMWAI,ESIMBOSI
KILIMANJARO,25,SIHA,254,NGARENAIROBI,25411,NAMWAI,NAMWAI
KILIMANJARO,25,SIHA,254,NGARENAIROBI,25411,NGARENAIROBI,NGARENAIROBI
KILIMANJARO,25,SIHA,254,NGARENAIROBI,25411,NGARENAIROBI,KILORITI
KILIMANJARO,25,SIHA,254,NGARENAIROBI,25411,NGARENAIROBI,KIJIWENI
KILIMANJARO,25,SIHA,254,NGARENAIROBI,25411,NGARENAIROBI,NGARENAIROBI A
KILIMANJARO,25,SIHA,254,NGARENAIROBI,25411,NGARENAIROBI,NGARENAIROBI B
KILIMANJARO,25,SIHA,254,NGARENAIROBI,25411,NGARENAIROBI,KIGAMBONI
KILIMANJARO,25,SIHA,254,NGARENAIROBI,25411,MWANGAZA,SINAI
KILIMANJARO,25,SIHA,254,NGARENAIROBI,25411,MWANGAZA,KALOLENI
KILIMANJARO,25,SIHA,254,NGARENAIROBI,25411,MWANGAZA,MWANGAZA
KILIMANJARO,25,SIHA,254,NDUMETI,25412,MATADI,MATADI A
KILIMANJARO,25,SIHA,254,NDUMETI,25412,MATADI,AMANI
KILIMANJARO,25,SIHA,254,NDUMETI,25412,MATADI,KILIMA HEWA
KILIMANJARO,25,SIHA,254,NDUMETI,25412,MATADI,MATADI B
KILIMANJARO,25,SIHA,254,NDUMETI,25412,MATADI,MJIMWEMA
KILIMANJARO,25,SIHA,254,NDUMETI,25412,ROSELYNE,SUZAN
KILIMANJARO,25,SIHA,254,NDUMETI,25412,ROSELYNE,ROSELYNE A
KILIMANJARO,25,SIHA,254,NDUMETI,25412,ROSELYNE,ROSELYNE B
KILIMANJARO,25,SIHA,254,NDUMETI,25412,ROSELYNE,KAMBINI
KILIMANJARO,25,SIHA,254,SONGU,25413,NGUMBARU,NGUMBARU
KILIMANJARO,25,SIHA,254,SONGU,25413,NGUMBARU,NKYEKU
KILIMANJARO,25,SIHA,254,ORMELILI,25414,ORMELILI,MATANGINI
KILIMANJARO,25,SIHA,254,ORMELILI,25414,ORMELILI,ORMELILI
KILIMANJARO,25,SIHA,254,ORMELILI,25414,ORMELILI,MFUMUNI
KILIMANJARO,25,SIHA,254,ORMELILI,25414,SINAI,DARAJANI
KILIMANJARO,25,SIHA,254,ORMELILI,25414,SINAI,KIRUSWA
KILIMANJARO,25,SIHA,254,ORMELILI,25414,SINAI,SINAI
KILIMANJARO,25,SIHA,254,DONYOMURWAK,25415,DONYOMURWAK,MANYATA
KILIMANJARO,25,SIHA,254,DONYOMURWAK,25415,DONYOMURWAK,DONYOMURWAK
KILIMANJARO,25,SIHA,254,DONYOMURWAK,25415,DONYOMURWAK,EKENYWA
KILIMANJARO,25,SIHA,254,DONYOMURWAK,25415,EMBUKOI,EMBOKOI
KILIMANJARO,25,SIHA,254,DONYOMURWAK,25415,EMBUKOI,LEPOLOSI
KILIMANJARO,25,SIHA,254,DONYOMURWAK,25415,EMBUKOI,ENG'ABOLI
KILIMANJARO,25,SIHA,254,DONYOMURWAK,25415,OLOIWANG,OLOIWANG
KILIMANJARO,25,SIHA,254,DONYOMURWAK,25415,OLOIWANG,MENG'WARA
KILIMANJARO,25,SIHA,254,DONYOMURWAK,25415,MUNGE,MUNGE
KILIMANJARO,25,SIHA,254,DONYOMURWAK,25415,MUNGE,ELERAI
KILIMANJARO,25,SIHA,254,MITI MIREFU,25416,MITI MIREFU,MABANZINI
KILIMANJARO,25,SIHA,254,MITI MIREFU,25416,MITI MIREFU,SONGAMBELE
KILIMANJARO,25,SIHA,254,MITI MIREFU,25416,MITI MIREFU,MITI MIREFU
KILIMANJARO,25,SIHA,254,MITI MIREFU,25416,KALI MAJI,KALIMAJI
KILIMANJARO,25,SIHA,254,MITI MIREFU,25416,KALI MAJI,BONDENI
KILIMANJARO,25,SIHA,254,MITI MIREFU,25416,KALI MAJI,BIRIKATA
KILIMANJARO,25,SIHA,254,KIRUA,25417,FUKA,KYANGILI
KILIMANJARO,25,SIHA,254,KIRUA,25417,FUKA,INJARU
KILIMANJARO,25,SIHA,254,KIRUA,25417,LOMAKAA,LOMAWE
KILIMANJARO,25,SIHA,254,KIRUA,25417,LOMAKAA,NSENGONYI
KILIMANJARO,25,SIHA,254,KIRUA,25417,LAWATE,LAWATE
KILIMANJARO,25,SIHA,254,KIRUA,25417,LAWATE,KIBAONI
KILIMANJARO,25,MWANGA,255,JIPE,25501,JIPE,UBUNGU
KILIMANJARO,25,MWANGA,255,JIPE,25501,JIPE,MAKUYUNI
KILIMANJARO,25,MWANGA,255,JIPE,25501,KAMBI YA SIMBA,KAMBI YA SIMBA
KILIMANJARO,25,MWANGA,255,JIPE,25501,KAMBI YA SIMBA,UBEMBE
KILIMANJARO,25,MWANGA,255,JIPE,25501,KAMBI YA SIMBA,NGELENI
KILIMANJARO,25,MWANGA,255,JIPE,25501,UGWENO,MKISHA
KILIMANJARO,25,MWANGA,255,JIPE,25501,UGWENO,BUTU
KILIMANJARO,25,MWANGA,255,KIGONIGONI,25502,KIGONIGONI,KIGONIGONI A
KILIMANJARO,25,MWANGA,255,KIGONIGONI,25502,KIGONIGONI,KIGONIGONI B
KILIMANJARO,25,MWANGA,255,KIGONIGONI,25502,RURU,RURU A
KILIMANJARO,25,MWANGA,255,KIGONIGONI,25502,RURU,RURU B
KILIMANJARO,25,MWANGA,255,KIGONIGONI,25502,KWAKIHINDI,KWAKIHINDI A
KILIMANJARO,25,MWANGA,255,KIGONIGONI,25502,KWAKIHINDI,KWAKIHINDI B
KILIMANJARO,25,MWANGA,255,KIGONIGONI,25502,BUTU USANGI,MGWELO
KILIMANJARO,25,MWANGA,255,KIGONIGONI,25502,BUTU USANGI,SOKONI
KILIMANJARO,25,MWANGA,255,KIVISINI,25503,KIVISINI,KIVISINI A
KILIMANJARO,25,MWANGA,255,KIVISINI,25503,KIVISINI,KIVISINI B
KILIMANJARO,25,MWANGA,255,KIVISINI,25503,KITONGOTO,KITOGHOTO
KILIMANJARO,25,MWANGA,255,KIVISINI,25503,KITONGOTO,MKUU
KILIMANJARO,25,MWANGA,255,KIVISINI,25503,KWANYANGE,KWANYANGE A
KILIMANJARO,25,MWANGA,255,KIVISINI,25503,KWANYANGE,KWANYANGE B
KILIMANJARO,25,MWANGA,255,KWAKOA,25504,KWAKOA,KWAKOA
KILIMANJARO,25,MWANGA,255,KWAKOA,25504,KWAKOA,MGIGILI
KILIMANJARO,25,MWANGA,255,KWAKOA,25504,KWAKOA,NYATA
KILIMANJARO,25,MWANGA,255,KWAKOA,25504,NGULU,MKONGEA
KILIMANJARO,25,MWANGA,255,KWAKOA,25504,NGULU,KAVAGALA
KILIMANJARO,25,MWANGA,255,KWAKOA,25504,NGULU,MABASHULA
KILIMANJARO,25,MWANGA,255,KWAKOA,25504,NGULU,KIVERENGE
KILIMANJARO,25,MWANGA,255,TOLOHA,25505,GONGONI,GONGONI A
KILIMANJARO,25,MWANGA,255,TOLOHA,25505,GONGONI,GONGONI B
KILIMANJARO,25,MWANGA,255,TOLOHA,25505,KARAMBA/ NDEA,KARAMBA
KILIMANJARO,25,MWANGA,255,TOLOHA,25505,KARAMBA/ NDEA,NDEA
KILIMANJARO,25,MWANGA,255,TOLOHA,25505,SIMU/ KIZUNGO,SIMU
KILIMANJARO,25,MWANGA,255,TOLOHA,25505,SIMU/ KIZUNGO,KIZUNGO
KILIMANJARO,25,MWANGA,255,MSANGENI,25506,MSANGENI,SUNGO
KILIMANJARO,25,MWANGA,255,MSANGENI,25506,MSANGENI,MSANGENI
KILIMANJARO,25,MWANGA,255,MSANGENI,25506,MSANGENI,CHUNGULI
KILIMANJARO,25,MWANGA,255,MSANGENI,25506,MSANGENI,TONGO
KILIMANJARO,25,MWANGA,255,MSANGENI,25506,MSANGENI,NDEMWENI
KILIMANJARO,25,MWANGA,255,MSANGENI,25506,MSANGENI,KASENI
KILIMANJARO,25,MWANGA,255,MSANGENI,25506,MRUMA,NGORIO
KILIMANJARO,25,MWANGA,255,MSANGENI,25506,MRUMA,TONI
KILIMANJARO,25,MWANGA,255,MSANGENI,25506,MRUMA,ROFU
KILIMANJARO,25,MWANGA,255,MSANGENI,25506,MRUMA,MWANZINI
KILIMANJARO,25,MWANGA,255,MSANGENI,25506,SIMBOMU,MAVANJA
KILIMANJARO,25,MWANGA,255,MSANGENI,25506,SIMBOMU,SIMBOMU
KILIMANJARO,25,MWANGA,255,MSANGENI,25506,MAMBA,KIKWENI
KILIMANJARO,25,MWANGA,255,MSANGENI,25506,MAMBA,MAMBA KATI
KILIMANJARO,25,MWANGA,255,MSANGENI,25506,MAMBA,KIFURIKWENI
KILIMANJARO,25,MWANGA,255,MSANGENI,25506,MAMBA,MARUNDU
KILIMANJARO,25,MWANGA,255,MSANGENI,25506,MWAI,MWAI
KILIMANJARO,25,MWANGA,255,MSANGENI,25506,MWAI,KISHENGWENI
KILIMANJARO,25,MWANGA,255,MSANGENI,25506,MWAI,MARUGHUNI
KILIMANJARO,25,MWANGA,255,KIFULA,25507,MASUMBENI,KISHEKO
KILIMANJARO,25,MWANGA,255,KIFULA,25507,MASUMBENI,MGHALE
KILIMANJARO,25,MWANGA,255,KIFULA,25507,MASUMBENI,MSAKU
KILIMANJARO,25,MWANGA,255,KIFULA,25507,MASUMBENI,MRIGHONYI
KILIMANJARO,25,MWANGA,255,KIFULA,25507,MASUMBENI,MTOKI
KILIMANJARO,25,MWANGA,255,KIFULA,25507,KADENGERE,MALALA
KILIMANJARO,25,MWANGA,255,KIFULA,25507,KADENGERE,MRONGO
KILIMANJARO,25,MWANGA,255,KIFULA,25507,KADENGERE,MBORE
KILIMANJARO,25,MWANGA,255,KIFULA,25507,KADENGERE,MALEKANO
KILIMANJARO,25,MWANGA,255,KIFULA,25507,KISANJUNI,KISANJUNI
KILIMANJARO,25,MWANGA,255,KIFULA,25507,KISANJUNI,MBALE
KILIMANJARO,25,MWANGA,255,KIFULA,25507,KISANJUNI,KIFULA
KILIMANJARO,25,MWANGA,255,KIFULA,25507,RAA,RAA KATI
KILIMANJARO,25,MWANGA,255,KIFULA,25507,RAA,NGWENI
KILIMANJARO,25,MWANGA,255,KIFULA,25507,RAA,NGANYINYI
KILIMANJARO,25,MWANGA,255,KIFULA,25507,RAA,MOTINGI
KILIMANJARO,25,MWANGA,255,KIFULA,25507,RANGAA,RANGAA
KILIMANJARO,25,MWANGA,255,KIFULA,25507,RANGAA,MALA
KILIMANJARO,25,MWANGA,255,KIFULA,25507,RANGAA,MWIRI
KILIMANJARO,25,MWANGA,255,MWANIKO,25508,MWANIKO,MARINYI
KILIMANJARO,25,MWANGA,255,MWANIKO,25508,MWANIKO,NG’ANGA
KILIMANJARO,25,MWANGA,255,MWANIKO,25508,MWANIKO,SECHUNI
KILIMANJARO,25,MWANGA,255,MWANIKO,25508,MWANIKO,MWANIKO
KILIMANJARO,25,MWANGA,255,MWANIKO,25508,MWANIKO,MRERA
KILIMANJARO,25,MWANGA,255,MWANIKO,25508,MANGIO,MANGIO
KILIMANJARO,25,MWANGA,255,MWANIKO,25508,MANGIO,MCHENI
KILIMANJARO,25,MWANGA,255,MWANIKO,25508,MANGIO,MWERO
KILIMANJARO,25,MWANGA,255,MWANIKO,25508,MANGIO,MRUMA
KILIMANJARO,25,MWANGA,255,MWANIKO,25508,MANGIO,VONGO
KILIMANJARO,25,MWANGA,255,MWANIKO,25508,VUCHAMANGOFI,NGOFI
KILIMANJARO,25,MWANGA,255,MWANIKO,25508,VUCHAMANGOFI,KITALONI
KILIMANJARO,25,MWANGA,255,MWANIKO,25508,VUCHAMANGOFI,VUNGI
KILIMANJARO,25,MWANGA,255,MWANIKO,25508,VUCHAMANGOFI,KIGHU
KILIMANJARO,25,MWANGA,255,MWANIKO,25508,VUCHAMANGOFI,UBANGI
KILIMANJARO,25,MWANGA,255,MWANIKO,25508,VUCHAMANGOFI,MRERENYI
KILIMANJARO,25,MWANGA,255,MWANIKO,25508,VUCHAMANGOFI,VONGO
KILIMANJARO,25,MWANGA,255,MWANIKO,25508,VUCHAMANGOFI,MALATA
KILIMANJARO,25,MWANGA,255,MWANIKO,25508,MRITI,DONGODO
KILIMANJARO,25,MWANGA,255,MWANIKO,25508,MRITI,MRITI KATI
KILIMANJARO,25,MWANGA,255,MWANIKO,25508,MRITI,MWATE
KILIMANJARO,25,MWANGA,255,MWANIKO,25508,MRITI,MCHAMBO
KILIMANJARO,25,MWANGA,255,SHIGHATINI,25509,SHIGHATINI,MAGHAMBA
KILIMANJARO,25,MWANGA,255,SHIGHATINI,25509,SHIGHATINI,MBUGHWINI
KILIMANJARO,25,MWANGA,255,SHIGHATINI,25509,SHIGHATINI,LOMBONI
KILIMANJARO,25,MWANGA,255,SHIGHATINI,25509,MFINGA,MSALENI
KILIMANJARO,25,MWANGA,255,SHIGHATINI,25509,MFINGA,MALE
KILIMANJARO,25,MWANGA,255,SHIGHATINI,25509,MFINGA,MFINGA
KILIMANJARO,25,MWANGA,255,SHIGHATINI,25509,MKUU,MFINGA SHULENI
KILIMANJARO,25,MWANGA,255,SHIGHATINI,25509,MKUU,MNYALI
KILIMANJARO,25,MWANGA,255,SHIGHATINI,25509,MKUU,BURENI
KILIMANJARO,25,MWANGA,255,SHIGHATINI,25509,VUCHAMANDAMBWE,VANJA
KILIMANJARO,25,MWANGA,255,SHIGHATINI,25509,VUCHAMANDAMBWE,CHANG’OMBE
KILIMANJARO,25,MWANGA,255,SHIGHATINI,25509,VUCHAMANDAMBWE,MGWENGWENI
KILIMANJARO,25,MWANGA,255,SHIGHATINI,25509,LAMBO,MSALENI
KILIMANJARO,25,MWANGA,255,SHIGHATINI,25509,LAMBO,KIVERENGE
KILIMANJARO,25,MWANGA,255,SHIGHATINI,25509,LAMBO,MARUGHUNI
KILIMANJARO,25,MWANGA,255,SHIGHATINI,25509,LAMBO,LONGONI
KILIMANJARO,25,MWANGA,255,SHIGHATINI,25509,LAMBO,MTOSHENI
KILIMANJARO,25,MWANGA,255,SHIGHATINI,25509,LAMBO,MOMBEA
KILIMANJARO,25,MWANGA,255,SHIGHATINI,25509,IBAYA,KAMWALA
KILIMANJARO,25,MWANGA,255,SHIGHATINI,25509,IBAYA,KAGUGU
KILIMANJARO,25,MWANGA,255,SHIGHATINI,25509,IBAYA,KWAKIVUMA
KILIMANJARO,25,MWANGA,255,KILEO,25510,KILEO,KWA MLAKI A
KILIMANJARO,25,MWANGA,255,KILEO,25510,KILEO,KWA MLAKI B
KILIMANJARO,25,MWANGA,255,KILEO,25510,KILEO,MNOA
KILIMANJARO,25,MWANGA,255,KILEO,25510,KILEO,BARABARANI
KILIMANJARO,25,MWANGA,255,KILEO,25510,KILEO,KILEO KATI
KILIMANJARO,25,MWANGA,255,KILEO,25510,KIVULINI,KIVULINI A
KILIMANJARO,25,MWANGA,255,KILEO,25510,KIVULINI,KIVULINI B
KILIMANJARO,25,MWANGA,255,KILEO,25510,KIVULINI,MISRI
KILIMANJARO,25,MWANGA,255,KILEO,25510,KIVULINI,MBALENI
KILIMANJARO,25,MWANGA,255,KILEO,25510,KIFARU,MAJENGO
KILIMANJARO,25,MWANGA,255,KILEO,25510,KIFARU,TINGATINGA
KILIMANJARO,25,MWANGA,255,KILEO,25510,KIFARU,MADUKANI
KILIMANJARO,25,MWANGA,255,KILEO,25510,KIFARU,KIVUKONI
KILIMANJARO,25,MWANGA,255,KILEO,25510,KITURI,MIKOCHENI A
KILIMANJARO,25,MWANGA,255,KILEO,25510,KITURI,MIKOCHENI B
KILIMANJARO,25,MWANGA,255,KILEO,25510,KITURI,MIKOCHENI C
KILIMANJARO,25,MWANGA,255,KILEO,25510,KITURI,KALIMANI
KILIMANJARO,25,MWANGA,255,MWANGA,25511,KITURI,MABOMANI
KILIMANJARO,25,MWANGA,255,MWANGA,25511,KITURI,RELI JUU
KILIMANJARO,25,MWANGA,255,MWANGA,25511,KITURI,RELI CHINI
KILIMANJARO,25,MWANGA,255,MWANGA,25511,KITURI,KICHANGARE
KILIMANJARO,25,MWANGA,255,MWANGA,25511,KITURI,MIKUYUNI
KILIMANJARO,25,MWANGA,255,MWANGA,25511,KITURI,MWANGONDI
KILIMANJARO,25,MWANGA,255,MWANGA,25511,KITURI,KISANGIRO
KILIMANJARO,25,MWANGA,255,MWANGA,25511,KITURI,MANDAKA
KILIMANJARO,25,MWANGA,255,MWANGA,25511,KITURI,MFORO
KILIMANJARO,25,MWANGA,255,MWANGA,25511,KITURI,MIKAMENI
KILIMANJARO,25,MWANGA,255,MWANGA,25511,KITURI,MTALANG’A
KILIMANJARO,25,MWANGA,255,MWANGA,25511,KITURI,VUDOI
KILIMANJARO,25,MWANGA,255,MWANGA,25511,KITURI,LWAMI
KILIMANJARO,25,MWANGA,255,LANG'ATA,25512,LANG'ATABORA,KAZA MWENDO
KILIMANJARO,25,MWANGA,255,LANG'ATA,25512,LANG'ATABORA,KNCU KATI
KILIMANJARO,25,MWANGA,255,LANG'ATA,25512,LANG'ATABORA,AMBONI
KILIMANJARO,25,MWANGA,255,LANG'ATA,25512,LANG'ATA KAGONGO,KIWANJA
KILIMANJARO,25,MWANGA,255,LANG'ATA,25512,LANG'ATA KAGONGO,MASHINE
KILIMANJARO,25,MWANGA,255,LANG'ATA,25512,LANG'ATA KAGONGO,BARAFU
KILIMANJARO,25,MWANGA,255,LANG'ATA,25512,LANG'ATA KAGONGO,LANG’ATANDOGO
KILIMANJARO,25,MWANGA,255,LANG'ATA,25512,NYABINDA,JAUMA
KILIMANJARO,25,MWANGA,255,LANG'ATA,25512,NYABINDA,MUUNGANO
KILIMANJARO,25,MWANGA,255,LANG'ATA,25512,HANDENI,KWA BANDA
KILIMANJARO,25,MWANGA,255,LANG'ATA,25512,HANDENI,BUNGE
KILIMANJARO,25,MWANGA,255,LEMBENI,25513,LEMBENI,KISEKIBAHA
KILIMANJARO,25,MWANGA,255,LEMBENI,25513,LEMBENI,RUGHWINI
KILIMANJARO,25,MWANGA,255,LEMBENI,25513,LEMBENI,STESHENI
KILIMANJARO,25,MWANGA,255,LEMBENI,25513,LEMBENI,KAILI(RELI CHINI)
KILIMANJARO,25,MWANGA,255,LEMBENI,25513,KIRURU IBWEIJEWA,VUMBENI
KILIMANJARO,25,MWANGA,255,LEMBENI,25513,KIRURU IBWEIJEWA,MIGHARENI
KILIMANJARO,25,MWANGA,255,LEMBENI,25513,KIRURU IBWEIJEWA,MSIKITINI
KILIMANJARO,25,MWANGA,255,LEMBENI,25513,KIRURU IBWEIJEWA,HEIRIA
KILIMANJARO,25,MWANGA,255,LEMBENI,25513,KISANGARA,KIRONGAYA
KILIMANJARO,25,MWANGA,255,LEMBENI,25513,KISANGARA,KWA LUTU
KILIMANJARO,25,MWANGA,255,LEMBENI,25513,KISANGARA,ZINGA
KILIMANJARO,25,MWANGA,255,LEMBENI,25513,KISANGARA,CHANJALE
KILIMANJARO,25,MWANGA,255,LEMBENI,25513,KISANGARA,KIWANDANI
KILIMANJARO,25,MWANGA,255,LEMBENI,25513,KISANGARA,MASHINE
KILIMANJARO,25,MWANGA,255,LEMBENI,25513,KISANGARA,STENDI
KILIMANJARO,25,MWANGA,255,LEMBENI,25513,KISANGARA,SOKONI
KILIMANJARO,25,MWANGA,255,LEMBENI,25513,KISANGARA,MAJENGO MAPYA
KILIMANJARO,25,MWANGA,255,LEMBENI,25513,KISANGARA,LENGURUMO
KILIMANJARO,25,MWANGA,255,LEMBENI,25513,MBAMBUA,MKIZINGO
KILIMANJARO,25,MWANGA,255,LEMBENI,25513,MBAMBUA,KWAANJILI
KILIMANJARO,25,MWANGA,255,LEMBENI,25513,MBAMBUA,MAZIGHANI
KILIMANJARO,25,MWANGA,255,LEMBENI,25513,MBAMBUA,MAYAWE
KILIMANJARO,25,MWANGA,255,LEMBENI,25513,MANGARA,MANGARA
KILIMANJARO,25,MWANGA,255,LEMBENI,25513,MANGARA,MARIRANGA
KILIMANJARO,25,MWANGA,255,LEMBENI,25513,MANGARA,MAZIGHANI
KILIMANJARO,25,MWANGA,255,MAGAGAO,25514,KIVERENGE,SHIGHATI
KILIMANJARO,25,MWANGA,255,MAGAGAO,25514,KIVERENGE,TAMBARARE
KILIMANJARO,25,MWANGA,255,MAGAGAO,25514,KIVERENGE,MBUYUNI
KILIMANJARO,25,MWANGA,255,MAGAGAO,25514,KIVERENGE,KICHWA CHA NG’OMBE
KILIMANJARO,25,MWANGA,255,MAGAGAO,25514,MGAGAO,KILOMENI
KILIMANJARO,25,MWANGA,255,MAGAGAO,25514,MGAGAO,KIJIJINI
KILIMANJARO,25,MWANGA,255,MAGAGAO,25514,MGAGAO,ZAHANATI
KILIMANJARO,25,MWANGA,255,MAGAGAO,25514,MGAGAO,MAKWINGWINI
KILIMANJARO,25,MWANGA,255,MAGAGAO,25514,MGAGAO,MGAGAO
KILIMANJARO,25,MWANGA,255,MAGAGAO,25514,PANGARO,KAUZENI
KILIMANJARO,25,MWANGA,255,MAGAGAO,25514,PANGARO,NGUSERO
KILIMANJARO,25,MWANGA,255,MAGAGAO,25514,PANGARO,KINGONDI
KILIMANJARO,25,MWANGA,255,NGUJINI,25515,NGUJINI,IKWENGWENI
KILIMANJARO,25,MWANGA,255,NGUJINI,25515,NGUJINI,KIDINGIRI
KILIMANJARO,25,MWANGA,255,NGUJINI,25515,NGUJINI,NGWENI
KILIMANJARO,25,MWANGA,255,NGUJINI,25515,NGUJINI,KWA NGARA
KILIMANJARO,25,MWANGA,255,NGUJINI,25515,NGUJINI,MANG'ATO
KILIMANJARO,25,MWANGA,255,NGUJINI,25515,CHANJALE,CHAMAKERA
KILIMANJARO,25,MWANGA,255,NGUJINI,25515,CHANJALE,KISUGHURU
KILIMANJARO,25,MWANGA,255,NGUJINI,25515,CHANJALE,MRINGENI
KILIMANJARO,25,MWANGA,255,NGUJINI,25515,SONGOA,MIITO
KILIMANJARO,25,MWANGA,255,NGUJINI,25515,SONGOA,SONGOA
KILIMANJARO,25,MWANGA,255,KIRYA,25516,KIRYA,KIRYA
KILIMANJARO,25,MWANGA,255,KIRYA,25516,KIRYA,EMANGULAI A
KILIMANJARO,25,MWANGA,255,KIRYA,25516,KIRYA,EMANGULAI B
KILIMANJARO,25,MWANGA,255,KIRYA,25516,KITI CHA MUNGU,KITI CHA MUNGU
KILIMANJARO,25,MWANGA,255,KIRYA,25516,KITI CHA MUNGU,SHAURI MOYO
KILIMANJARO,25,MWANGA,255,KIRYA,25516,NJIA PANDA,NJIA PANDA
KILIMANJARO,25,MWANGA,255,KIRYA,25516,NJIA PANDA,NATIONAL
KILIMANJARO,25,MWANGA,255,KILOMENI,25517,KILOMENI,MAKOKONTO
KILIMANJARO,25,MWANGA,255,KILOMENI,25517,KILOMENI,KIVUNGUYA
KILIMANJARO,25,MWANGA,255,KILOMENI,25517,KILOMENI,VAMBA
KILIMANJARO,25,MWANGA,255,KILOMENI,25517,KILOMENI,MRIGHA
KILIMANJARO,25,MWANGA,255,KILOMENI,25517,KILOMENI,MLEVO
KILIMANJARO,25,MWANGA,255,KILOMENI,25517,KILOMENI,KILOMENI
KILIMANJARO,25,MWANGA,255,KILOMENI,25517,KILOMENI,BUMBULI
KILIMANJARO,25,MWANGA,255,KILOMENI,25517,KILOMENI,VUNGI
KILIMANJARO,25,MWANGA,255,KILOMENI,25517,KILOMENI,NGUJINI
KILIMANJARO,25,MWANGA,255,KILOMENI,25517,KILOMENI,NGAGENI
KILIMANJARO,25,MWANGA,255,KILOMENI,25517,SOFE,SOFE
KILIMANJARO,25,MWANGA,255,KILOMENI,25517,SOFE,KWAMBA
KILIMANJARO,25,MWANGA,255,KILOMENI,25517,SOFE,SOFE KATI
KILIMANJARO,25,MWANGA,255,KILOMENI,25517,SOFE,KWA MONGE
KILIMANJARO,25,MWANGA,255,KILOMENI,25517,SOFE,SHERATI
KILIMANJARO,25,MWANGA,255,KILOMENI,25517,SOFE,MANGOFI
KILIMANJARO,25,MWANGA,255,KIGHARE,25518,KIGHARE,KIGHARE
KILIMANJARO,25,MWANGA,255,KIGHARE,25518,KIGHARE,KWA MAGIRI
KILIMANJARO,25,MWANGA,255,KIGHARE,25518,KIGHARE,KWA-MSEMBEA
KILIMANJARO,25,MWANGA,255,KIGHARE,25518,KIGHARE,MALA
KILIMANJARO,25,MWANGA,255,KIGHARE,25518,KIGHARE,IBWE LA NZEGHE
KILIMANJARO,25,MWANGA,255,KIGHARE,25518,KIRONGAYA,NDEME  MASHARIKI
KILIMANJARO,25,MWANGA,255,KIGHARE,25518,KIRONGAYA,NDEME MAGHARIBI
KILIMANJARO,25,MWANGA,255,KIGHARE,25518,KIRONGAYA,SOME
KILIMANJARO,25,MWANGA,255,KIGHARE,25518,KIRONGAYA,KWA NGUMA
KILIMANJARO,25,MWANGA,255,KIGHARE,25518,KILAWENI,NGUJINI
KILIMANJARO,25,MWANGA,255,KIGHARE,25518,KILAWENI,KILAWENI
KILIMANJARO,25,MWANGA,255,KIGHARE,25518,KILAWENI,SHUGHURU
KILIMANJARO,25,MWANGA,255,KIGHARE,25518,NDANDA,MWIRA A
KILIMANJARO,25,MWANGA,255,KIGHARE,25518,NDANDA,MWIRA B
KILIMANJARO,25,MWANGA,255,KIGHARE,25518,NDANDA,KWA BANANGA
KILIMANJARO,25,MWANGA,255,KIGHARE,25518,NDANDA,ROKINI
KILIMANJARO,25,MWANGA,255,KIGHARE,25518,NDANDA,KWA SOTWE
KILIMANJARO,25,MWANGA,255,KIGHARE,25518,NDANDA,MGOMBERA
KILIMANJARO,25,MWANGA,255,CHOMVU,25519,NDORWE,MSUDU
KILIMANJARO,25,MWANGA,255,CHOMVU,25519,NDORWE,MUGHA
KILIMANJARO,25,MWANGA,255,CHOMVU,25519,NDORWE,MKUU
KILIMANJARO,25,MWANGA,255,CHOMVU,25519,NDORWE,VANYUA
KILIMANJARO,25,MWANGA,255,CHOMVU,25519,NDORWE,KIHAWA
KILIMANJARO,25,MWANGA,255,CHOMVU,25519,NDORWE,SHIGHATI
KILIMANJARO,25,MWANGA,255,CHOMVU,25519,MSHEWA,MSHEWA  JUU
KILIMANJARO,25,MWANGA,255,CHOMVU,25519,MSHEWA,MSHEWA  KATI
KILIMANJARO,25,MWANGA,255,CHOMVU,25519,MSHEWA,IKAMBA
KILIMANJARO,25,MWANGA,255,CHOMVU,25519,MSHEWA,NGEJA JUU
KILIMANJARO,25,MWANGA,255,CHOMVU,25519,MSHEWA,NGEJA KATI
KILIMANJARO,25,MWANGA,255,CHOMVU,25519,MSHEWA,MCHALI
KILIMANJARO,25,MWANGA,255,CHOMVU,25519,CHOMVU,SERENI
KILIMANJARO,25,MWANGA,255,CHOMVU,25519,CHOMVU,CHOMVU JUU
KILIMANJARO,25,MWANGA,255,CHOMVU,25519,CHOMVU,CHOMVU KATI
KILIMANJARO,25,MWANGA,255,CHOMVU,25519,CHOMVU,MWERERA
KILIMANJARO,25,MWANGA,255,CHOMVU,25519,KIMBALE,KIMBALE
KILIMANJARO,25,MWANGA,255,CHOMVU,25519,KIMBALE,GOMA
KILIMANJARO,25,MWANGA,255,CHOMVU,25519,KIMBALE,MABWENI
KILIMANJARO,25,MWANGA,255,CHOMVU,25519,KIMBALE,RIRAYO
KILIMANJARO,25,MWANGA,255,CHOMVU,25519,KIMBALE,KWA NGUMA
KILIMANJARO,25,MWANGA,255,KIRONGWE,25520,MBORE,MBORE
KILIMANJARO,25,MWANGA,255,KIRONGWE,25520,MBORE,MBALE
KILIMANJARO,25,MWANGA,255,KIRONGWE,25520,MBORE,MARETI
KILIMANJARO,25,MWANGA,255,KIRONGWE,25520,MBORE,KILIMANJARO
KILIMANJARO,25,MWANGA,255,KIRONGWE,25520,LOMWE,KIRONGWE
KILIMANJARO,25,MWANGA,255,KIRONGWE,25520,LOMWE,MBALE
KILIMANJARO,25,MWANGA,255,KIRONGWE,25520,LOMWE,LOMWE
KILIMANJARO,25,MWANGA,255,KIRONGWE,25520,LOMWE,MWERERA
KILIMANJARO,25,MWANGA,255,KIRONGWE,25520,KIRICHE,MFINGA
KILIMANJARO,25,MWANGA,255,KIRONGWE,25520,KIRICHE,NDEME
KILIMANJARO,25,MWANGA,255,KIRONGWE,25520,KIRICHE,MTII
KILIMANJARO,25,MWANGA,255,KIRONGWE,25520,KIRICHE,SOME
KILIMANJARO,25,MWANGA,255,KIRONGWE,25520,VUAGHA,MRUMI
KILIMANJARO,25,MWANGA,255,KIRONGWE,25520,VUAGHA,VUAGHA KATI
KILIMANJARO,25,MWANGA,255,KIRONGWE,25520,VUAGHA,KISOMBOGHO
KILIMANJARO,25,MWANGA,255,KIRONGWE,25520,MWERO,MWERO
KILIMANJARO,25,MWANGA,255,KIRONGWE,25520,MWERO,MSHIRAGHI
KILIMANJARO,25,SAME,256,SAME,25601,MWERO,UJAMAA A
KILIMANJARO,25,SAME,256,SAME,25601,MWERO,SOKONI
KILIMANJARO,25,SAME,256,SAME,25601,MWERO,MNADANI
KILIMANJARO,25,SAME,256,SAME,25601,MWERO,MAHUU
KILIMANJARO,25,SAME,256,SAME,25601,MWERO,KAVAMBUGHU
KILIMANJARO,25,SAME,256,SAME,25601,MWERO,UJAMAA B
KILIMANJARO,25,SAME,256,STESHENI,25602,MWERO,STESHENI
KILIMANJARO,25,SAME,256,STESHENI,25602,MWERO,MASANDARE
KILIMANJARO,25,SAME,256,STESHENI,25602,MWERO,KITAMRI
KILIMANJARO,25,SAME,256,STESHENI,25602,MWERO,KIWANJA
KILIMANJARO,25,SAME,256,STESHENI,25602,MWERO,MAJENGO
KILIMANJARO,25,SAME,256,KISIMA,25603,MWERO,KISIMA
KILIMANJARO,25,SAME,256,KISIMA,25603,MWERO,MAJEVU
KILIMANJARO,25,SAME,256,KISIMA,25603,MWERO,MIKUYUNI
KILIMANJARO,25,SAME,256,KISIMA,25603,MWERO,MBUYUNI
KILIMANJARO,25,SAME,256,KISIMA,25603,MWERO,KANDOTO
KILIMANJARO,25,SAME,256,RUVU,25604,RUVU JIUNGENI,JITENGENI
KILIMANJARO,25,SAME,256,RUVU,25604,RUVU JIUNGENI,MVUNGWE
KILIMANJARO,25,SAME,256,RUVU,25604,RUVU JIUNGENI,MISERANI
KILIMANJARO,25,SAME,256,RUVU,25604,RUVU JIUNGENI,KOMBO
KILIMANJARO,25,SAME,256,RUVU,25604,RUVU MFEREJINI,MKANYENI
KILIMANJARO,25,SAME,256,RUVU,25604,RUVU MFEREJINI,MFEREJINI
KILIMANJARO,25,SAME,256,RUVU,25604,RUVU MFEREJINI,MAKURUVIRA
KILIMANJARO,25,SAME,256,RUVU,25604,RUVU MFEREJINI,DARAJANI
KILIMANJARO,25,SAME,256,RUVU,25604,RUVU MFEREJINI,MADENGE
KILIMANJARO,25,SAME,256,RUVU,25604,RUVU MFEREJINI,UPARENI
KILIMANJARO,25,SAME,256,RUVU,25604,MARWA,MARWA
KILIMANJARO,25,SAME,256,RUVU,25604,MARWA,NGURASHI
KILIMANJARO,25,SAME,256,RUVU,25604,MARWA,NJAKTAI
KILIMANJARO,25,SAME,256,RUVU,25604,MARWA,PATEL
KILIMANJARO,25,SAME,256,RUVU,25604,RUVU DARAJANI,KISHAA
KILIMANJARO,25,SAME,256,RUVU,25604,RUVU DARAJANI,MUUNGANO
KILIMANJARO,25,SAME,256,RUVU,25604,RUVU DARAJANI,NDILALI
KILIMANJARO,25,SAME,256,NJORO,25605,NJORO,NJORO STAND
KILIMANJARO,25,SAME,256,NJORO,25605,NJORO,VUDEE
KILIMANJARO,25,SAME,256,NJORO,25605,NJORO,MARIGO
KILIMANJARO,25,SAME,256,NJORO,25605,NJORO,MIGHARA A
KILIMANJARO,25,SAME,256,NJORO,25605,NJORO,MIGHARA B
KILIMANJARO,25,SAME,256,NJORO,25605,ISHINDE,SAKENI
KILIMANJARO,25,SAME,256,NJORO,25605,ISHINDE,KIBAONI IGONGO
KILIMANJARO,25,SAME,256,NJORO,25605,ISHINDE,ISHINDE STAND
KILIMANJARO,25,SAME,256,NJORO,25605,ISHINDE,MORONDWE
KILIMANJARO,25,SAME,256,NJORO,25605,ISHINDE,KIGOGO
KILIMANJARO,25,SAME,256,NJORO,25605,EMUGURI,EMUGURI A
KILIMANJARO,25,SAME,256,NJORO,25605,EMUGURI,EMUGURI B
KILIMANJARO,25,SAME,256,NJORO,25605,EMUGURI,ENDEVES
KILIMANJARO,25,SAME,256,NJORO,25605,EMUGURI,NATURI
KILIMANJARO,25,SAME,256,VUMARI,25606,VUMARI,VUMARI
KILIMANJARO,25,SAME,256,VUMARI,25606,VUMARI,KIRIVENI
KILIMANJARO,25,SAME,256,VUMARI,25606,VUMARI,CHATO
KILIMANJARO,25,SAME,256,VUMARI,25606,VUMARI,MATONGO
KILIMANJARO,25,SAME,256,VUMARI,25606,VUMARI,IGHIRE
KILIMANJARO,25,SAME,256,VUMARI,25606,VUMARI,MAJEVU JUU
KILIMANJARO,25,SAME,256,VUMARI,25606,KIZUNGO,MBONO
KILIMANJARO,25,SAME,256,VUMARI,25606,KIZUNGO,MGHUNGA
KILIMANJARO,25,SAME,256,VUMARI,25606,KIZUNGO,MSHEWA
KILIMANJARO,25,SAME,256,VUMARI,25606,KIZUNGO,DIDO
KILIMANJARO,25,SAME,256,VUMARI,25606,MINYALA,MINYALA
KILIMANJARO,25,SAME,256,VUMARI,25606,MINYALA,KWAMOMO
KILIMANJARO,25,SAME,256,VUMARI,25606,MINYALA,MSHARAMBWE
KILIMANJARO,25,SAME,256,MWEMBE,25607,MWEMBE,KIRINJIKO
KILIMANJARO,25,SAME,256,MWEMBE,25607,MWEMBE,KIMUNYU
KILIMANJARO,25,SAME,256,MWEMBE,25607,MWEMBE,MANYATA
KILIMANJARO,25,SAME,256,MWEMBE,25607,MWEMBE,DAGHASETA
KILIMANJARO,25,SAME,256,MWEMBE,25607,MWEMBE,MSALAKA
KILIMANJARO,25,SAME,256,MWEMBE,25607,MWEMBE,BARAZANI
KILIMANJARO,25,SAME,256,MWEMBE,25607,MWEMBE,KALOLENI
KILIMANJARO,25,SAME,256,MWEMBE,25607,MWEMBE,MIRINGA
KILIMANJARO,25,SAME,256,MWEMBE,25607,CHAJO,MARETI
KILIMANJARO,25,SAME,256,MWEMBE,25607,CHAJO,MIGHARENI
KILIMANJARO,25,SAME,256,MWEMBE,25607,CHAJO,MBUYUNI
KILIMANJARO,25,SAME,256,MWEMBE,25607,CHAJO,NKOMANKWAVI
KILIMANJARO,25,SAME,256,MWEMBE,25607,NASURO,NASURO
KILIMANJARO,25,SAME,256,MWEMBE,25607,NASURO,HEVIZUMBU
KILIMANJARO,25,SAME,256,MWEMBE,25607,NASURO,VISERERE
KILIMANJARO,25,SAME,256,MWEMBE,25607,NASURO,SIKI
KILIMANJARO,25,SAME,256,MWEMBE,25607,NASURO,KAVATETA
KILIMANJARO,25,SAME,256,MWEMBE,25607,NASURO,KAMPUNZI
KILIMANJARO,25,SAME,256,MHEZI,25608,MTEKE,MTEKE
KILIMANJARO,25,SAME,256,MHEZI,25608,MTEKE,ZAHANATI
KILIMANJARO,25,SAME,256,MHEZI,25608,MTEKE,MWERERA
KILIMANJARO,25,SAME,256,MHEZI,25608,MTEKE,KIRAMWENI
KILIMANJARO,25,SAME,256,MHEZI,25608,MTEKE,MSHASHA
KILIMANJARO,25,SAME,256,MHEZI,25608,MTEKE,MZERAMBE
KILIMANJARO,25,SAME,256,MHEZI,25608,MTEKE,CHANI
KILIMANJARO,25,SAME,256,MHEZI,25608,MTUNGUJA,KITUVI
KILIMANJARO,25,SAME,256,MHEZI,25608,MTUNGUJA,MKOKI
KILIMANJARO,25,SAME,256,MHEZI,25608,MTUNGUJA,KILINGAVO
KILIMANJARO,25,SAME,256,MHEZI,25608,MTUNGUJA,MPEPETA
KILIMANJARO,25,SAME,256,MHEZI,25608,MTUNGUJA,KWACHARA
KILIMANJARO,25,SAME,256,MHEZI,25608,MTUNGUJA,CHANZAE
KILIMANJARO,25,SAME,256,MHEZI,25608,MHEZI,KWASEMATONGO
KILIMANJARO,25,SAME,256,MHEZI,25608,MHEZI,KIRONGOYA
KILIMANJARO,25,SAME,256,MHEZI,25608,MHEZI,KWERESHA
KILIMANJARO,25,SAME,256,MHEZI,25608,MHEZI,MANOLO
KILIMANJARO,25,SAME,256,MHEZI,25608,MHEZI,MSHEWA
KILIMANJARO,25,SAME,256,MHEZI,25608,MHEZI,SAME JUU
KILIMANJARO,25,SAME,256,MHEZI,25608,MHEZI,MTUNGUJA
KILIMANJARO,25,SAME,256,VUDEE,25609,VUDEE,GONJA
KILIMANJARO,25,SAME,256,VUDEE,25609,VUDEE,INDINI
KILIMANJARO,25,SAME,256,VUDEE,25609,VUDEE,IBWE LA MAJIA
KILIMANJARO,25,SAME,256,VUDEE,25609,VUDEE,MAKERANI
KILIMANJARO,25,SAME,256,VUDEE,25609,VUDEE,KISINGAJI MGAMBO
KILIMANJARO,25,SAME,256,VUDEE,25609,VUDEE,BURELI ILAMBA
KILIMANJARO,25,SAME,256,VUDEE,25609,KISESA,KIWENI
KILIMANJARO,25,SAME,256,VUDEE,25609,KISESA,KWANAMBURI
KILIMANJARO,25,SAME,256,VUDEE,25609,KISESA,MWERERA
KILIMANJARO,25,SAME,256,VUDEE,25609,KISESA,BURENI
KILIMANJARO,25,SAME,256,VUDEE,25609,KISESA,KWAKILAMBO
KILIMANJARO,25,SAME,256,VUDEE,25609,NDOLWA,MTWANA
KILIMANJARO,25,SAME,256,VUDEE,25609,NDOLWA,MASHEKO
KILIMANJARO,25,SAME,256,VUDEE,25609,NDOLWA,MJINGO
KILIMANJARO,25,SAME,256,VUDEE,25609,NDOLWA,KITIENI
KILIMANJARO,25,SAME,256,VUDEE,25609,MENAM,MPONGWE A
KILIMANJARO,25,SAME,256,VUDEE,25609,MENAM,MPONGWE B
KILIMANJARO,25,SAME,256,VUDEE,25609,MENAM,NZAVA B
KILIMANJARO,25,SAME,256,VUDEE,25609,MENAM,MPINJI
KILIMANJARO,25,SAME,256,VUDEE,25609,MENAM,MITINI
KILIMANJARO,25,SAME,256,VUDEE,25609,MENAM,NZAVA A
KILIMANJARO,25,SAME,256,MSHEWA,25610,KWIZU,KIBENGELE
KILIMANJARO,25,SAME,256,MSHEWA,25610,KWIZU,KIRETI
KILIMANJARO,25,SAME,256,MSHEWA,25610,KWIZU,CHESHERE – IBANGU
KILIMANJARO,25,SAME,256,MSHEWA,25610,KWIZU,MANDO DULE
KILIMANJARO,25,SAME,256,MSHEWA,25610,KWIZU,NGAGHENI KINDI
KILIMANJARO,25,SAME,256,MSHEWA,25610,MARINDI,CHAMPISHI
KILIMANJARO,25,SAME,256,MSHEWA,25610,MARINDI,KWAMCHU
KILIMANJARO,25,SAME,256,MSHEWA,25610,MARINDI,KISANZUNI
KILIMANJARO,25,SAME,256,MSHEWA,25610,MARINDI,KITALA
KILIMANJARO,25,SAME,256,MSHEWA,25610,MARINDI,NZIGHANA
KILIMANJARO,25,SAME,256,MSHEWA,25610,MARINDI,KISIMENI
KILIMANJARO,25,SAME,256,MSHEWA,25610,MSHEWA,MHEO
KILIMANJARO,25,SAME,256,MSHEWA,25610,MSHEWA,MVONGWENI
KILIMANJARO,25,SAME,256,MSHEWA,25610,MSHEWA,NTAMBWE
KILIMANJARO,25,SAME,256,MSHEWA,25610,MSHEWA,KITONGHOI
KILIMANJARO,25,SAME,256,MSHEWA,25610,MSHEWA,MWERERA
KILIMANJARO,25,SAME,256,MSHEWA,25610,MSHEWA,KITUBWE
KILIMANJARO,25,SAME,256,MSHEWA,25610,MANKA,KITALA
KILIMANJARO,25,SAME,256,MSHEWA,25610,MANKA,CHENJE
KILIMANJARO,25,SAME,256,MSHEWA,25610,MANKA,NDURU JUU
KILIMANJARO,25,SAME,256,MSHEWA,25610,MANKA,NDURU CHINI
KILIMANJARO,25,SAME,256,MSHEWA,25610,MANKA,CHAGO
KILIMANJARO,25,SAME,256,MSHEWA,25610,GOMA,GOMA
KILIMANJARO,25,SAME,256,MSHEWA,25610,GOMA,KWANADENGE
KILIMANJARO,25,SAME,256,MSHEWA,25610,GOMA,KAPONDE
KILIMANJARO,25,SAME,256,MSINDO,25611,DUMA,KIRUKA
KILIMANJARO,25,SAME,256,MSINDO,25611,DUMA,MPARE
KILIMANJARO,25,SAME,256,MSINDO,25611,DUMA,NGURUNGA
KILIMANJARO,25,SAME,256,MSINDO,25611,DUMA,MABWENI
KILIMANJARO,25,SAME,256,MSINDO,25611,DUMA,MARARO
KILIMANJARO,25,SAME,256,MSINDO,25611,DUMA,MTANGO
KILIMANJARO,25,SAME,256,MSINDO,25611,MSINDO,MAVARENGERA
KILIMANJARO,25,SAME,256,MSINDO,25611,MSINDO,BISYA – MHAKE
KILIMANJARO,25,SAME,256,MSINDO,25611,MSINDO,MVENGWENI
KILIMANJARO,25,SAME,256,MSINDO,25611,MSINDO,KILOMBERO
KILIMANJARO,25,SAME,256,MSINDO,25611,MSINDO,NGURUTA
KILIMANJARO,25,SAME,256,MSINDO,25611,MSINDO,MTUNGUJA/MPUNGINI
KILIMANJARO,25,SAME,256,MSINDO,25611,MBAKWENI,IKONGWE A
KILIMANJARO,25,SAME,256,MSINDO,25611,MBAKWENI,IKONGWE B
KILIMANJARO,25,SAME,256,MSINDO,25611,MBAKWENI,MBAWENI JUU
KILIMANJARO,25,SAME,256,MSINDO,25611,MBAKWENI,MBAKWENI CHINI
KILIMANJARO,25,SAME,256,MSINDO,25611,MBAKWENI,NGUMBA JUU
KILIMANJARO,25,SAME,256,MSINDO,25611,MBAKWENI,NGUMBA CHINI
KILIMANJARO,25,SAME,256,KISIWANI,25612,KISIWANI,IGOMA
KILIMANJARO,25,SAME,256,KISIWANI,25612,KISIWANI,NJIRO
KILIMANJARO,25,SAME,256,KISIWANI,25612,KISIWANI,BAMA
KILIMANJARO,25,SAME,256,KISIWANI,25612,KISIWANI,MNAZI MMOJA
KILIMANJARO,25,SAME,256,KISIWANI,25612,KISIWANI,MAJENGO CHINI
KILIMANJARO,25,SAME,256,KISIWANI,25612,KISIWANI,NGUMBA JUU
KILIMANJARO,25,SAME,256,KISIWANI,25612,KISIWANI,MWERERA
KILIMANJARO,25,SAME,256,KISIWANI,25612,KISIWANI,MAJIA
KILIMANJARO,25,SAME,256,KISIWANI,25612,MKONGA-IJINYU,KAMOREI
KILIMANJARO,25,SAME,256,KISIWANI,25612,MKONGA-IJINYU,MKONGA JUU
KILIMANJARO,25,SAME,256,KISIWANI,25612,MKONGA-IJINYU,MKONGA CHINI
KILIMANJARO,25,SAME,256,KISIWANI,25612,MKONGA-IJINYU,MZIMBO
KILIMANJARO,25,SAME,256,KISIWANI,25612,MKONGA-IJINYU,IJINYU
KILIMANJARO,25,SAME,256,HEDARU,25613,HEDARU,HEDARU A
KILIMANJARO,25,SAME,256,HEDARU,25613,HEDARU,HEDARU B
KILIMANJARO,25,SAME,256,HEDARU,25613,HEDARU,MBUYUNI A
KILIMANJARO,25,SAME,256,HEDARU,25613,HEDARU,MBUYUNI B
KILIMANJARO,25,SAME,256,HEDARU,25613,HEDARU,KONGEI
KILIMANJARO,25,SAME,256,HEDARU,25613,HEDARU,STATION/MABOMA
KILIMANJARO,25,SAME,256,HEDARU,25613,HEDARU,LUNGWANA
KILIMANJARO,25,SAME,256,HEDARU,25613,GUNDE SINE,GUNDU
KILIMANJARO,25,SAME,256,HEDARU,25613,GUNDE SINE,SINE
KILIMANJARO,25,SAME,256,HEDARU,25613,GUNDE SINE,NGONGWE
KILIMANJARO,25,SAME,256,HEDARU,25613,GUNDE SINE,MSERU – LITERU
KILIMANJARO,25,SAME,256,HEDARU,25613,GUNDE SINE,MBUKWE
KILIMANJARO,25,SAME,256,HEDARU,25613,KIJOMU,SUMANGA
KILIMANJARO,25,SAME,256,HEDARU,25613,KIJOMU,KIJOMU
KILIMANJARO,25,SAME,256,HEDARU,25613,KIJOMU,MBONO
KILIMANJARO,25,SAME,256,HEDARU,25613,KIJOMU,MPATWA
KILIMANJARO,25,SAME,256,SUJI,25614,MALINDI,CHANKANGA
KILIMANJARO,25,SAME,256,SUJI,25614,MALINDI,MAGUNGA
KILIMANJARO,25,SAME,256,SUJI,25614,MALINDI,TARISO
KILIMANJARO,25,SAME,256,SUJI,25614,MALINDI,NGULU
KILIMANJARO,25,SAME,256,SUJI,25614,MALINDI,KITUNDA
KILIMANJARO,25,SAME,256,SUJI,25614,GONJANZA,MVUTINI
KILIMANJARO,25,SAME,256,SUJI,25614,GONJANZA,CHAIRIKA
KILIMANJARO,25,SAME,256,SUJI,25614,GONJANZA,KITALA
KILIMANJARO,25,SAME,256,SUJI,25614,GONJANZA,MNG’ENDE
KILIMANJARO,25,SAME,256,MABILIONI,25615,MABILIONI,GUNGE
KILIMANJARO,25,SAME,256,MABILIONI,25615,MABILIONI,JITOENI A
KILIMANJARO,25,SAME,256,MABILIONI,25615,MABILIONI,JITOENI B
KILIMANJARO,25,SAME,256,MABILIONI,25615,MABILIONI,MABILIONI A
KILIMANJARO,25,SAME,256,MABILIONI,25615,MABILIONI,MABILIONI B
KILIMANJARO,25,SAME,256,MABILIONI,25615,MABILIONI,CHANIKA
KILIMANJARO,25,SAME,256,MABILIONI,25615,MABILIONI,KIDUNDA “A’’
KILIMANJARO,25,SAME,256,MABILIONI,25615,CHEKERENI,GAMA “A”
KILIMANJARO,25,SAME,256,MABILIONI,25615,CHEKERENI,GAMA “B”
KILIMANJARO,25,SAME,256,MABILIONI,25615,CHEKERENI,CHEKERENI
KILIMANJARO,25,SAME,256,MABILIONI,25615,CHEKERENI,MAGADI
KILIMANJARO,25,SAME,256,MABILIONI,25615,CHEKERENI,MIKOCHENI
KILIMANJARO,25,SAME,256,MABILIONI,25615,RUVU - MBUYUNI,KIVUKONI
KILIMANJARO,25,SAME,256,MABILIONI,25615,RUVU - MBUYUNI,MBUYUNI
KILIMANJARO,25,SAME,256,MABILIONI,25615,RUVU - MBUYUNI,MALELA
KILIMANJARO,25,SAME,256,MABILIONI,25615,RUVU - MBUYUNI,KIRUA
KILIMANJARO,25,SAME,256,MABILIONI,25615,RUVU - MBUYUNI,KATAHE
KILIMANJARO,25,SAME,256,CHOME,25616,MARIENI,NKUNGWINI
KILIMANJARO,25,SAME,256,CHOME,25616,MARIENI,MUGHUNI
KILIMANJARO,25,SAME,256,CHOME,25616,MARIENI,MAKANDENI
KILIMANJARO,25,SAME,256,CHOME,25616,MARIENI,INDINI
KILIMANJARO,25,SAME,256,CHOME,25616,MARIENI,MARIENI
KILIMANJARO,25,SAME,256,CHOME,25616,MARIENI,CHAMPISHI
KILIMANJARO,25,SAME,256,CHOME,25616,MARIENI,KITAHIRO
KILIMANJARO,25,SAME,256,CHOME,25616,MARIENI,CHAIVUMBA
KILIMANJARO,25,SAME,256,CHOME,25616,MARIENI,KIDENDEMA
KILIMANJARO,25,SAME,256,CHOME,25616,MARIENI,NJOKAVA
KILIMANJARO,25,SAME,256,CHOME,25616,MARIENI,IRETI
KILIMANJARO,25,SAME,256,CHOME,25616,MHERO,VUSINI
KILIMANJARO,25,SAME,256,CHOME,25616,MHERO,BERE/NGONA
KILIMANJARO,25,SAME,256,CHOME,25616,MHERO,MPANGWE
KILIMANJARO,25,SAME,256,CHOME,25616,MHERO,MSHITWINI
KILIMANJARO,25,SAME,256,CHOME,25616,MHERO,MMENI
KILIMANJARO,25,SAME,256,CHOME,25616,MHERO,KITALA
KILIMANJARO,25,SAME,256,CHOME,25616,MHERO,CHAMPISHI
KILIMANJARO,25,SAME,256,CHOME,25616,MHERO,MHERO
KILIMANJARO,25,SAME,256,CHOME,25616,MHERO,MPEMBENI
KILIMANJARO,25,SAME,256,CHOME,25616,MHERO,MAGHAMBA
KILIMANJARO,25,SAME,256,CHOME,25616,GWANG'A,KISANZUNI
KILIMANJARO,25,SAME,256,CHOME,25616,GWANG'A,HEIHOKO
KILIMANJARO,25,SAME,256,CHOME,25616,GWANG'A,HEISUME
KILIMANJARO,25,SAME,256,CHOME,25616,GWANG'A,BOMBO
KILIMANJARO,25,SAME,256,CHOME,25616,GWANG'A,MAJENGO
KILIMANJARO,25,SAME,256,CHOME,25616,GWANG'A,MKIRITE
KILIMANJARO,25,SAME,256,CHOME,25616,GWANG'A,MTWANA
KILIMANJARO,25,SAME,256,CHOME,25616,GWANG'A,KITALA
KILIMANJARO,25,SAME,256,CHOME,25616,GWANG'A,HEMPOKO
KILIMANJARO,25,SAME,256,CHOME,25616,GWANG'A,NYONE
KILIMANJARO,25,SAME,256,MAKANYA,25617,MAKANYA,NKWIN
KILIMANJARO,25,SAME,256,MAKANYA,25617,MAKANYA,KWESASU KING’ORE
KILIMANJARO,25,SAME,256,MAKANYA,25617,MAKANYA,SUJI KITIVO
KILIMANJARO,25,SAME,256,MAKANYA,25617,MAKANYA,MAKANYA A
KILIMANJARO,25,SAME,256,MAKANYA,25617,MAKANYA,MAKANYA B
KILIMANJARO,25,SAME,256,MAKANYA,25617,MAKANYA,MAKANYA C
KILIMANJARO,25,SAME,256,MAKANYA,25617,MAKANYA,MAKANYA D
KILIMANJARO,25,SAME,256,MAKANYA,25617,MAKANYA,MAKANYA E
KILIMANJARO,25,SAME,256,MAKANYA,25617,MAKANYA,CHANKOKO/NAIVOLI
KILIMANJARO,25,SAME,256,MAKANYA,25617,MGWASI,VUDEE
KILIMANJARO,25,SAME,256,MAKANYA,25617,MGWASI,MSANGA
KILIMANJARO,25,SAME,256,MAKANYA,25617,MGWASI,MAJI YA CHOME
KILIMANJARO,25,SAME,256,MAKANYA,25617,MGWASI,MGWASI
KILIMANJARO,25,SAME,256,MAKANYA,25617,MGWASI,HEKAPOMBE
KILIMANJARO,25,SAME,256,MAKANYA,25617,KASAPO,KIMUNYU
KILIMANJARO,25,SAME,256,MAKANYA,25617,KASAPO,MWANYA
KILIMANJARO,25,SAME,256,MAKANYA,25617,KASAPO,KASAPO
KILIMANJARO,25,SAME,256,VUNTA,25618,VUNTA,HEMUAMBO
KILIMANJARO,25,SAME,256,VUNTA,25618,VUNTA,MWETENI
KILIMANJARO,25,SAME,256,VUNTA,25618,VUNTA,NKIMAI
KILIMANJARO,25,SAME,256,VUNTA,25618,VUNTA,BOYOYO
KILIMANJARO,25,SAME,256,VUNTA,25618,VUNTA,MAKARENI
KILIMANJARO,25,SAME,256,VUNTA,25618,NJAGU,NJAGU
KILIMANJARO,25,SAME,256,VUNTA,25618,NJAGU,MPARE
KILIMANJARO,25,SAME,256,VUNTA,25618,KIDUNDA,KIDUNDA
KILIMANJARO,25,SAME,256,VUNTA,25618,KIDUNDA,NGUJINI
KILIMANJARO,25,SAME,256,VUNTA,25618,MWALA,MVANGO/KIDUNDA
KILIMANJARO,25,SAME,256,VUNTA,25618,MWALA,KITALA
KILIMANJARO,25,SAME,256,VUNTA,25618,PAPA,MYOMBO
KILIMANJARO,25,SAME,256,VUNTA,25618,PAPA,KWARANGA
KILIMANJARO,25,SAME,256,VUNTA,25618,PAPA,KINARU
KILIMANJARO,25,SAME,256,VUNTA,25618,PAPA,KASIRUKAGATI
KILIMANJARO,25,SAME,256,VUNTA,25618,PAPA,MKUYUNI
KILIMANJARO,25,SAME,256,MAORE,25619,MAORE,MABATINI
KILIMANJARO,25,SAME,256,MAORE,25619,MAORE,MAORE JUU
KILIMANJARO,25,SAME,256,MAORE,25619,MAORE,MAORE CHINI
KILIMANJARO,25,SAME,256,MAORE,25619,MAORE,MTUNDU/KAWATARA
KILIMANJARO,25,SAME,256,MAORE,25619,MAORE,KIZERUI/MKALANYIKA
KILIMANJARO,25,SAME,256,MAORE,25619,MAORE,MBUYUNI
KILIMANJARO,25,SAME,256,MAORE,25619,MAORE,MAOLE KATI
KILIMANJARO,25,SAME,256,MAORE,25619,MHEZA,KATOLIKI
KILIMANJARO,25,SAME,256,MAORE,25619,MHEZA,PUBLIC
KILIMANJARO,25,SAME,256,MAORE,25619,MHEZA,KALEMANE
KILIMANJARO,25,SAME,256,MAORE,25619,MHEZA,MHEZA JUU
KILIMANJARO,25,SAME,256,MAORE,25619,MHEZA,MHEZA CHINI
KILIMANJARO,25,SAME,256,MAORE,25619,MHEZA,NADURURU
KILIMANJARO,25,SAME,256,MAORE,25619,MHEZA,IGOMA
KILIMANJARO,25,SAME,256,MAORE,25619,KADANDO,KADANDO
KILIMANJARO,25,SAME,256,MAORE,25619,KADANDO,RIKA
KILIMANJARO,25,SAME,256,MAORE,25619,KADANDO,MARANGO
KILIMANJARO,25,SAME,256,MAORE,25619,KADANDO,HEMISALA
KILIMANJARO,25,SAME,256,MAORE,25619,MPIRANI,KIZANGAZE
KILIMANJARO,25,SAME,256,MAORE,25619,MPIRANI,MPIRANI
KILIMANJARO,25,SAME,256,MAORE,25619,MPIRANI,MROYO
KILIMANJARO,25,SAME,256,MAORE,25619,MPIRANI,SOKONI
KILIMANJARO,25,SAME,256,MAORE,25619,MPIRANI,TALANDA
KILIMANJARO,25,SAME,256,NDUNGU,25620,NDUNGU,SINANGOA A
KILIMANJARO,25,SAME,256,NDUNGU,25620,NDUNGU,SINANGOA B
KILIMANJARO,25,SAME,256,NDUNGU,25620,NDUNGU,SINANGOA C
KILIMANJARO,25,SAME,256,NDUNGU,25620,NDUNGU,TURIANI
KILIMANJARO,25,SAME,256,NDUNGU,25620,NDUNGU,KAMPIMBI
KILIMANJARO,25,SAME,256,NDUNGU,25620,NDUNGU,HOSPITALI
KILIMANJARO,25,SAME,256,NDUNGU,25620,NDUNGU,MIGOMBANI
KILIMANJARO,25,SAME,256,NDUNGU,25620,NDUNGU,MAGOFU
KILIMANJARO,25,SAME,256,NDUNGU,25620,NDUNGU,MKONGA
KILIMANJARO,25,SAME,256,NDUNGU,25620,MISUFINI,MAJENGO
KILIMANJARO,25,SAME,256,NDUNGU,25620,MISUFINI,MABATINI
KILIMANJARO,25,SAME,256,NDUNGU,25620,MISUFINI,MASERE
KILIMANJARO,25,SAME,256,NDUNGU,25620,MISUFINI,GOMA
KILIMANJARO,25,SAME,256,NDUNGU,25620,MISUFINI,MISUFINI
KILIMANJARO,25,SAME,256,KALEMAWE,25621,KALEMAWE,BAGAMOYO
KILIMANJARO,25,SAME,256,KALEMAWE,25621,KALEMAWE,DIMBWI
KILIMANJARO,25,SAME,256,KALEMAWE,25621,KALEMAWE,KALEMAWE
KILIMANJARO,25,SAME,256,KALEMAWE,25621,KALEMAWE,MSOROHA
KILIMANJARO,25,SAME,256,KALEMAWE,25621,MAKOKANE,KONGEI/KAMBAGA
KILIMANJARO,25,SAME,256,KALEMAWE,25621,MAKOKANE,MWERENGE
KILIMANJARO,25,SAME,256,KALEMAWE,25621,MAKOKANE,MAKOKANE
KILIMANJARO,25,SAME,256,KALEMAWE,25621,KARAMBA,KILIMANI
KILIMANJARO,25,SAME,256,KALEMAWE,25621,KARAMBA,KAGONGO
KILIMANJARO,25,SAME,256,KALEMAWE,25621,KARAMBA,MABAMBARA
KILIMANJARO,25,SAME,256,KIHURIO,25622,UZAMBARA,ZAHANATI
KILIMANJARO,25,SAME,256,KIHURIO,25622,UZAMBARA,SOKONI
KILIMANJARO,25,SAME,256,KIHURIO,25622,UZAMBARA,MASHINE A
KILIMANJARO,25,SAME,256,KIHURIO,25622,UZAMBARA,BOMBANI
KILIMANJARO,25,SAME,256,KIHURIO,25622,UZAMBARA,MARRETI
KILIMANJARO,25,SAME,256,KIHURIO,25622,KANKOKORO,MISHENI
KILIMANJARO,25,SAME,256,KIHURIO,25622,KANKOKORO,MBUENI
KILIMANJARO,25,SAME,256,KIHURIO,25622,KANKOKORO,ZINGAMWE
KILIMANJARO,25,SAME,256,KIHURIO,25622,KANKOKORO,DENGEMAYA
KILIMANJARO,25,SAME,256,KIHURIO,25622,KANKOKORO,MSIKITINI
KILIMANJARO,25,SAME,256,KIHURIO,25622,KANKOKORO,MASHINE B
KILIMANJARO,25,SAME,256,KIHURIO,25622,MVURE KONGEI,JITENGENI A
KILIMANJARO,25,SAME,256,KIHURIO,25622,MVURE KONGEI,JITENGENI B
KILIMANJARO,25,SAME,256,KIHURIO,25622,MVURE KONGEI,MAPARAKANGA
KILIMANJARO,25,SAME,256,KIHURIO,25622,MVURE KONGEI,MINAZINI
KILIMANJARO,25,SAME,256,KIHURIO,25622,MBUYUNI,CHANGARAWE A
KILIMANJARO,25,SAME,256,KIHURIO,25622,MBUYUNI,CHANGARAWE B
KILIMANJARO,25,SAME,256,KIHURIO,25622,MBUYUNI,MBUYUNI
KILIMANJARO,25,SAME,256,KIHURIO,25622,MBUYUNI,ZAHANATI
KILIMANJARO,25,SAME,256,KIHURIO,25622,KONGEI,IHUNDI
KILIMANJARO,25,SAME,256,KIHURIO,25622,KONGEI,IGULUTU
KILIMANJARO,25,SAME,256,KIHURIO,25622,KONGEI,MABAMBARA
KILIMANJARO,25,SAME,256,KIHURIO,25622,KONGEI,KIDUNDAI
KILIMANJARO,25,SAME,256,BENDERA,25623,BENDERA,BETHELINI
KILIMANJARO,25,SAME,256,BENDERA,25623,BENDERA,KALOLENI
KILIMANJARO,25,SAME,256,BENDERA,25623,BENDERA,MASAINI
KILIMANJARO,25,SAME,256,BENDERA,25623,MAJENGO,MRANGO
KILIMANJARO,25,SAME,256,BENDERA,25623,MAJENGO,LASA
KILIMANJARO,25,SAME,256,BENDERA,25623,MAJENGO,MAJENGO
KILIMANJARO,25,SAME,256,BENDERA,25623,MGANDU,APOLO
KILIMANJARO,25,SAME,256,BENDERA,25623,MGANDU,MASHINE
KILIMANJARO,25,SAME,256,BENDERA,25623,MGANDU,MAJENGO
KILIMANJARO,25,SAME,256,BENDERA,25623,MGANDU,NZEREMBE
KILIMANJARO,25,SAME,256,BENDERA,25623,MGANDU,MSIGANI
KILIMANJARO,25,SAME,256,KIRANGARE,25624,KIRANGARE,MAMBOLEO
KILIMANJARO,25,SAME,256,KIRANGARE,25624,KIRANGARE,KONTO
KILIMANJARO,25,SAME,256,KIRANGARE,25624,KIRANGARE,MTEKE
KILIMANJARO,25,SAME,256,KIRANGARE,25624,MAKASA,MAKASA
KILIMANJARO,25,SAME,256,KIRANGARE,25624,MAKASA,NDUNGU
KILIMANJARO,25,SAME,256,KIRANGARE,25624,MAKASA,RANGENI
KILIMANJARO,25,SAME,256,KIRANGARE,25624,IDARU,MSASA
KILIMANJARO,25,SAME,256,KIRANGARE,25624,IDARU,BUMBULI
KILIMANJARO,25,SAME,256,KIRANGARE,25624,IDARU,NAREMA
KILIMANJARO,25,SAME,256,KIRANGARE,25624,IDARU,KILOTWENI
KILIMANJARO,25,SAME,256,KIRANGARE,25624,IDARU,NGUJINI
KILIMANJARO,25,SAME,256,BWAMBO,25625,VUGWAMA,MSHEWA/RANGENI
KILIMANJARO,25,SAME,256,BWAMBO,25625,VUGWAMA,VUGWAMA KATI
KILIMANJARO,25,SAME,256,BWAMBO,25625,VUGWAMA,PARENI/MVURENI
KILIMANJARO,25,SAME,256,BWAMBO,25625,MWATENI,MTURO
KILIMANJARO,25,SAME,256,BWAMBO,25625,MWATENI,NTAMBWE
KILIMANJARO,25,SAME,256,BWAMBO,25625,MWATENI,KWAMSITU
KILIMANJARO,25,SAME,256,BWAMBO,25625,MWATENI,KWANATEMA
KILIMANJARO,25,SAME,256,BWAMBO,25625,BWAMBO,CHANGULUE
KILIMANJARO,25,SAME,256,BWAMBO,25625,BWAMBO,IDARU
KILIMANJARO,25,SAME,256,BWAMBO,25625,BWAMBO,BWAMBO
KILIMANJARO,25,SAME,256,BWAMBO,25625,BWAMBO,NGUJINI
KILIMANJARO,25,SAME,256,BWAMBO,25625,BWAMBO,VUZIRA
KILIMANJARO,25,SAME,256,MYAMBA,25626,KAMBENI,KAMBENI
KILIMANJARO,25,SAME,256,MYAMBA,25626,KAMBENI,MSHIWI
KILIMANJARO,25,SAME,256,MYAMBA,25626,KAMBENI,NDOLWA
KILIMANJARO,25,SAME,256,MYAMBA,25626,KAMBENI,YAMBA
KILIMANJARO,25,SAME,256,MYAMBA,25626,MANG'A,KIRANGA
KILIMANJARO,25,SAME,256,MYAMBA,25626,MANG'A,MANG’A
KILIMANJARO,25,SAME,256,MYAMBA,25626,MANG'A,MHEZI
KILIMANJARO,25,SAME,256,MYAMBA,25626,KIRORE,KIRORE
KILIMANJARO,25,SAME,256,MYAMBA,25626,KIRORE,MLUNGUI
KILIMANJARO,25,SAME,256,MYAMBA,25626,KIRORE,PARANE
KILIMANJARO,25,SAME,256,MYAMBA,25626,KIRORE,KWASEKINGO
KILIMANJARO,25,SAME,256,MYAMBA,25626,GOHA,MTUNGULU
KILIMANJARO,25,SAME,256,MYAMBA,25626,GOHA,CHALAMBA
KILIMANJARO,25,SAME,256,MYAMBA,25626,GOHA,GOHA
KILIMANJARO,25,SAME,256,MYAMBA,25626,GOHA,MANKA
KILIMANJARO,25,SAME,256,MYAMBA,25626,GOHA,NJONGO
KILIMANJARO,25,SAME,256,MYAMBA,25626,GOHA,NDORE
KILIMANJARO,25,SAME,256,MYAMBA,25626,KITUBWA,KITUBWA
KILIMANJARO,25,SAME,256,MYAMBA,25626,KITUBWA,MAKAKARA
KILIMANJARO,25,SAME,256,MYAMBA,25626,KITUBWA,KANZORA
KILIMANJARO,25,SAME,256,MYAMBA,25626,KITUBWA,MRAMBO
KILIMANJARO,25,SAME,256,MPINJI,25627,MPINJI,MPINJI
KILIMANJARO,25,SAME,256,MPINJI,25627,MPINJI,KIRUNGAYA
KILIMANJARO,25,SAME,256,MPINJI,25627,MPINJI,KWANATOO
KILIMANJARO,25,SAME,256,MPINJI,25627,IVUGA,IVUGA
KILIMANJARO,25,SAME,256,MPINJI,25627,IVUGA,MPUJINI
KILIMANJARO,25,SAME,256,MPINJI,25627,KIRONGWE,MALUMBI
KILIMANJARO,25,SAME,256,MPINJI,25627,KIRONGWE,MAFINGIRO
KILIMANJARO,25,SAME,256,MPINJI,25627,KIRONGWE,MABWENI
KILIMANJARO,25,SAME,256,MPINJI,25627,KIRONGWE,MATARA
KILIMANJARO,25,SAME,256,MPINJI,25627,SAMBWENI,SAMBWENI
KILIMANJARO,25,SAME,256,MPINJI,25627,SAMBWENI,MLOLA
KILIMANJARO,25,SAME,256,MPINJI,25627,SAMBWENI,KITALA
KILIMANJARO,25,SAME,256,MPINJI,25627,SAMBWENI,MYOMBO
KILIMANJARO,25,SAME,256,MTII,25628,MYOMBO,MSHIWI
KILIMANJARO,25,SAME,256,MTII,25628,MYOMBO,MENJE
KILIMANJARO,25,SAME,256,MTII,25628,MYOMBO,NGWERO
KILIMANJARO,25,SAME,256,MTII,25628,MYOMBO,DUMA
KILIMANJARO,25,SAME,256,MTII,25628,MTII,MHANDE
KILIMANJARO,25,SAME,256,MTII,25628,MTII,MYONGE
KILIMANJARO,25,SAME,256,MTII,25628,MTII,MGONGO
KILIMANJARO,25,SAME,256,MTII,25628,MAFINGIRO,MGWANGWAJE
KILIMANJARO,25,SAME,256,MTII,25628,MAFINGIRO,MAFINGIRO
KILIMANJARO,25,SAME,256,MTII,25628,MAFINGIRO,RIANE
KILIMANJARO,25,SAME,256,LUGULU,25629,LUGULU,LUGULU
KILIMANJARO,25,SAME,256,LUGULU,25629,LUGULU,MKONDOGWE
KILIMANJARO,25,SAME,256,LUGULU,25629,LUGULU,MASHENI
KILIMANJARO,25,SAME,256,LUGULU,25629,LUGULU,RAMU
KILIMANJARO,25,SAME,256,LUGULU,25629,KANZA,VUDA
KILIMANJARO,25,SAME,256,LUGULU,25629,KANZA,KANZA JUU
KILIMANJARO,25,SAME,256,LUGULU,25629,KANZA,MLALO
KILIMANJARO,25,SAME,256,LUGULU,25629,VUMBA,VUMBA
KILIMANJARO,25,SAME,256,LUGULU,25629,VUMBA,KALEMANE
KILIMANJARO,25,SAME,256,LUGULU,25629,VUMBA,KIGONE
KILIMANJARO,25,SAME,256,BOMBO,25630,MVAA,LUARE
KILIMANJARO,25,SAME,256,BOMBO,25630,MVAA,NTAMBWE
KILIMANJARO,25,SAME,256,BOMBO,25630,MVAA,NGULWI
KILIMANJARO,25,SAME,256,BOMBO,25630,MVAA,MVAA
KILIMANJARO,25,SAME,256,BOMBO,25630,MJEMA,MJEMA KATI
KILIMANJARO,25,SAME,256,BOMBO,25630,MJEMA,MCHENJA
KILIMANJARO,25,SAME,256,BOMBO,25630,MJEMA,CHAMAKINDI
KILIMANJARO,25,SAME,256,BOMBO,25630,MJEMA,AMANI
KILIMANJARO,25,SAME,256,BOMBO,25630,BOMBO,MANG’ANG’A
KILIMANJARO,25,SAME,256,BOMBO,25630,BOMBO,BETHELI
KILIMANJARO,25,SAME,256,BOMBO,25630,BOMBO,KWASEIJUNGU
KILIMANJARO,25,SAME,256,BOMBO,25630,BOMBO,PUTU
KILIMANJARO,25,SAME,256,BOMBO,25630,BOMBO,MYOYE
KILIMANJARO,25,SAME,256,VUJE,25631,VUJE,GIRIAMA
KILIMANJARO,25,SAME,256,VUJE,25631,VUJE,KAINGOYO
KILIMANJARO,25,SAME,256,VUJE,25631,VUJE,MBULA
KILIMANJARO,25,SAME,256,VUJE,25631,VUJE,VUJE
KILIMANJARO,25,SAME,256,VUJE,25631,VUJE,MGAMBO
KILIMANJARO,25,SAME,256,VUJE,25631,MVANGO,MVANGO
KILIMANJARO,25,SAME,256,VUJE,25631,MVANGO,KIGHARE
KILIMANJARO,25,SAME,256,VUJE,25631,MVANGO,MARETI
KILIMANJARO,25,SAME,256,VUJE,25631,MVANGO,MVANGOHINDI
KILIMANJARO,25,SAME,256,VUJE,25631,MVANGO,CHATI
KILIMANJARO,25,SAME,256,VUJE,25631,MVANGO,ITESHE
KILIMANJARO,25,SAME,256,VUJE,25631,MVANGO,MSAA
KILIMANJARO,25,SAME,256,VUJE,25631,NTENGA,NTENGA
KILIMANJARO,25,SAME,256,VUJE,25631,NTENGA,MWALA
KILIMANJARO,25,SAME,256,VUJE,25631,NTENGA,MKUMEMHENDE
KILIMANJARO,25,SAME,256,VUJE,25631,NTENGA,NGARA/KIBUTU
KILIMANJARO,25,SAME,256,VUJE,25631,NTENGA,FANGA
KILIMANJARO,25,SAME,256,BANGALALA,25632,MBANGALALA,KINYANG’A
KILIMANJARO,25,SAME,256,BANGALALA,25632,MBANGALALA,MGHUNGANI
KILIMANJARO,25,SAME,256,BANGALALA,25632,MBANGALALA,MAKORENI
KILIMANJARO,25,SAME,256,BANGALALA,25632,MBANGALALA,KIRINJIKO JUU
KILIMANJARO,25,SAME,256,BANGALALA,25632,MBANGALALA,MKUNGURU
KILIMANJARO,25,SAME,256,BANGALALA,25632,MBANGALALA,MAZAMELI
KILIMANJARO,25,SAME,256,BANGALALA,25632,MBANGALALA,MKONGA
KILIMANJARO,25,SAME,256,BANGALALA,25632,MBANGALALA,MAKEI
KILIMANJARO,25,SAME,256,BANGALALA,25632,MBANGALALA,KINYANGUSI
KILIMANJARO,25,SAME,256,BANGALALA,25632,MBANGALALA,KIRINJIKO CHINI
KILIMANJARO,25,SAME,256,BANGALALA,25632,MKANYENI,MCHIKATU
KILIMANJARO,25,SAME,256,BANGALALA,25632,MKANYENI,MSANGA
KILIMANJARO,25,SAME,256,BANGALALA,25632,MKANYENI,KWANDUGU
KILIMANJARO,25,SAME,256,BANGALALA,25632,MKANYENI,MKANYENI
KILIMANJARO,25,SAME,256,BANGALALA,25632,MKANYENI,KWANYUNGU
KILIMANJARO,25,SAME,256,GAVAO - SAWENI,25633,GAVAO - NGARITO,GAVAO
KILIMANJARO,25,SAME,256,GAVAO - SAWENI,25633,GAVAO - NGARITO,NGARITO
KILIMANJARO,25,SAME,256,GAVAO - SAWENI,25633,GAVAO - NGARITO,RINDINI
KILIMANJARO,25,SAME,256,GAVAO - SAWENI,25633,GAVAO - NGARITO,LUANDA HEMIGUNGA
KILIMANJARO,25,SAME,256,GAVAO - SAWENI,25633,GAVAO - NGARITO,MNETU HELUONDO
KILIMANJARO,25,SAME,256,GAVAO - SAWENI,25633,SAWENI,SAWENI
KILIMANJARO,25,SAME,256,GAVAO - SAWENI,25633,SAWENI,POSTA
KILIMANJARO,25,SAME,256,GAVAO - SAWENI,25633,SAWENI,MAJENGO
KILIMANJARO,25,SAME,256,GAVAO - SAWENI,25633,SAWENI,MABOMA
KILIMANJARO,25,SAME,256,TAE,25634,TAE,SHIGHATI
KILIMANJARO,25,SAME,256,TAE,25634,TAE,MSHEWA
KILIMANJARO,25,SAME,256,TAE,25634,TAE,MAHANDE
KILIMANJARO,25,SAME,256,TAE,25634,TAE,NGARA
KILIMANJARO,25,SAME,256,TAE,25634,TAE,GOMBELESA
KILIMANJARO,25,SAME,256,TAE,25634,HEIKONT,KINDI
KILIMANJARO,25,SAME,256,TAE,25634,HEIKONT,KARETI
KILIMANJARO,25,SAME,256,TAE,25634,HEIKONT,HEIKONT
KILIMANJARO,25,SAME,256,TAE,25634,RIKWENI,MPARE
KILIMANJARO,25,SAME,256,TAE,25634,RIKWENI,MNAZI
KILIMANJARO,25,SAME,256,TAE,25634,RIKWENI,HEMHUNGA
KILIMANJARO,25,ROMBO,257,MAHIDA,25701,MAHANGO,MAHANGO
KILIMANJARO,25,ROMBO,257,MAHIDA,25701,MAHANGO,MAWANDA MTERINI
KILIMANJARO,25,ROMBO,257,MAHIDA,25701,MAHANGO,UDANGENI
KILIMANJARO,25,ROMBO,257,MAHIDA,25701,MAHANGO,MRAURAU
KILIMANJARO,25,ROMBO,257,MAHIDA,25701,MAHANGO,MKEI
KILIMANJARO,25,ROMBO,257,MAHIDA,25701,NGUDUNI,UWA
KILIMANJARO,25,ROMBO,257,MAHIDA,25701,NGUDUNI,MAKETI
KILIMANJARO,25,ROMBO,257,MAHIDA,25701,NGUDUNI,KASENI
KILIMANJARO,25,ROMBO,257,HOLILI,25702,HOLILI MJINI,KASTAMU
KILIMANJARO,25,ROMBO,257,HOLILI,25702,HOLILI MJINI,LOTIMA
KILIMANJARO,25,ROMBO,257,HOLILI,25702,HOLILI MJINI,CHILIO
KILIMANJARO,25,ROMBO,257,HOLILI,25702,HOLILI VIJIJINI,KAKUYUNI
KILIMANJARO,25,ROMBO,257,HOLILI,25702,HOLILI VIJIJINI,SHULENI
KILIMANJARO,25,ROMBO,257,HOLILI,25702,HOLILI VIJIJINI,MBITINI
KILIMANJARO,25,ROMBO,257,MAMSERA,25703,MAMSERA JUU,MALAMSHA
KILIMANJARO,25,ROMBO,257,MAMSERA,25703,MAMSERA JUU,KILEMENI
KILIMANJARO,25,ROMBO,257,MAMSERA,25703,MAMSERA JUU,KWAMUNGU
KILIMANJARO,25,ROMBO,257,MAMSERA,25703,MAMSERA KATI,BAANDE
KILIMANJARO,25,ROMBO,257,MAMSERA,25703,MAMSERA KATI,MBENGONI
KILIMANJARO,25,ROMBO,257,MAMSERA,25703,MAMSERA KATI,KIWE
KILIMANJARO,25,ROMBO,257,MAMSERA,25703,MAMSERA KATI,KISHINGONI
KILIMANJARO,25,ROMBO,257,MAMSERA,25703,MAMSERA KATI,KWAKISUMA
KILIMANJARO,25,ROMBO,257,MENGWE,25704,MENGWE JUU,UMBA
KILIMANJARO,25,ROMBO,257,MENGWE,25704,MENGWE JUU,KITOI
KILIMANJARO,25,ROMBO,257,MENGWE,25704,MENGWE JUU,KYAKURA
KILIMANJARO,25,ROMBO,257,MENGWE,25704,MENGWE JUU,NGANYENI
KILIMANJARO,25,ROMBO,257,MENGWE,25704,MENGWE JUU,KINANGURA
KILIMANJARO,25,ROMBO,257,MENGWE,25704,MENGWE JUU,KYAO
KILIMANJARO,25,ROMBO,257,MENGWE,25704,MENGWE JUU,MASINI
KILIMANJARO,25,ROMBO,257,MENGWE,25704,MENGWE CHINI,MSASANGENI
KILIMANJARO,25,ROMBO,257,MENGWE,25704,MENGWE CHINI,KIPONGWE
KILIMANJARO,25,ROMBO,257,MENGWE,25704,MENGWE CHINI,MREMBE
KILIMANJARO,25,ROMBO,257,MENGWE,25704,MENGWE CHINI,USESI
KILIMANJARO,25,ROMBO,257,MENGWE,25704,MENGWE CHINI,KILEMA
KILIMANJARO,25,ROMBO,257,NGOYONI,25705,NGARENI,KIMWINGENI
KILIMANJARO,25,ROMBO,257,NGOYONI,25705,NGARENI,MFURUFURUNI
KILIMANJARO,25,ROMBO,257,NGOYONI,25705,NGARENI,NGARENI
KILIMANJARO,25,ROMBO,257,NGOYONI,25705,NGARENI,MWEKIO
KILIMANJARO,25,ROMBO,257,NGOYONI,25705,NGOYONI,NGOYONI
KILIMANJARO,25,ROMBO,257,NGOYONI,25705,NGOYONI,KIBOSOU
KILIMANJARO,25,ROMBO,257,NGOYONI,25705,NGOYONI,MFUNI
KILIMANJARO,25,ROMBO,257,NGOYONI,25705,NGOYONI,MONAYO
KILIMANJARO,25,ROMBO,257,NGOYONI,25705,NGOYONI,MLAMBAI
KILIMANJARO,25,ROMBO,257,MANDA,25706,MANDA JUU,UHEMBENI
KILIMANJARO,25,ROMBO,257,MANDA,25706,MANDA JUU,MFURUWASHENI
KILIMANJARO,25,ROMBO,257,MANDA,25706,MANDA JUU,MSUDU
KILIMANJARO,25,ROMBO,257,MANDA,25706,MANDA JUU,ONYA
KILIMANJARO,25,ROMBO,257,MANDA,25706,MANDA JUU,MARAMBE
KILIMANJARO,25,ROMBO,257,MANDA,25706,MANDA CHINI,MASHINGONI
KILIMANJARO,25,ROMBO,257,MANDA,25706,MANDA CHINI,LAAMBA
KILIMANJARO,25,ROMBO,257,MANDA,25706,MANDA CHINI,FIINGA
KILIMANJARO,25,ROMBO,257,MANDA,25706,MANDA CHINI,MTENGULENI
KILIMANJARO,25,ROMBO,257,MANDA,25706,MANDA CHINI,KAMATURA
KILIMANJARO,25,ROMBO,257,MENGENI,25707,MENGENI CHINI,MRAO
KILIMANJARO,25,ROMBO,257,MENGENI,25707,MENGENI CHINI,TIA CHINI
KILIMANJARO,25,ROMBO,257,MENGENI,25707,MENGENI CHINI,MWALALE
KILIMANJARO,25,ROMBO,257,MENGENI,25707,MENGENI CHINI,URUWA
KILIMANJARO,25,ROMBO,257,MENGENI,25707,MENGENI KITASHA,KAFUFUA
KILIMANJARO,25,ROMBO,257,MENGENI,25707,MENGENI KITASHA,KASESE
KILIMANJARO,25,ROMBO,257,MENGENI,25707,MENGENI KITASHA,TIA JUU
KILIMANJARO,25,ROMBO,257,MENGENI,25707,MENGENI KITASHA,MENGENI KATI
KILIMANJARO,25,ROMBO,257,MENGENI,25707,MENGENI KITASHA,ROYA
KILIMANJARO,25,ROMBO,257,MENGENI,25707,MFURUWASHE,KISAKENI
KILIMANJARO,25,ROMBO,257,MENGENI,25707,MFURUWASHE,MFURUWASHE
KILIMANJARO,25,ROMBO,257,MENGENI,25707,MFURUWASHE,URUWA CHINI
KILIMANJARO,25,ROMBO,257,ALENI,25708,MACHAME ALENI,TOKORA
KILIMANJARO,25,ROMBO,257,ALENI,25708,MACHAME ALENI,CHAMBURU
KILIMANJARO,25,ROMBO,257,ALENI,25708,MACHAME ALENI,BOOMO KWAMLENGU
KILIMANJARO,25,ROMBO,257,ALENI,25708,MACHAME ALENI,KIBOSOU
KILIMANJARO,25,ROMBO,257,ALENI,25708,MACHAME ALENI,KISEENI
KILIMANJARO,25,ROMBO,257,ALENI,25708,ALENI CHINI,MAKAVITI
KILIMANJARO,25,ROMBO,257,ALENI,25708,ALENI CHINI,MABIA
KILIMANJARO,25,ROMBO,257,ALENI,25708,ALENI CHINI,MNYANYANGE
KILIMANJARO,25,ROMBO,257,ALENI,25708,ALENI CHINI,KIBOSOU
KILIMANJARO,25,ROMBO,257,ALENI,25708,ALENI CHINI,MANDATENI
KILIMANJARO,25,ROMBO,257,ALENI,25708,ALENI CHINI,BOONI
KILIMANJARO,25,ROMBO,257,ALENI,25708,ALENI CHINI,MAKENGERENI
KILIMANJARO,25,ROMBO,257,MAKIIDI,25709,MAKIIDI,KIRYA “A”
KILIMANJARO,25,ROMBO,257,MAKIIDI,25709,MAKIIDI,KIRYA “B”
KILIMANJARO,25,ROMBO,257,MAKIIDI,25709,MAKIIDI,SHIDERE
KILIMANJARO,25,ROMBO,257,MAKIIDI,25709,MAKIIDI,MHARU
KILIMANJARO,25,ROMBO,257,MAKIIDI,25709,MAHARO,KWAMBOKO
KILIMANJARO,25,ROMBO,257,MAKIIDI,25709,MAHARO,MRIMASHA
KILIMANJARO,25,ROMBO,257,MAKIIDI,25709,MAHARO,MAWENI
KILIMANJARO,25,ROMBO,257,SHIMBI,25710,SHIMBI KATI,MAVANDA
KILIMANJARO,25,ROMBO,257,SHIMBI,25710,SHIMBI KATI,ISIA
KILIMANJARO,25,ROMBO,257,SHIMBI,25710,SHIMBI KATI,KIRUWENI
KILIMANJARO,25,ROMBO,257,SHIMBI,25710,SHIMBI KATI,KWATERWA
KILIMANJARO,25,ROMBO,257,SHIMBI,25710,SHIMBI MASHO,KITIRIMA
KILIMANJARO,25,ROMBO,257,SHIMBI,25710,SHIMBI MASHO,KIBOSOU
KILIMANJARO,25,ROMBO,257,SHIMBI,25710,SHIMBI MASHO,KWASONDO
KILIMANJARO,25,ROMBO,257,KELAMFUA/MOKALA,25711,SHIMBI MASHO,MHEMBENI
KILIMANJARO,25,ROMBO,257,KELAMFUA/MOKALA,25711,SHIMBI MASHO,NG’AMBENI
KILIMANJARO,25,ROMBO,257,KELAMFUA/MOKALA,25711,SHIMBI MASHO,MAKURA
KILIMANJARO,25,ROMBO,257,KELAMFUA/MOKALA,25711,SHIMBI MASHO,KIRUNGU
KILIMANJARO,25,ROMBO,257,KELAMFUA/MOKALA,25711,SHIMBI MASHO,MAASINI
KILIMANJARO,25,ROMBO,257,KELAMFUA/MOKALA,25711,SHIMBI MASHO,MTERINI
KILIMANJARO,25,ROMBO,257,KELAMFUA/MOKALA,25711,SHIMBI MASHO,MHAKA
KILIMANJARO,25,ROMBO,257,KELAMFUA/MOKALA,25711,SHIMBI MASHO,MAALI
KILIMANJARO,25,ROMBO,257,KELAMFUA/MOKALA,25711,SHIMBI MASHO,KWALAKIUNDU
KILIMANJARO,25,ROMBO,257,KELAMFUA/MOKALA,25711,SHIMBI MASHO,ITEFRONI
KILIMANJARO,25,ROMBO,257,KELAMFUA/MOKALA,25711,SHIMBI MASHO,MAKORORENI
KILIMANJARO,25,ROMBO,257,KELAMFUA/MOKALA,25711,SHIMBI MASHO,KIMANGA
KILIMANJARO,25,ROMBO,257,KELAMFUA/MOKALA,25711,SHIMBI MASHO,KWANGOI
KILIMANJARO,25,ROMBO,257,KELAMFUA/MOKALA,25711,SHIMBI MASHO,MKUU MJINI
KILIMANJARO,25,ROMBO,257,USHIRI/IKUINI,25712,IKUINI,KAFUFUU
KILIMANJARO,25,ROMBO,257,USHIRI/IKUINI,25712,IKUINI,BWAWANI
KILIMANJARO,25,ROMBO,257,USHIRI/IKUINI,25712,IKUINI,IMONGONI
KILIMANJARO,25,ROMBO,257,USHIRI/IKUINI,25712,UBAA,NGAMBENI
KILIMANJARO,25,ROMBO,257,USHIRI/IKUINI,25712,UBAA,KILEU
KILIMANJARO,25,ROMBO,257,USHIRI/IKUINI,25712,UBAA,UBAA KATI
KILIMANJARO,25,ROMBO,257,USHIRI/IKUINI,25712,UBAA,KWAKITEWETA
KILIMANJARO,25,ROMBO,257,USHIRI/IKUINI,25712,USHIRI,KITONGORIA
KILIMANJARO,25,ROMBO,257,USHIRI/IKUINI,25712,USHIRI,KOISO
KILIMANJARO,25,ROMBO,257,USHIRI/IKUINI,25712,USHIRI,KIWOSHA
KILIMANJARO,25,ROMBO,257,USHIRI/IKUINI,25712,USHIRI,MWAHWE
KILIMANJARO,25,ROMBO,257,USHIRI/IKUINI,25712,USHIRI,MBURA
KILIMANJARO,25,ROMBO,257,USHIRI/IKUINI,25712,USHIRI,MACHAMEKINYASINI
KILIMANJARO,25,ROMBO,257,USHIRI/IKUINI,25712,USHIRI,MHAKA
KILIMANJARO,25,ROMBO,257,USHIRI/IKUINI,25712,USHIRI,SHUMBWE
KILIMANJARO,25,ROMBO,257,MRAO KERYO,25713,MRAO,NDIMA
KILIMANJARO,25,ROMBO,257,MRAO KERYO,25713,MRAO,HANGERI
KILIMANJARO,25,ROMBO,257,MRAO KERYO,25713,MRAO,MKOMTA
KILIMANJARO,25,ROMBO,257,MRAO KERYO,25713,MRAO,KASHORA
KILIMANJARO,25,ROMBO,257,MRAO KERYO,25713,MMOMWE,MONGUO
KILIMANJARO,25,ROMBO,257,MRAO KERYO,25713,MMOMWE,MMOMWE
KILIMANJARO,25,ROMBO,257,MRAO KERYO,25713,KERYO,KINYAULI
KILIMANJARO,25,ROMBO,257,MRAO KERYO,25713,KERYO,KISALE MKOVANDA
KILIMANJARO,25,ROMBO,257,MRAO KERYO,25713,KERYO,UMARINI
KILIMANJARO,25,ROMBO,257,MRAO KERYO,25713,MASHUBA,MFONGONI
KILIMANJARO,25,ROMBO,257,MRAO KERYO,25713,MASHUBA,MASHAMBA
KILIMANJARO,25,ROMBO,257,KIRWAKENI,25714,KENI,MAKAENI
KILIMANJARO,25,ROMBO,257,KIRWAKENI,25714,KENI,WOKA
KILIMANJARO,25,ROMBO,257,KIRWAKENI,25714,KENI,KANGERI
KILIMANJARO,25,ROMBO,257,KIRWAKENI,25714,KENI,NG’ANYENI
KILIMANJARO,25,ROMBO,257,KIRWAKENI,25714,KENI,KITUVATA
KILIMANJARO,25,ROMBO,257,KIRWAKENI,25714,KENI,MOKORO
KILIMANJARO,25,ROMBO,257,KIRWAKENI,25714,KIRWA,AMRUSHU MAMBA
KILIMANJARO,25,ROMBO,257,KIRWAKENI,25714,KIRWA,AMRUSHU KISALE
KILIMANJARO,25,ROMBO,257,KIRWAKENI,25714,KIRWA,LONGONI
KILIMANJARO,25,ROMBO,257,KIRWAKENI,25714,KIRWA,KIRWA KISALE
KILIMANJARO,25,ROMBO,257,KIRWAKENI,25714,KIRAENI,LEMERAO
KILIMANJARO,25,ROMBO,257,KIRWAKENI,25714,KIRAENI,KIRAENI
KILIMANJARO,25,ROMBO,257,KIRWAKENI,25714,KIRAENI,UNG’ORO
KILIMANJARO,25,ROMBO,257,KATANGARA/MRERE,25715,KATANGARA,MALERENI
KILIMANJARO,25,ROMBO,257,KATANGARA/MRERE,25715,KATANGARA,KITERO
KILIMANJARO,25,ROMBO,257,KATANGARA/MRERE,25715,KATANGARA,KWALAMKUNE
KILIMANJARO,25,ROMBO,257,KATANGARA/MRERE,25715,KATANGARA,MOOMBO
KILIMANJARO,25,ROMBO,257,KATANGARA/MRERE,25715,KATANGARA,UYANA
KILIMANJARO,25,ROMBO,257,KATANGARA/MRERE,25715,KATANGARA,VANDENI
KILIMANJARO,25,ROMBO,257,KATANGARA/MRERE,25715,MRERE,KASHORA “A”
KILIMANJARO,25,ROMBO,257,KATANGARA/MRERE,25715,MRERE,KASHORA “B”
KILIMANJARO,25,ROMBO,257,KATANGARA/MRERE,25715,MRERE,HITI
KILIMANJARO,25,ROMBO,257,KATANGARA/MRERE,25715,MRERE,KISALE
KILIMANJARO,25,ROMBO,257,KATANGARA/MRERE,25715,MRERE,MARANGU
KILIMANJARO,25,ROMBO,257,KATANGARA/MRERE,25715,MRERE,KENDA
KILIMANJARO,25,ROMBO,257,KATANGARA/MRERE,25715,MRERE,SIMBALO
KILIMANJARO,25,ROMBO,257,KISALE MSARANGA,25716,KISALE,KISALE
KILIMANJARO,25,ROMBO,257,KISALE MSARANGA,25716,KISALE,UTATE
KILIMANJARO,25,ROMBO,257,KISALE MSARANGA,25716,KISALE,SAMANGA
KILIMANJARO,25,ROMBO,257,KISALE MSARANGA,25716,KISALE,MKOKYAMA “A”
KILIMANJARO,25,ROMBO,257,KISALE MSARANGA,25716,KISALE,MKOKYAMA “B”
KILIMANJARO,25,ROMBO,257,KISALE MSARANGA,25716,KISALE,UMARINI
KILIMANJARO,25,ROMBO,257,KISALE MSARANGA,25716,KISALE,KALA
KILIMANJARO,25,ROMBO,257,KISALE MSARANGA,25716,KISALE,KWATERI
KILIMANJARO,25,ROMBO,257,KISALE MSARANGA,25716,MAHOROSHA,KALA
KILIMANJARO,25,ROMBO,257,KISALE MSARANGA,25716,MAHOROSHA,MKOMTWE
KILIMANJARO,25,ROMBO,257,KISALE MSARANGA,25716,MAHOROSHA,MFORO
KILIMANJARO,25,ROMBO,257,KISALE MSARANGA,25716,MAHOROSHA,MAHOROSHA
KILIMANJARO,25,ROMBO,257,KISALE MSARANGA,25716,MSARANGA,KYEEMBA
KILIMANJARO,25,ROMBO,257,KISALE MSARANGA,25716,MSARANGA,MFUASHI
KILIMANJARO,25,ROMBO,257,KISALE MSARANGA,25716,MSARANGA,MTIMHOO
KILIMANJARO,25,ROMBO,257,KISALE MSARANGA,25716,MSARANGA,KIA MASELEKI
KILIMANJARO,25,ROMBO,257,KISALE MSARANGA,25716,MSARANGA,KIRACHI
KILIMANJARO,25,ROMBO,257,KISALE MSARANGA,25716,MSARANGA,URAMBONI
KILIMANJARO,25,ROMBO,257,KISALE MSARANGA,25716,MSARANGA,KWASUVA
KILIMANJARO,25,ROMBO,257,KISALE MSARANGA,25716,MSARANGA,IKONENI
KILIMANJARO,25,ROMBO,257,OLELE,25717,KILEMA,USARANGEI
KILIMANJARO,25,ROMBO,257,OLELE,25717,KILEMA,KWANAKUYA
KILIMANJARO,25,ROMBO,257,OLELE,25717,KILEMA,KWAKASENGE
KILIMANJARO,25,ROMBO,257,OLELE,25717,KILEMA,MEELE
KILIMANJARO,25,ROMBO,257,OLELE,25717,KILEMA,MLANG’A
KILIMANJARO,25,ROMBO,257,OLELE,25717,KILEMA,LORIO
KILIMANJARO,25,ROMBO,257,OLELE,25717,KOOTI,KIRUWENI
KILIMANJARO,25,ROMBO,257,OLELE,25717,KOOTI,MLEMBEA
KILIMANJARO,25,ROMBO,257,OLELE,25717,KOOTI,MAWELA
KILIMANJARO,25,ROMBO,257,OLELE,25717,KOOTI,SHINGA
KILIMANJARO,25,ROMBO,257,MARANGU KITOWO,25718,MARANGU,SASENI
KILIMANJARO,25,ROMBO,257,MARANGU KITOWO,25718,MARANGU,CHAMTI
KILIMANJARO,25,ROMBO,257,MARANGU KITOWO,25718,MARANGU,KIFUMU
KILIMANJARO,25,ROMBO,257,MARANGU KITOWO,25718,MARANGU,MKOMTA
KILIMANJARO,25,ROMBO,257,MARANGU KITOWO,25718,MARANGU,MKOMTA KATI
KILIMANJARO,25,ROMBO,257,MARANGU KITOWO,25718,MARANGU,MARANGU KATI
KILIMANJARO,25,ROMBO,257,MARANGU KITOWO,25718,MARANGU,MARINGITINI
KILIMANJARO,25,ROMBO,257,MARANGU KITOWO,25718,KITOWO,MASEKINI
KILIMANJARO,25,ROMBO,257,MARANGU KITOWO,25718,KITOWO,KITONGORIA
KILIMANJARO,25,ROMBO,257,MARANGU KITOWO,25718,KITOWO,SIMBALO
KILIMANJARO,25,ROMBO,257,MARANGU KITOWO,25718,KITOWO,TAVARINI “A”
KILIMANJARO,25,ROMBO,257,MARANGU KITOWO,25718,KITOWO,TAVARINI “B”
KILIMANJARO,25,ROMBO,257,MARANGU KITOWO,25718,KITOWO,KASURWA
KILIMANJARO,25,ROMBO,257,KIRONGO SAMANGA,25719,KIRONGO JUU,MHAKA
KILIMANJARO,25,ROMBO,257,KIRONGO SAMANGA,25719,KIRONGO JUU,KISHARINI
KILIMANJARO,25,ROMBO,257,KIRONGO SAMANGA,25719,KIRONGO JUU,MLEMBEA
KILIMANJARO,25,ROMBO,257,KIRONGO SAMANGA,25719,KIRONGO JUU,KWAMBOKO
KILIMANJARO,25,ROMBO,257,KIRONGO SAMANGA,25719,KIRONGO CHINI,KISENI
KILIMANJARO,25,ROMBO,257,KIRONGO SAMANGA,25719,KIRONGO CHINI,UDORO
KILIMANJARO,25,ROMBO,257,KIRONGO SAMANGA,25719,KIRONGO CHINI,UMARINI
KILIMANJARO,25,ROMBO,257,KIRONGO SAMANGA,25719,KIRONGO CHINI,MRUVIA
KILIMANJARO,25,ROMBO,257,KIRONGO SAMANGA,25719,KIRONGO CHINI,WEKA
KILIMANJARO,25,ROMBO,257,KIRONGO SAMANGA,25719,KIRONGO CHINI,LOKAMA
KILIMANJARO,25,ROMBO,257,KIRONGO SAMANGA,25719,SAMANGA,SANGO
KILIMANJARO,25,ROMBO,257,KIRONGO SAMANGA,25719,SAMANGA,UFICHA
KILIMANJARO,25,ROMBO,257,KIRONGO SAMANGA,25719,SAMANGA,KURO
KILIMANJARO,25,ROMBO,257,KIRONGO SAMANGA,25719,KIWANDA,LOTIRO
KILIMANJARO,25,ROMBO,257,KIRONGO SAMANGA,25719,KIWANDA,KIVANDA
KILIMANJARO,25,ROMBO,257,KIRONGO SAMANGA,25719,KIWANDA,KISATI
KILIMANJARO,25,ROMBO,257,KIRONGO SAMANGA,25719,KIWANDA,MAWETETA
KILIMANJARO,25,ROMBO,257,KIRONGO SAMANGA,25719,SANGASA,MATA
KILIMANJARO,25,ROMBO,257,KIRONGO SAMANGA,25719,SANGASA,MAMBA
KILIMANJARO,25,ROMBO,257,KIRONGO SAMANGA,25719,SANGASA,MACHAME
KILIMANJARO,25,ROMBO,257,KITIRIMA,25720,MSINGA,KIMONGONI
KILIMANJARO,25,ROMBO,257,KITIRIMA,25720,MSINGA,CHALOCHARIKA
KILIMANJARO,25,ROMBO,257,KITIRIMA,25720,MSINGA,KITARURA
KILIMANJARO,25,ROMBO,257,KITIRIMA,25720,LESOROMA,CHARONGA
KILIMANJARO,25,ROMBO,257,KITIRIMA,25720,LESOROMA,KITEFURE
KILIMANJARO,25,ROMBO,257,KITIRIMA,25720,LESOROMA,MORU
KILIMANJARO,25,ROMBO,257,KITIRIMA,25720,LESOROMA,WASI
KILIMANJARO,25,ROMBO,257,KITIRIMA,25720,KWALAKAMU,SINGA JUU
KILIMANJARO,25,ROMBO,257,KITIRIMA,25720,KWALAKAMU,SINGACHINI
KILIMANJARO,25,ROMBO,257,KITIRIMA,25720,KWALAKAMU,KWALAKAMU
KILIMANJARO,25,ROMBO,257,KITIRIMA,25720,KWALAKAMU,WALA CHINI
KILIMANJARO,25,ROMBO,257,KITIRIMA,25720,KWALAKAMU,WALA JUU
KILIMANJARO,25,ROMBO,257,UBETU KAHE,25721,UBETU,UBOYO
KILIMANJARO,25,ROMBO,257,UBETU KAHE,25721,UBETU,MREYAI
KILIMANJARO,25,ROMBO,257,UBETU KAHE,25721,UBETU,KILAWOI
KILIMANJARO,25,ROMBO,257,UBETU KAHE,25721,NGASENI,NEUSI
KILIMANJARO,25,ROMBO,257,UBETU KAHE,25721,NGASENI,WASI
KILIMANJARO,25,ROMBO,257,UBETU KAHE,25721,NGASENI,REHA
KILIMANJARO,25,ROMBO,257,UBETU KAHE,25721,NGASENI,KAHUIWA
KILIMANJARO,25,ROMBO,257,UBETU KAHE,25721,NGASENI,MHAKA
KILIMANJARO,25,ROMBO,257,UBETU KAHE,25721,NGASENI,MREYAI
KILIMANJARO,25,ROMBO,257,UBETU KAHE,25721,KAHE,KAHE YA ZAMANI
KILIMANJARO,25,ROMBO,257,UBETU KAHE,25721,KAHE,KAHE MPYA
KILIMANJARO,25,ROMBO,257,UBETU KAHE,25721,KAHE,NDONGE “A”
KILIMANJARO,25,ROMBO,257,UBETU KAHE,25721,KAHE,NDONGE “B”
KILIMANJARO,25,ROMBO,257,UBETU KAHE,25721,WAMA,WAMA  (A)
KILIMANJARO,25,ROMBO,257,UBETU KAHE,25721,WAMA,WAMA  (B)
KILIMANJARO,25,ROMBO,257,UBETU KAHE,25721,TURE,TURE
KILIMANJARO,25,ROMBO,257,UBETU KAHE,25721,TURE,KIURA
KILIMANJARO,25,ROMBO,257,UBETU KAHE,25721,TURE,USARANGEI
KILIMANJARO,25,ROMBO,257,NANJARA,25722,MSANGAI,BONDENI
KILIMANJARO,25,ROMBO,257,NANJARA,25722,MSANGAI,KISIWANI KATI
KILIMANJARO,25,ROMBO,257,NANJARA,25722,MSANGAI,MAMBOLEO
KILIMANJARO,25,ROMBO,257,NANJARA,25722,MSANGAI,KATI
KILIMANJARO,25,ROMBO,257,NANJARA,25722,KIBAONI,KIBAONI
KILIMANJARO,25,ROMBO,257,NANJARA,25722,KIBAONI,KASIRWA
KILIMANJARO,25,ROMBO,257,NANJARA,25722,KIBAONI,MAWENZI
KILIMANJARO,25,ROMBO,257,NANJARA,25722,KIBAONI,KIBO
KILIMANJARO,25,ROMBO,257,NANJARA,25722,KIBAONI,SAUDIA
KILIMANJARO,25,ROMBO,257,NANJARA,25722,NAYEME,NENGIRISIA
KILIMANJARO,25,ROMBO,257,NANJARA,25722,NAYEME,KETIKO
KILIMANJARO,25,ROMBO,257,NANJARA,25722,NAYEME,KAFUMBU
KILIMANJARO,25,ROMBO,257,NANJARA,25722,NAYEME,MARONGOTA
KILIMANJARO,25,ROMBO,257,NANJARA,25722,NAYEME,NEMKORO
KILIMANJARO,25,ROMBO,257,TARAKEA MOTAMBURU,25723,MBOMAI,MBOMAI JUU
KILIMANJARO,25,ROMBO,257,TARAKEA MOTAMBURU,25723,MBOMAI,MBOMAI KATI
KILIMANJARO,25,ROMBO,257,TARAKEA MOTAMBURU,25723,MBOMAI,MBOMAI NDUWENI
KILIMANJARO,25,ROMBO,257,TARAKEA MOTAMBURU,25723,MBOMAI,TARAKEA MJINI
KILIMANJARO,25,ROMBO,257,TARAKEA MOTAMBURU,25723,MBOMAI,MBOMAI CHINI
KILIMANJARO,25,ROMBO,257,TARAKEA MOTAMBURU,25723,KIKELELWA,MOKOMBERO
KILIMANJARO,25,ROMBO,257,TARAKEA MOTAMBURU,25723,KIKELELWA,MOTAMBURU
KILIMANJARO,25,ROMBO,257,TARAKEA MOTAMBURU,25723,KIKELELWA,LOKORO
KILIMANJARO,25,ROMBO,257,TARAKEA MOTAMBURU,25723,KIKELELWA,KIKELELWA
KILIMANJARO,25,ROMBO,257,CHALA,25724,MAMSERA CHINI,USESU NA MKEU
KILIMANJARO,25,ROMBO,257,CHALA,25724,MAMSERA CHINI,MTEENI
KILIMANJARO,25,ROMBO,257,CHALA,25724,MAMSERA CHINI,MSHOWENI
KILIMANJARO,25,ROMBO,257,CHALA,25724,MAMSERA CHINI,MRAURAU KIMBAROGO
KILIMANJARO,25,ROMBO,257,CHALA,25724,CHALA,WITINI MAKANA
KILIMANJARO,25,ROMBO,257,CHALA,25724,CHALA,UDANGENI
KILIMANJARO,25,ROMBO,257,CHALA,25724,KIDONDONI,NDINI
KILIMANJARO,25,ROMBO,257,CHALA,25724,KIDONDONI,TANYA
KILIMANJARO,25,ROMBO,257,CHALA,25724,KIDONDONI,MALOWA
KILIMANJARO,25,ROMBO,257,CHALA,25724,KIDONDONI,KITINGISHONI
KILIMANJARO,25,ROMBO,257,CHALA,25724,KIDONDONI,MRAURAU
KILIMANJARO,25,ROMBO,257,SHIMBI KWADELE,25725,SHIMBI MASHAMI,ITEMBWENI
KILIMANJARO,25,ROMBO,257,SHIMBI KWADELE,25725,SHIMBI MASHAMI,KWAIKURU
KILIMANJARO,25,ROMBO,257,SHIMBI KWADELE,25725,SHIMBI MASHAMI,MALIMA
KILIMANJARO,25,ROMBO,257,SHIMBI KWADELE,25725,SHIMBI MASHAMI,MLAMBAI
KILIMANJARO,25,ROMBO,257,SHIMBI KWADELE,25725,SHIMBI MASHARIKI,MUUNGA
KILIMANJARO,25,ROMBO,257,SHIMBI KWADELE,25725,SHIMBI MASHARIKI,KIRAI
KILIMANJARO,25,ROMBO,257,SHIMBI KWADELE,25725,SHIMBI MASHARIKI,MOKORO
KILIMANJARO,25,ROMBO,257,SHIMBI KWADELE,25725,SHIMBI MASHARIKI,KWANDELE
KILIMANJARO,25,ROMBO,257,SHIMBI KWADELE,25725,SHIMBI MASHARIKI,MASANGA
KILIMANJARO,25,ROMBO,257,KINGACHI,25726,KINGACHI,UROHO
KILIMANJARO,25,ROMBO,257,KINGACHI,25726,KINGACHI,KOMBOKO
KILIMANJARO,25,ROMBO,257,KINGACHI,25726,KINGACHI,SERIKALINI
KILIMANJARO,25,ROMBO,257,KINGACHI,25726,LETO,MOKORO
KILIMANJARO,25,ROMBO,257,KINGACHI,25726,LETO,TANGWA
KILIMANJARO,25,ROMBO,257,KINGACHI,25726,LETO,URANGATA
KILIMANJARO,25,ROMBO,257,KINGACHI,25726,USONGO,USONGO
KILIMANJARO,25,ROMBO,257,KINGACHI,25726,USONGO,NDAMENI
KILIMANJARO,25,ROMBO,257,REHA,25727,URAURI,REHA
KILIMANJARO,25,ROMBO,257,REHA,25727,URAURI,MHAKA
KILIMANJARO,25,ROMBO,257,REHA,25727,NESAE,NDONG’E
KILIMANJARO,25,ROMBO,257,REHA,25727,NESAE,MANGABOLINI
KILIMANJARO,25,ROMBO,257,REHA,25727,NESAE,URUWATA
