REGION,POSTCODE,DISTRICT,POSTCODE,WARD,POSTCODE,STREET,PLACES
LINDI,65,LINDI  CBD,651,MAKONDE,65101,AMANI,
LINDI,65,LINDI  CBD,651,MAKONDE,65101,SHEIKH BADI,
LINDI,65,LINDI  CBD,651,MSINJAHILI,65102,MSONOBARI JUU,
LINDI,65,LINDI  CBD,651,MSINJAHILI,65102,MSONOBARI CHINI,
LINDI,65,LINDI  CBD,651,MSINJAHILI,65102,BENKI,
LINDI,65,LINDI  CBD,651,MSINJAHILI,65102,KANISA,
LINDI,65,LINDI  CBD,651,MSINJAHILI,65102,MLANDEGE,
LINDI,65,LINDI  CBD,651,MSINJAHILI,65102,TANKINI,
LINDI,65,LINDI  CBD,651,NDORO,65103,NDORO JUU,
LINDI,65,LINDI  CBD,651,NDORO,65103,NDORO CHINI,
LINDI,65,LINDI  CBD,651,NDORO,65103,NDORO KASKAZINI,
LINDI,65,LINDI  CBD,651,NDORO,65103,NDORO KUSINI,
LINDI,65,LINDI  CBD,651,MIKUMBI,65104,UGANDA,
LINDI,65,LINDI  CBD,651,MIKUMBI,65104,SHULE,
LINDI,65,LINDI  CBD,651,MIKUMBI,65104,MIKUMBI MAGHARIBI,
LINDI,65,LINDI  CBD,651,MITANDI,65105,MANISPAA,
LINDI,65,LINDI  CBD,651,MITANDI,65105,MNUBI,
LINDI,65,LINDI  CBD,651,MITANDI,65105,NAVETAVETA,
LINDI,65,LINDI  CBD,651,MITANDI,65105,IDA HOTI,
LINDI,65,LINDI  CBD,651,MITANDI,65105,JAFFU PEMBE,
LINDI,65,LINDI  CBD,651,MITANDI,65105,MAISALA,
LINDI,65,LINDI  CBD,651,RAHALEO,65106,MCHINGA ROAD,
LINDI,65,LINDI  CBD,651,RAHALEO,65106,RAHALEO,
LINDI,65,LINDI  CBD,651,RAHALEO,65106,UFUKONI,
LINDI,65,LINDI  CBD,651,RAHALEO,65106,MAJENGO,
LINDI,65,LINDI  CBD,651,MWENGE,65107,MAGOGONI,
LINDI,65,LINDI  CBD,651,MWENGE,65107,NHC,
LINDI,65,LINDI  CBD,651,MWENGE,65107,KILIMAHEWA,
LINDI,65,LINDI  CBD,651,MWENGE,65107,MWENGE,
LINDI,65,LINDI  CBD,651,MWENGE,65107,MIGOMBANI,
LINDI,65,LINDI  CBD,651,MATOPENI,65108,MTULENI A,
LINDI,65,LINDI  CBD,651,MATOPENI,65108,MTULENI B,
LINDI,65,LINDI  CBD,651,MATOPENI,65108,KAWAWA,
LINDI,65,LINDI  CBD,651,MATOPENI,65108,MSIKITI,
LINDI,65,LINDI  CBD,651,MATOPENI,65108,KOTA,
LINDI,65,LINDI  CBD,651,MATOPENI,65108,MATOPENI,
LINDI,65,LINDI  CBD,651,MATOPENI,65108,RIPS,
LINDI,65,LINDI  CBD,651,WAILESI,65109,ANGAZA,
LINDI,65,LINDI  CBD,651,WAILESI,65109,ANGOLA,
LINDI,65,LINDI  CBD,651,WAILESI,65109,MAJANI MAPANA,
LINDI,65,LINDI  CBD,651,WAILESI,65109,RUTAMBA,
LINDI,65,LINDI  CBD,651,WAILESI,65109,KILIMAHEWA,
LINDI,65,LINDI  CBD,651,NACHINGWEA,65110,SABASABA,
LINDI,65,LINDI  CBD,651,NACHINGWEA,65110,MPILIPILI KASKAZINI,
LINDI,65,LINDI  CBD,651,NACHINGWEA,65110,MPILIPILI KUSINI,
LINDI,65,LINDI  CBD,651,NACHINGWEA,65110,NACHINGWEA,
LINDI,65,LINDI  CBD,651,RASBURA,65111,KARIAKOO,
LINDI,65,LINDI  CBD,651,RASBURA,65111,LIKOTWA,
LINDI,65,LINDI  CBD,651,RASBURA,65111,STENDI MITWERO,
LINDI,65,LINDI  CBD,651,RASBURA,65111,MITEMA,
LINDI,65,LINDI  CBD,651,RASBURA,65111,MMONGO,
LINDI,65,LINDI  CBD,651,RASBURA,65111,BANDUKA,
LINDI,65,LINDI  CBD,651,RASBURA,65111,MUHIMBILI,
LINDI,65,LINDI  CBD,651,RASBURA,65111,MILONJI,
LINDI,65,LINDI  CBD,651,RASBURA,65111,MITWERO ZAHANATI,
LINDI,65,LINDI  CBD,651,RASBURA,65111,MABANO,
LINDI,65,LINDI  CBD,651,MTANDA,65112,MMUKULE,
LINDI,65,LINDI  CBD,651,MTANDA,65112,MCHOCHORO,
LINDI,65,LINDI  CBD,651,MTANDA,65112,MTANDA KARIAKOO,
LINDI,65,LINDI  CBD,651,MTANDA,65112,MTANDA KATI,
LINDI,65,LINDI  CBD,651,MTANDA,65112,MTANDA JUU,
LINDI,65,LINDI  CBD,651,MTANDA,65112,NANEMBO,
LINDI,65,LINDI  CBD,651,MTANDA,65112,MTUTU,
LINDI,65,LINDI  CBD,651,JAMHURI,65113,MTANGE,
LINDI,65,LINDI  CBD,651,JAMHURI,65113,KIDUNI,
LINDI,65,LINDI  CBD,651,JAMHURI,65113,TULIENI,
LINDI,65,LINDI  CBD,651,JAMHURI,65113,MITUMBATI,
LINDI,65,LINDI  CBD,651,JAMHURI,65113,MAYANI,
LINDI,65,LINDI  CBD,651,MINGOYO,65114,MINGOYO,
LINDI,65,LINDI  CBD,651,MINGOYO,65114,MAWASILIANO,
LINDI,65,LINDI  CBD,651,MINGOYO,65114,RAHA LEO A,
LINDI,65,LINDI  CBD,651,MINGOYO,65114,RAHA  LEO B,
LINDI,65,LINDI  CBD,651,MINGOYO,65114,SOKONI,
LINDI,65,LINDI  CBD,651,MINGOYO,65114,MAKONDE,
LINDI,65,LINDI  CBD,651,MINGOYO,65114,MTELE,
LINDI,65,LINDI  CBD,651,MINGOYO,65114,MAJENGO,
LINDI,65,LINDI  CBD,651,NG'APA,65115,MBUYUNI,
LINDI,65,LINDI  CBD,651,NG'APA,65115,MKUPAMA,
LINDI,65,LINDI  CBD,651,NG'APA,65115,MAPOKEZI,
LINDI,65,LINDI  CBD,651,NG'APA,65115,MAHAKAMANI,
LINDI,65,LINDI  CBD,651,NG'APA,65115,LIVENGULA,
LINDI,65,LINDI  CBD,651,NG'APA,65115,KUMBAILA,
LINDI,65,LINDI  CBD,651,NG'APA,65115,CHELEWENI,
LINDI,65,LINDI  CBD,651,TANDANGONGORO,65116,TANDANGONGORO,
LINDI,65,LINDI  CBD,651,TANDANGONGORO,65116,NALUNYU,
LINDI,65,LINDI  CBD,651,TANDANGONGORO,65116,NANDAMBI,
LINDI,65,LINDI  CBD,651,TANDANGONGORO,65116,MKANGA,
LINDI,65,LINDI  CBD,651,TANDANGONGORO,65116,MSIKITI,
LINDI,65,LINDI  CBD,651,TANDANGONGORO,65116,ZAWIANI,
LINDI,65,LINDI  CBD,651,TANDANGONGORO,65116,ZAHANATI,
LINDI,65,LINDI  CBD,651,TANDANGONGORO,65116,MUUNGANO,
LINDI,65,LINDI  CBD,651,CHIKONJI,65117,NYANYANJE,
LINDI,65,LINDI  CBD,651,CHIKONJI,65117,JANGWANI,
LINDI,65,LINDI  CBD,651,CHIKONJI,65117,NANJINGA,
LINDI,65,LINDI  CBD,651,CHIKONJI,65117,LIKABUKO,
LINDI,65,LINDI  CBD,651,CHIKONJI,65117,KOLEJI,
LINDI,65,LINDI  CBD,651,CHIKONJI,65117,KIWANJANI,
LINDI,65,LINDI  CBD,651,MBANJA,65118,MBANJA,
LINDI,65,LINDI  CBD,651,MBANJA,65118,KIKWETU,
LINDI,65,LINDI  CBD,651,MBANJA,65118,LIKONG'O,
LINDI,65,LINDI  CBD,651,MBANJA,65118,MITONGA,
LINDI,65,LINDI  CBD,651,MBANJA,65118,NAGIRIKI,
LINDI,65,LINDI  CBD,651,MBANJA,65118,MAKONDE,
LINDI,65,LINDI  CBD,651,MBANJA,65118,MASASI YA LEO,
LINDI,65,LINDI  CBD,651,MBANJA,65118,MTOMKAVU,
LINDI,65,LINDI  CBD,651,KITUMBIKWELA,65119,KITUNDA,
LINDI,65,LINDI  CBD,651,KITUMBIKWELA,65119,KITUMBIKWELA,
LINDI,65,LINDI  CBD,651,KITUMBIKWELA,65119,NACHINGWEA,
LINDI,65,LINDI  CBD,651,KITUMBIKWELA,65119,MNALI,
LINDI,65,LINDI  CBD,651,KITUMBIKWELA,65119,SINDE,
LINDI,65,LINDI  CBD,651,MNAZIMMOJA,65120,SEKONDARI,
LINDI,65,LINDI  CBD,651,MNAZIMMOJA,65120,ZAHANATI,
LINDI,65,LINDI  CBD,651,MNAZIMMOJA,65120,MUUNGANO,
LINDI,65,LINDI  CBD,651,MNAZIMMOJA,65120,STENDI,
LINDI,65,LINDI  CBD,651,MNAZIMMOJA,65120,RUAHA,
LINDI,65,LINDI  CBD,651,MNAZIMMOJA,65120,MIHOGONI,
LINDI,65,LINDI  CBD,651,MNAZIMMOJA,65120,MAJENGO,
LINDI,65,LINDI,652,NACHUNYU,65201,NACHUNYU,NAMTUMBULA
LINDI,65,LINDI,652,NACHUNYU,65201,NACHUNYU,TANDIKA
LINDI,65,LINDI,652,NACHUNYU,65201,NACHUNYU,MAJENGO A
LINDI,65,LINDI,652,NACHUNYU,65201,NACHUNYU,UJENZI
LINDI,65,LINDI,652,NACHUNYU,65201,NACHUNYU,BONDENI
LINDI,65,LINDI,652,NACHUNYU,65201,NACHUNYU,MICHENJE
LINDI,65,LINDI,652,NACHUNYU,65201,NACHUNYU,MKOPWE
LINDI,65,LINDI,652,NACHUNYU,65201,NACHUNYU,PANGABOI
LINDI,65,LINDI,652,NACHUNYU,65201,NACHUNYU,MSANGI
LINDI,65,LINDI,652,NACHUNYU,65201,MMUMBU,MMUMBU
LINDI,65,LINDI,652,NACHUNYU,65201,MMUMBU,PEMBENYUMA
LINDI,65,LINDI,652,SUDI,65202,SUDI,MIKWAJU
LINDI,65,LINDI,652,SUDI,65202,SUDI,MTEPA
LINDI,65,LINDI,652,SUDI,65202,SUDI,TIPULI
LINDI,65,LINDI,652,SUDI,65202,KILIMANI,KILIMANI A
LINDI,65,LINDI,652,SUDI,65202,KILIMANI,KILIMANI B
LINDI,65,LINDI,652,SUDI,65202,KILIMANI,LUKANGA
LINDI,65,LINDI,652,SUDI,65202,KILIMANI,MTAJARIBU
LINDI,65,LINDI,652,SUDI,65202,MADANGWA,KIPINGO
LINDI,65,LINDI,652,SUDI,65202,MADANGWA,MATOPENI
LINDI,65,LINDI,652,SUDI,65202,MADANGWA,MADANGWA
LINDI,65,LINDI,652,SUDI,65202,MADANGWA,MAGEUZI
LINDI,65,LINDI,652,SUDI,65202,MTEGU,KIPWAPWA
LINDI,65,LINDI,652,SUDI,65202,MTEGU,MITULI
LINDI,65,LINDI,652,MNOLELA,65203,MNOLELA,MNOLELA A
LINDI,65,LINDI,652,MNOLELA,65203,MNOLELA,MNOLELA B
LINDI,65,LINDI,652,MNOLELA,65203,MNOLELA,MTENGU
LINDI,65,LINDI,652,MNOLELA,65203,MNOLELA,MAKONDE
LINDI,65,LINDI,652,MNOLELA,65203,MNOLELA,KIHAHA
LINDI,65,LINDI,652,MNOLELA,65203,MNOLELA,MAJENGO
LINDI,65,LINDI,652,MNOLELA,65203,MNOLELA,NIKOWELA
LINDI,65,LINDI,652,MNOLELA,65203,MBUTA,MBUTA A
LINDI,65,LINDI,652,MNOLELA,65203,MBUTA,MBUTA B
LINDI,65,LINDI,652,MNOLELA,65203,MBUTA,MBAHA
LINDI,65,LINDI,652,MNOLELA,65203,MBUTA,CHINDUTU
LINDI,65,LINDI,652,MNOLELA,65203,MBUTA,CHILOJA
LINDI,65,LINDI,652,MNOLELA,65203,RUHOKWE,MWENGE
LINDI,65,LINDI,652,MNOLELA,65203,RUHOKWE,MCHAPENI
LINDI,65,LINDI,652,MNOLELA,65203,RUHOKWE,CCM
LINDI,65,LINDI,652,MNOLELA,65203,RUHOKWE,MSIKITINI
LINDI,65,LINDI,652,MNOLELA,65203,RUHOKWE,SEMAHOJA
LINDI,65,LINDI,652,MNOLELA,65203,RUHOKWE,BEIRA
LINDI,65,LINDI,652,MNOLELA,65203,RUHOKWE,MAJENGO
LINDI,65,LINDI,652,MNOLELA,65203,RUHOKWE,MPEPETA
LINDI,65,LINDI,652,MNOLELA,65203,RUHOKWE,MANDANJE
LINDI,65,LINDI,652,MNOLELA,65203,NAMUNDA,KAWAWA
LINDI,65,LINDI,652,MNOLELA,65203,NAMUNDA,NAMIHAMI
LINDI,65,LINDI,652,MNOLELA,65203,NAMUNDA,SHULENI
LINDI,65,LINDI,652,MNOLELA,65203,NAMUNDA,MAKONDE
LINDI,65,LINDI,652,MNOLELA,65203,NAMUNDA,MABATINI
LINDI,65,LINDI,652,MNOLELA,65203,NAMUNDA,TANDIKA
LINDI,65,LINDI,652,MNOLELA,65203,NAMUNDA,MATOPE
LINDI,65,LINDI,652,MNOLELA,65203,NAMUNDA,MKONG'O
LINDI,65,LINDI,652,MNOLELA,65203,NAMUNDA,NUSURA
LINDI,65,LINDI,652,MNOLELA,65203,NAMUNDA,MNYALE
LINDI,65,LINDI,652,MNOLELA,65203,ZINGATIA,MSIKITINI
LINDI,65,LINDI,652,MNOLELA,65203,ZINGATIA,NGUNYA B
LINDI,65,LINDI,652,MNOLELA,65203,ZINGATIA,NAMKUKUTUKU
LINDI,65,LINDI,652,MNOLELA,65203,ZINGATIA,MATOPENI
LINDI,65,LINDI,652,MNOLELA,65203,ZINGATIA,NGUNYA A
LINDI,65,LINDI,652,MNOLELA,65203,ZINGATIA,NAMMEMBE
LINDI,65,LINDI,652,MNOLELA,65203,ZINGATIA,MITETEHA
LINDI,65,LINDI,652,MNOLELA,65203,ZINGATIA,SHULENI
LINDI,65,LINDI,652,MNOLELA,65203,ZINGATIA,MKWAJUNI
LINDI,65,LINDI,652,MNOLELA,65203,ZINGATIA,SHANGANI
LINDI,65,LINDI,652,MNOLELA,65203,ZINGATIA,MIEMBENI
LINDI,65,LINDI,652,MNOLELA,65203,SIMANA,MALILA
LINDI,65,LINDI,652,MNOLELA,65203,SIMANA,MLANDEGE
LINDI,65,LINDI,652,MNOLELA,65203,SIMANA,NACHILINDIMA
LINDI,65,LINDI,652,MNOLELA,65203,SIMANA,MIGOMBANI
LINDI,65,LINDI,652,MNOLELA,65203,SIMANA,SIMU
LINDI,65,LINDI,652,MNOLELA,65203,SIMANA,MAJENGO
LINDI,65,LINDI,652,MNOLELA,65203,SIMANA,MNENGURO
LINDI,65,LINDI,652,MNOLELA,65203,SIMANA,MBAWALA
LINDI,65,LINDI,652,KIWALALA,65204,MMANGAWANGA,OFISINI
LINDI,65,LINDI,652,KIWALALA,65204,MMANGAWANGA,MSIKITINI
LINDI,65,LINDI,652,KIWALALA,65204,MMANGAWANGA,KANISANI
LINDI,65,LINDI,652,KIWALALA,65204,MMANGAWANGA,MDABWA
LINDI,65,LINDI,652,KIWALALA,65204,MMANGAWANGA,MIPALU
LINDI,65,LINDI,652,KIWALALA,65204,MMANGAWANGA,LILONJI
LINDI,65,LINDI,652,KIWALALA,65204,MMANGAWANGA,KIWANJANI
LINDI,65,LINDI,652,KIWALALA,65204,NARUNYU,MWINYI
LINDI,65,LINDI,652,KIWALALA,65204,NARUNYU,KAWAWA
LINDI,65,LINDI,652,KIWALALA,65204,NARUNYU,MALECELA
LINDI,65,LINDI,652,KIWALALA,65204,NARUNYU,WARIOBA
LINDI,65,LINDI,652,KIWALALA,65204,NARUNYU,A. MAKINDA
LINDI,65,LINDI,652,KIWALALA,65204,NARUNYU,MREMA
LINDI,65,LINDI,652,KIWALALA,65204,NARUNYU,SALIMINI
LINDI,65,LINDI,652,KIWALALA,65204,NARUNYU,NYERERE
LINDI,65,LINDI,652,KIWALALA,65204,NARUNYU,NABAHANI
LINDI,65,LINDI,652,KIWALALA,65204,NARUNYU,NNAUYE
LINDI,65,LINDI,652,KIWALALA,65204,NARUNYU,MAJOGO
LINDI,65,LINDI,652,KIWALALA,65204,KIWALALA,MZALENDO
LINDI,65,LINDI,652,KIWALALA,65204,KIWALALA,JAMHURI
LINDI,65,LINDI,652,KIWALALA,65204,KIWALALA,MBEBEDENI
LINDI,65,LINDI,652,KIWALALA,65204,KIWALALA,PARIS
LINDI,65,LINDI,652,KIWALALA,65204,KIWALALA,MAJARIBIO
LINDI,65,LINDI,652,KIWALALA,65204,KIWALALA,MUUNGANO
LINDI,65,LINDI,652,KIWALALA,65204,KIWALALA,TANDIKA
LINDI,65,LINDI,652,KIWALALA,65204,MANDAWA,SOKOINE
LINDI,65,LINDI,652,KIWALALA,65204,MANDAWA,TEMEKE
LINDI,65,LINDI,652,KIWALALA,65204,MANDAWA,NACHINGWEA
LINDI,65,LINDI,652,KIWALALA,65204,MANDAWA,UHURU
LINDI,65,LINDI,652,KIWALALA,65204,MANDAWA,MANDAWA
LINDI,65,LINDI,652,KIWALALA,65204,MANDAWA,MNARA
LINDI,65,LINDI,652,KIWALALA,65204,MANDAWA,OSTABEI
LINDI,65,LINDI,652,KIWALALA,65204,RUO,MAJENGO
LINDI,65,LINDI,652,KIWALALA,65204,RUO,SABASABA
LINDI,65,LINDI,652,KIWALALA,65204,RUO,MISUFINI
LINDI,65,LINDI,652,KIWALALA,65204,RUO,KIWANJANI
LINDI,65,LINDI,652,KIWALALA,65204,RUO,SHULENI
LINDI,65,LINDI,652,KIWALALA,65204,RUO,NAKAYAYA
LINDI,65,LINDI,652,KIWALALA,65204,RUO,NAMDEDA
LINDI,65,LINDI,652,KIWALALA,65204,RUO,LIKANGA
LINDI,65,LINDI,652,KIWALALA,65204,MPEMBE,MPEMBE ROAD
LINDI,65,LINDI,652,KIWALALA,65204,MPEMBE,GEZAULOLE
LINDI,65,LINDI,652,KIWALALA,65204,MPEMBE,NYERERE
LINDI,65,LINDI,652,KIWALALA,65204,MPEMBE,MAPINDUZI
LINDI,65,LINDI,652,KIWALALA,65204,MPEMBE,LIKANGA A
LINDI,65,LINDI,652,KIWALALA,65204,MPEMBE,MPEMBE JUU
LINDI,65,LINDI,652,KIWALALA,65204,MAHUMBIKA,MAZUA
LINDI,65,LINDI,652,KIWALALA,65204,MAHUMBIKA,MAKONDE
LINDI,65,LINDI,652,KIWALALA,65204,MAHUMBIKA,SHULENI
LINDI,65,LINDI,652,KIWALALA,65204,MAHUMBIKA,CHANGARAWENI
LINDI,65,LINDI,652,KIWALALA,65204,MAHUMBIKA,JANGWANI
LINDI,65,LINDI,652,KIWALALA,65204,MAHUMBIKA,MNARANI
LINDI,65,LINDI,652,KIWALALA,65204,MAHUMBIKA,MAJENGO
LINDI,65,LINDI,652,KIWALALA,65204,MAHUMBIKA,CHELEWENI
LINDI,65,LINDI,652,KIWALALA,65204,MAHUMBIKA,NAKAYAYA
LINDI,65,LINDI,652,KIWALALA,65204,MAHUMBIKA,MWENYEHUNDI
LINDI,65,LINDI,652,MCHINGA,65205,MCHINGA I,SINDE
LINDI,65,LINDI,652,MCHINGA,65205,MCHINGA I,STAMBULI
LINDI,65,LINDI,652,MCHINGA,65205,MCHINGA I,GEZAULOLE
LINDI,65,LINDI,652,MCHINGA,65205,MCHINGA I,NAMIHODI
LINDI,65,LINDI,652,MCHINGA,65205,MCHINGA I,SOKONI
LINDI,65,LINDI,652,MCHINGA,65205,MCHINGA II,NGOJI
LINDI,65,LINDI,652,MCHINGA,65205,MCHINGA II,JANGWANI
LINDI,65,LINDI,652,MCHINGA,65205,MCHINGA II,ZUWIANI
LINDI,65,LINDI,652,MCHINGA,65205,MCHINGA II,MISRI
LINDI,65,LINDI,652,MCHINGA,65205,MCHINGA II,KIONGANI A
LINDI,65,LINDI,652,MCHINGA,65205,MCHINGA II,NACHIKOYO
LINDI,65,LINDI,652,MCHINGA,65205,MCHINGA II,BARABARA YA PWANI
LINDI,65,LINDI,652,MCHINGA,65205,MCHINGA II,NAMKUYA
LINDI,65,LINDI,652,MCHINGA,65205,MCHINGA II,KIUNGANI
LINDI,65,LINDI,652,MCHINGA,65205,MCHINGA II,MCHANGANI
LINDI,65,LINDI,652,MCHINGA,65205,RUVU,MAKASINI
LINDI,65,LINDI,652,MCHINGA,65205,RUVU,MIRUMBA
LINDI,65,LINDI,652,MCHINGA,65205,RUVU,MJINI
LINDI,65,LINDI,652,MATIMBA,65206,MATIMBA,MATIMBA
LINDI,65,LINDI,652,MATIMBA,65206,MATIMBA,MIKUMBI
LINDI,65,LINDI,652,MATIMBA,65206,MATIMBA,TOA HOJA
LINDI,65,LINDI,652,MATIMBA,65206,MOKA,MCHINGA ROAD
LINDI,65,LINDI,652,MATIMBA,65206,MOKA,MBALALA
LINDI,65,LINDI,652,MATIMBA,65206,MOKA,KIZIMBANI
LINDI,65,LINDI,652,MATIMBA,65206,MOKA,CHEMCHEM
LINDI,65,LINDI,652,MATIMBA,65206,MOKA,MPATILA
LINDI,65,LINDI,652,MATIMBA,65206,MOKA,MTAKUJA
LINDI,65,LINDI,652,MATIMBA,65206,LIKWAYA,LUMBUMBA
LINDI,65,LINDI,652,MATIMBA,65206,LIKWAYA,MAPINDUZI
LINDI,65,LINDI,652,MATIMBA,65206,KIKOMOLELA,MNANJE
LINDI,65,LINDI,652,MATIMBA,65206,KIKOMOLELA,KIKOMOLELA
LINDI,65,LINDI,652,MATIMBA,65206,KIKOMOLELA,KINGOLI
LINDI,65,LINDI,652,MATIMBA,65206,KIKOMOLELA,NAMPOVA
LINDI,65,LINDI,652,MATIMBA,65206,KIKOMOLELA,MNEMBA
LINDI,65,LINDI,652,MATIMBA,65206,KOMOLO,NCHINDA
LINDI,65,LINDI,652,MATIMBA,65206,KOMOLO,MANGOLI
LINDI,65,LINDI,652,MATIMBA,65206,KOMOLO,LIKANDILO
LINDI,65,LINDI,652,MATIMBA,65206,KOMOLO,MNANGARA
LINDI,65,LINDI,652,MATIMBA,65206,KITOHAVI,KITOHAVI
LINDI,65,LINDI,652,MATIMBA,65206,KITOHAVI,KIHAIKE
LINDI,65,LINDI,652,MATIMBA,65206,KITOHAVI,KARIAKOO
LINDI,65,LINDI,652,NANGARU,65207,MAKUMBA,MAPINDUZI
LINDI,65,LINDI,652,NANGARU,65207,MAKUMBA,MKWAJUNI
LINDI,65,LINDI,652,NANGARU,65207,MKUMBAMOSI,CHELEWENI
LINDI,65,LINDI,652,NANGARU,65207,MKUMBAMOSI,MSIKITINI
LINDI,65,LINDI,652,NANGARU,65207,MKUMBAMOSI,MWENGE
LINDI,65,LINDI,652,NANGARU,65207,MKUMBAMOSI,LUMO
LINDI,65,LINDI,652,NANGARU,65207,MKUMBAMOSI,SOKONI
LINDI,65,LINDI,652,NANGARU,65207,MKUMBAMOSI,LIKANDILO
LINDI,65,LINDI,652,NANGARU,65207,MKUMBAMOSI,LIKONDE CHINI
LINDI,65,LINDI,652,NANGARU,65207,MUUNGANO,UMOJA
LINDI,65,LINDI,652,NANGARU,65207,MUUNGANO,MNAZIMMOJA
LINDI,65,LINDI,652,NANGARU,65207,MUUNGANO,NARUWI
LINDI,65,LINDI,652,NANGARU,65207,MUUNGANO,ULEKA
LINDI,65,LINDI,652,NANGARU,65207,MUUNGANO,KIPUNGA
LINDI,65,LINDI,652,NANGARU,65207,MUUNGANO,UJAMAA
LINDI,65,LINDI,652,NANGARU,65207,MUUNGANO,LIKONDE JUU
LINDI,65,LINDI,652,RUTAMBA,65208,RUTAMBA ZAMANI,SHULENI
LINDI,65,LINDI,652,RUTAMBA,65208,RUTAMBA ZAMANI,NAMBWALA
LINDI,65,LINDI,652,RUTAMBA,65208,RUTAMBA ZAMANI,MADUKANI
LINDI,65,LINDI,652,RUTAMBA,65208,RUTAMBA ZAMANI,MNGALE
LINDI,65,LINDI,652,RUTAMBA,65208,RUTAMBA ZAMANI,MAHAKAMANI
LINDI,65,LINDI,652,RUTAMBA,65208,MICHEE,MIKALAWANJE
LINDI,65,LINDI,652,RUTAMBA,65208,MICHEE,MALIASILI
LINDI,65,LINDI,652,RUTAMBA,65208,MICHEE,NGUNGUNGU
LINDI,65,LINDI,652,RUTAMBA,65208,MICHEE,MICHEE
LINDI,65,LINDI,652,RUTAMBA,65208,MICHEE,KIDODOYANI
LINDI,65,LINDI,652,RUTAMBA,65208,RUTAMBA SASA,MWENGE
LINDI,65,LINDI,652,RUTAMBA,65208,RUTAMBA SASA,MADUKANI
LINDI,65,LINDI,652,RUTAMBA,65208,RUTAMBA SASA,LIMBENDE
LINDI,65,LINDI,652,RUTAMBA,65208,RUTAMBA SASA,MILOLA
LINDI,65,LINDI,652,RUTAMBA,65208,RUTAMBA SASA,MATEPWE
LINDI,65,LINDI,652,RUTAMBA,65208,RUTAMBA SASA,MTELE
LINDI,65,LINDI,652,RUTAMBA,65208,CHILALA,CHILALA
LINDI,65,LINDI,652,RUTAMBA,65208,CHILALA,NAMBUNGO
LINDI,65,LINDI,652,RUTAMBA,65208,CHILALA,CHITICHITI
LINDI,65,LINDI,652,RUTAMBA,65208,CHILALA,MATILI
LINDI,65,LINDI,652,RUTAMBA,65208,CHILALA,SHULENI
LINDI,65,LINDI,652,CHIPONDA,65209,CHIPONDA,KILIMANI
LINDI,65,LINDI,652,CHIPONDA,65209,CHIPONDA,ARANJE A
LINDI,65,LINDI,652,CHIPONDA,65209,CHIPONDA,NAMALOWE
LINDI,65,LINDI,652,CHIPONDA,65209,CHIPONDA,CHIPONDA
LINDI,65,LINDI,652,CHIPONDA,65209,CHIPONDA,LIKUNDUMBWI
LINDI,65,LINDI,652,CHIPONDA,65209,CHIPONDA,NAMBUNGO
LINDI,65,LINDI,652,CHIPONDA,65209,CHIPONDA,WAFANYAKAZI
LINDI,65,LINDI,652,CHIPONDA,65209,CHIPONDA,NGUKILAPA
LINDI,65,LINDI,652,CHIPONDA,65209,CHIPONDA,CHIWAMBALA
LINDI,65,LINDI,652,CHIPONDA,65209,MWANGU,MWANGU
LINDI,65,LINDI,652,CHIPONDA,65209,MWANGU,CHIWAMBALA
LINDI,65,LINDI,652,CHIPONDA,65209,MWANGU,JANGWANI
LINDI,65,LINDI,652,CHIPONDA,65209,MWANGU,MITOPENI
LINDI,65,LINDI,652,CHIPONDA,65209,MWANGU,MAKONGOLE
LINDI,65,LINDI,652,CHIPONDA,65209,NTAUNA,LUKALANGO
LINDI,65,LINDI,652,CHIPONDA,65209,NTAUNA,NDIMU
LINDI,65,LINDI,652,CHIPONDA,65209,NTAUNA,KWACHIVANGA
LINDI,65,LINDI,652,CHIPONDA,65209,NTAUNA,NTAUNA
LINDI,65,LINDI,652,CHIPONDA,65209,NTAUNA,ARANJE B
LINDI,65,LINDI,652,CHIPONDA,65209,NTAUNA,KWALIJIMBE
LINDI,65,LINDI,652,CHIPONDA,65209,CHIODYA,CHIWAMBALA
LINDI,65,LINDI,652,CHIPONDA,65209,CHIODYA,CHODYA
LINDI,65,LINDI,652,CHIPONDA,65209,CHIODYA,CHIUNJILILE
LINDI,65,LINDI,652,CHIPONDA,65209,CHIODYA,ARANJE
LINDI,65,LINDI,652,CHIPONDA,65209,CHIODYA,MPINGA
LINDI,65,LINDI,652,CHIPONDA,65209,CHIODYA B,MMAMBI
LINDI,65,LINDI,652,CHIPONDA,65209,CHIODYA B,LILINDI
LINDI,65,LINDI,652,CHIPONDA,65209,CHIODYA B,CHIMINDA
LINDI,65,LINDI,652,CHIPONDA,65209,CHIODYA B,DOKA
LINDI,65,LINDI,652,CHIPONDA,65209,CHIODYA B,LIKUNGWA
LINDI,65,LINDI,652,CHIPONDA,65209,MIHANGA,MNDAMU
LINDI,65,LINDI,652,CHIPONDA,65209,MIHANGA,NANDANJE
LINDI,65,LINDI,652,CHIPONDA,65209,MIHANGA,CHIMINDA
LINDI,65,LINDI,652,CHIPONDA,65209,MIHANGA,NAIMBA
LINDI,65,LINDI,652,CHIPONDA,65209,MIHANGA,CHINGOLI
LINDI,65,LINDI,652,MTUA,65210,KILIMAHEWA A,KAWAWA
LINDI,65,LINDI,652,MTUA,65210,KILIMAHEWA A,MWINYI
LINDI,65,LINDI,652,MTUA,65210,KILIMAHEWA A,DOKTA OMARI JUMA
LINDI,65,LINDI,652,MTUA,65210,KILIMAHEWA A,JOSEPH WARIOBA
LINDI,65,LINDI,652,MTUA,65210,KILIMAHEWA A,MKWAJUNI
LINDI,65,LINDI,652,MTUA,65210,KILIMAHEWA A,MSING'OLE
LINDI,65,LINDI,652,MTUA,65210,KILIMAHEWA A,MNIDU
LINDI,65,LINDI,652,MTUA,65210,KILIMAHEWA B,PETER KANGWA
LINDI,65,LINDI,652,MTUA,65210,KILIMAHEWA B,LILAI
LINDI,65,LINDI,652,MTUA,65210,KILIMAHEWA B,MAOKOLA MAJOGO
LINDI,65,LINDI,652,MTUA,65210,KILIMAHEWA B,VIJANA
LINDI,65,LINDI,652,MTUA,65210,KILIMAHEWA B,MAKINDA
LINDI,65,LINDI,652,MTUA,65210,KILIMAHEWA B,NYERERE
LINDI,65,LINDI,652,NYANGAMARA,65211,NYANGAMARA A,ZAMBIA
LINDI,65,LINDI,652,NYANGAMARA,65211,NYANGAMARA A,OLOFEA
LINDI,65,LINDI,652,NYANGAMARA,65211,NYANGAMARA A,MAJIMAJI
LINDI,65,LINDI,652,NYANGAMARA,65211,NYANGAMARA A,MUHIMBILI
LINDI,65,LINDI,652,NYANGAMARA,65211,NYANGAMARA A,KILUMU
LINDI,65,LINDI,652,NYANGAMARA,65211,NYANGAMARA A,CHIDINGO
LINDI,65,LINDI,652,NYANGAMARA,65211,NYANGAMARA A,KILIDU
LINDI,65,LINDI,652,NYANGAMARA,65211,NYANGAMARA A,TANDIKA
LINDI,65,LINDI,652,NYANGAMARA,65211,NYANGAMARA A,LIHADI
LINDI,65,LINDI,652,NYANGAMARA,65211,NYANGAMARA B,MBAWE
LINDI,65,LINDI,652,NYANGAMARA,65211,NYANGAMARA B,MNONDOLELE
LINDI,65,LINDI,652,NYANGAMARA,65211,NYANGAMARA B,NAHIMBA
LINDI,65,LINDI,652,NYANGAMARA,65211,NYANGAMARA B,NANG'UDI
LINDI,65,LINDI,652,NYANGAMARA,65211,LITIPU,SHULENI
LINDI,65,LINDI,652,NYANGAMARA,65211,LITIPU,MINAZINI
LINDI,65,LINDI,652,NYANGAMARA,65211,LITIPU,MNILI
LINDI,65,LINDI,652,NYANGAMARA,65211,LITIPU,MSIKITINI
LINDI,65,LINDI,652,NYANGAMARA,65211,LITIPU,MAKALAVATI
LINDI,65,LINDI,652,NYANGAMARA,65211,LITIPU,MAJENGO
LINDI,65,LINDI,652,NYANGAMARA,65211,LITIPU,LITIPU
LINDI,65,LINDI,652,NYANGAMARA,65211,LITIPU,SOKONI
LINDI,65,LINDI,652,NYANGAMARA,65211,LITIPU,LIHADI
LINDI,65,LINDI,652,NYANGAMARA,65211,LITIPU,NDONDE
LINDI,65,LINDI,652,NYANGAMARA,65211,MADINGO,MAENDELEO
LINDI,65,LINDI,652,NYANGAMARA,65211,MADINGO,MAPINDUZI
LINDI,65,LINDI,652,NYANGAMARA,65211,MADINGO,MWEMBE TOGWA
LINDI,65,LINDI,652,NYANGAMARA,65211,MADINGO,RAHALEO
LINDI,65,LINDI,652,NYANGAMARA,65211,MADINGO,ARUSHA
LINDI,65,LINDI,652,NYANGAMARA,65211,MADINGO,NAMDIMBA
LINDI,65,LINDI,652,NYANGAMARA,65211,MADINGO,TANDIKA
LINDI,65,LINDI,652,NYANGAMARA,65211,UTIMBE,TABORA
LINDI,65,LINDI,652,NYANGAMARA,65211,UTIMBE,KISOKWE
LINDI,65,LINDI,652,NYANGAMARA,65211,UTIMBE,LICHENJE
LINDI,65,LINDI,652,NYANGAMARA,65211,UTIMBE,KIKUMBI
LINDI,65,LINDI,652,NYANGAMARA,65211,UTIMBE,LISINDA
LINDI,65,LINDI,652,MANDWANGA,65212,CHIUTA,MADIMBA
LINDI,65,LINDI,652,MANDWANGA,65212,CHIUTA,SABASABA
LINDI,65,LINDI,652,MANDWANGA,65212,CHIUTA,SOKONI
LINDI,65,LINDI,652,MANDWANGA,65212,CHIUTA,MWENGE
LINDI,65,LINDI,652,MANDWANGA,65212,CHIUTA,MWEMBE MMOJA
LINDI,65,LINDI,652,MANDWANGA,65212,CHIUTA,CCM
LINDI,65,LINDI,652,MANDWANGA,65212,CHIUTA,MNAZIMMOJA
LINDI,65,LINDI,652,MANDWANGA,65212,MIKONGE,JANGWANI
LINDI,65,LINDI,652,MANDWANGA,65212,MIKONGE,NAMTONI
LINDI,65,LINDI,652,MANDWANGA,65212,MIKONGE,CHEKECHEA
LINDI,65,LINDI,652,MANDWANGA,65212,MIKONGE,SHULENI
LINDI,65,LINDI,652,MANDWANGA,65212,MIKONGE,MIKONGE
LINDI,65,LINDI,652,MANDWANGA,65212,MIKONGE,BONDENI
LINDI,65,LINDI,652,MANDWANGA,65212,MIKONGE,CHIUTA
LINDI,65,LINDI,652,MANDWANGA,65212,MIKONGE,ZAHANATI
LINDI,65,LINDI,652,MANDWANGA,65212,MANDWANGA,DODOMA
LINDI,65,LINDI,652,MANDWANGA,65212,MANDWANGA,MIPINGO
LINDI,65,LINDI,652,MANDWANGA,65212,MANDWANGA,MAREKEMPU
LINDI,65,LINDI,652,MANDWANGA,65212,MANDWANGA,KAWAWA
LINDI,65,LINDI,652,MANDWANGA,65212,MANDWANGA,GODAUNI
LINDI,65,LINDI,652,MANDWANGA,65212,MANDWANGA,MUUNGANO
LINDI,65,LINDI,652,MANDWANGA,65212,MANDWANGA,SHULENI
LINDI,65,LINDI,652,MANDWANGA,65212,MANDWANGA,KIWANJANI
LINDI,65,LINDI,652,MANDWANGA,65212,MANDWANGA,MWENGE
LINDI,65,LINDI,652,MANDWANGA,65212,MANDWANGA,MAPINDUZI
LINDI,65,LINDI,652,MANDWANGA,65212,MANDWANGA,MAKONDE
LINDI,65,LINDI,652,MANDWANGA,65212,MANDWANGA,OFISINI
LINDI,65,LINDI,652,MANDWANGA,65212,MALUNGO,KONGO
LINDI,65,LINDI,652,MANDWANGA,65212,MALUNGO,SHULE YA UHURU
LINDI,65,LINDI,652,MANDWANGA,65212,MALUNGO,BECHI
LINDI,65,LINDI,652,MANDWANGA,65212,MALUNGO,CCM
LINDI,65,LINDI,652,MANDWANGA,65212,MALUNGO,KARIAKOO
LINDI,65,LINDI,652,MANDWANGA,65212,MALUNGO,MAKONDEKO
LINDI,65,LINDI,652,MANDWANGA,65212,MALUNGO,MWEMBE MMOJA
LINDI,65,LINDI,652,MANDWANGA,65212,NAMBAHU,CCM
LINDI,65,LINDI,652,MANDWANGA,65212,NAMBAHU,NACHINGWEA
LINDI,65,LINDI,652,MANDWANGA,65212,NAMBAHU,MAJENGO
LINDI,65,LINDI,652,MANDWANGA,65212,NAMBAHU,AMANA
LINDI,65,LINDI,652,MANDWANGA,65212,NAMBAHU,ILALA
LINDI,65,LINDI,652,MANDWANGA,65212,NAMBAHU,MAJENGO
LINDI,65,LINDI,652,MANDWANGA,65212,NYUNDO I,MAJUMBA SITA
LINDI,65,LINDI,652,MANDWANGA,65212,NYUNDO I,MASASI LEO
LINDI,65,LINDI,652,MANDWANGA,65212,NYUNDO I,MWAMKO
LINDI,65,LINDI,652,MANDWANGA,65212,NYUNDO I,JAMHURI
LINDI,65,LINDI,652,MANDWANGA,65212,MNAZIMMOJA,PEMBA
LINDI,65,LINDI,652,MANDWANGA,65212,MNAZIMMOJA,MNAZIMMOJA
LINDI,65,LINDI,652,MANDWANGA,65212,MNAZIMMOJA,TANDIKA
LINDI,65,LINDI,652,MANDWANGA,65212,MILAMBA,MILAMBA
LINDI,65,LINDI,652,MANDWANGA,65212,LINDWANDWALI,KITONDO
LINDI,65,LINDI,652,MANDWANGA,65212,LINDWANDWALI,MKOLOKA TULIENI
LINDI,65,LINDI,652,MANDWANGA,65212,LINDWANDWALI,BIRIKA
LINDI,65,LINDI,652,MANDWANGA,65212,LINDWANDWALI,LIKWEJA A
LINDI,65,LINDI,652,MANDWANGA,65212,LINDWANDWALI,LIKWEJA B
LINDI,65,LINDI,652,NAHUKAHUKA,65213,NAHUKAHUKA,MBINDO
LINDI,65,LINDI,652,NAHUKAHUKA,65213,NAHUKAHUKA,TANDIKA
LINDI,65,LINDI,652,NAHUKAHUKA,65213,NAHUKAHUKA,AZIMIO
LINDI,65,LINDI,652,NAHUKAHUKA,65213,NAHUKAHUKA,MUUNGANO
LINDI,65,LINDI,652,NAHUKAHUKA,65213,NAHUKAHUKA,IKULU
LINDI,65,LINDI,652,NAHUKAHUKA,65213,NAHUKAHUKA,MAGEUZI
LINDI,65,LINDI,652,NAHUKAHUKA,65213,NAHUKAHUKA B,KARIAKOO
LINDI,65,LINDI,652,NAHUKAHUKA,65213,NAHUKAHUKA B,ILALA
LINDI,65,LINDI,652,NAHUKAHUKA,65213,NAHUKAHUKA B,SEKONDARI
LINDI,65,LINDI,652,NAHUKAHUKA,65213,NAHUKAHUKA B,MSASANI
LINDI,65,LINDI,652,NAHUKAHUKA,65213,NAHUKAHUKA B,RAHALEO
LINDI,65,LINDI,652,NAHUKAHUKA,65213,LIPOME,TULIENI
LINDI,65,LINDI,652,NAHUKAHUKA,65213,LIPOME,MAGEUZI
LINDI,65,LINDI,652,NAHUKAHUKA,65213,LIPOME,KILIMANJARO
LINDI,65,LINDI,652,NAHUKAHUKA,65213,LIPOME,CHIMBUKO
LINDI,65,LINDI,652,NAHUKAHUKA,65213,LIPOME,AMKENI
LINDI,65,LINDI,652,NAHUKAHUKA,65213,LIPOME,PEMBA
LINDI,65,LINDI,652,NAHUKAHUKA,65213,LINOHA,KIWANJANI
LINDI,65,LINDI,652,NAHUKAHUKA,65213,LINOHA,NAMWAHA
LINDI,65,LINDI,652,NAHUKAHUKA,65213,LINOHA,LINOHA
LINDI,65,LINDI,652,NAHUKAHUKA,65213,LINOHA,KIHERU
LINDI,65,LINDI,652,NAHUKAHUKA,65213,LINOHA,MNAZIMMOJA
LINDI,65,LINDI,652,NAHUKAHUKA,65213,LINOHA,NAMKUTA
LINDI,65,LINDI,652,NAHUKAHUKA,65213,LINOHA,MSIKITINI
LINDI,65,LINDI,652,NAHUKAHUKA,65213,LINOHA,CHIKUNGWI
LINDI,65,LINDI,652,NAHUKAHUKA,65213,MBAWALA,TANDALE
LINDI,65,LINDI,652,NAHUKAHUKA,65213,MBAWALA,KONGO
LINDI,65,LINDI,652,NAHUKAHUKA,65213,MBAWALA,CCM
LINDI,65,LINDI,652,NAHUKAHUKA,65213,MBAWALA,MNAZIMMOJA
LINDI,65,LINDI,652,NAHUKAHUKA,65213,MBAWALA,KIWANJANI
LINDI,65,LINDI,652,NAHUKAHUKA,65213,MBAWALA,NAMAYANI
LINDI,65,LINDI,652,NYENGEDI,65214,LUWALE,MKUMBINI
LINDI,65,LINDI,652,NYENGEDI,65214,LUWALE,GONGOLAMBOTO
LINDI,65,LINDI,652,NYENGEDI,65214,LUWALE,KARIAKOO
LINDI,65,LINDI,652,NYENGEDI,65214,LUWALE,LUMINDU
LINDI,65,LINDI,652,NYENGEDI,65214,NYENGEDI,MPANDANJE
LINDI,65,LINDI,652,NYENGEDI,65214,NYENGEDI,KILUMAKA
LINDI,65,LINDI,652,NYENGEDI,65214,NYENGEDI,MITONDO A
LINDI,65,LINDI,652,NYENGEDI,65214,NYENGEDI,MTANDI
LINDI,65,LINDI,652,NYENGEDI,65214,NYENGEDI,LIHIKI A
LINDI,65,LINDI,652,NYENGEDI,65214,NYENGEDI B,NAMAYANGA
LINDI,65,LINDI,652,NYENGEDI,65214,NYENGEDI B,NANJEHA
LINDI,65,LINDI,652,NYENGEDI,65214,NYENGEDI B,NANGURU
LINDI,65,LINDI,652,NYENGEDI,65214,NYENGEDI B,LIHIKI B
LINDI,65,LINDI,652,NYENGEDI,65214,NYENGEDI B,MITONDO B
LINDI,65,LINDI,652,MTAMA,65215,MAKONDE,MAKONDE A
LINDI,65,LINDI,652,MTAMA,65215,MAKONDE,MAKONDE B
LINDI,65,LINDI,652,MTAMA,65215,MAKONDE,BOMENI
LINDI,65,LINDI,652,MTAMA,65215,MAKONDE,TANITA
LINDI,65,LINDI,652,MTAMA,65215,MAKONDE,NBC
LINDI,65,LINDI,652,MTAMA,65215,MAKONDE,MAKATA
LINDI,65,LINDI,652,MTAMA,65215,MAKONDE,CHIGURUWE
LINDI,65,LINDI,652,MTAMA,65215,MAKONDE,NYASA/KITOTOMA
LINDI,65,LINDI,652,MTAMA,65215,MIHOGONI,MIHOGONI
LINDI,65,LINDI,652,MTAMA,65215,MIHOGONI,LEBANONI
LINDI,65,LINDI,652,MTAMA,65215,MIHOGONI,MIKUMBI
LINDI,65,LINDI,652,MTAMA,65215,MIHOGONI,NDORO
LINDI,65,LINDI,652,MTAMA,65215,MIHOGONI,MPUTO
LINDI,65,LINDI,652,MTAMA,65215,MVULENI,RAILWAY
LINDI,65,LINDI,652,MTAMA,65215,MVULENI,MKUNDI BWAWANI
LINDI,65,LINDI,652,MTAMA,65215,MVULENI,IDANNOLE
LINDI,65,LINDI,652,MTAMA,65215,MVULENI,MVULENI
LINDI,65,LINDI,652,MTAMA,65215,MVULENI,NACHUWI
LINDI,65,LINDI,652,MTAMA,65215,MVULENI,KITUMBA
LINDI,65,LINDI,652,MTAMA,65215,MPENDA,MIKOROSHINI
LINDI,65,LINDI,652,MTAMA,65215,MPENDA,KIVUKONI
LINDI,65,LINDI,652,MTAMA,65215,MPENDA,MKWAJUNI
LINDI,65,LINDI,652,MTAMA,65215,MPENDA,NABONDO
LINDI,65,LINDI,652,MTAMA,65215,MPENDA,MPAKANI
LINDI,65,LINDI,652,NYANGAO,65216,NYANGAO A,NAMADODO
LINDI,65,LINDI,652,NYANGAO,65216,NYANGAO A,LIKULI
LINDI,65,LINDI,652,NYANGAO,65216,NYANGAO A,NYANGAO A
LINDI,65,LINDI,652,NYANGAO,65216,NYANGAO A,NG'AWA
LINDI,65,LINDI,652,NYANGAO,65216,NYANGAO A,KILIMAHEWA
LINDI,65,LINDI,652,NYANGAO,65216,NYANGAO A,CHOCHELO
LINDI,65,LINDI,652,NYANGAO,65216,NYANGAO B,NYANGAO B MTONI
LINDI,65,LINDI,652,NYANGAO,65216,NYANGAO B,NYANGAO B SOKONI
LINDI,65,LINDI,652,NYANGAO,65216,NYANGAO B,NAIJONGOLO
LINDI,65,LINDI,652,NYANGAO,65216,MTAKUJA II,MTAKUJA
LINDI,65,LINDI,652,NYANGAO,65216,MTAKUJA II,MCHANGANI
LINDI,65,LINDI,652,NYANGAO,65216,MTAKUJA II,NAKADI
LINDI,65,LINDI,652,NYANGAO,65216,MTAKUJA II,CHELEWENI A
LINDI,65,LINDI,652,NYANGAO,65216,MTAKUJA II,CHELEWENI B
LINDI,65,LINDI,652,NYANGAO,65216,MAHIWA,TULIENI
LINDI,65,LINDI,652,NYANGAO,65216,MAHIWA,JAMHURI
LINDI,65,LINDI,652,NYANGAO,65216,MAHIWA,UHURU
LINDI,65,LINDI,652,NYANGAO,65216,MAHIWA,MUUNGANO
LINDI,65,LINDI,652,NYANGAO,65216,MAHIWA,MSING'OLE
LINDI,65,LINDI,652,NYANGAO,65216,LITINGI,LITINGI A
LINDI,65,LINDI,652,NYANGAO,65216,LITINGI,LITINGI B
LINDI,65,LINDI,652,NAMUPA,65217,NAMUPA,NGUJA A
LINDI,65,LINDI,652,NAMUPA,65217,NAMUPA,NGUJA B
LINDI,65,LINDI,652,NAMUPA,65217,NAMUPA,DODOMA
LINDI,65,LINDI,652,NAMUPA,65217,NAMUPA,MCHENJE
LINDI,65,LINDI,652,NAMUPA,65217,MUUNGANO II,KAGERA
LINDI,65,LINDI,652,NAMUPA,65217,MUUNGANO II,MCHANGANI A
LINDI,65,LINDI,652,NAMUPA,65217,MUUNGANO II,MCHANGANI B
LINDI,65,LINDI,652,NAMUPA,65217,MUUNGANO II,NAMBALA
LINDI,65,LINDI,652,NAMUPA,65217,MUUNGANO II,LIKUNYATI
LINDI,65,LINDI,652,NAMUPA,65217,MIHIMA,MAHANGAI
LINDI,65,LINDI,652,NAMUPA,65217,MIHIMA,CHIWINDI
LINDI,65,LINDI,652,NAMUPA,65217,MIHIMA,LIGANGA
LINDI,65,LINDI,652,NAMUPA,65217,MIHIMA,CHELEWENI
LINDI,65,LINDI,652,NAMUPA,65217,MIHIMA,MNINDI
LINDI,65,LINDI,652,NAMUPA,65217,NNDAWA,CHITANDANI
LINDI,65,LINDI,652,NAMUPA,65217,NNDAWA,OFISINI
LINDI,65,LINDI,652,NAMUPA,65217,NNDAWA,NANG'OLOLA
LINDI,65,LINDI,652,NAMUPA,65217,NNDAWA,LIWALE
LINDI,65,LINDI,652,NAMUPA,65217,MNAMBA,NAKADI
LINDI,65,LINDI,652,NAMUPA,65217,MNAMBA,MNYEREKA
LINDI,65,LINDI,652,NAMUPA,65217,MNAMBA,MKUNDI
LINDI,65,LINDI,652,NAMUPA,65217,MNAMBA,CHIUWE
LINDI,65,LINDI,652,NAMUPA,65217,MNAMBA,SOGEA
LINDI,65,LINDI,652,MNARA,65218,MNARA,MNARA
LINDI,65,LINDI,652,MNARA,65218,MNARA,TARAFANI
LINDI,65,LINDI,652,MNARA,65218,MNARA,KISUTU
LINDI,65,LINDI,652,MNARA,65218,MNARA,MPONGONGALA
LINDI,65,LINDI,652,MNARA,65218,MNARA,SONGAMBELE
LINDI,65,LINDI,652,MNARA,65218,MNARA,CHILALA
LINDI,65,LINDI,652,MNARA,65218,MNARA,NTAONA
LINDI,65,LINDI,652,MNARA,65218,MKANGA II,LIPUTI
LINDI,65,LINDI,652,MNARA,65218,MKANGA II,MTANDA
LINDI,65,LINDI,652,MNARA,65218,MKANGA II,MAJENGO
LINDI,65,LINDI,652,MNARA,65218,MKANGA II,MAJANI
LINDI,65,LINDI,652,MNARA,65218,MKANGA II,MTANGANI
LINDI,65,LINDI,652,MNARA,65218,MKANGA II,IDAULOLE
LINDI,65,LINDI,652,MNARA,65218,CHIKOMBE,MIVULE SABA
LINDI,65,LINDI,652,MNARA,65218,CHIKOMBE,MIKANGAULA
LINDI,65,LINDI,652,MNARA,65218,CHIKOMBE,SHULENI
LINDI,65,LINDI,652,MNARA,65218,CHIKOMBE,NANG'URUNGU
LINDI,65,LINDI,652,MNARA,65218,MTAKUJA,MTAKUJA
LINDI,65,LINDI,652,MNARA,65218,MTAKUJA,NJUNDO
LINDI,65,LINDI,652,MNARA,65218,MTAKUJA,NGOLWE
LINDI,65,LINDI,652,MNARA,65218,MTAKUJA,NDIMU
LINDI,65,LINDI,652,MNARA,65218,MTAKUJA,KAGERA
LINDI,65,LINDI,652,MNARA,65218,NTENE,SOKONI
LINDI,65,LINDI,652,MNARA,65218,NTENE,RAHALEO
LINDI,65,LINDI,652,MNARA,65218,NTENE,MNAZIMMOJA
LINDI,65,LINDI,652,MNARA,65218,NTENE,MTUJUE
LINDI,65,LINDI,652,MNARA,65218,NTENE,BUTIHAMA
LINDI,65,LINDI,652,MNARA,65218,NTENE,NYENGA
LINDI,65,LINDI,652,MNARA,65218,NTENE,MAJENGO
LINDI,65,LINDI,652,MNARA,65218,NTENE B,MBUYUNI
LINDI,65,LINDI,652,MNARA,65218,NTENE B,SOKOINE
LINDI,65,LINDI,652,MNARA,65218,NTENE B,MSIKITINI
LINDI,65,LINDI,652,MNARA,65218,NTENE B,MIHOGONI
LINDI,65,LINDI,652,MNARA,65218,NTENE B,AMANI
LINDI,65,LINDI,652,MNARA,65218,LIGANGA,KIBAONI
LINDI,65,LINDI,652,MNARA,65218,LIGANGA,WAILES
LINDI,65,LINDI,652,MNARA,65218,LIGANGA,SHULENI
LINDI,65,LINDI,652,MNARA,65218,LIGANGA,ABUJA
LINDI,65,LINDI,652,MILOLA,65219,MILOLA A,MSIKITINI B
LINDI,65,LINDI,652,MILOLA,65219,MILOLA A,MUHIMBILI
LINDI,65,LINDI,652,MILOLA,65219,MILOLA A,KANISANI A
LINDI,65,LINDI,652,MILOLA,65219,MILOLA A,KANISANI B
LINDI,65,LINDI,652,MILOLA,65219,MILOLA A,KOTAZI
LINDI,65,LINDI,652,MILOLA,65219,MILOLA A,MAGOMENI
LINDI,65,LINDI,652,MILOLA,65219,MILOLA A,MSIKITINI
LINDI,65,LINDI,652,MILOLA,65219,MILOLA A,NG'UKULE
LINDI,65,LINDI,652,MILOLA,65219,MILOLA A,MKUNGULE
LINDI,65,LINDI,652,MILOLA,65219,MILOLA B,DODOMA A
LINDI,65,LINDI,652,MILOLA,65219,MILOLA B,MNAZIMMOJA A
LINDI,65,LINDI,652,MILOLA,65219,MILOLA B,MNAZIMMOJA B
LINDI,65,LINDI,652,MILOLA,65219,MILOLA B,NANGOLOKOLO
LINDI,65,LINDI,652,MILOLA,65219,MILOLA B,MAKUMBA
LINDI,65,LINDI,652,MILOLA,65219,MILOLA B,KIMBILIMA
LINDI,65,LINDI,652,MILOLA,65219,MILOLA B,NIHINU JUU
LINDI,65,LINDI,652,MILOLA,65219,MILOLA B,MKALAKACHA
LINDI,65,LINDI,652,MILOLA,65219,MILOLA B,NAHORO
LINDI,65,LINDI,652,MILOLA,65219,MILOLA MAGHARIBI,DODOMA B
LINDI,65,LINDI,652,MILOLA,65219,MILOLA MAGHARIBI,MAGELA
LINDI,65,LINDI,652,MILOLA,65219,MILOLA MAGHARIBI,KIKUMBI
LINDI,65,LINDI,652,MILOLA,65219,MILOLA MAGHARIBI,NOTO
LINDI,65,LINDI,652,MILOLA,65219,MILOLA MAGHARIBI,KIPUNGA
LINDI,65,LINDI,652,MILOLA,65219,LEGEZAMWENDO,MWEMBE NINGOJE
LINDI,65,LINDI,652,MILOLA,65219,LEGEZAMWENDO,NIHINU CHINI
LINDI,65,LINDI,652,MILOLA,65219,LEGEZAMWENDO,LITANDA
LINDI,65,LINDI,652,MILOLA,65219,LEGEZAMWENDO,OLLY
LINDI,65,LINDI,652,MILOLA,65219,LEGEZAMWENDO,LEGEZAMWENDO MJINI
LINDI,65,LINDI,652,MILOLA,65219,LEGEZAMWENDO,MBUYUNI
LINDI,65,LINDI,652,MILOLA,65219,MKANGAULANI,TAPAILA A
LINDI,65,LINDI,652,MILOLA,65219,MKANGAULANI,TAPAILA B
LINDI,65,LINDI,652,MILOLA,65219,MKANGAULANI,LUAVI A
LINDI,65,LINDI,652,MILOLA,65219,MKANGAULANI,LUAVI B
LINDI,65,LINDI,652,MILOLA,65219,MKANGAULANI,MUUNGANO
LINDI,65,LINDI,652,MILOLA,65219,MKANGAULANI,MIKUMBI
LINDI,65,LINDI,652,MILOLA,65219,RUCHEMI,RUCHEMI
LINDI,65,LINDI,652,MILOLA,65219,RUCHEMI,NDULIMA
LINDI,65,LINDI,652,MILOLA,65219,RUCHEMI,LIKUMBO/MMAWA
LINDI,65,LINDI,652,MILOLA,65219,NAMTAMBA,MAPINDUZI
LINDI,65,LINDI,652,MILOLA,65219,NAMTAMBA,MAJENGO MAPYA
LINDI,65,LINDI,652,MILOLA,65219,NAMTAMBA,MNANGARA
LINDI,65,LINDI,652,MILOLA,65219,NAMTAMBA,MCHIKICHINI
LINDI,65,LINDI,652,MILOLA,65219,NAMTAMBA,MATAPATA
LINDI,65,LINDI,652,MILOLA,65219,NAMTAMBA,MTIKINI
LINDI,65,LINDI,652,MILOLA,65219,NAMTAMBA,MIHANJE
LINDI,65,LINDI,652,MILOLA,65219,NAMTAMBA,UBANGOI
LINDI,65,LINDI,652,KIWAWA,65220,KIWAWA,KIWAWA A
LINDI,65,LINDI,652,KIWAWA,65220,KIWAWA,KITULO
LINDI,65,LINDI,652,KIWAWA,65220,KIWAWA,NAUWAMBA
LINDI,65,LINDI,652,KIWAWA,65220,KIWAWA,KIWAWA B
LINDI,65,LINDI,652,KIWAWA,65220,KIWAWA,MMUMBU A
LINDI,65,LINDI,652,KIWAWA,65220,KIWAWA,MMUMBU B
LINDI,65,LINDI,652,KIWAWA,65220,KIWAWA,MCHINJIDI A
LINDI,65,LINDI,652,KIWAWA,65220,KIWAWA,MCHINJIDI B
LINDI,65,LINDI,652,KIWAWA,65220,MPUTWA,MPUTWA A
LINDI,65,LINDI,652,KIWAWA,65220,MPUTWA,MPUTWA B
LINDI,65,LINDI,652,KIWAWA,65220,MPUTWA,MTITIMILA
LINDI,65,LINDI,652,KIWAWA,65220,MPUTWA,NIHIMU
LINDI,65,LINDI,652,KIWAWA,65220,MPUTWA,NARUMBEGU
LINDI,65,LINDI,652,MIPINGO,65221,MIPINGO,MIPINGO
LINDI,65,LINDI,652,MIPINGO,65221,MIPINGO,NARUNGOMBE
LINDI,65,LINDI,652,MIPINGO,65221,MIPINGO,LILONGO
LINDI,65,LINDI,652,MIPINGO,65221,MATAPWA,BONDENI
LINDI,65,LINDI,652,MIPINGO,65221,MATAPWA,NACHIKALALA
LINDI,65,LINDI,652,MIPINGO,65221,MATAPWA,ZAWIANI
LINDI,65,LINDI,652,MIPINGO,65221,MATAPWA,MTULIKILA
LINDI,65,LINDI,652,MIPINGO,65221,MATAPWA,NAMKOLO
LINDI,65,LINDI,652,MIPINGO,65221,MNYANGARA,ZAMBIA
LINDI,65,LINDI,652,MIPINGO,65221,MNYANGARA,MNYANGARA
LINDI,65,LINDI,652,MIPINGO,65221,MNYANGARA,MCHINJIDI
LINDI,65,LINDI,652,MIPINGO,65221,MNYANGARA,MANGOMA
LINDI,65,LINDI,652,MIPINGO,65221,MNYANGARA,NAMAPWIYA
LINDI,65,LINDI,652,MIPINGO,65221,NAMKONGO,MAPINDUZI
LINDI,65,LINDI,652,MIPINGO,65221,NAMKONGO,MANGOCHI
LINDI,65,LINDI,652,MIPINGO,65221,NAMKONGO,MTANDI
LINDI,65,LINDI,652,MIPINGO,65221,NAMKONGO,MICHILIWE
LINDI,65,LINDI,652,MIPINGO,65221,LIHIMILO,MSIKITINI
LINDI,65,LINDI,652,MIPINGO,65221,LIHIMILO,MBUYUNI
LINDI,65,LINDI,652,MIPINGO,65221,LIHIMILO,LIHIMILO
LINDI,65,LINDI,652,MIPINGO,65221,LIHIMILO,NAMTAMBA
LINDI,65,LINDI,652,KITOMANGA,65222,KITOMANGA,KITOMANGA
LINDI,65,LINDI,652,KITOMANGA,65222,KITOMANGA,KIKAMBA
LINDI,65,LINDI,652,KITOMANGA,65222,KITOMANGA,MPWAYAPWAYA
LINDI,65,LINDI,652,KITOMANGA,65222,KITOMANGA,MIEMBESITA
LINDI,65,LINDI,652,KITOMANGA,65222,KITOMANGA,KIMWAHIDI
LINDI,65,LINDI,652,KITOMANGA,65222,KITOMANGA,MUUNGANO
LINDI,65,LINDI,652,KITOMANGA,65222,MKWAJUNI,MKWAJUNI
LINDI,65,LINDI,652,KITOMANGA,65222,MKWAJUNI,MATARAWE
LINDI,65,LINDI,652,KITOMANGA,65222,MKWAJUNI,KITUMBINI
LINDI,65,LINDI,652,KITOMANGA,65222,MKWAJUNI,LILINDI
LINDI,65,LINDI,652,KITOMANGA,65222,MKWAJUNI,NANJIME
LINDI,65,LINDI,652,KITOMANGA,65222,MKWAJUNI,MJI MWEMA
LINDI,65,LINDI,652,KILOLA MBWANI,65223,MALOO,KIMBOYO
LINDI,65,LINDI,652,KILOLA MBWANI,65223,MALOO,NDEPA
LINDI,65,LINDI,652,KILOLA MBWANI,65223,MALOO,NGOLI
LINDI,65,LINDI,652,KILOLA MBWANI,65223,MNANG'OLE,LAINI
LINDI,65,LINDI,652,KILOLA MBWANI,65223,MNANG'OLE,MAGOGONI
LINDI,65,LINDI,652,KILOLA MBWANI,65223,MNANG'OLE,BARABARANI
LINDI,65,LINDI,652,KILOLA MBWANI,65223,MNANG'OLE,MWEMBE TAYARI
LINDI,65,LINDI,652,KILOLA MBWANI,65223,KILOLAMBWANI,TANDAMTERE
LINDI,65,LINDI,652,KILOLA MBWANI,65223,KILOLAMBWANI,TANKINI
LINDI,65,LINDI,652,KILOLA MBWANI,65223,KILOLAMBWANI,MAKONDE
LINDI,65,LINDI,652,KILOLA MBWANI,65223,KILOLAMBWANI,MANDELA
LINDI,65,LINDI,652,KILOLA MBWANI,65223,KILOLAMBWANI,MUHIBU
LINDI,65,LINDI,652,KILOLA MBWANI,65223,DIMBA,MKUNYA
LINDI,65,LINDI,652,KILOLA MBWANI,65223,DIMBA,KIKOPO
LINDI,65,LINDI,652,KILOLA MBWANI,65223,DIMBA,MDIBWA
LINDI,65,LINDI,652,KILOLA MBWANI,65223,DIMBA,BARABARANI
LINDI,65,LINDI,652,KILANGALA,65224,MNIMBILA,NANGUMBU
LINDI,65,LINDI,652,KILANGALA,65224,MNIMBILA,KIDIMBADIMBA
LINDI,65,LINDI,652,KILANGALA,65224,MNIMBILA,NAMIKWENDE
LINDI,65,LINDI,652,KILANGALA,65224,MNIMBILA,ZAWIANI
LINDI,65,LINDI,652,KILANGALA,65224,MNIMBILA,LIKONDE
LINDI,65,LINDI,652,KILANGALA,65224,MNIMBILA,LICHINJI
LINDI,65,LINDI,652,KILANGALA,65224,MNIMBILA,LIKAHAKWA
LINDI,65,LINDI,652,KILANGALA,65224,MNIMBILA,MTILACHI
LINDI,65,LINDI,652,KILANGALA,65224,MTUMBIKILE,MNYELE
LINDI,65,LINDI,652,KILANGALA,65224,MTUMBIKILE,NAMTANGA
LINDI,65,LINDI,652,KILANGALA,65224,MTUMBIKILE,MSIPITE
LINDI,65,LINDI,652,KILANGALA,65224,MTUMBIKILE,KIANGA
LINDI,65,LINDI,652,KILANGALA,65224,MTUMBIKILE,MMOA
LINDI,65,LINDI,652,KILANGALA,65224,KILANGALA,MIHAMBWE
LINDI,65,LINDI,652,KILANGALA,65224,KILANGALA,MAPINDUZI
LINDI,65,LINDI,652,KILANGALA,65224,KILANGALA,LEGEZAMWENDO
LINDI,65,LINDI,652,KILANGALA,65224,KILANGALA,HABARI SINA
LINDI,65,LINDI,652,KILANGALA,65224,KILANGALA,MKALIMBE
LINDI,65,LINDI,652,KILANGALA,65224,KILANGALA B,LICHIHU
LINDI,65,LINDI,652,KILANGALA,65224,KILANGALA B,LIKONDE
LINDI,65,LINDI,652,KILANGALA,65224,KILANGALA B,SIMU
LINDI,65,LINDI,652,KILANGALA,65224,KILANGALA B,MLANDEGE
LINDI,65,LINDI,652,KILANGALA,65224,KILANGALA B,MASASI YA LEO
LINDI,65,LINDI,652,PANGATENA,65225,PANGATENA,KIPUNGU
LINDI,65,LINDI,652,PANGATENA,65225,PANGATENA,MIEMBENI
LINDI,65,LINDI,652,PANGATENA,65225,PANGATENA,KITETEHA
LINDI,65,LINDI,652,PANGATENA,65225,NJONJO,NJONJO
LINDI,65,LINDI,652,PANGATENA,65225,NJONJO,SONGAMBELE
LINDI,65,LINDI,652,PANGATENA,65225,NJONJO,MCHOMI
LINDI,65,LINDI,652,PANGATENA,65225,HINGAWALI,KARIAKOO
LINDI,65,LINDI,652,PANGATENA,65225,HINGAWALI,NAMTIPITILA
LINDI,65,LINDI,652,PANGATENA,65225,HINGAWALI,NAMKALAMUKA
LINDI,65,LINDI,652,PANGATENA,65225,HINGAWALI,JAMHURI
LINDI,65,LINDI,652,PANGATENA,65225,HINGAWALI,NJOHU
LINDI,65,LINDI,652,NAVANGA,65226,NAVANGA,CHUONI
LINDI,65,LINDI,652,NAVANGA,65226,NAVANGA,PWANI
LINDI,65,LINDI,652,NAVANGA,65226,NAVANGA,MKUNG'UNI
LINDI,65,LINDI,652,NAVANGA,65226,NAVANGA,MONGOMONGO
LINDI,65,LINDI,652,NAVANGA,65226,MONGOMONGO,NANGANGA
LINDI,65,LINDI,652,NAVANGA,65226,MONGOMONGO,MONGOMONGO
LINDI,65,LINDI,652,NAVANGA,65226,MONGOMONGO,MONGO PWANI
LINDI,65,LINDI,652,NAVANGA,65226,MONGOMONGO,MITOHUTOHU
LINDI,65,LINDI,652,NAVANGA,65226,SHUKA,SHUKA
LINDI,65,LINDI,652,NAVANGA,65226,SHUKA,NGAZIJA
LINDI,65,LINDI,652,NAVANGA,65226,NAMPUNGA,NAMPUNGA
LINDI,65,LINDI,652,NAVANGA,65226,NAMPUNGA,LUSHEWA
LINDI,65,LINDI,652,MAJENGO,65227,MASASI,RAHALEO
LINDI,65,LINDI,652,MAJENGO,65227,MASASI,STAFF
LINDI,65,LINDI,652,MAJENGO,65227,MASASI,KILIMAHEWA
LINDI,65,LINDI,652,MAJENGO,65227,MASASI,MASASI A
LINDI,65,LINDI,652,MAJENGO,65227,MASASI,MASASI B
LINDI,65,LINDI,652,MAJENGO,65227,MAJENGO B,MAJENGO A
LINDI,65,LINDI,652,MAJENGO,65227,MAJENGO B,SOKONI
LINDI,65,LINDI,652,MAJENGO,65227,MAJENGO B,MWENGE
LINDI,65,LINDI,652,MAJENGO,65227,MAJENGO B,MSIONDOKE
LINDI,65,LINDI,652,MAJENGO,65227,MAJENGO B,TANDIKA
LINDI,65,LINDI,652,MAJENGO,65227,MAJENGO B,ILALA
LINDI,65,LINDI,652,MAJENGO,65227,MAJENGO B,BOMBANI
LINDI,65,LINDI,652,MAJENGO,65227,MAJENGO B,DODOMA A
LINDI,65,LINDI,652,MAJENGO,65227,MAJENGO B,DODOMA B
LINDI,65,LINDI,652,MAJENGO,65227,MAJENGO B,LIHIMBA
LINDI,65,LINDI,652,MAJENGO,65227,MBALALA,CHIMBUKO
LINDI,65,LINDI,652,MAJENGO,65227,MBALALA,AZIMIO
LINDI,65,LINDI,652,MAJENGO,65227,MBALALA,ILULU
LINDI,65,LINDI,652,MAJENGO,65227,MBALALA,JITEGEMEE
LINDI,65,LINDI,652,MAJENGO,65227,NANG'AKA,NANG'AKA
LINDI,65,LINDI,652,MAJENGO,65227,NANG'AKA,MWENGE
LINDI,65,LINDI,652,MAJENGO,65227,MKWAJUNI,MKUNGUNI A
LINDI,65,LINDI,652,MAJENGO,65227,MKWAJUNI,MKUNGUNI B
LINDI,65,LINDI,652,MAJENGO,65227,MKWAJUNI,MWEMBE CHAI A
LINDI,65,LINDI,652,MAJENGO,65227,MKWAJUNI,MWEMBE CHAI B
LINDI,65,LINDI,652,MAJENGO,65227,MKWAJUNI,NAMINDONDI
LINDI,65,LINDI,652,NAMANGALE,65228,CHIWERERE,CHIWERERE
LINDI,65,LINDI,652,NAMANGALE,65228,CHIWERERE,NGONGORO
LINDI,65,LINDI,652,NAMANGALE,65228,CHIWERERE,MNERE
LINDI,65,LINDI,652,NAMANGALE,65228,CHIWERERE,NAMTIKITI
LINDI,65,LINDI,652,NAMANGALE,65228,CHIWERERE,NAMAYANGA
LINDI,65,LINDI,652,NAMANGALE,65228,NAMANGALE,NKONG'O
LINDI,65,LINDI,652,NAMANGALE,65228,NAMANGALE,MTAKUJA
LINDI,65,LINDI,652,NAMANGALE,65228,NAMANGALE,NAMANGALE
LINDI,65,LINDI,652,NAMANGALE,65228,NAMANGALE,TULIENI
LINDI,65,LINDI,652,NAMANGALE,65228,UTIMBURA,NANDUTA
LINDI,65,LINDI,652,NAMANGALE,65228,UTIMBURA,UTIMBURA
LINDI,65,LINDI,652,NAMANGALE,65228,NAMANGALE B,KISUMU
LINDI,65,LINDI,652,NAMANGALE,65228,NAMANGALE B,NACHINGWEA
LINDI,65,LINDI,652,NAMANGALE,65228,NAMANGALE B,DODOMA
LINDI,65,LINDI,652,NAMANGALE,65228,MAWILO,MIKANGAULA
LINDI,65,LINDI,652,NAMANGALE,65228,MAWILO,MAWILO JUU
LINDI,65,LINDI,652,LONGA,65229,TULIENI,MSIKITINI
LINDI,65,LINDI,652,LONGA,65229,TULIENI,MCHANGANI
LINDI,65,LINDI,652,LONGA,65229,TULIENI,KIWANJANI
LINDI,65,LINDI,652,LONGA,65229,TULIENI,MUONGO
LINDI,65,LINDI,652,LONGA,65229,MTUA LONGA,CCM
LINDI,65,LINDI,652,LONGA,65229,MTUA LONGA,MBUYUNI
LINDI,65,LINDI,652,LONGA,65229,MTUA LONGA,MISSION
LINDI,65,LINDI,652,LONGA,65229,MTUA LONGA,MANUSU
LINDI,65,LINDI,652,LONGA,65229,MTUA LONGA,NAMDEDA
LINDI,65,LINDI,652,LONGA,65229,NARWADI,JANGWANI
LINDI,65,LINDI,652,LONGA,65229,NARWADI,AMBONI
LINDI,65,LINDI,652,MTUMBYA,65230,MTUMBYA,ZAHANATI
LINDI,65,LINDI,652,MTUMBYA,65230,MTUMBYA,MWEMBENI
LINDI,65,LINDI,652,MTUMBYA,65230,MTUMBYA,MIKUMBI
LINDI,65,LINDI,652,MTUMBYA,65230,MTUMBYA,TABORA
LINDI,65,LINDI,652,MTUMBYA,65230,MTUMBYA,KIHERU
LINDI,65,LINDI,652,MTUMBYA,65230,MTUMBYA,SHULENI
LINDI,65,LINDI,652,MTUMBYA,65230,KILIMANJARO,LIYEMO
LINDI,65,LINDI,652,MTUMBYA,65230,KILIMANJARO,KIPINI
LINDI,65,LINDI,652,MTUMBYA,65230,KILIMANJARO,MADINA
LINDI,65,LINDI,652,MTUMBYA,65230,KILIMANJARO,NNGOMBE
LINDI,65,LINDI,652,MTUMBYA,65230,KILIMANJARO,PACHOTO
LINDI,65,LINDI,652,MTUMBYA,65230,LUWALE,MKUMBINI
LINDI,65,LINDI,652,MTUMBYA,65230,LUWALE,GONGOLAMBOTO
LINDI,65,LINDI,652,MTUMBYA,65230,LUWALE,KARIAKOO
LINDI,65,LINDI,652,MTUMBYA,65230,LUWALE,LUMINDU
LINDI,65,LINDI,652,MTUMBYA,65230,NYENGEDI,MPANDANJE
LINDI,65,LINDI,652,MTUMBYA,65230,NYENGEDI,KILUMAKA
LINDI,65,LINDI,652,MTUMBYA,65230,NYENGEDI,MITONDO A
LINDI,65,LINDI,652,MTUMBYA,65230,NYENGEDI,MTANDI
LINDI,65,LINDI,652,MTUMBYA,65230,NYENGEDI,LIHIKI A
LINDI,65,LINDI,652,MTUMBYA,65230,NYENGEDI B,NAMAYANGA
LINDI,65,LINDI,652,MTUMBYA,65230,NYENGEDI B,NANJEHA
LINDI,65,LINDI,652,MTUMBYA,65230,NYENGEDI B,NANGURU
LINDI,65,LINDI,652,MTUMBYA,65230,NYENGEDI B,LIHIKI B
LINDI,65,LINDI,652,MTUMBYA,65230,NYENGEDI B,MITONDO B
LINDI,65,LINDI,652,KINYOPE,65231,KINYOPE,KINYOPE
LINDI,65,LINDI,652,KINYOPE,65231,KINYOPE,GULIONI
LINDI,65,LINDI,652,KINYOPE,65231,KINYOPE,SHULENI
LINDI,65,LINDI,652,KINYOPE,65231,NAMKOPO,SOKONI
LINDI,65,LINDI,652,KINYOPE,65231,NAMKOPO,NAMKOPO
LINDI,65,LINDI,652,KINYOPE,65231,NAMKOPO,MSING'OLE
LINDI,65,LINDI,652,KINYOPE,65231,NAMKOPO,MTAKUJA
LINDI,65,LINDI,652,KINYOPE,65231,NAMKOPO,KIMBUJA
LINDI,65,LINDI,652,KINYOPE,65231,RUHOMA,MKUNDI
LINDI,65,LINDI,652,KINYOPE,65231,RUHOMA,MCHATI
LINDI,65,LINDI,652,KINYOPE,65231,RUHOMA,SHULENI
LINDI,65,LINDI,652,KINYOPE,65231,RUHOMA,KAPEMBA
LINDI,65,LINDI,652,KINYOPE,65231,RUHOMA,KIKUMBI
LINDI,65,LINDI,652,KINYOPE,65231,MAKANGARA,MAKANGARA
LINDI,65,LINDI,652,KINYOPE,65231,MAKANGARA,CHITOJI
LINDI,65,LINDI,652,KINYOPE,65231,MAKANGARA,MNALI
LINDI,65,LINDI,652,KINYOPE,65231,MAKANGARA,SHULENI
LINDI,65,LINDI,652,MVULENI,65232,KIJIWENI,MWERA
LINDI,65,LINDI,652,MVULENI,65232,KIJIWENI,NACHOPWA
LINDI,65,LINDI,652,MVULENI,65232,KIJIWENI,MATIMBA A
LINDI,65,LINDI,652,MVULENI,65232,KIJIWENI,MATIMBA B
LINDI,65,LINDI,652,MVULENI,65232,KIJIWENI,STENDI
LINDI,65,LINDI,652,MVULENI,65232,KIJIWENI,MJINI
LINDI,65,LINDI,652,MVULENI,65232,KIJIWENI,KILIMANI
LINDI,65,LINDI,652,MVULENI,65232,MVULENI A,CHAPWACHAPWA A
LINDI,65,LINDI,652,MVULENI,65232,MVULENI A,CHAPWACHAPWA B
LINDI,65,LINDI,652,MVULENI,65232,MVULENI MASHARIKI,MAKONDE
LINDI,65,LINDI,652,MVULENI,65232,MVULENI MASHARIKI,KITOMUNGU
LINDI,65,LINDI,652,MVULENI,65232,MVULENI MASHARIKI,KIKUKURU
LINDI,65,LINDI,652,MVULENI,65232,MVULENI MASHARIKI,LIKOTWA
LINDI,65,LINDI,652,MVULENI,65232,MVULENI B,MIHOGONI
LINDI,65,LINDI,652,MVULENI,65232,MVULENI B,MKONYANGONYA A
LINDI,65,LINDI,652,MVULENI,65232,MVULENI B,MKONYANGONYA B
LINDI,65,LINDI,652,MVULENI,65232,MVULENI B,MKONYANGONYA C
LINDI,65,NACHINGWEA,653,NACHINGWEA MJINI,65301,MVULENI B,MWERA
LINDI,65,NACHINGWEA,653,NACHINGWEA MJINI,65301,MVULENI B,ULIZA
LINDI,65,NACHINGWEA,653,NACHINGWEA MJINI,65301,MVULENI B,DARAJANI
LINDI,65,NACHINGWEA,653,NACHINGWEA MJINI,65301,MVULENI B,NYERERE
LINDI,65,NACHINGWEA,653,NACHINGWEA MJINI,65301,MVULENI B,UHINDINI
LINDI,65,NACHINGWEA,653,NACHINGWEA MJINI,65301,MVULENI B,KALOLENI
LINDI,65,NACHINGWEA,653,NACHINGWEA MJINI,65301,MVULENI B,KAZAMOYO
LINDI,65,NACHINGWEA,653,NACHINGWEA MJINI,65301,MVULENI B,NGWEA
LINDI,65,NACHINGWEA,653,NACHINGWEA MJINI,65301,MVULENI B,RAHALEO
LINDI,65,NACHINGWEA,653,NACHINGWEA MJINI,65301,MVULENI B,AMANI
LINDI,65,NACHINGWEA,653,NACHINGWEA MJINI,65301,MVULENI B,NGWEA NAMWERA
LINDI,65,NACHINGWEA,653,NACHINGWEA MJINI,65301,MVULENI B,NGWEA ZAHANATI
LINDI,65,NACHINGWEA,653,NACHINGWEA MJINI,65301,MVULENI B,AMANI BONDENI
LINDI,65,NACHINGWEA,653,NACHINGWEA MJINI,65301,MVULENI B,AMANI UHINDINI
LINDI,65,NACHINGWEA,653,NACHINGWEA MJINI,65301,MVULENI B,KAZAMOYO TANESCO
LINDI,65,NACHINGWEA,653,NAMBAMBO,65302,NAMBAMBO,NAMBAMBO
LINDI,65,NACHINGWEA,653,NAMBAMBO,65302,NAMBAMBO,KALIFONIA
LINDI,65,NACHINGWEA,653,NAMBAMBO,65302,NAMBAMBO,TTC
LINDI,65,NACHINGWEA,653,NAMBAMBO,65302,NAMBAMBO,UWANJA WA NDEGE
LINDI,65,NACHINGWEA,653,NAMBAMBO,65302,MAZOEZI,MAZOEZI
LINDI,65,NACHINGWEA,653,NAMBAMBO,65302,MAZOEZI,MLIMANI
LINDI,65,NACHINGWEA,653,NAMBAMBO,65302,MAZOEZI,MTAKUJA
LINDI,65,NACHINGWEA,653,NAMBAMBO,65302,NAMPEMBA,JITEGEMEE
LINDI,65,NACHINGWEA,653,NAMBAMBO,65302,NAMPEMBA,KILIMANI
LINDI,65,NACHINGWEA,653,NAMBAMBO,65302,NAMPEMBA,NAMPEMBA A
LINDI,65,NACHINGWEA,653,NAMBAMBO,65302,NAMPEMBA,NAMPEMBA B
LINDI,65,NACHINGWEA,653,KILIMANIHEWA,65303,KILIMA HEWA,KILIMANIHEWA
LINDI,65,NACHINGWEA,653,KILIMANIHEWA,65303,KILIMA HEWA,OFISINI
LINDI,65,NACHINGWEA,653,KILIMANIHEWA,65303,KILIMA HEWA,BONDENI
LINDI,65,NACHINGWEA,653,KILIMANIHEWA,65303,KILIMA HEWA,MDENGA
LINDI,65,NACHINGWEA,653,KILIMANIHEWA,65303,KILIMA HEWA,NGUVUMOJA
LINDI,65,NACHINGWEA,653,KILIMANIHEWA,65303,KILIMA HEWA,GODAWN
LINDI,65,NACHINGWEA,653,KILIMANIHEWA,65303,KILIMA HEWA,RAHA LEO
LINDI,65,NACHINGWEA,653,KILIMANIHEWA,65303,KILIMA HEWA,SUNGURA
LINDI,65,NACHINGWEA,653,KILIMANIHEWA,65303,KILIMA HEWA,SHULENI
LINDI,65,NACHINGWEA,653,KILIMANIHEWA,65303,MTEPECHE,MTEPECHE
LINDI,65,NACHINGWEA,653,KILIMANIHEWA,65303,MTEPECHE,CHIMBUGULU
LINDI,65,NACHINGWEA,653,KILIMANIHEWA,65303,MTEPECHE,MAJIMAJI
LINDI,65,NACHINGWEA,653,KILIMANIHEWA,65303,MTEPECHE,MUUNGANO
LINDI,65,NACHINGWEA,653,KILIMANIHEWA,65303,SUNGURA,SUNGURA
LINDI,65,NACHINGWEA,653,KILIMANIHEWA,65303,SUNGURA,SEKONDARI
LINDI,65,NACHINGWEA,653,KILIMANIHEWA,65303,SUNGURA,SHULENI
LINDI,65,NACHINGWEA,653,KILIMANIHEWA,65303,SUNGURA,GODOWN
LINDI,65,NACHINGWEA,653,STESHENI,65304,STESHENI,SHULENI
LINDI,65,NACHINGWEA,653,STESHENI,65304,STESHENI,MIKOROSHONI
LINDI,65,NACHINGWEA,653,STESHENI,65304,STESHENI,MAPINDUZI
LINDI,65,NACHINGWEA,653,STESHENI,65304,STESHENI,BOMBANI
LINDI,65,NACHINGWEA,653,STESHENI,65304,SONGAMBELE,SHULENI
LINDI,65,NACHINGWEA,653,STESHENI,65304,SONGAMBELE,CHITANDI
LINDI,65,NACHINGWEA,653,STESHENI,65304,SONGAMBELE,OFISINI
LINDI,65,NACHINGWEA,653,STESHENI,65304,CHIUMBATI  MIEMBENI,GARI BOVU
LINDI,65,NACHINGWEA,653,STESHENI,65304,CHIUMBATI  MIEMBENI,OFISINI
LINDI,65,NACHINGWEA,653,STESHENI,65304,CHEKELENI,CHEKELENI A
LINDI,65,NACHINGWEA,653,STESHENI,65304,CHEKELENI,CHEKELENI B
LINDI,65,NACHINGWEA,653,STESHENI,65304,CHEKELENI,MILANZI
LINDI,65,NACHINGWEA,653,STESHENI,65304,CHEMCHEM,CHEMCHEM
LINDI,65,NACHINGWEA,653,STESHENI,65304,CHEMCHEM,SABASABA
LINDI,65,NACHINGWEA,653,STESHENI,65304,NANG'OLOLA,MAPINDUZI
LINDI,65,NACHINGWEA,653,STESHENI,65304,NANG'OLOLA,MTIPURA
LINDI,65,NACHINGWEA,653,STESHENI,65304,NANG'OLOLA,OFISINI
LINDI,65,NACHINGWEA,653,STESHENI,65304,NANG'OLOLA,JIWENI
LINDI,65,NACHINGWEA,653,STESHENI,65304,MCHANGANI,ZANZIBAR
LINDI,65,NACHINGWEA,653,STESHENI,65304,MCHANGANI,MACHINDA
LINDI,65,NACHINGWEA,653,STESHENI,65304,MCHANGANI,MSHIKAMANO
LINDI,65,NACHINGWEA,653,STESHENI,65304,MCHANGANI,OFISINI
LINDI,65,NACHINGWEA,653,NAMATULA,65305,MUUNGANO,MAPINDUZI
LINDI,65,NACHINGWEA,653,NAMATULA,65305,MUUNGANO,UMOJA
LINDI,65,NACHINGWEA,653,NAMATULA,65305,MUUNGANO,MUUNGANO
LINDI,65,NACHINGWEA,653,NAMATULA,65305,NAMATULA,OFISINI
LINDI,65,NACHINGWEA,653,NAMATULA,65305,NAMATULA,PACHA NNE
LINDI,65,NACHINGWEA,653,NAMATULA,65305,NAMATULA,TUPENDANE
LINDI,65,NACHINGWEA,653,NANGOWE,65306,NANGOWE (M),TULIENI
LINDI,65,NACHINGWEA,653,NANGOWE,65306,NANGOWE (M),TULEANE
LINDI,65,NACHINGWEA,653,NANGOWE,65306,NANGOWE (M),LIBEA
LINDI,65,NACHINGWEA,653,NANGOWE,65306,NANGOWE (M),MMAJILE
LINDI,65,NACHINGWEA,653,NANGOWE,65306,NANGOWE (M),LIWALE B
LINDI,65,NACHINGWEA,653,NANGOWE,65306,NANGOWE (M),MAKONDEKO
LINDI,65,NACHINGWEA,653,NANGOWE,65306,NANGOWE (M),MIKOROSHONI
LINDI,65,NACHINGWEA,653,NANGOWE,65306,NANGOWE (M),AZIMIO
LINDI,65,NACHINGWEA,653,NANGOWE,65306,NANGOWE(S),GULIONI
LINDI,65,NACHINGWEA,653,NANGOWE,65306,NANGOWE(S),FARM ONE
LINDI,65,NACHINGWEA,653,NANGOWE,65306,NANGOWE(S),KIBAONI
LINDI,65,NACHINGWEA,653,NANGOWE,65306,NANGOWE(S),MLIMANI
LINDI,65,NACHINGWEA,653,NANGOWE,65306,NANGOWE(S),MCHUVALIMBA
LINDI,65,NACHINGWEA,653,NANGOWE,65306,NANGOWE(S),MAKONDEKO
LINDI,65,NACHINGWEA,653,NANGOWE,65306,NANGOWE(S),MTI MKUBWA
LINDI,65,NACHINGWEA,653,MPIRUKA,65307,MPIRUKA,MANOKWE A
LINDI,65,NACHINGWEA,653,MPIRUKA,65307,MPIRUKA,MAGAZINI A
LINDI,65,NACHINGWEA,653,MPIRUKA,65307,MPIRUKA,MAGAZINI B
LINDI,65,NACHINGWEA,653,MPIRUKA,65307,MPIRUKA,NYAMILE
LINDI,65,NACHINGWEA,653,MPIRUKA,65307,MKUMBA,BARABARANI
LINDI,65,NACHINGWEA,653,MPIRUKA,65307,MKUMBA,KANISANI
LINDI,65,NACHINGWEA,653,MPIRUKA,65307,MKUMBA,SHULENI
LINDI,65,NACHINGWEA,653,MPIRUKA,65307,LIBEA,LIBEA A
LINDI,65,NACHINGWEA,653,MPIRUKA,65307,LIBEA,LIBEA B
LINDI,65,NACHINGWEA,653,MPIRUKA,65307,MPIRUKA B,CHIMINULA A
LINDI,65,NACHINGWEA,653,MPIRUKA,65307,MPIRUKA B,CHIMINULA B
LINDI,65,NACHINGWEA,653,MPIRUKA,65307,MPIRUKA B,MANOKWE B
LINDI,65,NACHINGWEA,653,MPIRUKA,65307,MPIRUKA B,NAKATORO
LINDI,65,NACHINGWEA,653,MKOTOKUYANA,65308,MKOTOKUYANA,MWEMBENINGOJE
LINDI,65,NACHINGWEA,653,MKOTOKUYANA,65308,MKOTOKUYANA,MILONGA
LINDI,65,NACHINGWEA,653,MKOTOKUYANA,65308,MKOTOKUYANA,BONDENI
LINDI,65,NACHINGWEA,653,MKOTOKUYANA,65308,MKOTOKUYANA,UJAMAA
LINDI,65,NACHINGWEA,653,MKOTOKUYANA,65308,MANDAI,MUUNGANO
LINDI,65,NACHINGWEA,653,MKOTOKUYANA,65308,MANDAI,MAPINDUZI
LINDI,65,NACHINGWEA,653,MKOTOKUYANA,65308,MANDAI,MWONGOZO
LINDI,65,NACHINGWEA,653,MKOTOKUYANA,65308,MANDAI,MSHIKAMANO
LINDI,65,NACHINGWEA,653,MKOTOKUYANA,65308,MANDAI,SHULENI
LINDI,65,NACHINGWEA,653,MKOTOKUYANA,65308,MANDAI,KANISANI
LINDI,65,NACHINGWEA,653,MKOTOKUYANA,65308,MATEMANGA,BONDENI
LINDI,65,NACHINGWEA,653,MKOTOKUYANA,65308,MATEMANGA,KILIMANIHEWA
LINDI,65,NACHINGWEA,653,MKOTOKUYANA,65308,MATEMANGA,TANKINI
LINDI,65,NACHINGWEA,653,MKOTOKUYANA,65308,MATEMANGA,AMTONGA
LINDI,65,NACHINGWEA,653,MKOTOKUYANA,65308,MAILI SITA,SEKONDARI
LINDI,65,NACHINGWEA,653,MKOTOKUYANA,65308,MAILI SITA,MAJI
LINDI,65,NACHINGWEA,653,MKOTOKUYANA,65308,MAILI SITA,OFISINI
LINDI,65,NACHINGWEA,653,MKOTOKUYANA,65308,MAILI SITA,KANISANI
LINDI,65,NACHINGWEA,653,NAIPANGA,65309,NAIPANGA,SOKONI
LINDI,65,NACHINGWEA,653,NAIPANGA,65309,NAIPANGA,OFISINI
LINDI,65,NACHINGWEA,653,NAIPANGA,65309,NAIPANGA,TANKINI
LINDI,65,NACHINGWEA,653,NAIPANGA,65309,NAIPANGA,MJIMWEMA
LINDI,65,NACHINGWEA,653,NAIPANGA,65309,NAGAGA,NAGAGA A
LINDI,65,NACHINGWEA,653,NAIPANGA,65309,NAGAGA,NAGAGA B
LINDI,65,NACHINGWEA,653,NAIPANGA,65309,NAGAGA,BUTIAMA
LINDI,65,NACHINGWEA,653,NAIPANGA,65309,NAGAGA,MKOROSHINI
LINDI,65,NACHINGWEA,653,NAIPANGA,65309,NAGAGA,MABATINI
LINDI,65,NACHINGWEA,653,NAIPANGA,65309,JOSHONI,JOSHONI
LINDI,65,NACHINGWEA,653,NAIPANGA,65309,JOSHONI,NAIPANGA KISIMANI
LINDI,65,NACHINGWEA,653,NAIPANGA,65309,JOSHONI,SEKONDARI
LINDI,65,NACHINGWEA,653,NAIPANGA,65309,JOSHONI,DARAJA MBILI
LINDI,65,NACHINGWEA,653,NAIPANGA,65309,JOSHONI,POLISI
LINDI,65,NACHINGWEA,653,NDOMONI,65310,NDOMONI,KIWANJANI
LINDI,65,NACHINGWEA,653,NDOMONI,65310,NDOMONI,KAZA MOYO
LINDI,65,NACHINGWEA,653,NDOMONI,65310,NDOMONI,KILIMANI
LINDI,65,NACHINGWEA,653,NDOMONI,65310,NDOMONI,MBUYUNI
LINDI,65,NACHINGWEA,653,NDOMONI,65310,NDOMONI,MTALIKA CHAU
LINDI,65,NACHINGWEA,653,NDOMONI,65310,MAKITIKITI,MAKITIKI
LINDI,65,NACHINGWEA,653,NDOMONI,65310,MAKITIKITI,MAGEREZA
LINDI,65,NACHINGWEA,653,NDOMONI,65310,MAKITIKITI,POLISI
LINDI,65,NACHINGWEA,653,NDOMONI,65310,MAKITIKITI,MTIMKUBWA
LINDI,65,NACHINGWEA,653,NDOMONI,65310,MAKITIKITI,MBUYUNI
LINDI,65,NACHINGWEA,653,NDOMONI,65310,MKURUPILO,AZIMIO
LINDI,65,NACHINGWEA,653,NDOMONI,65310,MKURUPILO,MWONGOZO
LINDI,65,NACHINGWEA,653,NDOMONI,65310,MKURUPILO,TULIENI
LINDI,65,NACHINGWEA,653,NDOMONI,65310,MKURUPILO,TULEANE
LINDI,65,NACHINGWEA,653,NDOMONI,65310,NDOMONDO,OFISINI
LINDI,65,NACHINGWEA,653,NDOMONI,65310,NDOMONDO,CHANG'OMBE
LINDI,65,NACHINGWEA,653,NDOMONI,65310,NDOMONDO,MSIKITINI JUU
LINDI,65,NACHINGWEA,653,NDOMONI,65310,NDOMONDO,MISUFINI
LINDI,65,NACHINGWEA,653,NDOMONI,65310,NDOMONDO,KARIAKOO
LINDI,65,NACHINGWEA,653,NAIPINGO,65311,NAIPINGO,OFISINI
LINDI,65,NACHINGWEA,653,NAIPINGO,65311,NAIPINGO,MSIKITINI
LINDI,65,NACHINGWEA,653,NAIPINGO,65311,NAIPINGO,MIANGANDA
LINDI,65,NACHINGWEA,653,NAIPINGO,65311,NAIPINGO,MKULULU
LINDI,65,NACHINGWEA,653,NAIPINGO,65311,NAIPINGO,TANDIKA
LINDI,65,NACHINGWEA,653,NAIPINGO,65311,KIHUWE,KIHUWE SHULENI
LINDI,65,NACHINGWEA,653,NAIPINGO,65311,KIHUWE,KIHUWE MIEMBENI
LINDI,65,NACHINGWEA,653,NAIPINGO,65311,KIHUWE,KIHUWE MSIKITINI
LINDI,65,NACHINGWEA,653,NAIPINGO,65311,KIHUWE,KIHUWE KANISANI
LINDI,65,NACHINGWEA,653,NAIPINGO,65311,KIHUWE,MBAWENI
LINDI,65,NACHINGWEA,653,NAIPINGO,65311,MAPOCHELO,KIBAONI
LINDI,65,NACHINGWEA,653,NAIPINGO,65311,MAPOCHELO,MAPOCHELO
LINDI,65,NACHINGWEA,653,NAIPINGO,65311,MAPOCHELO,BWAWANI
LINDI,65,NACHINGWEA,653,NAIPINGO,65311,MAPOCHELO,MSIKITINI
LINDI,65,NACHINGWEA,653,MTUA,65312,MTUA,SINGA
LINDI,65,NACHINGWEA,653,MTUA,65312,MTUA,MAPINDUZI
LINDI,65,NACHINGWEA,653,MTUA,65312,MTUA,UMOJA
LINDI,65,NACHINGWEA,653,MTUA,65312,MTUA,MCHANGANI
LINDI,65,NACHINGWEA,653,MTUA,65312,MTUA,AMANI
LINDI,65,NACHINGWEA,653,MTUA,65312,MTUA,DARAJAMBILI
LINDI,65,NACHINGWEA,653,MTUA,65312,MTUA,JIUNGENI
LINDI,65,NACHINGWEA,653,MTUA,65312,NALENGWE,SHULENI
LINDI,65,NACHINGWEA,653,MTUA,65312,NALENGWE,MIANZINI
LINDI,65,NACHINGWEA,653,MTUA,65312,NALENGWE,NANONDO
LINDI,65,NACHINGWEA,653,MTUA,65312,NAMANGA,MAJENGO
LINDI,65,NACHINGWEA,653,MTUA,65312,NAMANGA,TULIENI
LINDI,65,NACHINGWEA,653,MTUA,65312,NAMANGA,NAUNGO
LINDI,65,NACHINGWEA,653,MNERO MIEMBENI,65313,MNERO MIEMBENI,NDOMONI
LINDI,65,NACHINGWEA,653,MNERO MIEMBENI,65313,MNERO MIEMBENI,NGUJANI
LINDI,65,NACHINGWEA,653,MNERO MIEMBENI,65313,MNERO MIEMBENI,MKONJELA
LINDI,65,NACHINGWEA,653,MNERO MIEMBENI,65313,MNERO MIEMBENI,CHIWANGALA
LINDI,65,NACHINGWEA,653,MNERO MIEMBENI,65313,MNERO MIEMBENI,MNAZI MMOJA
LINDI,65,NACHINGWEA,653,MNERO MIEMBENI,65313,MNERO MIEMBENI,MKANGAULA
LINDI,65,NACHINGWEA,653,MNERO MIEMBENI,65313,NAMKULA,NAMKULA CHINI
LINDI,65,NACHINGWEA,653,MNERO MIEMBENI,65313,NAMKULA,KANISANI
LINDI,65,NACHINGWEA,653,MNERO MIEMBENI,65313,NAMKULA,MKALELA
LINDI,65,NACHINGWEA,653,MNERO MIEMBENI,65313,MKONJERA CHINI,MIKANGAULA
LINDI,65,NACHINGWEA,653,MNERO MIEMBENI,65313,MKONJERA CHINI,MNAZI MMOJA
LINDI,65,NACHINGWEA,653,MNERO MIEMBENI,65313,MKONJERA CHINI,MKUNJERA
LINDI,65,NACHINGWEA,653,MNERO MIEMBENI,65313,NTILA,ULAI
LINDI,65,NACHINGWEA,653,MNERO MIEMBENI,65313,NTILA,GODAUNI
LINDI,65,NACHINGWEA,653,MNERO MIEMBENI,65313,NTILA,LEGEZA MWENDO
LINDI,65,NACHINGWEA,653,MNERO MIEMBENI,65313,NTILA,TANKINI
LINDI,65,NACHINGWEA,653,MNERO MIEMBENI,65313,FARM EIGHT,FARM 8
LINDI,65,NACHINGWEA,653,MNERO MIEMBENI,65313,FARM EIGHT,NANGOMBA
LINDI,65,NACHINGWEA,653,MNERO MIEMBENI,65313,FARM EIGHT,MUUNGANO
LINDI,65,NACHINGWEA,653,MNERO MIEMBENI,65313,FARM EIGHT,NANGULYUNGU
LINDI,65,NACHINGWEA,653,MNERO MIEMBENI,65313,FARM EIGHT,CHOBONGA
LINDI,65,NACHINGWEA,653,MNERO MIEMBENI,65313,MKONJELA,MJANGALILO
LINDI,65,NACHINGWEA,653,MNERO MIEMBENI,65313,MKONJELA,MAGOMENI
LINDI,65,NACHINGWEA,653,MNERO MIEMBENI,65313,MKONJELA,MSIMBAZI
LINDI,65,NACHINGWEA,653,MNERO MIEMBENI,65313,MKONJELA,KILIMANIHEWA
LINDI,65,NACHINGWEA,653,MNERO MIEMBENI,65313,MKONJELA,TEMEKE
LINDI,65,NACHINGWEA,653,RUPONDA,65314,NAMMANGA,IMARA
LINDI,65,NACHINGWEA,653,RUPONDA,65314,NAMMANGA,KIBAONI
LINDI,65,NACHINGWEA,653,RUPONDA,65314,NAMMANGA,JANGWANI
LINDI,65,NACHINGWEA,653,RUPONDA,65314,NAMMANGA,CCM
LINDI,65,NACHINGWEA,653,RUPONDA,65314,NAMMANGA,KANISANI
LINDI,65,NACHINGWEA,653,RUPONDA,65314,MANDAWA,MANDAWA A
LINDI,65,NACHINGWEA,653,RUPONDA,65314,MANDAWA,MANDAWA B
LINDI,65,NACHINGWEA,653,RUPONDA,65314,MANDAWA,MUGABA
LINDI,65,NACHINGWEA,653,RUPONDA,65314,RUPONDA,RUPONDA
LINDI,65,NACHINGWEA,653,RUPONDA,65314,RUPONDA,MUHIMBILI
LINDI,65,NACHINGWEA,653,RUPONDA,65314,RUPONDA,MAGOMENI
LINDI,65,NACHINGWEA,653,RUPONDA,65314,MWANANYAMALA,MWANANYAMALA
LINDI,65,NACHINGWEA,653,RUPONDA,65314,MWANANYAMALA,NANDANGA
LINDI,65,NACHINGWEA,653,RUPONDA,65314,MWANANYAMALA,MTIPULA
LINDI,65,NACHINGWEA,653,RUPONDA,65314,MIBONDO,MTONI
LINDI,65,NACHINGWEA,653,RUPONDA,65314,MIBONDO,KILIMO
LINDI,65,NACHINGWEA,653,MARAMBO,65315,MARAMBO A,CHIBAKA
LINDI,65,NACHINGWEA,653,MARAMBO,65315,MARAMBO A,NAMITAMBA
LINDI,65,NACHINGWEA,653,MARAMBO,65315,MARAMBO A,INGINIKO
LINDI,65,NACHINGWEA,653,MARAMBO,65315,MARAMBA B,MINA
LINDI,65,NACHINGWEA,653,MARAMBO,65315,MARAMBA B,KANISANI
LINDI,65,NACHINGWEA,653,MARAMBO,65315,MARAMBA B,MTANGA
LINDI,65,NACHINGWEA,653,MARAMBO,65315,LITULA,CHANIKA
LINDI,65,NACHINGWEA,653,MARAMBO,65315,LITULA,CCM
LINDI,65,NACHINGWEA,653,MARAMBO,65315,LITULA,BWAWANI
LINDI,65,NACHINGWEA,653,MARAMBO,65315,MITUGURU,MITUGURU
LINDI,65,NACHINGWEA,653,MARAMBO,65315,MITUGURU,NAMATAMBA
LINDI,65,NACHINGWEA,653,MARAMBO,65315,MITUGURU,MITUGURU KIPARA
LINDI,65,NACHINGWEA,653,MARAMBO,65315,MITUGURU,BWAWANI
LINDI,65,NACHINGWEA,653,MARAMBO,65315,IKUNGU,KANISANI
LINDI,65,NACHINGWEA,653,MARAMBO,65315,IKUNGU,CCM A
LINDI,65,NACHINGWEA,653,MARAMBO,65315,IKUNGU,LIVEA A
LINDI,65,NACHINGWEA,653,MARAMBO,65315,RUPOTA,RUPOTA
LINDI,65,NACHINGWEA,653,MARAMBO,65315,RUPOTA,NANDEMBO
LINDI,65,NACHINGWEA,653,MARAMBO,65315,RUPOTA,CHINIBEMBENDE
LINDI,65,NACHINGWEA,653,MARAMBO,65315,RUPOTA,ITA JUU
LINDI,65,NACHINGWEA,653,MARAMBO,65315,RUPOTA,ITA CHINI
LINDI,65,NACHINGWEA,653,CHIOLA,65316,CHIOLA,DAR ES SALAAM
LINDI,65,NACHINGWEA,653,CHIOLA,65316,CHIOLA,MKANDAWALA
LINDI,65,NACHINGWEA,653,CHIOLA,65316,CHIOLA,MASAKI
LINDI,65,NACHINGWEA,653,CHIOLA,65316,CHIOLA,KILIMANIHEWA
LINDI,65,NACHINGWEA,653,CHIOLA,65316,CHIOLA,UWANJANI
LINDI,65,NACHINGWEA,653,CHIOLA,65316,CHIOLA B,DODOMA B
LINDI,65,NACHINGWEA,653,CHIOLA,65316,CHIOLA B,MPILIPILI
LINDI,65,NACHINGWEA,653,CHIOLA,65316,CHIOLA B,MUHIMBILI
LINDI,65,NACHINGWEA,653,CHIOLA,65316,MTIMBO,MATANGINI
LINDI,65,NACHINGWEA,653,CHIOLA,65316,MTIMBO,MCHAFUKOGA
LINDI,65,NACHINGWEA,653,CHIOLA,65316,MTIMBO,CHIPONDA
LINDI,65,NACHINGWEA,653,CHIOLA,65316,MTIMBO,MCHANGANI
LINDI,65,NACHINGWEA,653,CHIOLA,65316,MTIMBO,NANGUNDE
LINDI,65,NACHINGWEA,653,CHIOLA,65316,CHINGUNDULI,MKAJENGA
LINDI,65,NACHINGWEA,653,CHIOLA,65316,CHINGUNDULI,MASASI YA LEO
LINDI,65,NACHINGWEA,653,CHIOLA,65316,CHINGUNDULI,NAMANG'OPA
LINDI,65,NACHINGWEA,653,CHIOLA,65316,CHINGUNDULI,NAMALAMBA
LINDI,65,NACHINGWEA,653,CHIOLA,65316,CHINGUNDULI,KIJIWE
LINDI,65,NACHINGWEA,653,CHIOLA,65316,CHINGUNDULI,MAENDELEO
LINDI,65,NACHINGWEA,653,CHIOLA,65316,NAMAUNI,MIEMBENI
LINDI,65,NACHINGWEA,653,CHIOLA,65316,NAMAUNI,NAMAUNI A
LINDI,65,NACHINGWEA,653,CHIOLA,65316,NAMAUNI,NAMAUNI B
LINDI,65,NACHINGWEA,653,CHIOLA,65316,NAMAUNI,MPAKANI
LINDI,65,NACHINGWEA,653,CHIOLA,65316,NAMAUNI,MJALENI
LINDI,65,NACHINGWEA,653,CHIOLA,65316,NAMAUNI,KILIMANJARO
LINDI,65,NACHINGWEA,653,MKOKA,65317,MKOKA,MKOKA
LINDI,65,NACHINGWEA,653,MKOKA,65317,MKOKA,MKOKA SHULENI
LINDI,65,NACHINGWEA,653,MKOKA,65317,MKOKA,MUUNGANO
LINDI,65,NACHINGWEA,653,MKOKA,65317,MKOKA,MITEPEA
LINDI,65,NACHINGWEA,653,MKOKA,65317,MKOKA,NAMTANDI
LINDI,65,NACHINGWEA,653,MKOKA,65317,RWEJE,LIBUNDU
LINDI,65,NACHINGWEA,653,MKOKA,65317,RWEJE,NAGAGA
LINDI,65,NACHINGWEA,653,MKOKA,65317,RWEJE,LIGALAU
LINDI,65,NACHINGWEA,653,MKOKA,65317,RWEJE,RWEJE SHULENI
LINDI,65,NACHINGWEA,653,MKOKA,65317,LIKWELA,LIKWELA OFISINI
LINDI,65,NACHINGWEA,653,MKOKA,65317,LIKWELA,LIKWELA SHULENI
LINDI,65,NACHINGWEA,653,MKOKA,65317,LIKWELA,IVILO
LINDI,65,NACHINGWEA,653,MKOKA,65317,LIKWELA,LIKWELA JUU
LINDI,65,NACHINGWEA,653,MKOKA,65317,NARUNGOMBE,NARUNGOMBE SHULENI
LINDI,65,NACHINGWEA,653,MKOKA,65317,NARUNGOMBE,NARUNGOMBE JUU
LINDI,65,NACHINGWEA,653,MKOKA,65317,NARUNGOMBE,NAKAPINGO
LINDI,65,NACHINGWEA,653,MKOKA,65317,NANDILE,NANDILE JUU
LINDI,65,NACHINGWEA,653,MKOKA,65317,NANDILE,MCHANGANI
LINDI,65,NACHINGWEA,653,MKOKA,65317,CHILAILE,CHILAILE JUU
LINDI,65,NACHINGWEA,653,MKOKA,65317,CHILAILE,ABUJA
LINDI,65,NACHINGWEA,653,KIPARA MNERO,65318,KIPARA MNERO,MSIKITINI
LINDI,65,NACHINGWEA,653,KIPARA MNERO,65318,KIPARA MNERO,MNAZI MMOJA
LINDI,65,NACHINGWEA,653,KIPARA MNERO,65318,NAMBALAPALA,LIBUNDU
LINDI,65,NACHINGWEA,653,KIPARA MNERO,65318,NAMBALAPALA,MKWAJUNI
LINDI,65,NACHINGWEA,653,KIPARA MNERO,65318,NAMBALAPALA,MCHANGANI
LINDI,65,NACHINGWEA,653,KIPARA MNERO,65318,NAMBALAPALA,NANGUTO
LINDI,65,NACHINGWEA,653,KIPARA MNERO,65318,NAMBALAPALA,NANJATI
LINDI,65,NACHINGWEA,653,KIPARA MNERO,65318,MWANDILA,NACHILONJI
LINDI,65,NACHINGWEA,653,KIPARA MNERO,65318,MWANDILA,NANJATI
LINDI,65,NACHINGWEA,653,KIPARA MNERO,65318,MWANDILA,RUKOWE
LINDI,65,NACHINGWEA,653,KIPARA MNERO,65318,MWANDILA,MCHANGANI
LINDI,65,NACHINGWEA,653,KIPARA MNERO,65318,MWANDILA,NACHIEKEE
LINDI,65,NACHINGWEA,653,KIPARA MNERO,65318,MIUMBUTI,MIUMBUTI
LINDI,65,NACHINGWEA,653,KIPARA MNERO,65318,MIUMBUTI,MBAPUKA
LINDI,65,NACHINGWEA,653,KIPARA MNERO,65318,LIBUNDU,LIBUNDU
LINDI,65,NACHINGWEA,653,KIPARA MNERO,65318,LIBUNDU,MKUJUNI
LINDI,65,NACHINGWEA,653,MNERO NGONGO,65319,MNERO NGONGO,MISSION
LINDI,65,NACHINGWEA,653,MNERO NGONGO,65319,MNERO NGONGO,MTAWALA
LINDI,65,NACHINGWEA,653,MNERO NGONGO,65319,MNERO NGONGO,NGONGO
LINDI,65,NACHINGWEA,653,MNERO NGONGO,65319,MNERO NGONGO,MBUYUNI
LINDI,65,NACHINGWEA,653,MNERO NGONGO,65319,MNERO NGONGO,CHILUMBILO
LINDI,65,NACHINGWEA,653,MNERO NGONGO,65319,MNERO NGONGO,NAMAWELENJE
LINDI,65,NACHINGWEA,653,MNERO NGONGO,65319,MPUTE,MCHANGANI
LINDI,65,NACHINGWEA,653,MNERO NGONGO,65319,MPUTE,KIMWE
LINDI,65,NACHINGWEA,653,MNERO NGONGO,65319,KITANDI,KILWA
LINDI,65,NACHINGWEA,653,MNERO NGONGO,65319,KITANDI,LINDI
LINDI,65,NACHINGWEA,653,MNERO NGONGO,65319,KITANDI,NACHINGWEA
LINDI,65,NACHINGWEA,653,MNERO NGONGO,65319,KIMAWE,KIMAWE A
LINDI,65,NACHINGWEA,653,MNERO NGONGO,65319,KIMAWE,KIMAWE B
LINDI,65,NACHINGWEA,653,MNERO NGONGO,65319,KIMAWE,RUNYU
LINDI,65,NACHINGWEA,653,NAMIKANGO,65320,"NAMIKANGO ""A""",TEMEKE
LINDI,65,NACHINGWEA,653,NAMIKANGO,65320,"NAMIKANGO ""A""",NAMIKANGO
LINDI,65,NACHINGWEA,653,NAMIKANGO,65320,"NAMIKANGO ""A""",NAMICHU
LINDI,65,NACHINGWEA,653,NAMIKANGO,65320,"NAMIKANGO ""B""",NANG'ONDO
LINDI,65,NACHINGWEA,653,NAMIKANGO,65320,"NAMIKANGO ""B""",MNYAMBALA
LINDI,65,NACHINGWEA,653,NAMIKANGO,65320,"NAMIKANGO ""B""",MTAWATAWA
LINDI,65,NACHINGWEA,653,NAMIKANGO,65320,NANGUNDE,NAMAKONO
LINDI,65,NACHINGWEA,653,NAMIKANGO,65320,NANGUNDE,NAMBUNDA
LINDI,65,NACHINGWEA,653,NAMIKANGO,65320,NANGUNDE,MATANGINI
LINDI,65,NACHINGWEA,653,NAMIKANGO,65320,NANGUNDE,MBAGALA
LINDI,65,NACHINGWEA,653,LIONJA,65321,"LIONJA ""A""",MADUKANI
LINDI,65,NACHINGWEA,653,LIONJA,65321,"LIONJA ""A""",NANYANGA
LINDI,65,NACHINGWEA,653,LIONJA,65321,"LIONJA ""A""",MNILIMA
LINDI,65,NACHINGWEA,653,LIONJA,65321,"LIONJA ""A""",MAYAKA
LINDI,65,NACHINGWEA,653,LIONJA,65321,"LIONJA ""A""",NACHIANJI
LINDI,65,NACHINGWEA,653,LIONJA,65321,"LIONJA ""B""",LILONGO
LINDI,65,NACHINGWEA,653,LIONJA,65321,"LIONJA ""B""",NANGWALE
LINDI,65,NACHINGWEA,653,LIONJA,65321,"LIONJA ""B""",MIKANGAULA
LINDI,65,NACHINGWEA,653,LIONJA,65321,"LIONJA ""B""",MKWAJUNI
LINDI,65,NACHINGWEA,653,LIONJA,65321,"LIONJA ""B""",SEKONDARI
LINDI,65,NACHINGWEA,653,LIONJA,65321,LITANDA MTAMA,LITANDA MTAMA A
LINDI,65,NACHINGWEA,653,LIONJA,65321,LITANDA MTAMA,LITANDA MTAMA B
LINDI,65,NACHINGWEA,653,LIONJA,65321,LITANDA MTAMA,NAYANGA
LINDI,65,NACHINGWEA,653,LIONJA,65321,NAULINGO,NAULINGO
LINDI,65,NACHINGWEA,653,LIONJA,65321,NAULINGO,MCHIAJI
LINDI,65,NACHINGWEA,653,LIONJA,65321,NAULINGO,MICHENJELE
LINDI,65,NACHINGWEA,653,NDITI,65322,NGANGAMBO,NGANGAMBO
LINDI,65,NACHINGWEA,653,NDITI,65322,NGANGAMBO,MKACHILE
LINDI,65,NACHINGWEA,653,NDITI,65322,NGANGAMBO,CHLWIU
LINDI,65,NACHINGWEA,653,NDITI,65322,NGANGAMBO,NDITI
LINDI,65,NACHINGWEA,653,NDITI,65322,NGANGAMBO,NAMTONGA
LINDI,65,NACHINGWEA,653,NDITI,65322,NGANGAMBO,KIMAWE
LINDI,65,NACHINGWEA,653,NDITI,65322,NGANGAMBO,MTAMA ILULU
LINDI,65,NACHINGWEA,653,NDITI,65322,NGANGAMBO,MKWAJUNI
LINDI,65,NACHINGWEA,653,NDITI,65322,NGANGAMBO,MIANZINI
LINDI,65,NACHINGWEA,653,NDITI,65322,NGANGAMBO,NJIA NNE
LINDI,65,NACHINGWEA,653,NDITI,65322,NGANGAMBO,NYAMBI A
LINDI,65,NACHINGWEA,653,NDITI,65322,NGANGAMBO,NAMPEMBA
LINDI,65,NACHINGWEA,653,NDITI,65322,NGANGAMBO,NYAMBALA
LINDI,65,NACHINGWEA,653,NDITI,65322,NGANGAMBO,NYAMBI B
LINDI,65,NACHINGWEA,653,NDITI,65322,NGANGAMBO,MTAMBAYUNI
LINDI,65,NACHINGWEA,653,NDITI,65322,NGANGAMBO,LILONGO
LINDI,65,NACHINGWEA,653,NDITI,65322,NAMANJA,NAMANJA
LINDI,65,NACHINGWEA,653,NDITI,65322,NAMANJA,MIKANGAULA
LINDI,65,NACHINGWEA,653,NDITI,65322,NAMANJA,SIBOTI
LINDI,65,NACHINGWEA,653,NDITI,65322,NAMANJA,TEMEKE
LINDI,65,NACHINGWEA,653,NAMAPWIA,65323,NAMAPWIA,NACHUNGULU
LINDI,65,NACHINGWEA,653,NAMAPWIA,65323,NAMAPWIA,NAMAPWIA
LINDI,65,NACHINGWEA,653,NAMAPWIA,65323,NAMAPWIA,CHIKUKWE
LINDI,65,NACHINGWEA,653,NAMAPWIA,65323,NAMAPWIA,MBAGALA
LINDI,65,NACHINGWEA,653,NAMAPWIA,65323,NAMAPWIA,OMBO
LINDI,65,NACHINGWEA,653,NAMAPWIA,65323,NAMAPWIA,MACHENDE
LINDI,65,NACHINGWEA,653,NAMAPWIA,65323,LIKONGOWELE,LIKONGOWELE
LINDI,65,NACHINGWEA,653,NAMAPWIA,65323,LIKONGOWELE,NANG'ONDO
LINDI,65,NACHINGWEA,653,NAMAPWIA,65323,LIKONGOWELE,MBUYUNI
LINDI,65,NACHINGWEA,653,NAMAPWIA,65323,LIKONGOWELE,CHILWIU A
LINDI,65,NACHINGWEA,653,NAMAPWIA,65323,LIKONGOWELE,CHILWIU B
LINDI,65,NACHINGWEA,653,NAMAPWIA,65323,MBUTE,MBUTE
LINDI,65,NACHINGWEA,653,NAMAPWIA,65323,MBUTE,NANDUNDU
LINDI,65,NACHINGWEA,653,NAMAPWIA,65323,MBUTE,MIWAMBALA
LINDI,65,NACHINGWEA,653,MBONDO,65324,MBONDO,CHIGANGA
LINDI,65,NACHINGWEA,653,MBONDO,65324,MBONDO,PACHA TANO
LINDI,65,NACHINGWEA,653,MBONDO,65324,MBONDO,LIBULA
LINDI,65,NACHINGWEA,653,MBONDO,65324,MBONDO,MBUYUNI
LINDI,65,NACHINGWEA,653,MBONDO,65324,MBONDO,CHITUNDA
LINDI,65,NACHINGWEA,653,MBONDO,65324,NAHIMBA,NJIPEJE
LINDI,65,NACHINGWEA,653,MBONDO,65324,NAHIMBA,RAHA LEO
LINDI,65,NACHINGWEA,653,MBONDO,65324,NAKALONJI,LEGEZA MWENDO
LINDI,65,NACHINGWEA,653,MBONDO,65324,NAKALONJI,NAKAJOKA
LINDI,65,NACHINGWEA,653,MBONDO,65324,CHIMBENDENGA,NAUVI A
LINDI,65,NACHINGWEA,653,MBONDO,65324,CHIMBENDENGA,NAUVI B
LINDI,65,NACHINGWEA,653,MBONDO,65324,CHIMBENDENGA,MAJIMAJI
LINDI,65,NACHINGWEA,653,MBONDO,65324,CHIMBENDENGA,NYERERE ROAD
LINDI,65,NACHINGWEA,653,MBONDO,65324,CHIMBENDENGA,ZAMBIA ROAD
LINDI,65,NACHINGWEA,653,MBONDO,65324,CHIMBENDENGA,NALENGWE
LINDI,65,NACHINGWEA,653,MBONDO,65324,CHIMBENDENGA,LIPUMBULU
LINDI,65,NACHINGWEA,653,MBONDO,65324,CHIMBENDENGA,JIUNGENI
LINDI,65,NACHINGWEA,653,MATEKWE,65325,MATEKWE,MNAZI MMOJA
LINDI,65,NACHINGWEA,653,MATEKWE,65325,MATEKWE,MTOJO
LINDI,65,NACHINGWEA,653,MATEKWE,65325,MATEKWE,TANESCO
LINDI,65,NACHINGWEA,653,MATEKWE,65325,MATEKWE,AMANI
LINDI,65,NACHINGWEA,653,MATEKWE,65325,MATEKWE,CHIGOLI
LINDI,65,NACHINGWEA,653,MATEKWE,65325,MATEKWE,MAJENGO
LINDI,65,NACHINGWEA,653,MATEKWE,65325,MATEKWE,VIETNAM
LINDI,65,NACHINGWEA,653,MATEKWE,65325,MATEKWE,MLOLA
LINDI,65,NACHINGWEA,653,MATEKWE,65325,MAJONANGA,BARABARA TATU
LINDI,65,NACHINGWEA,653,MATEKWE,65325,MAJONANGA,TWO A
LINDI,65,NACHINGWEA,653,MATEKWE,65325,MAJONANGA,KILIMANIHEWA
LINDI,65,NACHINGWEA,653,MATEKWE,65325,MAJENGO,VIETINAMU
LINDI,65,NACHINGWEA,653,MATEKWE,65325,MAJENGO,CHINGALI
LINDI,65,NACHINGWEA,653,MATEKWE,65325,MAJENGO,MATEPUCHE
LINDI,65,NACHINGWEA,653,MATEKWE,65325,MAJENGO,BARABARA 20
LINDI,65,NACHINGWEA,653,KILIMARONDO,65326,KILIMARONDO,SEBULENI
LINDI,65,NACHINGWEA,653,KILIMARONDO,65326,KILIMARONDO,NJAPEJE
LINDI,65,NACHINGWEA,653,KILIMARONDO,65326,KILIMARONDO,ANURU
LINDI,65,NACHINGWEA,653,KILIMARONDO,65326,KILIMARONDO,NAMAKONO
LINDI,65,NACHINGWEA,653,KILIMARONDO,65326,NANJIHI,BWAWANI
LINDI,65,NACHINGWEA,653,KILIMARONDO,65326,NANJIHI,MSIIGE
LINDI,65,NACHINGWEA,653,KILIMARONDO,65326,NANJIHI,JESHINI
LINDI,65,NACHINGWEA,653,KILIMARONDO,65326,NANJIHI,MAKA
LINDI,65,NACHINGWEA,653,KILIMARONDO,65326,NAMATUNU,KAWAWA
LINDI,65,NACHINGWEA,653,KILIMARONDO,65326,NAMATUNU,MAPINDUZI
LINDI,65,NACHINGWEA,653,KILIMARONDO,65326,NAMATUNU,MAJIMAJI
LINDI,65,NACHINGWEA,653,KIEGEI,65327,"KIEGEI ""A""",NAMANGA A
LINDI,65,NACHINGWEA,653,KIEGEI,65327,"KIEGEI ""A""",NAMANGA B
LINDI,65,NACHINGWEA,653,KIEGEI,65327,"KIEGEI ""A""",KIEGEI KATI
LINDI,65,NACHINGWEA,653,KIEGEI,65327,"KIEGEI ""A""",CHAKONINI
LINDI,65,NACHINGWEA,653,KIEGEI,65327,"KIEGEI ""A""",CHEMCHEM
LINDI,65,NACHINGWEA,653,KIEGEI,65327,"KIEGEI ""B""",IKULA
LINDI,65,NACHINGWEA,653,KIEGEI,65327,"KIEGEI ""B""",KAWAWA
LINDI,65,NACHINGWEA,653,KIEGEI,65327,"KIEGEI ""B""",MAPINDUZI
LINDI,65,NACHINGWEA,653,MITUMBATI,65328,MSHIKAMANO,MUUNGANO
LINDI,65,NACHINGWEA,653,MITUMBATI,65328,MSHIKAMANO,JIUNGENI
LINDI,65,NACHINGWEA,653,MITUMBATI,65328,MSHIKAMANO,BARABARANI
LINDI,65,NACHINGWEA,653,MITUMBATI,65328,MITUMBATI,CHIDODO
LINDI,65,NACHINGWEA,653,MITUMBATI,65328,MITUMBATI,NAGAGA
LINDI,65,NACHINGWEA,653,MITUMBATI,65328,MITUMBATI,MAILISITA
LINDI,65,NACHINGWEA,653,MITUMBATI,65328,MITUMBATI,MIKIWI
LINDI,65,NACHINGWEA,653,MITUMBATI,65328,MITUMBATI,MAJIMAJI
LINDI,65,NACHINGWEA,653,MITUMBATI,65328,MWENGE,MUUNGANO
LINDI,65,NACHINGWEA,653,MITUMBATI,65328,MWENGE,MISUFINI
LINDI,65,NACHINGWEA,653,MITUMBATI,65328,MWENGE,MAJENGO
LINDI,65,NACHINGWEA,653,MITUMBATI,65328,MWENGE,MABATINI
LINDI,65,NACHINGWEA,653,MITUMBATI,65328,MWENGE,MASASI YA LEO
LINDI,65,NACHINGWEA,653,MITUMBATI,65328,MWENGE,MITIMINGI
LINDI,65,NACHINGWEA,653,MITUMBATI,65328,MAZIWA,SHULENI A
LINDI,65,NACHINGWEA,653,MITUMBATI,65328,MAZIWA,SHULENI B
LINDI,65,NACHINGWEA,653,MITUMBATI,65328,MAZIWA,RELINI
LINDI,65,NACHINGWEA,653,MITUMBATI,65328,MAZIWA,JIUNGENI
LINDI,65,NACHINGWEA,653,MITUMBATI,65328,MAZIWA,BARABARANI
LINDI,65,NACHINGWEA,653,MITUMBATI,65328,MAZIWA,KILIMANIHEWA
LINDI,65,NACHINGWEA,653,MITUMBATI,65328,MAZIWA,MUUNGANO
LINDI,65,NACHINGWEA,653,MITUMBATI,65328,MITUMBATI B,CHIDODO
LINDI,65,NACHINGWEA,653,MITUMBATI,65328,MITUMBATI B,MCHANGA MKUU
LINDI,65,NACHINGWEA,653,MITUMBATI,65328,MITUMBATI B,MAJIMAJI
LINDI,65,NACHINGWEA,653,KIPARA MTUA,65329,KIPARA MTUA,CCM
LINDI,65,NACHINGWEA,653,KIPARA MTUA,65329,KIPARA MTUA,MNAZI MMOJA
LINDI,65,NACHINGWEA,653,KIPARA MTUA,65329,KIPARA MTUA,KIPARA
LINDI,65,NACHINGWEA,653,KIPARA MTUA,65329,KIPARA MTUA,MSHIKAMANO
LINDI,65,NACHINGWEA,653,KIPARA MTUA,65329,KIPARA MTUA,MAPINDUZI
LINDI,65,NACHINGWEA,653,KIPARA MTUA,65329,MANOWALI,MANOWALI
LINDI,65,NACHINGWEA,653,KIPARA MTUA,65329,MANOWALI,FARM 9
LINDI,65,NACHINGWEA,653,KIPARA MTUA,65329,MANOWALI,NAMALAVANDU
LINDI,65,NACHINGWEA,653,KIPARA MTUA,65329,MANOWALI,FARM 15
LINDI,65,NACHINGWEA,653,KIPARA MTUA,65329,FARM 17,FARM 5
LINDI,65,NACHINGWEA,653,KIPARA MTUA,65329,FARM 18,MAPAMBANO
LINDI,65,NACHINGWEA,653,KIPARA MTUA,65329,FARM 19,FARM 17
LINDI,65,NACHINGWEA,653,NANG'ONDO,65330,NANG'ONDO,NANG'ONDO
LINDI,65,NACHINGWEA,653,NANG'ONDO,65330,NANG'ONDO,LUKULEDI
LINDI,65,NACHINGWEA,653,NANG'ONDO,65330,NANG'ONDO,MTABWEANI
LINDI,65,NACHINGWEA,653,NANG'ONDO,65330,NANG'ONDO,NANJUVA
LINDI,65,NACHINGWEA,653,NANG'ONDO,65330,NANG'ONDO,KANISANI
LINDI,65,NACHINGWEA,653,NANG'ONDO,65330,NANG'ONDO,MTI MREFU
LINDI,65,NACHINGWEA,653,NANG'ONDO,65330,NAMATUMBUSI,NAMATUMBUSI
LINDI,65,NACHINGWEA,653,NANG'ONDO,65330,NAMATUMBUSI,OFISINI
LINDI,65,NACHINGWEA,653,NANG'ONDO,65330,NAMATUMBUSI,LUGONGO
LINDI,65,NACHINGWEA,653,NANG'ONDO,65330,KWA KAMPANGA,NAMAJUNI
LINDI,65,NACHINGWEA,653,NANG'ONDO,65330,KWA KAMPANGA,KAMPANGA
LINDI,65,NACHINGWEA,653,NANG'ONDO,65330,MTAWATAWA,MWEMBENI
LINDI,65,NACHINGWEA,653,NANG'ONDO,65330,MTAWATAWA,MNAZI MMOJA
LINDI,65,NACHINGWEA,653,NANG'ONDO,65330,MTAWATAWA,MTAKUJA
LINDI,65,NACHINGWEA,653,NANG'ONDO,65330,MTAWATAWA,SONGAMBELE
LINDI,65,NACHINGWEA,653,NANG'ONDO,65330,MTAWATAWA,MTAMANTWA
LINDI,65,NACHINGWEA,653,MCHONDA,65331,MCHONDA,SHULENI
LINDI,65,NACHINGWEA,653,MCHONDA,65331,MCHONDA,MAPINDUZI
LINDI,65,NACHINGWEA,653,MCHONDA,65331,MCHONDA,KAZA MOYO
LINDI,65,NACHINGWEA,653,MCHONDA,65331,MCHONDA,AMANI
LINDI,65,NACHINGWEA,653,MCHONDA,65331,MKUKWE,BARABARANI
LINDI,65,NACHINGWEA,653,MCHONDA,65331,MKUKWE,MKUKWE JUU
LINDI,65,NACHINGWEA,653,MCHONDA,65331,MKUKWE,MKUKWE OFISINI
LINDI,65,NACHINGWEA,653,MCHONDA,65331,MKATAPORI,MKATAPORI OFISINI
LINDI,65,NACHINGWEA,653,MCHONDA,65331,MKATAPORI,BWAWANI
LINDI,65,NACHINGWEA,653,MCHONDA,65331,MKATAPORI,MAHUTA
LINDI,65,NACHINGWEA,653,MCHONDA,65331,MKATAPORI,TUKAE WOTE
LINDI,65,NACHINGWEA,653,MCHONDA,65331,MKATAPORI,MTABWANI
LINDI,65,NACHINGWEA,653,NGUNICHILE,65332,NGUNICHILE,LIPATO
LINDI,65,NACHINGWEA,653,NGUNICHILE,65332,NGUNICHILE,GULIONI
LINDI,65,NACHINGWEA,653,NGUNICHILE,65332,NGUNICHILE,MBARAGE
LINDI,65,NACHINGWEA,653,NGUNICHILE,65332,NGUNICHILE,MALULE
LINDI,65,NACHINGWEA,653,NGUNICHILE,65332,NGUNICHILE,SIBOTI
LINDI,65,NACHINGWEA,653,NGUNICHILE,65332,NGUNICHILE,NAMEI
LINDI,65,NACHINGWEA,653,NGUNICHILE,65332,LIPUYU,LIPUYU
LINDI,65,NACHINGWEA,653,NGUNICHILE,65332,LIPUYU,CHITONELE
LINDI,65,NACHINGWEA,653,NGUNICHILE,65332,LIPUYU,CHIKULUNGU
LINDI,65,NACHINGWEA,653,NGUNICHILE,65332,ILOLO,NAMUNDO
LINDI,65,NACHINGWEA,653,NGUNICHILE,65332,ILOLO,MNANGALA
LINDI,65,NACHINGWEA,653,NGUNICHILE,65332,ILOLO,CHIPOKA
LINDI,65,NACHINGWEA,653,RAHA LEO,65333,MAENDELEO,PACHANI
LINDI,65,NACHINGWEA,653,RAHA LEO,65333,MAENDELEO,MISUFINI
LINDI,65,NACHINGWEA,653,RAHA LEO,65333,MAENDELEO,MCHANGANI
LINDI,65,NACHINGWEA,653,RAHA LEO,65333,MAENDELEO,MTAKUJA
LINDI,65,NACHINGWEA,653,RAHA LEO,65333,MAENDELEO,KANISANI
LINDI,65,NACHINGWEA,653,RAHA LEO,65333,RAHA LEO,MIANZINI
LINDI,65,NACHINGWEA,653,RAHA LEO,65333,RAHA LEO,KIWANJANI
LINDI,65,NACHINGWEA,653,RAHA LEO,65333,RAHA LEO,UJAMAA
LINDI,65,NACHINGWEA,653,RAHA LEO,65333,RAHA LEO,SHULENI
LINDI,65,NACHINGWEA,653,RAHA LEO,65333,KILOMBERO,MWEMBECHAI
LINDI,65,NACHINGWEA,653,RAHA LEO,65333,KILOMBERO,AZIMIO
LINDI,65,NACHINGWEA,653,RAHA LEO,65333,KILOMBERO,BUTIAMA
LINDI,65,NACHINGWEA,653,RAHA LEO,65333,KILOMBERO,KAZA MOYO
LINDI,65,NACHINGWEA,653,RAHA LEO,65333,KILOMBERO,SOWETO
LINDI,65,NACHINGWEA,653,CHIUMBATI SHULENI,65334,CHIWINDI,BARABARANI
LINDI,65,NACHINGWEA,653,CHIUMBATI SHULENI,65335,CHIWINDI,NAMBUNGA
LINDI,65,NACHINGWEA,653,CHIUMBATI SHULENI,65336,CHIWINDI,UTULIVU
LINDI,65,NACHINGWEA,653,CHIUMBATI SHULENI,65337,CHIWINDI,KIWANJANI
LINDI,65,NACHINGWEA,653,CHIUMBATI SHULENI,65338,CHIWINDI,MTENGA
LINDI,65,NACHINGWEA,653,CHIUMBATI SHULENI,65339,CHIWINDI,BANDA LA NG'OMBE
LINDI,65,NACHINGWEA,653,CHIUMBATI SHULENI,65340,CHIUMBATI SHULENI,MCHANGANI
LINDI,65,NACHINGWEA,653,CHIUMBATI SHULENI,65341,CHIUMBATI SHULENI,GHALANI
LINDI,65,NACHINGWEA,653,CHIUMBATI SHULENI,65342,CHIUMBATI SHULENI,GENGENI
LINDI,65,NACHINGWEA,653,CHIUMBATI SHULENI,65343,CHIUMBATI SHULENI,SHULENI
LINDI,65,NACHINGWEA,653,CHIUMBATI SHULENI,65344,CHIUMBATI SHULENI,NGUVUMOJA
LINDI,65,NACHINGWEA,653,CHIUMBATI SHULENI,65345,CHIUMBATI SHULENI,MBUYUNI
LINDI,65,NACHINGWEA,653,CHIUMBATI SHULENI,65346,CHIUMBATI SHULENI,KIBAONI
LINDI,65,NACHINGWEA,653,CHIUMBATI SHULENI,65347,TANDIKA,TANDIKA
LINDI,65,NACHINGWEA,653,CHIUMBATI SHULENI,65348,TANDIKA,CHIWINDI
LINDI,65,NACHINGWEA,653,CHIUMBATI SHULENI,65349,TANDIKA,MASHINENI
LINDI,65,NACHINGWEA,653,CHIUMBATI SHULENI,65350,TANDIKA,MWONGOZO
LINDI,65,NACHINGWEA,653,CHIUMBATI SHULENI,65351,TANDIKA,USHIRIKA
LINDI,65,NACHINGWEA,653,CHIUMBATI SHULENI,65352,LUAGARA,MBUYUNI
LINDI,65,NACHINGWEA,653,CHIUMBATI SHULENI,65353,LUAGARA,MWEMBENINGOJE
LINDI,65,NACHINGWEA,653,CHIUMBATI SHULENI,65354,LUAGARA,MNAZI MMOJA
LINDI,65,NACHINGWEA,653,CHIUMBATI SHULENI,65355,LUAGARA,LUAGALA
LINDI,65,NACHINGWEA,653,CHIUMBATI SHULENI,65356,LUAGARA,MICHUNGWANI
LINDI,65,NACHINGWEA,653,CHIUMBATI SHULENI,65357,LUAGARA,MKALIWALA
LINDI,65,NACHINGWEA,653,BOMA,65335,LUAGARA,BOMA
LINDI,65,NACHINGWEA,653,BOMA,65335,LUAGARA,BOMAMNALANI
LINDI,65,NACHINGWEA,653,BOMA,65335,LUAGARA,POSTA MASHARIKI
LINDI,65,NACHINGWEA,653,BOMA,65335,LUAGARA,MASHUJAA
LINDI,65,NACHINGWEA,653,BOMA,65335,LUAGARA,POSTA UJENZI
LINDI,65,NACHINGWEA,653,UGAWAJI,65336,LUAGARA,POSTA DARAJANI
LINDI,65,NACHINGWEA,653,UGAWAJI,65336,LUAGARA,JIUNGE
LINDI,65,NACHINGWEA,653,UGAWAJI,65336,LUAGARA,UGAWAJI
LINDI,65,NACHINGWEA,653,UGAWAJI,65336,LUAGARA,MIANZANI
LINDI,65,NACHINGWEA,653,UGAWAJI,65336,LUAGARA,POSTA
LINDI,65,NACHINGWEA,653,UGAWAJI,65336,LUAGARA,NANGANGANO
LINDI,65,NACHINGWEA,653,UGAWAJI,65336,LUAGARA,HOSPITALI CAMP
LINDI,65,NACHINGWEA,653,UGAWAJI,65336,LUAGARA,MSHIKAMANO
LINDI,65,NACHINGWEA,653,UGAWAJI,65336,LUAGARA,POSTA PACHANI
LINDI,65,NACHINGWEA,653,UGAWAJI,65336,LUAGARA,MUUNGANO
LINDI,65,KILWA,654,KILWA MASOKO,65401,LUAGARA,MASOKO
LINDI,65,KILWA,654,KILWA MASOKO,65401,LUAGARA,MIEMBEMIWILI
LINDI,65,KILWA,654,KILWA MASOKO,65401,LUAGARA,MNAZIMMOJA
LINDI,65,KILWA,654,KILWA MASOKO,65401,LUAGARA,MCHOMORO
LINDI,65,KILWA,654,KILWA MASOKO,65401,LUAGARA,KISIWANI
LINDI,65,KILWA,654,KILWA MASOKO,65401,LUAGARA,MPARA
LINDI,65,KILWA,654,KILWA MASOKO,65401,LUAGARA,LUPEDILE
LINDI,65,KILWA,654,KILWA MASOKO,65401,LUAGARA,MKWANYULE
LINDI,65,KILWA,654,KILWA MASOKO,65401,LUAGARA,KISANGI
LINDI,65,KILWA,654,KIVINJE/SINGINO,65402,MAGENGENI,KISANGI
LINDI,65,KILWA,654,KIVINJE/SINGINO,65402,MIRAMBA A,KISANGI
LINDI,65,KILWA,654,KIVINJE/SINGINO,65402,KINYONGA,KISANGI
LINDI,65,KILWA,654,KIVINJE/SINGINO,65402,KISANGI SHAMBA,KISANGI
LINDI,65,KILWA,654,KIVINJE/SINGINO,65402,MAYUNGIYUNGI,KISANGI
LINDI,65,KILWA,654,KIVINJE/SINGINO,65402,MGONGENI,KISANGI
LINDI,65,KILWA,654,KIVINJE/SINGINO,65402,MARUMBA,KISANGI
LINDI,65,KILWA,654,KIVINJE/SINGINO,65402,MKANG'ANDA,KISANGI
LINDI,65,KILWA,654,KIVINJE/SINGINO,65402,MATANDU DARAJANI,KISANGI
LINDI,65,KILWA,654,KIVINJE/SINGINO,65402,MKENDA,KISANGI
LINDI,65,KILWA,654,KIVINJE/SINGINO,65402,NJENGA,KISANGI
LINDI,65,KILWA,654,KIVINJE/SINGINO,65402,NANGURUKURU,KISANGI
LINDI,65,KILWA,654,KIVINJE/SINGINO,65402,MPINGONI,KISANGI
LINDI,65,KILWA,654,KIVINJE/SINGINO,65402,LINGAULA,KISANGI
LINDI,65,KILWA,654,KIVINJE/SINGINO,65402,UKOTE,KISANGI
LINDI,65,KILWA,654,KIVINJE/SINGINO,65402,KISANGI MJINI,KISANGI
LINDI,65,KILWA,654,KIVINJE/SINGINO,65402,MAGOFUNI,KISANGI
LINDI,65,KILWA,654,KIVINJE/SINGINO,65402,BONDE,KISANGI
LINDI,65,KILWA,654,KIVINJE/SINGINO,65402,DODOMEZI,KISANGI
LINDI,65,KILWA,654,KIVINJE/SINGINO,65402,KILEMBE,KISANGI
LINDI,65,KILWA,654,KIVINJE/SINGINO,65402,MALUMBA,KISANGI
LINDI,65,KILWA,654,KIVINJE/SINGINO,65402,MTAMBUU,KISANGI
LINDI,65,KILWA,654,KIVINJE/SINGINO,65402,KITUMBINI,KISANGI
LINDI,65,KILWA,654,MITEJA,65403,MITEJA A,NGONG'ONDA
LINDI,65,KILWA,654,MITEJA,65403,MITEJA A,SINZA
LINDI,65,KILWA,654,MITEJA,65403,MITEJA A,MASANINGA
LINDI,65,KILWA,654,MITEJA,65403,MITEJA A,KIBAONI
LINDI,65,KILWA,654,MITEJA,65403,MITEJA A,KINDUMBA
LINDI,65,KILWA,654,MITEJA,65403,MITEJA A,PUYU
LINDI,65,KILWA,654,MITEJA,65403,MTONI,KIUNGANI
LINDI,65,KILWA,654,MITEJA,65403,MTONI,MFUMANG'OMBE
LINDI,65,KILWA,654,MITEJA,65403,MTONI,MTONI KIZIGO
LINDI,65,KILWA,654,MITEJA,65403,MTONI,KIKOTAMA
LINDI,65,KILWA,654,MITEJA,65403,MTONI,MAFUNGUNI
LINDI,65,KILWA,654,MITEJA,65403,TILAWANDU,MALIMBA
LINDI,65,KILWA,654,MITEJA,65403,TILAWANDU,NDALALA
LINDI,65,KILWA,654,MITEJA,65403,MTUKWAO,MAKASAMALA
LINDI,65,KILWA,654,MITEJA,65403,MTUKWAO,DUCH
LINDI,65,KILWA,654,MITEJA,65403,MTUKWAO,NGOMELA
LINDI,65,KILWA,654,MITEJA,65403,MTUKWAO,MITONDO
LINDI,65,KILWA,654,TINGI,65404,NJIANNE,MATAPATAPA
LINDI,65,KILWA,654,TINGI,65404,NJIANNE,SOMANGAMTAMA
LINDI,65,KILWA,654,TINGI,65404,NJIANNE,NJIANNE
LINDI,65,KILWA,654,TINGI,65404,TINGI,TINGI
LINDI,65,KILWA,654,TINGI,65404,TINGI,KILOPOLOPO
LINDI,65,KILWA,654,TINGI,65404,TINGI,NAMAYANI
LINDI,65,KILWA,654,TINGI,65404,MTANDANGO,MTANDANGO
LINDI,65,KILWA,654,TINGI,65404,MTANDANGO,MCHOTIKE
LINDI,65,KILWA,654,TINGI,65404,MTANDANGO,MSILIWALE
LINDI,65,KILWA,654,MINGUMBI,65405,MINGUMBI,KIKOLE
LINDI,65,KILWA,654,MINGUMBI,65405,MINGUMBI,MINGUMBI PLOT
LINDI,65,KILWA,654,MINGUMBI,65405,MINGUMBI,TUNDUNI
LINDI,65,KILWA,654,MINGUMBI,65405,MINGUMBI,KIBE
LINDI,65,KILWA,654,MINGUMBI,65405,MINGUMBI,NAMAKWALU
LINDI,65,KILWA,654,MINGUMBI,65405,NAMBONDO,NAMBONDO
LINDI,65,KILWA,654,MINGUMBI,65405,NAMBONDO,KIUMBENE
LINDI,65,KILWA,654,MINGUMBI,65405,NAMBONDO,LIHOMANGA
LINDI,65,KILWA,654,MINGUMBI,65405,CHAPITA,NAMTIPWA
LINDI,65,KILWA,654,MINGUMBI,65405,CHAPITA,ULENDENDA
LINDI,65,KILWA,654,MINGUMBI,65405,CHAPITA,NAMTULI
LINDI,65,KILWA,654,MINGUMBI,65405,CHAPITA,NAMWITA
LINDI,65,KILWA,654,MINGUMBI,65405,CHAPITA,NGEGA
LINDI,65,KILWA,654,MINGUMBI,65405,NANGAMBI,NAIPULI
LINDI,65,KILWA,654,MINGUMBI,65405,NANGAMBI,KITUMBI MKUNYA
LINDI,65,KILWA,654,MINGUMBI,65405,NANGAMBI,KILOPOLOPO
LINDI,65,KILWA,654,MINGUMBI,65405,NANGAMBI,NANGAMBI
LINDI,65,KILWA,654,MINGUMBI,65405,NAMPUNGA,KIWANGA
LINDI,65,KILWA,654,MINGUMBI,65405,NAMPUNGA,NAINGONTO JUU
LINDI,65,KILWA,654,MINGUMBI,65405,NAMPUNGA,MWEMBE NDUGUYE
LINDI,65,KILWA,654,MINGUMBI,65405,KILILIMA,KILILIMA
LINDI,65,KILWA,654,MINGUMBI,65405,KILILIMA,NAMTANDI
LINDI,65,KILWA,654,MINGUMBI,65405,KILILIMA,MWABALA
LINDI,65,KILWA,654,MINGUMBI,65405,KILILIMA,NAIGONO CHINI
LINDI,65,KILWA,654,CHUMO,65406,CHUMO,MBULYA
LINDI,65,KILWA,654,CHUMO,65406,CHUMO,MBUYUNI
LINDI,65,KILWA,654,CHUMO,65406,CHUMO,NDANDAMALA
LINDI,65,KILWA,654,CHUMO,65406,CHUMO,KIKOBO
LINDI,65,KILWA,654,CHUMO,65406,CHUMO,NANUNGU
LINDI,65,KILWA,654,CHUMO,65406,CHUMO,NANGONGWA
LINDI,65,KILWA,654,CHUMO,65406,CHUMO,CHUMO A
LINDI,65,KILWA,654,CHUMO,65406,CHUMO,CHUMO B
LINDI,65,KILWA,654,CHUMO,65406,CHUMO,NAMBUGURO
LINDI,65,KILWA,654,CHUMO,65406,CHUMO,NAMKAMBA
LINDI,65,KILWA,654,CHUMO,65406,CHUMO,MNUNG'UNDWA
LINDI,65,KILWA,654,CHUMO,65406,CHUMO,MKOPWA
LINDI,65,KILWA,654,CHUMO,65406,INGIRITO,MPAAMINO
LINDI,65,KILWA,654,CHUMO,65406,INGIRITO,MIKURUMU JUU
LINDI,65,KILWA,654,CHUMO,65406,INGIRITO,MIKURUMU CHINI
LINDI,65,KILWA,654,CHUMO,65406,INGIRITO,INGIRITO
LINDI,65,KILWA,654,CHUMO,65406,INGIRITO,NAMBAWALA
LINDI,65,KILWA,654,CHUMO,65406,KINYWANYU,BUGO
LINDI,65,KILWA,654,CHUMO,65406,KINYWANYU,IMBWANYUNI
LINDI,65,KILWA,654,CHUMO,65406,KINYWANYU,KINYWANYU BARABARANI
LINDI,65,KILWA,654,CHUMO,65406,KINYWANYU,MILAI
LINDI,65,KILWA,654,CHUMO,65406,HONGWE,MBUNGA
LINDI,65,KILWA,654,CHUMO,65406,HONGWE,NANDELA
LINDI,65,KILWA,654,CHUMO,65406,HONGWE,HONGWE
LINDI,65,KILWA,654,CHUMO,65406,HONGWE,MKONDACHEGA
LINDI,65,KILWA,654,KIKOLE,65407,KIKOLE,MBUNGA
LINDI,65,KILWA,654,KIKOLE,65407,KIKOLE,NANYATI
LINDI,65,KILWA,654,KIKOLE,65407,KIKOLE,KIKOLE MJINI
LINDI,65,KILWA,654,KIKOLE,65407,RUHATWE,MBUYU KIBABA
LINDI,65,KILWA,654,KIKOLE,65407,RUHATWE,KIMEREMETA
LINDI,65,KILWA,654,KIKOLE,65407,RUHATWE,RUHATWE KIJIJINI
LINDI,65,KILWA,654,KIKOLE,65407,KISANGI,MIKULYUNGU
LINDI,65,KILWA,654,KIKOLE,65407,KISANGI,KISANGI KIJIJINI
LINDI,65,KILWA,654,KIKOLE,65407,MIGEREGERE,KINDUMBA
LINDI,65,KILWA,654,KIKOLE,65407,MIGEREGERE,RUNGU
LINDI,65,KILWA,654,KIKOLE,65407,MIGEREGERE,MIGEREGERE KIJIJINI
LINDI,65,KILWA,654,MANDAWA,65408,MANDAWA,MTENDE
LINDI,65,KILWA,654,MANDAWA,65408,MANDAWA,MATYALILO
LINDI,65,KILWA,654,MANDAWA,65408,MANDAWA,MPUNYULE
LINDI,65,KILWA,654,MANDAWA,65408,MANDAWA,MAFURIKO
LINDI,65,KILWA,654,MANDAWA,65408,MANDAWA,MANDAWA
LINDI,65,KILWA,654,MANDAWA,65408,MANDAWA,LUWAWA
LINDI,65,KILWA,654,MANDAWA,65408,HOTELITATU,MANYULI
LINDI,65,KILWA,654,MANDAWA,65408,HOTELITATU,HOTELITATU
LINDI,65,KILWA,654,MANDAWA,65408,MCHAKAMA,MCHAKAMA
LINDI,65,KILWA,654,MANDAWA,65408,MCHAKAMA,MKUNDI
LINDI,65,KILWA,654,MANDAWA,65408,KIWAWA,KIWAWA
LINDI,65,KILWA,654,MANDAWA,65408,KIWAWA,MKUNDI
LINDI,65,KILWA,654,MANDAWA,65408,MAVUJI,MAVUJI
LINDI,65,KILWA,654,MANDAWA,65408,MAVUJI,MAPANGA
LINDI,65,KILWA,654,MANDAWA,65408,MKONDAJI,MKONDAJI
LINDI,65,KILWA,654,MANDAWA,65408,MKONDAJI,MTITI
LINDI,65,KILWA,654,PANDE / MIKOMA,65409,PANDE,MSITETEME
LINDI,65,KILWA,654,PANDE / MIKOMA,65409,PANDE,MBIRINGINDI
LINDI,65,KILWA,654,PANDE / MIKOMA,65409,PANDE,MIGOMBANI
LINDI,65,KILWA,654,PANDE / MIKOMA,65409,PANDE,NJENGA
LINDI,65,KILWA,654,PANDE / MIKOMA,65409,PANDE,KIHILWA
LINDI,65,KILWA,654,PANDE / MIKOMA,65409,PANDE,MPOTOLA
LINDI,65,KILWA,654,PANDE / MIKOMA,65409,MALALANI,SANJE YA KATI
LINDI,65,KILWA,654,PANDE / MIKOMA,65409,MALALANI,MTANDURA
LINDI,65,KILWA,654,PANDE / MIKOMA,65409,MALALANI,KITUMA
LINDI,65,KILWA,654,PANDE / MIKOMA,65409,MALALANI,NANG'OLEKOLE
LINDI,65,KILWA,654,PANDE / MIKOMA,65409,MTITIMIRA,MTANGASHARI
LINDI,65,KILWA,654,PANDE / MIKOMA,65409,MTITIMIRA,TANDANYATI
LINDI,65,KILWA,654,PANDE / MIKOMA,65409,SONGOMNARA,KIJOMA
LINDI,65,KILWA,654,PANDE / MIKOMA,65409,SONGOMNARA,MFUVU
LINDI,65,KILWA,654,PANDE / MIKOMA,65409,MIKOMA/NAKIMWERA,MVULENI
LINDI,65,KILWA,654,PANDE / MIKOMA,65409,MIKOMA/NAKIMWERA,KISAUNI
LINDI,65,KILWA,654,PANDE / MIKOMA,65409,MIKOMA/NAKIMWERA,JAMHURI
LINDI,65,KILWA,654,PANDE / MIKOMA,65409,MIKOMA/NAKIMWERA,MKOMA HIMBA
LINDI,65,KILWA,654,PANDE / MIKOMA,65409,MIKOMA/NAKIMWERA,MSUMBIJI
LINDI,65,KILWA,654,PANDE / MIKOMA,65409,NANG'OO KIWALA,MWINAMA
LINDI,65,KILWA,654,PANDE / MIKOMA,65409,NANG'OO KIWALA,MKAZAMBO
LINDI,65,KILWA,654,PANDE / MIKOMA,65409,NAMWEDO,NJENGA
LINDI,65,KILWA,654,PANDE / MIKOMA,65409,NAMWEDO,MAKOTE
LINDI,65,KILWA,654,PANDE / MIKOMA,65409,NAMWEDO,BARABARANI
LINDI,65,KILWA,654,PANDE / MIKOMA,65409,NAMWEDO,NAMWEDO GODAUNI
LINDI,65,KILWA,654,LIHIMALYAO,65410,LIHIMALYAO KASKAZINI,MWEMBEMTUNGI
LINDI,65,KILWA,654,LIHIMALYAO,65410,LIHIMALYAO KASKAZINI,LIHIMALYAO KIBAONI
LINDI,65,KILWA,654,LIHIMALYAO,65410,LIHIMALYAO KASKAZINI,SHULENI
LINDI,65,KILWA,654,LIHIMALYAO,65410,RUYAYA,MKALAMKAVU
LINDI,65,KILWA,654,LIHIMALYAO,65410,RUYAYA,RUYAYA
LINDI,65,KILWA,654,LIHIMALYAO,65410,LIHIMALYAO KUSINI,KITUMBINI
LINDI,65,KILWA,654,LIHIMALYAO,65410,LIHIMALYAO KUSINI,NAMALOMBE
LINDI,65,KILWA,654,LIHIMALYAO,65410,LIHIMALYAO KUSINI,MAPULULU
LINDI,65,KILWA,654,LIHIMALYAO,65410,LIHIMALYAO KUSINI,SOKONI
LINDI,65,KILWA,654,LIHIMALYAO,65410,RUSHUNGI,KILIMANI
LINDI,65,KILWA,654,LIHIMALYAO,65410,RUSHUNGI,MKWAJUNI
LINDI,65,KILWA,654,LIHIMALYAO,65410,RUSHUNGI,BOBALI
LINDI,65,KILWA,654,LIHIMALYAO,65410,KISONGO,MBUYUNI
LINDI,65,KILWA,654,LIHIMALYAO,65410,KISONGO,MVINJENI
LINDI,65,KILWA,654,LIHIMALYAO,65410,KISONGO,KATAPILA
LINDI,65,KILWA,654,LIHIMALYAO,65410,KISONGO,MWEMBE CHAKA
LINDI,65,KILWA,654,LIHIMALYAO,65410,KISONGO,MANGESANI A
LINDI,65,KILWA,654,LIHIMALYAO,65410,KISONGO,MANGESANI B
LINDI,65,KILWA,654,LIHIMALYAO,65410,NAMAKONGORO,RUANGO
LINDI,65,KILWA,654,LIHIMALYAO,65410,NAMAKONGORO,NAKAHATO
LINDI,65,KILWA,654,LIHIMALYAO,65410,NAMAKONGORO,NAMAKONGORO
LINDI,65,KILWA,654,KIRANJERANJE,65411,KIRANJERANJE,KIRANJERANJE A
LINDI,65,KILWA,654,KIRANJERANJE,65411,KIRANJERANJE,KIRANJERANJE B
LINDI,65,KILWA,654,KIRANJERANJE,65411,KIRANJERANJE,MTAPAYA
LINDI,65,KILWA,654,KIRANJERANJE,65411,MAKANGAGA,MPINDILO
LINDI,65,KILWA,654,KIRANJERANJE,65411,MAKANGAGA,MAGEUZI
LINDI,65,KILWA,654,KIRANJERANJE,65411,MAKANGAGA,KIKUNDI
LINDI,65,KILWA,654,KIRANJERANJE,65411,MAKANGAGA,MAKANGAGA
LINDI,65,KILWA,654,KIRANJERANJE,65411,MBWEMKURU,MBWEMKURU MAGHARIBI
LINDI,65,KILWA,654,KIRANJERANJE,65411,MBWEMKURU,MBWEMKURU KASKAZINI
LINDI,65,KILWA,654,KIRANJERANJE,65411,MBWEMKURU,KAFENI
LINDI,65,KILWA,654,KIRANJERANJE,65411,MTANDI,MTANDI MAGHARIBI
LINDI,65,KILWA,654,KIRANJERANJE,65411,MTANDI,MTANDI KIJIJINI
LINDI,65,KILWA,654,KIRANJERANJE,65411,MIRUMBA,MIRUMBA
LINDI,65,KILWA,654,KIRANJERANJE,65411,KISWERE,MABANDA
LINDI,65,KILWA,654,KIRANJERANJE,65411,KISWERE,KISWERE MJINI
LINDI,65,KILWA,654,NANJIRINJI,65412,NANJIRINJI A,KITOCHI
LINDI,65,KILWA,654,NANJIRINJI,65412,NANJIRINJI A,NANJIRINJI A
LINDI,65,KILWA,654,NANJIRINJI,65412,NANJIRINJI A,NAUNGO
LINDI,65,KILWA,654,NANJIRINJI,65412,NANJIRINJI B,NANJIRINJI B
LINDI,65,KILWA,654,NANJIRINJI,65412,NANJIRINJI B,MNARANI
LINDI,65,KILWA,654,NANJIRINJI,65412,NANJIRINJI B,NAMICHECHE
LINDI,65,KILWA,654,NANJIRINJI,65412,NANJIRINJI B,LIKUMLA
LINDI,65,KILWA,654,NANJIRINJI,65412,NANJIRINJI B,MKOWELE
LINDI,65,KILWA,654,NANJIRINJI,65412,NAKIU,NGAYAMBA
LINDI,65,KILWA,654,NANJIRINJI,65412,NAKIU,KIGOMBO
LINDI,65,KILWA,654,NANJIRINJI,65412,NAKIU,NAKIU A
LINDI,65,KILWA,654,NANJIRINJI,65412,NAKIU,NAKIU B
LINDI,65,KILWA,654,LIKAWAGE,65413,LIKAWAGE,LIKAWAGE
LINDI,65,KILWA,654,LIKAWAGE,65413,LIKAWAGE,GOGOZEMBE
LINDI,65,KILWA,654,LIKAWAGE,65413,LIKAWAGE,KINAKI
LINDI,65,KILWA,654,LIKAWAGE,65413,LIKAWAGE,NANJUMBA
LINDI,65,KILWA,654,LIKAWAGE,65413,NAINOKWE,NAINOKWE
LINDI,65,KILWA,654,LIKAWAGE,65413,NAINOKWE,KICHONDA
LINDI,65,KILWA,654,LIKAWAGE,65413,LIWITI,LIWITI
LINDI,65,KILWA,654,MITOLE,65414,MITOLE,SONGOSONGO
LINDI,65,KILWA,654,MITOLE,65414,MITOLE,MIKOMA
LINDI,65,KILWA,654,MITOLE,65414,MITOLE,KITUNDA
LINDI,65,KILWA,654,MITOLE,65414,MITOLE,NDENDE
LINDI,65,KILWA,654,MITOLE,65414,MITOLE,NDANJE
LINDI,65,KILWA,654,MITOLE,65414,MITOLE,SENGERA
LINDI,65,KILWA,654,MITOLE,65414,NGEA,NGEA
LINDI,65,KILWA,654,NJINJO,65415,NJINJO,NGONGOWELE
LINDI,65,KILWA,654,NJINJO,65415,NJINJO,MBWITA
LINDI,65,KILWA,654,NJINJO,65415,NJINJO,MCHEMERA A
LINDI,65,KILWA,654,NJINJO,65415,NJINJO,MCHEMERA B
LINDI,65,KILWA,654,NJINJO,65415,KISIMAMKIKA,MSITU WA SIMBA A
LINDI,65,KILWA,654,NJINJO,65415,KISIMAMKIKA,MSITU WA SIMBA B
LINDI,65,KILWA,654,NJINJO,65415,KIPINDIMBI,KIPINDIMBI A
LINDI,65,KILWA,654,NJINJO,65415,KIPINDIMBI,KIPINDIMBI B
LINDI,65,KILWA,654,NJINJO,65415,KIPINDIMBI,KIPINDIMBI C
LINDI,65,KILWA,654,MIGURUWE,65416,MIGURUWE,MIGURUWE
LINDI,65,KILWA,654,MIGURUWE,65416,MIGURUWE,KINYATI
LINDI,65,KILWA,654,MIGURUWE,65416,ZINGA KIBAONI,KITUMBI
LINDI,65,KILWA,654,MIGURUWE,65416,ZINGA KIBAONI,MNUMBILA
LINDI,65,KILWA,654,MIGURUWE,65416,ZINGA KIBAONI,KINOLE
LINDI,65,KILWA,654,MIGURUWE,65416,ZINGA KIBAONI,ZINGA KIBAONI
LINDI,65,KILWA,654,MIGURUWE,65416,NAKINGOMBE,NAKINGOMBE SHULE
LINDI,65,KILWA,654,MIGURUWE,65416,MTEPERA,MTEPERA
LINDI,65,KILWA,654,KANDAWALE,65417,KANDAWALE,KANDAWALE A
LINDI,65,KILWA,654,KANDAWALE,65417,KANDAWALE,KANDAWALE B
LINDI,65,KILWA,654,KANDAWALE,65417,KANDAWALE,TIPO KATI
LINDI,65,KILWA,654,KANDAWALE,65417,KANDAWALE,TIPO MKONGO
LINDI,65,KILWA,654,KANDAWALE,65417,KANDAWALE,KIPURUPURU
LINDI,65,KILWA,654,KANDAWALE,65417,NGARAMBI,KINJIKITILE
LINDI,65,KILWA,654,KANDAWALE,65417,NGARAMBI,NAMTOLE
LINDI,65,KILWA,654,KANDAWALE,65417,NAMATEWA,NANDEMBO
LINDI,65,KILWA,654,KANDAWALE,65417,NAMATEWA,MPURU
LINDI,65,KILWA,654,KANDAWALE,65417,NAMATEWA,NAMATEWA
LINDI,65,KILWA,654,KANDAWALE,65417,MTUMBEI MPOPERA,MTUMBEI KATI
LINDI,65,KILWA,654,KANDAWALE,65417,MTUMBEI MPOPERA,KINJUMBI
LINDI,65,KILWA,654,KANDAWALE,65417,MTUMBEI MPOPERA,NANGOROMBE KIPILIPILI
LINDI,65,KILWA,654,KANDAWALE,65417,MTUMBEI MPOPERA,KINDUMBA
LINDI,65,KILWA,654,KANDAWALE,65417,MTUMBEI MPOPERA,MCHOMBORORO
LINDI,65,KILWA,654,KIPATIMU,65418,KIPATIMU,MPEI
LINDI,65,KILWA,654,KIPATIMU,65418,KIPATIMU,NALYALYA
LINDI,65,KILWA,654,KIPATIMU,65418,KIPATIMU,KIPATIMU BOMANI
LINDI,65,KILWA,654,KIPATIMU,65418,KIPATIMU,NAUGOBE
LINDI,65,KILWA,654,KIPATIMU,65418,KIPATIMU,KAPUMBI
LINDI,65,KILWA,654,KIPATIMU,65418,KIPATIMU,MMABA
LINDI,65,KILWA,654,KIPATIMU,65418,KIPATIMU,NGWIKA
LINDI,65,KILWA,654,KIPATIMU,65418,KIPATIMU,NAKILU
LINDI,65,KILWA,654,KIPATIMU,65418,MTONDO KIMWAGA,MTUMBEI KITAMBI
LINDI,65,KILWA,654,KIPATIMU,65418,MTONDO KIMWAGA,PONDO
LINDI,65,KILWA,654,KIPATIMU,65418,MTONDO KIMWAGA,MTONDO KIMWAGA
LINDI,65,KILWA,654,KIPATIMU,65418,MTONDO KIMWAGA,KIBAMBO
LINDI,65,KILWA,654,KIPATIMU,65418,MTONDO KIMWAGA,KOMANGUI
LINDI,65,KILWA,654,KIPATIMU,65418,MTONDO KIMWAGA,NASAYA BOMANI
LINDI,65,KILWA,654,KIPATIMU,65418,MTONDO KIMWAGA,NALUNG'OMBE
LINDI,65,KILWA,654,KIPATIMU,65418,MTONDO KIMWAGA,KIPOI
LINDI,65,KILWA,654,KIPATIMU,65418,NANDEMBO,NANDEMBO
LINDI,65,KILWA,654,KIPATIMU,65418,NANDEMBO,NAMWINYU
LINDI,65,KILWA,654,KIPATIMU,65418,NANDEMBO,NANGORO
LINDI,65,KILWA,654,KIPATIMU,65418,NANDEMBO,KIWAGA
LINDI,65,KILWA,654,KIPATIMU,65418,DARAJANI,DARAJANI
LINDI,65,KILWA,654,KIPATIMU,65418,DARAJANI,MABIGA
LINDI,65,KILWA,654,KIPATIMU,65418,DARAJANI,MATANGA
LINDI,65,KILWA,654,KIPATIMU,65418,DARAJANI,NAMKUYU
LINDI,65,KILWA,654,KIPATIMU,65418,MKARANGO,MBUTULAI
LINDI,65,KILWA,654,KIPATIMU,65418,MKARANGO,MIKARAMBYA
LINDI,65,KILWA,654,KIPATIMU,65418,MKARANGO,NAMBUNJU
LINDI,65,KILWA,654,KIPATIMU,65418,MKARANGO,MKARANGO BOMANI
LINDI,65,KILWA,654,KIPATIMU,65418,MKARANGO,SONGEA
LINDI,65,KILWA,654,KIPATIMU,65418,NANDETE,KIYABI
LINDI,65,KILWA,654,KIPATIMU,65418,NANDETE,MTANGA
LINDI,65,KILWA,654,KIPATIMU,65418,NANDETE,NANDETE
LINDI,65,KILWA,654,KIPATIMU,65418,NANDETE,NGINGAMA
LINDI,65,KILWA,654,KINJUMBI,65419,KINJUMBI KIHEMA,KINJUMBI A
LINDI,65,KILWA,654,KINJUMBI,65419,KINJUMBI KIHEMA,KINJUMBI B
LINDI,65,KILWA,654,KINJUMBI,65419,KINJUMBI KIHEMA,RUTAMBI
LINDI,65,KILWA,654,KINJUMBI,65419,KINJUMBI KIHEMA,MBONGOLA
LINDI,65,KILWA,654,KINJUMBI,65419,KINJUMBI KIHEMA,KITOPE
LINDI,65,KILWA,654,KINJUMBI,65419,MIUMBU,NGWANGA
LINDI,65,KILWA,654,KINJUMBI,65419,MIUMBU,MIUMBU
LINDI,65,KILWA,654,KINJUMBI,65419,MIUMBU,KIANIKA
LINDI,65,KILWA,654,KINJUMBI,65419,MIUMBU,MTUKULA
LINDI,65,KILWA,654,KINJUMBI,65419,PUNGUTINI,PUNGUTINI
LINDI,65,KILWA,654,KINJUMBI,65419,PUNGUTINI,NALULO
LINDI,65,KILWA,654,KINJUMBI,65419,PUNGUTINI,PUYU
LINDI,65,KILWA,654,KINJUMBI,65419,PUNGUTINI,NAMBACHO
LINDI,65,KILWA,654,KINJUMBI,65419,MTYALAMBUKO,TANGAWA
LINDI,65,KILWA,654,KINJUMBI,65419,MTYALAMBUKO,NGWANGA
LINDI,65,KILWA,654,KINJUMBI,65419,MTYALAMBUKO,MTYALAMBUKO
LINDI,65,KILWA,654,KINJUMBI,65419,MTYALAMBUKO,NAMANJUNGULI
LINDI,65,KILWA,654,SONGOSONGO,65420,SONGOSONGO,PEMBENI
LINDI,65,KILWA,654,SONGOSONGO,65420,SONGOSONGO,MAKONDENI
LINDI,65,KILWA,654,SONGOSONGO,65420,SONGOSONGO,MSITUMANI
LINDI,65,KILWA,654,SONGOSONGO,65420,SONGOSONGO,FUNGUNI
LINDI,65,KILWA,654,KIBATA,65421,KIBATA,KIBATA
LINDI,65,KILWA,654,KIBATA,65421,KIBATA,NANUNGU
LINDI,65,KILWA,654,KIBATA,65421,KIBATA,MKUNDI
LINDI,65,KILWA,654,KIBATA,65421,KIBATA,NANYEKI
LINDI,65,KILWA,654,KIBATA,65421,MWENGEI,MWENGEI
LINDI,65,KILWA,654,KIBATA,65421,MWENGEI,MWANGI
LINDI,65,KILWA,654,KIBATA,65421,MWENGEI,MPATAWA
LINDI,65,KILWA,654,KIBATA,65421,MWENGEI,MCHUNGULU
LINDI,65,KILWA,654,KIBATA,65421,HANGA,NANDALAWE
LINDI,65,KILWA,654,KIBATA,65421,HANGA,MKUMULA
LINDI,65,KILWA,654,KIBATA,65421,HANGA,NAMAKONGA
LINDI,65,KILWA,654,KIBATA,65421,HANGA,NAKINDU A
LINDI,65,KILWA,654,KIBATA,65421,HANGA,NAKINDU B
LINDI,65,KILWA,654,KIBATA,65421,MTENDE,NANGANO
LINDI,65,KILWA,654,KIBATA,65421,MTENDE,MTENDE SHULENI
LINDI,65,KILWA,654,KIBATA,65421,MTENDE,MBELENJE
LINDI,65,KILWA,654,NAMAYUNI,65422,NAMAYUNI,MKWAJUNI
LINDI,65,KILWA,654,NAMAYUNI,65422,NAMAYUNI,NAKITONGA
LINDI,65,KILWA,654,NAMAYUNI,65422,NAMAYUNI,NAMAYUNI
LINDI,65,KILWA,654,NAMAYUNI,65422,LYOMANGA,KIPAWA
LINDI,65,KILWA,654,NAMAYUNI,65422,LYOMANGA,LYOMANGA
LINDI,65,KILWA,654,NAMAYUNI,65422,NAMAKOLO,NAMAKOLO
LINDI,65,KILWA,654,NAMAYUNI,65422,NAMAKOLO,NANGUNEMBELE
LINDI,65,KILWA,654,NAMAYUNI,65422,NAMAKOLO,KIBISA
LINDI,65,KILWA,654,NAMAYUNI,65422,NAMAKOLO,MANGARA
LINDI,65,KILWA,654,NAMAYUNI,65422,NGORONGORO,NGORONGORO
LINDI,65,KILWA,654,NAMAYUNI,65422,NGORONGORO,MIPOTO
LINDI,65,KILWA,654,NAMAYUNI,65422,NGORONGORO,MAKALE
LINDI,65,KILWA,654,NAMAYUNI,65422,NAHAMA,NAHAMA
LINDI,65,KILWA,654,NAMAYUNI,65422,NAHAMA,NYANYARA
LINDI,65,KILWA,654,NAMAYUNI,65422,NAHAMA,NANGURUKURU
LINDI,65,KILWA,654,NAMAYUNI,65422,NAHAMA,KIWANGA
LINDI,65,KILWA,654,SOMANGA,65423,SOMANGA KASKAZINI,SOMANGA NDUMBO
LINDI,65,KILWA,654,SOMANGA,65423,SOMANGA KASKAZINI,LITUNDU
LINDI,65,KILWA,654,SOMANGA,65423,SOMANGA KUSINI,CHEKETU
LINDI,65,KILWA,654,SOMANGA,65423,SOMANGA KUSINI,MWEMBE TONDO
LINDI,65,KILWA,654,SOMANGA,65423,SOMANGA KUSINI,KUBWI
LINDI,65,KILWA,654,SOMANGA,65423,NAMATUNGUTUNGU,MAZENSE
LINDI,65,KILWA,654,SOMANGA,65423,NAMATUNGUTUNGU,KIHOMA
LINDI,65,KILWA,654,SOMANGA,65423,MARENDEGO,MSIKITINI
LINDI,65,KILWA,654,SOMANGA,65423,MARENDEGO,NYAHATO
LINDI,65,KILWA,654,SOMANGA,65423,SOMANGA SIMU,NGOROMA
LINDI,65,KILWA,654,SOMANGA,65423,SOMANGA SIMU,SIMU
LINDI,65,KILWA,654,SOMANGA,65423,SOMANGA SIMU,MITONDO
LINDI,65,LIWALE,655,LIWALE MJINI,65501,MAKONJIGANGA,LIPUPU
LINDI,65,LIWALE,655,LIWALE MJINI,65501,MAKONJIGANGA,KUBEGELA
LINDI,65,LIWALE,655,LIWALE MJINI,65501,MAKONJIGANGA,MAKUMBUSHO
LINDI,65,LIWALE,655,LIWALE MJINI,65501,MAKONJIGANGA,NENDAKASEME
LINDI,65,LIWALE,655,LIWALE MJINI,65501,MAKONJIGANGA,MIDULENI
LINDI,65,LIWALE,655,LIWALE MJINI,65501,KILIPWIKE,TENGENEZA
LINDI,65,LIWALE,655,LIWALE MJINI,65501,KILIPWIKE,KILIGA
LINDI,65,LIWALE,655,LIWALE MJINI,65501,KILIPWIKE,MPATALENGE
LINDI,65,LIWALE,655,LIWALE MJINI,65501,KILIPWIKE,NDOROBO
LINDI,65,LIWALE,655,LIWALE MJINI,65501,KILIPWIKE,UKATA
LINDI,65,LIWALE,655,LIWALE MJINI,65501,NALULEO,LIBUMBU
LINDI,65,LIWALE,655,LIWALE MJINI,65501,NALULEO,KIKUTI
LINDI,65,LIWALE,655,LIWALE MJINI,65501,NALULEO,MPINGO
LINDI,65,LIWALE,655,LIWALE MJINI,65501,NALULEO,NAIHURU
LINDI,65,LIWALE,655,LIWALE MJINI,65501,NALULEO,ZEBWE
LINDI,65,LIWALE,655,LIWALE MJINI,65501,MUNGURUMO,MIKUKUYUMBU
LINDI,65,LIWALE,655,LIWALE MJINI,65501,MUNGURUMO,MAJINGILILO
LINDI,65,LIWALE,655,LIWALE MJINI,65501,MUNGURUMO,KOLELA
LINDI,65,LIWALE,655,LIWALE MJINI,65501,MUNGURUMO,MSUFINI
LINDI,65,LIWALE,655,LIWALE MJINI,65501,MUNGURUMO,IDARA YA MAJI
LINDI,65,LIWALE,655,LIWALE MJINI,65501,MPIRANI,MNYUKUTA
LINDI,65,LIWALE,655,LIWALE MJINI,65501,MPIRANI,CHANDE
LINDI,65,LIWALE,655,LIWALE MJINI,65501,MPIRANI,MACHELA
LINDI,65,LIWALE,655,LIWALE MJINI,65501,MPIRANI,MBINGA
LINDI,65,LIWALE,655,LIWALE MJINI,65501,MPIRANI,LIKWAWATU
LINDI,65,LIWALE,655,LIWALE MJINI,65501,TEPETEPE,MNOCHE
LINDI,65,LIWALE,655,LIWALE MJINI,65501,TEPETEPE,LIBOJA
LINDI,65,LIWALE,655,LIWALE MJINI,65501,TEPETEPE,MBOWA
LINDI,65,LIWALE,655,LIWALE MJINI,65501,TEPETEPE,MCHITE
LINDI,65,LIWALE,655,LIWALE B,65502,LIWALE 'B',MIKOROSHONI
LINDI,65,LIWALE,655,LIWALE B,65502,LIWALE 'B',MKWAJUNI
LINDI,65,LIWALE,655,LIWALE B,65502,LIWALE 'B',UMOJA
LINDI,65,LIWALE,655,LIWALE B,65502,LIWALE 'B',RAHALEO
LINDI,65,LIWALE,655,LIWALE B,65502,LIWALE 'B',NAGAGA
LINDI,65,LIWALE,655,LIWALE B,65502,NANJEGEJA,NANJEGEJA
LINDI,65,LIWALE,655,LIWALE B,65502,NANJEGEJA,NAIPAKO
LINDI,65,LIWALE,655,LIWALE B,65502,NANJEGEJA,NACHIKUKWE
LINDI,65,LIWALE,655,LIWALE B,65502,NANJEGEJA,NAAGANAAGA
LINDI,65,LIWALE,655,LIWALE B,65502,NANJEGEJA,MCHIMBILA
LINDI,65,LIWALE,655,LIWALE B,65502,MAHONGA,MAHONGA
LINDI,65,LIWALE,655,LIWALE B,65502,MAHONGA,KITANDANGOMBA
LINDI,65,LIWALE,655,LIWALE B,65502,MAHONGA,KITACHI
LINDI,65,LIWALE,655,LIWALE B,65502,MAHONGA,KIONGA
LINDI,65,LIWALE,655,LIWALE B,65502,MAHONGA,NAKIBURA
LINDI,65,LIWALE,655,LIWALE B,65502,MIKUNYA,MATANGINI
LINDI,65,LIWALE,655,LIWALE B,65502,MIKUNYA,NAMALINGO
LINDI,65,LIWALE,655,LIWALE B,65502,MIKUNYA,SONGAMBELE
LINDI,65,LIWALE,655,LIWALE B,65502,MIKUNYA,NACHIUNGO
LINDI,65,LIWALE,655,LIWALE B,65502,MIKUNYA,SEKONDARI
LINDI,65,LIWALE,655,LIWALE B,65502,TUUNGANE,UNGONGOLO
LINDI,65,LIWALE,655,LIWALE B,65502,TUUNGANE,NNYANDA
LINDI,65,LIWALE,655,LIWALE B,65502,TUUNGANE,GULIONI
LINDI,65,LIWALE,655,LIWALE B,65502,TUUNGANE,NAMATIMBWA
LINDI,65,LIWALE,655,LIWALE B,65502,TUUNGANE,ITETE
LINDI,65,LIWALE,655,LIWALE B,65502,LEGEZAMWENDO,MAJIMAJI
LINDI,65,LIWALE,655,LIWALE B,65502,LEGEZAMWENDO,MANYAKULA
LINDI,65,LIWALE,655,LIWALE B,65502,LEGEZAMWENDO,MIFUGO
LINDI,65,LIWALE,655,LIWALE B,65502,LEGEZAMWENDO,KINGAKACHU
LINDI,65,LIWALE,655,LIWALE B,65502,LEGEZAMWENDO,NAKAJENJA
LINDI,65,LIWALE,655,MBAYA,65503,MBAYA,MAPAMBANO
LINDI,65,LIWALE,655,MBAYA,65503,MBAYA,JAMHURI
LINDI,65,LIWALE,655,MBAYA,65503,MBAYA,NDUNGUTU
LINDI,65,LIWALE,655,MBAYA,65503,MBAYA,AMANI
LINDI,65,LIWALE,655,MBAYA,65503,MBAYA,WAZO
LINDI,65,LIWALE,655,MBAYA,65503,NAMTUMBWA,UMOJA
LINDI,65,LIWALE,655,MBAYA,65503,NAMTUMBWA,MAGEUZI
LINDI,65,LIWALE,655,MBAYA,65503,NAMTUMBWA,KIUMBENI
LINDI,65,LIWALE,655,MBAYA,65503,NAMTUMBWA,MAENDELEO
LINDI,65,LIWALE,655,MBAYA,65503,NAMTUMBWA,MUUNGANO
LINDI,65,LIWALE,655,MBAYA,65503,NDURUKA,MAPAMBANO
LINDI,65,LIWALE,655,MBAYA,65503,NDURUKA,MAPINDUZI
LINDI,65,LIWALE,655,MBAYA,65503,NDURUKA,CHAPAKAZI
LINDI,65,LIWALE,655,MBAYA,65503,NDURUKA,JARIBIO
LINDI,65,LIWALE,655,MBAYA,65503,NAMIHU,VINGUNGUTI
LINDI,65,LIWALE,655,MBAYA,65503,NAMIHU,SONGAMBELE
LINDI,65,LIWALE,655,MBAYA,65503,NAMIHU,MAGEUZI
LINDI,65,LIWALE,655,MBAYA,65503,NAMIHU,MAENDELEO
LINDI,65,LIWALE,655,MBAYA,65503,NAMIHU,NABUYA
LINDI,65,LIWALE,655,MBAYA,65503,MTAWANGO,MAGEUZI
LINDI,65,LIWALE,655,MBAYA,65503,MTAWANGO,MUUNGANO
LINDI,65,LIWALE,655,MBAYA,65503,MTAWANGO,MAENDELEO
LINDI,65,LIWALE,655,MBAYA,65503,MTAWANGO,KINJACHA
LINDI,65,LIWALE,655,MIRUI,65504,MIRUI,MAHONDA
LINDI,65,LIWALE,655,MIRUI,65504,MIRUI,RUHUMA
LINDI,65,LIWALE,655,MIRUI,65504,MIRUI,CHEUPE
LINDI,65,LIWALE,655,MIRUI,65504,MIRUI,KIBAMBO
LINDI,65,LIWALE,655,MIRUI,65504,MIRUI,NANGOLOKOLO
LINDI,65,LIWALE,655,MIRUI,65504,LINENG'ENE,LINENG'ENE
LINDI,65,LIWALE,655,MIRUI,65504,LINENG'ENE,RUBUNGO
LINDI,65,LIWALE,655,MIRUI,65504,LINENG'ENE,NAMACHELA
LINDI,65,LIWALE,655,MIRUI,65504,LINENG'ENE,NAMAHURU
LINDI,65,LIWALE,655,MIRUI,65504,LINENG'ENE,MBINGA
LINDI,65,LIWALE,655,MIRUI,65504,NAUJOMBO,MKOROSHONI
LINDI,65,LIWALE,655,MIRUI,65504,NAUJOMBO,MKWAJUNI
LINDI,65,LIWALE,655,MIRUI,65504,NAUJOMBO,MBUYUNI
LINDI,65,LIWALE,655,MIRUI,65504,NAUJOMBO,LUBUNGO
LINDI,65,LIWALE,655,MIRUI,65504,KIPELELE,MITENDE
LINDI,65,LIWALE,655,MIRUI,65504,KIPELELE,NAMAJANI
LINDI,65,LIWALE,655,MIRUI,65504,KIPELELE,NGUMBU
LINDI,65,LIWALE,655,MIRUI,65504,KIPELELE,MAGHALANI
LINDI,65,LIWALE,655,MIRUI,65504,KIPELELE,SITE
LINDI,65,LIWALE,655,KIANGARA,65505,KIANGARA,MAGOBORO
LINDI,65,LIWALE,655,KIANGARA,65505,KIANGARA,NAUNDUMBI
LINDI,65,LIWALE,655,KIANGARA,65505,KIANGARA,KITENGENYA
LINDI,65,LIWALE,655,KIANGARA,65505,KIANGARA,MTAMBA
LINDI,65,LIWALE,655,KIANGARA,65505,KIANGARA,MALUA
LINDI,65,LIWALE,655,KIANGARA,65505,LITOU,NAWIGO
LINDI,65,LIWALE,655,KIANGARA,65505,LITOU,NANDANA
LINDI,65,LIWALE,655,KIANGARA,65505,LITOU,MITALULA
LINDI,65,LIWALE,655,KIANGARA,65505,LITOU,LIKOMELO
LINDI,65,LIWALE,655,KIANGARA,65505,LITOU,LUAJI
LINDI,65,LIWALE,655,KIANGARA,65505,KITOGORO,NAMITELE
LINDI,65,LIWALE,655,KIANGARA,65505,KITOGORO,KINGUNDILE
LINDI,65,LIWALE,655,KIANGARA,65505,KITOGORO,NAWAGI
LINDI,65,LIWALE,655,KIANGARA,65505,KITOGORO,MTAMBA
LINDI,65,LIWALE,655,KIANGARA,65505,KITOGORO,MTENDAKI
LINDI,65,LIWALE,655,KIANGARA,65505,MTAWATAWA,KIPULE
LINDI,65,LIWALE,655,KIANGARA,65505,MTAWATAWA,MAGEUZI
LINDI,65,LIWALE,655,KIANGARA,65505,MTAWATAWA,RAHALEO
LINDI,65,LIWALE,655,KIANGARA,65505,MTAWATAWA,MKONGOTEKA
LINDI,65,LIWALE,655,KIANGARA,65505,MTAWATAWA,NANYUMBU
LINDI,65,LIWALE,655,MANGIRIKITI,65506,MANGIRIKITI,MPALANIKI
LINDI,65,LIWALE,655,MANGIRIKITI,65506,MANGIRIKITI,NGALELAMWANA
LINDI,65,LIWALE,655,MANGIRIKITI,65506,MANGIRIKITI,MINAZINI
LINDI,65,LIWALE,655,MANGIRIKITI,65506,MANGIRIKITI,HOFUMANI
LINDI,65,LIWALE,655,MANGIRIKITI,65506,MANGIRIKITI,TUUNGANE
LINDI,65,LIWALE,655,MANGIRIKITI,65506,KIMBEMBA,MAPOKEZI
LINDI,65,LIWALE,655,MANGIRIKITI,65506,KIMBEMBA,MKWANDA
LINDI,65,LIWALE,655,MANGIRIKITI,65506,KIMBEMBA,UHURU
LINDI,65,LIWALE,655,MANGIRIKITI,65506,KIMBEMBA,IKONGINE
LINDI,65,LIWALE,655,MANGIRIKITI,65506,KIMBEMBA,ITANDA
LINDI,65,LIWALE,655,MANGIRIKITI,65506,NGORONGOPA,DARAJANI
LINDI,65,LIWALE,655,MANGIRIKITI,65506,NGORONGOPA,KINANG'ANANG'A
LINDI,65,LIWALE,655,MANGIRIKITI,65506,NGORONGOPA,KUMBILA
LINDI,65,LIWALE,655,MANGIRIKITI,65506,NGORONGOPA,LUPEMBECHO
LINDI,65,LIWALE,655,MANGIRIKITI,65506,NGORONGOPA,NANGOCHO
LINDI,65,LIWALE,655,MANGIRIKITI,65506,KIPULE,ZAHANATI
LINDI,65,LIWALE,655,MANGIRIKITI,65506,KIPULE,JIUNGENI
LINDI,65,LIWALE,655,MANGIRIKITI,65506,KIPULE,SHULENI
LINDI,65,LIWALE,655,MANGIRIKITI,65506,KIPULE,SIMBAJUMA
LINDI,65,LIWALE,655,MANGIRIKITI,65506,KIPULE,MTONI
LINDI,65,LIWALE,655,MANGIRIKITI,65506,MKONGONAGE,SEKONDARI
LINDI,65,LIWALE,655,MANGIRIKITI,65506,MKONGONAGE,MSIKITINI
LINDI,65,LIWALE,655,MANGIRIKITI,65506,MKONGONAGE,MZAMBARAUNI
LINDI,65,LIWALE,655,MANGIRIKITI,65506,MKONGONAGE,JIRANI
LINDI,65,LIWALE,655,MANGIRIKITI,65506,MKONGONAGE,LIKOA
LINDI,65,LIWALE,655,MANGIRIKITI,65506,MAKINDA,MNUNJI
LINDI,65,LIWALE,655,MANGIRIKITI,65506,MAKINDA,NACHIA
LINDI,65,LIWALE,655,MANGIRIKITI,65506,MAKINDA,MCHENGA
LINDI,65,LIWALE,655,MANGIRIKITI,65506,MAKINDA,KITANDANOMBE
LINDI,65,LIWALE,655,NANGANO,65507,NANGANO,SHULENI
LINDI,65,LIWALE,655,NANGANO,65507,NANGANO,NAMATULA
LINDI,65,LIWALE,655,NANGANO,65507,NANGANO,MBWEMKURU
LINDI,65,LIWALE,655,NANGANO,65507,NANGANO,NACHIUNGO
LINDI,65,LIWALE,655,NANGANO,65507,NANGANO,MATALAWE
LINDI,65,LIWALE,655,NANGANO,65507,NAHORO,MBUYUNI
LINDI,65,LIWALE,655,NANGANO,65507,NAHORO,MAJIMAJI
LINDI,65,LIWALE,655,NANGANO,65507,NAHORO,MIKUYU
LINDI,65,LIWALE,655,NANGANO,65507,NAHORO,KIVUKONI
LINDI,65,LIWALE,655,NANGANO,65507,MTUNGUNYU,KAMANYOLA
LINDI,65,LIWALE,655,NANGANO,65507,MTUNGUNYU,MISUFINI
LINDI,65,LIWALE,655,NANGANO,65507,MTUNGUNYU,MKUKWE
LINDI,65,LIWALE,655,NANGANO,65507,MTUNGUNYU,NGALIMA
LINDI,65,LIWALE,655,NGONGOWELE,65508,NGONGOWELE,NGONGOWELE
LINDI,65,LIWALE,655,NGONGOWELE,65508,NGONGOWELE,MKUNDI
LINDI,65,LIWALE,655,NGONGOWELE,65508,NGONGOWELE,LIGOOLE
LINDI,65,LIWALE,655,NGONGOWELE,65508,NGONGOWELE,ANGAI
LINDI,65,LIWALE,655,NGONGOWELE,65508,NGONGOWELE,NACHIKUKWE
LINDI,65,LIWALE,655,NGONGOWELE,65508,MIKUYU,MIKUYU
LINDI,65,LIWALE,655,NGONGOWELE,65508,MIKUYU,LUKONGA
LINDI,65,LIWALE,655,NGONGOWELE,65508,MIKUYU,NYENJELAGE
LINDI,65,LIWALE,655,NGONGOWELE,65508,MIKUYU,LITANDA
LINDI,65,LIWALE,655,NGONGOWELE,65508,MIKUYU,RUHUU
LINDI,65,LIWALE,655,NGONGOWELE,65508,NGUNJA,MATANGINI
LINDI,65,LIWALE,655,NGONGOWELE,65508,NGUNJA,MKWAJUNI
LINDI,65,LIWALE,655,NGONGOWELE,65508,NGUNJA,NNAI
LINDI,65,LIWALE,655,NGONGOWELE,65508,NGUNJA,NANG'AMBO
LINDI,65,LIWALE,655,NGONGOWELE,65508,NGUNJA,MABANINI
LINDI,65,LIWALE,655,MIHUMO,65509,MIHUMO,MAPINDUZI
LINDI,65,LIWALE,655,MIHUMO,65509,MIHUMO,BOMBAMOJA
LINDI,65,LIWALE,655,MIHUMO,65509,MIHUMO,MUUNGANO
LINDI,65,LIWALE,655,MIHUMO,65509,MIHUMO,KILUWILI
LINDI,65,LIWALE,655,MIHUMO,65509,MIHUMO,KINGUMBA
LINDI,65,LIWALE,655,MIHUMO,65509,DARAJANI,UKOMBOZI
LINDI,65,LIWALE,655,MIHUMO,65509,DARAJANI,LITUTU
LINDI,65,LIWALE,655,MIHUMO,65509,DARAJANI,SONGAMBELE
LINDI,65,LIWALE,655,MIHUMO,65509,DARAJANI,MINAZINI
LINDI,65,LIWALE,655,MIHUMO,65509,DARAJANI,MMAWA
LINDI,65,LIWALE,655,MIHUMO,65509,LIKOMBORA,KIBOGO
LINDI,65,LIWALE,655,MIHUMO,65509,LIKOMBORA,LINYALE
LINDI,65,LIWALE,655,MIHUMO,65509,LIKOMBORA,MATANGINI
LINDI,65,LIWALE,655,MIHUMO,65509,LIKOMBORA,MMALALA
LINDI,65,LIWALE,655,MIHUMO,65509,LIKOMBORA,KISWAGA
LINDI,65,LIWALE,655,MIHUMO,65509,TURUKI,MATALAWE
LINDI,65,LIWALE,655,MIHUMO,65509,TURUKI,MSIKITINI
LINDI,65,LIWALE,655,MIHUMO,65509,TURUKI,KIJIWE
LINDI,65,LIWALE,655,MIHUMO,65509,TURUKI,LITOPE
LINDI,65,LIWALE,655,MAKATA,65510,MAKATA,MAENDELEO
LINDI,65,LIWALE,655,MAKATA,65510,MAKATA,KINULE
LINDI,65,LIWALE,655,MAKATA,65510,MAKATA,MATILI
LINDI,65,LIWALE,655,MAKATA,65510,MAKATA,KAZI BIDII
LINDI,65,LIWALE,655,MAKATA,65510,MITAWA,MTAKUJA
LINDI,65,LIWALE,655,MAKATA,65510,MITAWA,CHEKANENDA
LINDI,65,LIWALE,655,MAKATA,65510,MITAWA,KILEGALIKE
LINDI,65,LIWALE,655,MAKATA,65510,MITAWA,TIKWILI
LINDI,65,LIWALE,655,MAKATA,65510,MKUNDI,MAENDELEO
LINDI,65,LIWALE,655,MAKATA,65510,MKUNDI,MAJARIBIO
LINDI,65,LIWALE,655,MAKATA,65510,MKUNDI,KIYANI
LINDI,65,LIWALE,655,MAKATA,65510,MKUNDI,MKOTOKAGE
LINDI,65,LIWALE,655,MAKATA,65510,KIGWEMA,RAHALEO
LINDI,65,LIWALE,655,MAKATA,65510,KIGWEMA,MUUNGANO
LINDI,65,LIWALE,655,MAKATA,65510,KIGWEMA,NAMYAYA
LINDI,65,LIWALE,655,MAKATA,65510,KIGWEMA,KIBOGEI
LINDI,65,LIWALE,655,MAKATA,65510,MPENGERE,MAENDELEO
LINDI,65,LIWALE,655,MAKATA,65510,MPENGERE,TANDAMANGA
LINDI,65,LIWALE,655,MAKATA,65510,MPENGERE,LIGUGU
LINDI,65,LIWALE,655,MAKATA,65510,MPENGERE,UMOJA
LINDI,65,LIWALE,655,MAKATA,65510,MPENGERE,MUUNGANO
LINDI,65,LIWALE,655,MAKATA,65510,LUBABA,JUHUDI
LINDI,65,LIWALE,655,MAKATA,65510,LUBABA,KILUNGU
LINDI,65,LIWALE,655,MAKATA,65510,LUBABA,HEKIMA
LINDI,65,LIWALE,655,MAKATA,65510,LUBABA,CHIMBUKO
LINDI,65,LIWALE,655,MPIGAMITI,65511,MPIGAMITI,NDUTU
LINDI,65,LIWALE,655,MPIGAMITI,65511,MPIGAMITI,MANDENDENGA
LINDI,65,LIWALE,655,MPIGAMITI,65511,MPIGAMITI,MATANGINI
LINDI,65,LIWALE,655,MPIGAMITI,65511,MPIGAMITI,BESI
LINDI,65,LIWALE,655,MPIGAMITI,65511,NAMAKOLOLO,MUUNGANO
LINDI,65,LIWALE,655,MPIGAMITI,65511,NAMAKOLOLO,SONGAMBELE
LINDI,65,LIWALE,655,MPIGAMITI,65511,NAMAKOLOLO,JUHUDI
LINDI,65,LIWALE,655,MPIGAMITI,65511,NAMAKOLOLO,NDOROBO
LINDI,65,LIWALE,655,MPIGAMITI,65511,MITAWA,MIHINGA
LINDI,65,LIWALE,655,MPIGAMITI,65511,MITAWA,NNAMBILAGE
LINDI,65,LIWALE,655,MPIGAMITI,65511,MITAWA,KANDULU
LINDI,65,LIWALE,655,MPIGAMITI,65511,MITAWA,NAMATIGITI
LINDI,65,LIWALE,655,MLEMBWE,65512,MLEMBWE,KIGOJI
LINDI,65,LIWALE,655,MLEMBWE,65512,MLEMBWE,MASHINDANO
LINDI,65,LIWALE,655,MLEMBWE,65512,MLEMBWE,MAGEUZI
LINDI,65,LIWALE,655,MLEMBWE,65512,MLEMBWE,GEZAULOLE
LINDI,65,LIWALE,655,MLEMBWE,65512,MLEMBWE,NANUNGU
LINDI,65,LIWALE,655,MLEMBWE,65512,NAMBINDA,NNUHI
LINDI,65,LIWALE,655,MLEMBWE,65512,NAMBINDA,MGAMBAGE
LINDI,65,LIWALE,655,MLEMBWE,65512,NAMBINDA,MKONGANIKA
LINDI,65,LIWALE,655,MLEMBWE,65512,NAMBINDA,AMBEKETA
LINDI,65,LIWALE,655,MLEMBWE,65512,NAMBINDA,TUMAINI
LINDI,65,LIWALE,655,MLEMBWE,65512,NDAPATA,SONGAMELE
LINDI,65,LIWALE,655,MLEMBWE,65512,NDAPATA,GEUZAMWENDO
LINDI,65,LIWALE,655,BARIKIWA,65513,BARIKIWA,LIGUGU
LINDI,65,LIWALE,655,BARIKIWA,65513,BARIKIWA,KIANI
LINDI,65,LIWALE,655,BARIKIWA,65513,BARIKIWA,NAMAHUGURU
LINDI,65,LIWALE,655,BARIKIWA,65513,BARIKIWA,NGANGILA
LINDI,65,LIWALE,655,BARIKIWA,65513,BARIKIWA,TANDAMANGA
LINDI,65,LIWALE,655,BARIKIWA,65513,CHIMBUKO,SONGAMBELE
LINDI,65,LIWALE,655,BARIKIWA,65513,CHIMBUKO,NGOWE
LINDI,65,LIWALE,655,BARIKIWA,65513,CHIMBUKO,NAMBUNJU
LINDI,65,LIWALE,655,BARIKIWA,65513,CHIMBUKO,KIWANJANI
LINDI,65,LIWALE,655,BARIKIWA,65513,CHIMBUKO,CHANGANYIKENI
LINDI,65,LIWALE,655,BARIKIWA,65513,NDUNYUNGU,LINYONYI
LINDI,65,LIWALE,655,BARIKIWA,65513,NDUNYUNGU,MILONJI
LINDI,65,LIWALE,655,BARIKIWA,65513,NDUNYUNGU,NANCHENGA
LINDI,65,LIWALE,655,MKUTANO,65514,MKUTANO,MAKOLO
LINDI,65,LIWALE,655,MKUTANO,65514,MKUTANO,KILINGULA
LINDI,65,LIWALE,655,MKUTANO,65514,MKUTANO,KIPINDIMBI
LINDI,65,LIWALE,655,MKUTANO,65514,KIKULYUNGU,KARIBU
LINDI,65,LIWALE,655,MKUTANO,65514,KIKULYUNGU,NANGALA
LINDI,65,LIWALE,655,MKUTANO,65514,KIKULYUNGU,LUKUKUYA
LINDI,65,LIWALE,655,MKUTANO,65514,KIKULYUNGU,NAMBARAPI
LINDI,65,LIWALE,655,KIMAMBI,65515,KIMAMBI,NAMAWE
LINDI,65,LIWALE,655,KIMAMBI,65515,KIMAMBI,NARUNGOMBE
LINDI,65,LIWALE,655,KIMAMBI,65515,KIMAMBI,NDANDAWALA
LINDI,65,LIWALE,655,KICHONDA,65516,KICHONDA,MVUMILI
LINDI,65,LIWALE,655,KICHONDA,65516,KICHONDA,KIEGEI
LINDI,65,LIWALE,655,KICHONDA,65516,KICHONDA,KIBONIKE
LINDI,65,LIWALE,655,KICHONDA,65516,KICHONDA,MTAKUJA
LINDI,65,LIWALE,655,KICHONDA,65516,MBULI,MKWAJUNI
LINDI,65,LIWALE,655,KICHONDA,65516,MBULI,VISIMA VINNE
LINDI,65,LIWALE,655,KICHONDA,65516,MBULI,KINYANYI
LINDI,65,LIWALE,655,KICHONDA,65516,MBULI,MTACHI
LINDI,65,LIWALE,655,KICHONDA,65516,MBULI,ITETE
LINDI,65,LIWALE,655,KICHONDA,65516,NYELA,KIMBUPUTAZI
LINDI,65,LIWALE,655,KICHONDA,65516,NYELA,KIOKONYO
LINDI,65,LIWALE,655,KICHONDA,65516,NYELA,NAMBULUTA
LINDI,65,LIWALE,655,KICHONDA,65516,NYELA,MNONJI
LINDI,65,LIWALE,655,NANGANDO,65517,NANGANDO,KIEGILE
LINDI,65,LIWALE,655,NANGANDO,65517,NANGANDO,KABURIMOJA
LINDI,65,LIWALE,655,NANGANDO,65517,NANGANDO,KINDIMBA
LINDI,65,LIWALE,655,NANGANDO,65517,NANGANDO,MTAKUJA
LINDI,65,LIWALE,655,NANGANDO,65517,NANGANDO,NGOJWIKE
LINDI,65,LIWALE,655,NANGANDO,65517,MBONDE,NATCO
LINDI,65,LIWALE,655,NANGANDO,65517,MBONDE,MUHAMBO
LINDI,65,LIWALE,655,NANGANDO,65517,MBONDE,DDD
LINDI,65,LIWALE,655,NANGANDO,65517,MBONDE,NGALINGA
LINDI,65,LIWALE,655,NANGANDO,65517,MBONDE,LIKUNGUNI
LINDI,65,LIWALE,655,NANGANDO,65517,LINDOTA,SHIMO LA UDONGO
LINDI,65,LIWALE,655,NANGANDO,65517,LINDOTA,KANSELI
LINDI,65,LIWALE,655,NANGANDO,65517,LINDOTA,KIHAKU
LINDI,65,LIWALE,655,NANGANDO,65517,LINDOTA,MANYUNGU
LINDI,65,LIWALE,655,NANGANDO,65517,LINDOTA,MAKOKOLA
LINDI,65,LIWALE,655,NANGANDO,65517,KINGULUWILA,CHIPITE
LINDI,65,LIWALE,655,NANGANDO,65517,KINGULUWILA,SANDALI
LINDI,65,LIWALE,655,NANGANDO,65517,KINGULUWILA,MSIKITINI
LINDI,65,LIWALE,655,NANGANDO,65517,KINGULUWILA,MUUNGANO
LINDI,65,LIWALE,655,NANGANDO,65517,KINGULUWILA,MAUNDE
LINDI,65,LIWALE,655,NANGANDO,65517,KITAMAMUHI,MAGEREZA
LINDI,65,LIWALE,655,NANGANDO,65517,KITAMAMUHI,MPOROTO
LINDI,65,LIWALE,655,NANGANDO,65517,KITAMAMUHI,LINGOMA
LINDI,65,LIWALE,655,NANGANDO,65517,KITAMAMUHI,MTAGAJA
LINDI,65,LIWALE,655,NANGANDO,65517,KITAMAMUHI,MIWAGO
LINDI,65,LIWALE,655,LIKONGOWELE,65518,LIKONGOWELE,MAKONO
LINDI,65,LIWALE,655,LIKONGOWELE,65518,LIKONGOWELE,LITOU
LINDI,65,LIWALE,655,LIKONGOWELE,65518,LIKONGOWELE,SOKONI
LINDI,65,LIWALE,655,LIKONGOWELE,65518,LIKONGOWELE,BOMA
LINDI,65,LIWALE,655,LIKONGOWELE,65518,LIKONGOWELE,MNUNGU
LINDI,65,LIWALE,655,LIKONGOWELE,65518,NGANYAGA,MATWIKO
LINDI,65,LIWALE,655,LIKONGOWELE,65518,NGANYAGA,NKANE
LINDI,65,LIWALE,655,LIKONGOWELE,65518,NGANYAGA,SHULENI
LINDI,65,LIWALE,655,LIKONGOWELE,65518,NGANYAGA,KELA
LINDI,65,LIWALE,655,LIKONGOWELE,65518,NGANYAGA,MAUTANGA
LINDI,65,LIWALE,655,LIKONGOWELE,65518,KUCHOCHOLOKANA,MAYA
LINDI,65,LIWALE,655,LIKONGOWELE,65518,KUCHOCHOLOKANA,MPALAMA
LINDI,65,LIWALE,655,LIKONGOWELE,65518,KUCHOCHOLOKANA,SHAURIKUMI
LINDI,65,LIWALE,655,LIKONGOWELE,65518,KUCHOCHOLOKANA,MBULI KWA HEMA
LINDI,65,LIWALE,655,LIKONGOWELE,65518,KUCHOCHOLOKANA,MBULI KWA KIBIGA
LINDI,65,LIWALE,655,LIKONGOWELE,65518,HULIA,NGWAWILE
LINDI,65,LIWALE,655,LIKONGOWELE,65518,HULIA,MPOTO
LINDI,65,LIWALE,655,LIKONGOWELE,65518,HULIA,LINGINDO
LINDI,65,LIWALE,655,LIKONGOWELE,65518,HULIA,MPALUPALU
LINDI,65,LIWALE,655,LIKONGOWELE,65518,HULIA,SIDO
LINDI,65,LIWALE,655,LILOMBE,65519,LILOMBE,LILOMBE
LINDI,65,LIWALE,655,LILOMBE,65519,LILOMBE,NAMBANGO
LINDI,65,LIWALE,655,LILOMBE,65519,LILOMBE,NANGUKULIKO
LINDI,65,LIWALE,655,LILOMBE,65519,LILOMBE,KITOWELO
LINDI,65,LIWALE,655,LILOMBE,65519,LILOMBE,NGURUMAHIGA
LINDI,65,LIWALE,655,LILOMBE,65519,LUWELE,NABOYE
LINDI,65,LIWALE,655,LILOMBE,65519,LUWELE,KIMBATIKWA
LINDI,65,LIWALE,655,LILOMBE,65519,LUWELE,LUKUNDI
LINDI,65,LIWALE,655,LILOMBE,65519,LUWELE,KIBAONI
LINDI,65,LIWALE,655,LILOMBE,65519,CHIGUGU,MTIKO
LINDI,65,LIWALE,655,LILOMBE,65519,CHIGUGU,NAMIWILI
LINDI,65,LIWALE,655,LILOMBE,65519,CHIGUGU,KITANG'WAI
LINDI,65,LIWALE,655,LILOMBE,65519,CHIGUGU,LUKWANGULO
LINDI,65,LIWALE,655,LILOMBE,65519,CHIGUGU,CHIGUGU
LINDI,65,LIWALE,655,KIBUTUKA,65520,KIBUTUKA,IKULU
LINDI,65,LIWALE,655,KIBUTUKA,65520,KIBUTUKA,BONDENI ROAD
LINDI,65,LIWALE,655,KIBUTUKA,65520,KIBUTUKA,MSUFINI
LINDI,65,LIWALE,655,KIBUTUKA,65520,KIBUTUKA,MTAMILEKI
LINDI,65,LIWALE,655,KIBUTUKA,65520,KIBUTUKA,DARAJANI
LINDI,65,LIWALE,655,KIBUTUKA,65520,NGUMBU,AMANI
LINDI,65,LIWALE,655,KIBUTUKA,65520,NGUMBU,LEGEZA
LINDI,65,LIWALE,655,KIBUTUKA,65520,NGUMBU,SHULENI
LINDI,65,LIWALE,655,KIBUTUKA,65520,NGUMBU,KIPENYONI
LINDI,65,LIWALE,655,KIBUTUKA,65520,NGUMBU,MILINDIMO
LINDI,65,RUANGWA,656,RUANGWA,65601,MCHANGANI,NAMITUMBATI
LINDI,65,RUANGWA,656,RUANGWA,65601,MCHANGANI,TANDALE
LINDI,65,RUANGWA,656,RUANGWA,65601,MCHANGANI,JANGWANI
LINDI,65,RUANGWA,656,RUANGWA,65601,MCHANGANI,MSIMBAZI
LINDI,65,RUANGWA,656,RUANGWA,65601,MCHANGANI,KISIWANI
LINDI,65,RUANGWA,656,RUANGWA,65601,LIPANDE,MTAWATAWA
LINDI,65,RUANGWA,656,RUANGWA,65601,LIPANDE,KAA SALAMA
LINDI,65,RUANGWA,656,RUANGWA,65601,LIKANGALA,PEMBA
LINDI,65,RUANGWA,656,RUANGWA,65601,LIKANGALA,KAGERA
LINDI,65,RUANGWA,656,RUANGWA,65601,LIKANGALA,TULIENI
LINDI,65,RUANGWA,656,RUANGWA,65601,LIKANGALA,MSIKITINI
LINDI,65,RUANGWA,656,CHUNYU,65602,CHUNYU,DODOMA
LINDI,65,RUANGWA,656,CHUNYU,65602,CHUNYU,MSING'OLE
LINDI,65,RUANGWA,656,CHUNYU,65602,CHUNYU,MTUMBUNI
LINDI,65,RUANGWA,656,CHUNYU,65602,CHUNYU,ZAHANATI
LINDI,65,RUANGWA,656,CHUNYU,65602,CHUNYU,MAJENGO
LINDI,65,RUANGWA,656,CHUNYU,65602,CHUNYU,MSIKITINI
LINDI,65,RUANGWA,656,CHUNYU,65602,CHUNYU,MIEMBE MIWILI
LINDI,65,RUANGWA,656,CHUNYU,65602,CHUNYU,MAGEUZI
LINDI,65,RUANGWA,656,CHUNYU,65602,NAMIKULO,DODOMA
LINDI,65,RUANGWA,656,CHUNYU,65602,NAMIKULO,MKWANA(KAWAWA)
LINDI,65,RUANGWA,656,CHUNYU,65602,NAMIKULO,NAMAJUMBA
LINDI,65,RUANGWA,656,CHUNYU,65602,NAMIKULO,NANYANGA
LINDI,65,RUANGWA,656,CHUNYU,65602,NAMIKULO,ILOLANGULU
LINDI,65,RUANGWA,656,CHUNYU,65602,NAMIKULO,MSUFINI
LINDI,65,RUANGWA,656,CHUNYU,65602,NAMIKULO,AMANI
LINDI,65,RUANGWA,656,CHUNYU,65602,MIHEWE,MAJENGO
LINDI,65,RUANGWA,656,CHUNYU,65602,MIHEWE,AMANI
LINDI,65,RUANGWA,656,CHUNYU,65602,MIHEWE,SHULENI
LINDI,65,RUANGWA,656,CHUNYU,65602,MIHEWE,MOTOMOTO
LINDI,65,RUANGWA,656,CHUNYU,65602,MIHEWE,SONGAMBELE
LINDI,65,RUANGWA,656,MBEKENYERA,65603,MBEKENYERA,MAJENGO  A
LINDI,65,RUANGWA,656,MBEKENYERA,65603,MBEKENYERA,DODOMA  A
LINDI,65,RUANGWA,656,MBEKENYERA,65603,MBEKENYERA,DODOMA  B
LINDI,65,RUANGWA,656,MBEKENYERA,65603,MBEKENYERA,MAJENGO  B
LINDI,65,RUANGWA,656,MBEKENYERA,65603,MBEKENYERA,MAISHA MAREFU
LINDI,65,RUANGWA,656,MBEKENYERA,65603,MBEKENYERA,NACHIULAGA
LINDI,65,RUANGWA,656,MBEKENYERA,65603,NAUNAMBE,LEGEZA MWENDO
LINDI,65,RUANGWA,656,MBEKENYERA,65603,NAUNAMBE,MPUJE
LINDI,65,RUANGWA,656,MBEKENYERA,65603,NAUNAMBE,ZIWANI
LINDI,65,RUANGWA,656,MBEKENYERA,65603,NAUNAMBE,NAMBAWALA
LINDI,65,RUANGWA,656,MBEKENYERA,65603,NAUNAMBE,MATUMBU
LINDI,65,RUANGWA,656,MBEKENYERA,65603,CHINGUMBWA,MTIMBWA
LINDI,65,RUANGWA,656,MBEKENYERA,65603,CHINGUMBWA,NAURUNGA
LINDI,65,RUANGWA,656,MBEKENYERA,65603,CHINGUMBWA,NJENGA
LINDI,65,RUANGWA,656,MBEKENYERA,65603,CHINGUMBWA,NAMUNGO
LINDI,65,RUANGWA,656,MBEKENYERA,65603,NAMILEMA,NAMILEMA
LINDI,65,RUANGWA,656,MBEKENYERA,65603,NAMILEMA,NUSURA
LINDI,65,RUANGWA,656,MBEKENYERA,65603,NAMILEMA,MNAZI MMOJA
LINDI,65,RUANGWA,656,MBEKENYERA,65603,NAMILEMA,MNAMBA
LINDI,65,RUANGWA,656,MBEKENYERA,65603,MKUTINGOME,NAIMBA
LINDI,65,RUANGWA,656,MBEKENYERA,65603,MKUTINGOME,MUUNGANO
LINDI,65,RUANGWA,656,MBEKENYERA,65603,MKUTINGOME,MAPAMBANO
LINDI,65,RUANGWA,656,MBEKENYERA,65603,MKUTINGOME,MAGEUZI
LINDI,65,RUANGWA,656,MANDARAWE,65604,MANDARAWE,BUTIAMA
LINDI,65,RUANGWA,656,MANDARAWE,65604,MANDARAWE,MNAZIMMOJA
LINDI,65,RUANGWA,656,MANDARAWE,65604,MANDARAWE,MCHANGANI
LINDI,65,RUANGWA,656,MANDARAWE,65604,MANDARAWE,SHULENI
LINDI,65,RUANGWA,656,MANDARAWE,65604,MANDARAWE,MIEMBE SABA
LINDI,65,RUANGWA,656,MANDARAWE,65604,NACHINYIMBA,MASASI
LINDI,65,RUANGWA,656,MANDARAWE,65604,NACHINYIMBA,MWEMBENI
LINDI,65,RUANGWA,656,MANDARAWE,65604,NANDENJE,MAGOMENI
LINDI,65,RUANGWA,656,MANDARAWE,65604,NANDENJE,DODOMA
LINDI,65,RUANGWA,656,MANDARAWE,65604,NANDENJE,NAUNGO
LINDI,65,RUANGWA,656,MANDARAWE,65604,NANDENJE,MNANGARA
LINDI,65,RUANGWA,656,NKOWE,65605,NKOWE,MATOPENI
LINDI,65,RUANGWA,656,NKOWE,65605,NKOWE,NJIKUTE
LINDI,65,RUANGWA,656,NKOWE,65605,NKOWE,MAFURIKO
LINDI,65,RUANGWA,656,NKOWE,65605,NKOWE,KWAPUNYU
LINDI,65,RUANGWA,656,NKOWE,65605,NKOWE,CHIKUNDI
LINDI,65,RUANGWA,656,NKOWE,65605,MPUMBE,MPARA
LINDI,65,RUANGWA,656,NKOWE,65605,MPUMBE,MPUMBE
LINDI,65,RUANGWA,656,NKOWE,65605,MPUMBE,MCHEMELENI
LINDI,65,RUANGWA,656,NKOWE,65605,MPUMBE,KISIWANI
LINDI,65,RUANGWA,656,NKOWE,65605,KIPINDIMBI,KIBAHA
LINDI,65,RUANGWA,656,NKOWE,65605,KIPINDIMBI,MAGOMENI
LINDI,65,RUANGWA,656,NKOWE,65605,KIPINDIMBI,NAMINGA
LINDI,65,RUANGWA,656,NKOWE,65605,KIPINDIMBI,NAMIHEGU
LINDI,65,RUANGWA,656,LIKUNJA,65606,LIKUNJA,MNAZI MMOJA
LINDI,65,RUANGWA,656,LIKUNJA,65606,LIKUNJA,KIWANJANI
LINDI,65,RUANGWA,656,LIKUNJA,65606,LIKUNJA,MBUYUNI
LINDI,65,RUANGWA,656,LIKUNJA,65606,LIKUNJA,KIMAWE
LINDI,65,RUANGWA,656,LIKUNJA,65606,LIKUNJA,MKWAJUNI
LINDI,65,RUANGWA,656,LIKUNJA,65606,LIKUNJA,MONDULI JUU
LINDI,65,RUANGWA,656,LIKUNJA,65606,LIKUNJA,MIEMBENI
LINDI,65,RUANGWA,656,LIKUNJA,65606,MITOPE,MIVINJENI
LINDI,65,RUANGWA,656,LIKUNJA,65606,MITOPE,BONDENI
LINDI,65,RUANGWA,656,LIKUNJA,65606,MITOPE,NANGOLOLO
LINDI,65,RUANGWA,656,LIKUNJA,65606,MITOPE,MPAKANI
LINDI,65,RUANGWA,656,LIKUNJA,65606,MPARA,MGOMBA
LINDI,65,RUANGWA,656,LIKUNJA,65606,MPARA,MTUTUMU
LINDI,65,RUANGWA,656,LIKUNJA,65606,MPARA,MISUFINI
LINDI,65,RUANGWA,656,LIKUNJA,65606,MTIMBO-RUANGWA,MJI MWEMA
LINDI,65,RUANGWA,656,LIKUNJA,65606,MTIMBO-RUANGWA,TULIENI
LINDI,65,RUANGWA,656,LIKUNJA,65606,MTIMBO-RUANGWA,SHAURIMOYO
LINDI,65,RUANGWA,656,LIKUNJA,65606,MMAWA,GULIONI
LINDI,65,RUANGWA,656,LIKUNJA,65606,MMAWA,MIEMBENI
LINDI,65,RUANGWA,656,LIKUNJA,65606,MMAWA,MIKOROSHONI
LINDI,65,RUANGWA,656,LIKUNJA,65606,KITANDI,MKWAJUNI
LINDI,65,RUANGWA,656,LIKUNJA,65606,KITANDI,MTAKUJA
LINDI,65,RUANGWA,656,LIKUNJA,65606,KITANDI,MAJENGO
LINDI,65,RUANGWA,656,LIKUNJA,65606,KITANDI,CHIPUNDA
LINDI,65,RUANGWA,656,LIKUNJA,65606,KITANDI,NAMKOLOWONJO
LINDI,65,RUANGWA,656,LIKUNJA,65606,KITANDI,UBUNGO
LINDI,65,RUANGWA,656,LIKUNJA,65606,KITANDI,DODOMA
LINDI,65,RUANGWA,656,LIKUNJA,65606,KITANDI,NAMAKONDE
LINDI,65,RUANGWA,656,LIKUNJA,65606,KITANDI,GULIONI
LINDI,65,RUANGWA,656,LIKUNJA,65606,KITANDI,TEMEKE
LINDI,65,RUANGWA,656,LIKUNJA,65606,KITANDI,MPILUKA
LINDI,65,RUANGWA,656,MAKANJIRO,65607,MAKANJIRO,KILIMANIHEWA
LINDI,65,RUANGWA,656,MAKANJIRO,65607,MAKANJIRO,MIKANGAULA
LINDI,65,RUANGWA,656,MAKANJIRO,65607,MAKANJIRO,SHULENI
LINDI,65,RUANGWA,656,MAKANJIRO,65607,MAKANJIRO,NDALALA
LINDI,65,RUANGWA,656,MAKANJIRO,65607,MAKANJIRO,TULIENI
LINDI,65,RUANGWA,656,MAKANJIRO,65607,MAKANJIRO,SHIMO LA ULANGA
LINDI,65,RUANGWA,656,MAKANJIRO,65607,CHILANGALILE,MASHINENI
LINDI,65,RUANGWA,656,MAKANJIRO,65607,CHILANGALILE,MSIKITINI
LINDI,65,RUANGWA,656,MAKANJIRO,65607,CHILANGALILE,JENGONI
LINDI,65,RUANGWA,656,MAKANJIRO,65607,CHILANGALILE,KANISANI
LINDI,65,RUANGWA,656,MAKANJIRO,65607,CHIKOKO,MATOPENI
LINDI,65,RUANGWA,656,MAKANJIRO,65607,CHIKOKO,MTAMAILULU
LINDI,65,RUANGWA,656,MAKANJIRO,65607,CHIKOKO,MCHANGANI
LINDI,65,RUANGWA,656,MAKANJIRO,65607,CHIKOKO,MCHAFUKOGA
LINDI,65,RUANGWA,656,MAKANJIRO,65607,CHINOKOLE,CHINOKOLE
LINDI,65,RUANGWA,656,MAKANJIRO,65607,CHINOKOLE,CHEMCHEM
LINDI,65,RUANGWA,656,MAKANJIRO,65607,CHINOKOLE,KAWAWA
LINDI,65,RUANGWA,656,MAKANJIRO,65607,CHINOKOLE,KAGERA
LINDI,65,RUANGWA,656,MAKANJIRO,65607,CHINOKOLE,MTIPULA
LINDI,65,RUANGWA,656,MAKANJIRO,65607,MBANGARA,NAMATULA
LINDI,65,RUANGWA,656,MAKANJIRO,65607,MBANGARA,MNAZI MMOJA
LINDI,65,RUANGWA,656,MAKANJIRO,65607,MBANGARA,MWEMBE NINGOJE
LINDI,65,RUANGWA,656,NARUNG'OMBE,65608,LIUGURU,MKUNGUNI
LINDI,65,RUANGWA,656,NARUNG'OMBE,65608,LIUGURU,LIUGURU
LINDI,65,RUANGWA,656,NARUNG'OMBE,65608,LIUGURU,SOKOINE
LINDI,65,RUANGWA,656,NARUNG'OMBE,65608,LIUGURU,NAMBAMBO
LINDI,65,RUANGWA,656,NARUNG'OMBE,65608,LIUGURU,RUTAMBA
LINDI,65,RUANGWA,656,NARUNG'OMBE,65608,LIUGURU,KILIMAHEWA
LINDI,65,RUANGWA,656,NARUNG'OMBE,65608,LIUGURU,UGOGONI
LINDI,65,RUANGWA,656,NARUNG'OMBE,65608,LIUGURU,IKULU
LINDI,65,RUANGWA,656,NARUNG'OMBE,65608,LIUGURU,MWANANYAMALA
LINDI,65,RUANGWA,656,NARUNG'OMBE,65608,LIUGURU,TULIENI
LINDI,65,RUANGWA,656,NARUNG'OMBE,65608,LIUGURU,AMANI
LINDI,65,RUANGWA,656,NARUNG'OMBE,65608,LIUGURU,JIONEE
LINDI,65,RUANGWA,656,NARUNG'OMBE,65608,LIUGURU,ILALA
LINDI,65,RUANGWA,656,NARUNG'OMBE,65608,LIUGURU,MSIMBAZI
LINDI,65,RUANGWA,656,NARUNG'OMBE,65608,LIUGURU,MBAGALA
LINDI,65,RUANGWA,656,NARUNG'OMBE,65608,NARUNGOMBE,MSIKITINI
LINDI,65,RUANGWA,656,NARUNG'OMBE,65608,NARUNGOMBE,ZAHANATI
LINDI,65,RUANGWA,656,NARUNG'OMBE,65608,NARUNGOMBE,GULIONI
LINDI,65,RUANGWA,656,NARUNG'OMBE,65608,NARUNGOMBE,SHULENI
LINDI,65,RUANGWA,656,NARUNG'OMBE,65608,NARUNGOMBE,NANGURUGAI
LINDI,65,RUANGWA,656,NARUNG'OMBE,65608,NARUNGOMBE,MTAMILE
LINDI,65,RUANGWA,656,NARUNG'OMBE,65608,NARUNGOMBE,MKOMA
LINDI,65,RUANGWA,656,NARUNG'OMBE,65608,NARUNGOMBE,NAKAUMBI
LINDI,65,RUANGWA,656,NARUNG'OMBE,65608,NARUNGOMBE,NACHIUNGO
LINDI,65,RUANGWA,656,NARUNG'OMBE,65608,NARUNGOMBE,ITUMBI
LINDI,65,RUANGWA,656,NAMICHIGA,65609,NAMICHIGA A,`
LINDI,65,RUANGWA,656,NAMICHIGA,65609,NAMICHIGA A,OFISINI
LINDI,65,RUANGWA,656,NAMICHIGA,65609,NAMICHIGA A,BOKELA
LINDI,65,RUANGWA,656,NAMICHIGA,65609,NAMICHIGA A,CHIMBALI
LINDI,65,RUANGWA,656,NAMICHIGA,65609,NAMICHIGA B,NACHINGWEA
LINDI,65,RUANGWA,656,NAMICHIGA,65609,NAMICHIGA B,CHINDUNDU
LINDI,65,RUANGWA,656,NAMICHIGA,65609,NAMICHIGA B,MSIKITINI
LINDI,65,RUANGWA,656,NAMICHIGA,65609,NAMICHIGA B,AMANI
LINDI,65,RUANGWA,656,NAMICHIGA,65609,NAMICHIGA B,CHELEWENI
LINDI,65,RUANGWA,656,NAMICHIGA,65609,NAMICHIGA B,MBUYUNI
LINDI,65,RUANGWA,656,NAMICHIGA,65609,NAMICHIGA B,MITONONO
LINDI,65,RUANGWA,656,NAMICHIGA,65609,NAMICHIGA B,CHINDUNDU MAJENGO
LINDI,65,RUANGWA,656,NAMICHIGA,65609,NAMKONJELA,MCHANGANI
LINDI,65,RUANGWA,656,NAMICHIGA,65609,NAMKONJELA,MAJENGO
LINDI,65,RUANGWA,656,NAMICHIGA,65609,NAMKONJELA,NDENDEWAJA
LINDI,65,RUANGWA,656,NAMICHIGA,65609,NAMKONJELA,NANJATI
LINDI,65,RUANGWA,656,MANDAWA,65610,MCHICHILI,KARIAKOO
LINDI,65,RUANGWA,656,MANDAWA,65610,MCHICHILI,MCHICHILI
LINDI,65,RUANGWA,656,MANDAWA,65610,MCHICHILI,LIANILO
LINDI,65,RUANGWA,656,MANDAWA,65610,MCHICHILI,TEMEKE
LINDI,65,RUANGWA,656,MANDAWA,65610,MCHICHILI,MKWAJUNI
LINDI,65,RUANGWA,656,MANDAWA,65610,NAHANGA,MBUYUNI
LINDI,65,RUANGWA,656,MANDAWA,65610,NAHANGA,CHIJEJE
LINDI,65,RUANGWA,656,MANDAWA,65610,NAHANGA,NAHANGA SHULENI
LINDI,65,RUANGWA,656,MANDAWA,65610,NAHANGA,MTEMELA
LINDI,65,RUANGWA,656,MANDAWA,65610,NAHANGA,NAHIMBA
LINDI,65,RUANGWA,656,MANDAWA,65610,MANDAWA CHINI,DARAJANI
LINDI,65,RUANGWA,656,MANDAWA,65610,MANDAWA CHINI,GULIONI
LINDI,65,RUANGWA,656,MANDAWA,65610,MANDAWA CHINI,NANYANGA
LINDI,65,RUANGWA,656,MANDAWA,65610,CHIKUNDI,MASUDI
LINDI,65,RUANGWA,656,MANDAWA,65610,CHIKUNDI,NANG'ULA
LINDI,65,RUANGWA,656,MANDAWA,65610,CHIKUNDI,GULIONI
LINDI,65,RUANGWA,656,MANDAWA,65610,CHIKUNDI,UBUNGO
LINDI,65,RUANGWA,656,NAMBILANJE,65611,NAMBILANJE,KILIMANIHEWA
LINDI,65,RUANGWA,656,NAMBILANJE,65611,NAMBILANJE,BOMANI
LINDI,65,RUANGWA,656,NAMBILANJE,65611,NAMBILANJE,MTWENEMBE
LINDI,65,RUANGWA,656,NAMBILANJE,65611,NAMBILANJE,MBWEMKURU
LINDI,65,RUANGWA,656,NAMBILANJE,65611,NAMBILANJE,KIMANZICHANA
LINDI,65,RUANGWA,656,NAMBILANJE,65611,NAMBILANJE,LIKAKATA
LINDI,65,RUANGWA,656,NAMBILANJE,65611,NANJARU,CHIKWATI
LINDI,65,RUANGWA,656,NAMBILANJE,65611,NANJARU,KIPANDE
LINDI,65,RUANGWA,656,NAMBILANJE,65611,NANJARU,MAJENGO
LINDI,65,RUANGWA,656,NAMBILANJE,65611,NANJARU,NAMBOKA
LINDI,65,RUANGWA,656,NAMBILANJE,65611,NANJARU,KIPELEMENDE
LINDI,65,RUANGWA,656,NAMBILANJE,65611,MKARANGA,GULIONI
LINDI,65,RUANGWA,656,NAMBILANJE,65611,MKARANGA,KILENDEWELE
LINDI,65,RUANGWA,656,NAMBILANJE,65611,MKARANGA,LUKOWE   A
LINDI,65,RUANGWA,656,NAMBILANJE,65611,MKARANGA,LUKOWE  B
LINDI,65,RUANGWA,656,NAMBILANJE,65611,MKARANGA,NAMTANDI
LINDI,65,RUANGWA,656,NAMBILANJE,65611,MTONDO,LITINGA
LINDI,65,RUANGWA,656,NAMBILANJE,65611,MTONDO,CHOMBOKO A
LINDI,65,RUANGWA,656,NAMBILANJE,65611,MTONDO,LIKUYU
LINDI,65,RUANGWA,656,NAMBILANJE,65611,MTONDO,MBUTAMBUTA
LINDI,65,RUANGWA,656,NAMBILANJE,65611,MTONDO,CHOMBOKO  B
LINDI,65,RUANGWA,656,MNACHO,65612,NG'AU,MATOPENI
LINDI,65,RUANGWA,656,MNACHO,65612,NG'AU,MBANGA
LINDI,65,RUANGWA,656,MNACHO,65612,NG'AU,NAMBALAPI
LINDI,65,RUANGWA,656,MNACHO,65612,NG'AU,SHOKA
LINDI,65,RUANGWA,656,MNACHO,65612,NG'AU,MBUNGU
LINDI,65,RUANGWA,656,MNACHO,65612,NG'AU,CHINANGILA
LINDI,65,RUANGWA,656,MNACHO,65612,MANOKWE,MAKA
LINDI,65,RUANGWA,656,MNACHO,65612,MANOKWE,JIDE
LINDI,65,RUANGWA,656,MNACHO,65612,CHIMBILA  B,NAMILINDI
LINDI,65,RUANGWA,656,MNACHO,65612,CHIMBILA  B,CHIEPO
LINDI,65,RUANGWA,656,MNACHO,65612,CHIMBILA  A,MKWITI
LINDI,65,RUANGWA,656,MNACHO,65612,CHIMBILA  A,MIEMBENI
LINDI,65,RUANGWA,656,CHIENJELE,65613,CHIENJELE,MKATA
LINDI,65,RUANGWA,656,CHIENJELE,65613,CHIENJELE,BOKO
LINDI,65,RUANGWA,656,CHIENJELE,65613,CHIENJELE,MIPINGA
LINDI,65,RUANGWA,656,CHIENJELE,65613,CHIENJELE,MUUNGANO
LINDI,65,RUANGWA,656,CHIENJELE,65613,CHIENJELE,NAMAGULUWE
LINDI,65,RUANGWA,656,CHIENJELE,65613,CHIENJELE,MATANGINI
LINDI,65,RUANGWA,656,CHIENJELE,65613,CHIENJELE,NJENGA
LINDI,65,RUANGWA,656,CHIENJELE,65613,NAMAKUKU,NJAWALE B
LINDI,65,RUANGWA,656,CHIENJELE,65613,NAMAKUKU,KIMAWE
LINDI,65,RUANGWA,656,CHIENJELE,65613,NAMAKUKU,NDOMONI
LINDI,65,RUANGWA,656,CHIENJELE,65613,NAMAKUKU,CCM
LINDI,65,RUANGWA,656,CHIENJELE,65613,MIBURE,CCM
LINDI,65,RUANGWA,656,CHIENJELE,65613,MIBURE,TULIENI
LINDI,65,RUANGWA,656,CHIENJELE,65613,MIBURE,ILULU
LINDI,65,RUANGWA,656,CHIENJELE,65613,MIBURE,MBAGALA
LINDI,65,RUANGWA,656,CHIENJELE,65613,MIBURE,AMAANGWE
LINDI,65,RUANGWA,656,CHIENJELE,65613,NG'IMBWA,MKATA
LINDI,65,RUANGWA,656,CHIENJELE,65613,NG'IMBWA,NG'IMBWA A
LINDI,65,RUANGWA,656,CHIENJELE,65613,NG'IMBWA,NG'MBWA  B
LINDI,65,RUANGWA,656,CHIENJELE,65613,NJAWALE,NJAWALE A
LINDI,65,RUANGWA,656,CHIENJELE,65613,NJAWALE,NJAWALE  B
LINDI,65,RUANGWA,656,MALOLO,65614,MALOLO,NAMITENDE
LINDI,65,RUANGWA,656,MALOLO,65614,MALOLO,AMILA
LINDI,65,RUANGWA,656,MALOLO,65614,MALOLO,MASHINENI
LINDI,65,RUANGWA,656,MALOLO,65614,MALOLO,MUHIMBILI
LINDI,65,RUANGWA,656,MALOLO,65614,MALOLO,SOKONI
LINDI,65,RUANGWA,656,MALOLO,65614,MALOLO,MWONGOZO
LINDI,65,RUANGWA,656,MALOLO,65614,MALOLO,CHANG'OMBE
LINDI,65,RUANGWA,656,MALOLO,65614,MALOLO,NAIWEGO
LINDI,65,RUANGWA,656,MALOLO,65614,NANGUMBU  A,NG'ALILE
LINDI,65,RUANGWA,656,MALOLO,65614,NANGUMBU  A,MAJENGO
LINDI,65,RUANGWA,656,MALOLO,65614,NANGUMBU  A,MSIKITINI
LINDI,65,RUANGWA,656,MALOLO,65614,NANGUMBU  A,NANDUMBILI
LINDI,65,RUANGWA,656,MALOLO,65614,NANGUMBU  A,DODOMA
LINDI,65,RUANGWA,656,MALOLO,65614,NANGUMBU  A,GULIONI
LINDI,65,RUANGWA,656,MALOLO,65614,NANGUMBU  A,MADUKANI
LINDI,65,RUANGWA,656,MALOLO,65614,NANGUMBU  A,NAMKONGO
LINDI,65,RUANGWA,656,MALOLO,65614,NANGUMBU  A,NAMPOMBE
LINDI,65,RUANGWA,656,MALOLO,65614,NANGUMBU B,KANISANI
LINDI,65,RUANGWA,656,MALOLO,65614,NANGUMBU B,MCHANGANI
LINDI,65,RUANGWA,656,MALOLO,65614,NANGUMBU B,RUANGWA
LINDI,65,RUANGWA,656,MALOLO,65614,MICHENGA  A,NAHUVI
LINDI,65,RUANGWA,656,MALOLO,65614,MICHENGA  A,SHULENI
LINDI,65,RUANGWA,656,MALOLO,65614,MICHENGA  A,KITUNDA
LINDI,65,RUANGWA,656,MALOLO,65614,MICHENGA  A,MISRI
LINDI,65,RUANGWA,656,MALOLO,65614,MICHENGA  B,GULIONI
LINDI,65,RUANGWA,656,MALOLO,65614,MICHENGA  B,MAPIRA
LINDI,65,RUANGWA,656,MALOLO,65614,MICHENGA  B,LUEGA
LINDI,65,RUANGWA,656,MALOLO,65614,MICHENGA  B,MCHAFUKOGA
LINDI,65,RUANGWA,656,MALOLO,65614,MICHENGA  B,NACHINGWEA
LINDI,65,RUANGWA,656,MALOLO,65614,MICHENGA  B,BONDENIRODI
LINDI,65,RUANGWA,656,MALOLO,65614,MICHENGA  B,KILIMANIRODI
LINDI,65,RUANGWA,656,MALOLO,65614,MTAWILILE,MTAWILILE
LINDI,65,RUANGWA,656,LUCHELENGWA,65615,LUCHELEGWA,MNYALATA
LINDI,65,RUANGWA,656,LUCHELENGWA,65615,LUCHELEGWA,KILIMANIHEWA
LINDI,65,RUANGWA,656,LUCHELENGWA,65615,LUCHELEGWA,MNAZIMMOJA
LINDI,65,RUANGWA,656,LUCHELENGWA,65615,LUCHELEGWA,GULIONI
LINDI,65,RUANGWA,656,LUCHELENGWA,65615,LUCHELEGWA,SHULENI
LINDI,65,RUANGWA,656,LUCHELENGWA,65615,LUCHELEGWA,KAGERA
LINDI,65,RUANGWA,656,LUCHELENGWA,65615,NANDANGA,MAGOMENI
LINDI,65,RUANGWA,656,LUCHELENGWA,65615,NANDANGA,MNOLELA
LINDI,65,RUANGWA,656,LUCHELENGWA,65615,NANDANGA,KISIWANI
LINDI,65,RUANGWA,656,LUCHELENGWA,65615,NANDANGA,NALUKWINYA
LINDI,65,RUANGWA,656,LUCHELENGWA,65615,NANDANGA,MDODO
LINDI,65,RUANGWA,656,LUCHELENGWA,65615,NANDANGA,MCHANGANI
LINDI,65,RUANGWA,656,LUCHELENGWA,65615,NANDANGA,AMANI
LINDI,65,RUANGWA,656,LUCHELENGWA,65615,NANDANGA,KILIMANIHEWA
LINDI,65,RUANGWA,656,LUCHELENGWA,65615,NANDANGA,CHIAPI
LINDI,65,RUANGWA,656,LUCHELENGWA,65615,IPINGO,MNAZIMMOJA
LINDI,65,RUANGWA,656,LUCHELENGWA,65615,IPINGO,KANISANI
LINDI,65,RUANGWA,656,LUCHELENGWA,65615,IPINGO,SHULENI
LINDI,65,RUANGWA,656,LUCHELENGWA,65615,IPINGO,MKOPWERE
LINDI,65,RUANGWA,656,LUCHELENGWA,65615,IPINGO,ZAHANATI
LINDI,65,RUANGWA,656,LUCHELENGWA,65615,IPINGO,MKAPA
LINDI,65,RUANGWA,656,CHINONGWE,65616,CHINONGWE  A,TANDIKA
LINDI,65,RUANGWA,656,CHINONGWE,65616,CHINONGWE  A,MWEMBE CHAI
LINDI,65,RUANGWA,656,CHINONGWE,65616,CHINONGWE  A,TANDIKA MIKOROSHONI
LINDI,65,RUANGWA,656,CHINONGWE,65616,CHINONGWE  A,SHULENI
LINDI,65,RUANGWA,656,CHINONGWE,65616,CHINONGWE  A,KAMBWELA
LINDI,65,RUANGWA,656,CHINONGWE,65616,CHINONGWE  B,MPENULE
LINDI,65,RUANGWA,656,CHINONGWE,65616,CHINONGWE  B,MNELE
LINDI,65,RUANGWA,656,CHINONGWE,65616,CHINONGWE  B,ILULU
LINDI,65,RUANGWA,656,CHINONGWE,65616,CHINONGWE  B,NANYOMBO
LINDI,65,RUANGWA,656,CHINONGWE,65616,CHINONGWE  B,MKUMBA
LINDI,65,RUANGWA,656,CHINONGWE,65616,JUHUDI  A,NAMNONJI
LINDI,65,RUANGWA,656,CHINONGWE,65616,JUHUDI  A,KILIMANIHEWA
LINDI,65,RUANGWA,656,CHINONGWE,65616,JUHUDI  A,CHEMCHEM
LINDI,65,RUANGWA,656,CHINONGWE,65616,JUHUDI  A,MAKITIKITI
LINDI,65,RUANGWA,656,CHINONGWE,65616,JUHUDI  B,MAKONDEKO
LINDI,65,RUANGWA,656,CHINONGWE,65616,JUHUDI  B,MSIKITINI
LINDI,65,RUANGWA,656,CHINONGWE,65616,JUHUDI  B,TANDIKA MIKOROSHONI
LINDI,65,RUANGWA,656,CHINONGWE,65616,JUHUDI  B,MAGODA
LINDI,65,RUANGWA,656,CHINONGWE,65616,JUHUDI  B,CHIUWE
LINDI,65,RUANGWA,656,CHINONGWE,65616,LITAMA,BONDENI
LINDI,65,RUANGWA,656,CHINONGWE,65616,LITAMA,MAPINDUZI
LINDI,65,RUANGWA,656,CHINONGWE,65616,LITAMA,CHANG'OMBE
LINDI,65,RUANGWA,656,CHINONGWE,65616,LITAMA,MONDULI
LINDI,65,RUANGWA,656,CHINONGWE,65616,LIKWACHU,MWINYI
LINDI,65,RUANGWA,656,CHINONGWE,65616,LIKWACHU,MBUYUNI
LINDI,65,RUANGWA,656,CHINONGWE,65616,LIKWACHU,MKALEKA
LINDI,65,RUANGWA,656,CHINONGWE,65616,LIKWACHU,MWENA
LINDI,65,RUANGWA,656,CHINONGWE,65616,LIKWACHU,PACHANI
LINDI,65,RUANGWA,656,CHINONGWE,65616,LIKWACHU,LUKULEDI
LINDI,65,RUANGWA,656,CHINONGWE,65616,LIKWACHU,SAUTIMOJA
LINDI,65,RUANGWA,656,CHINONGWE,65616,LIKWACHU,SHULENI
LINDI,65,RUANGWA,656,CHINONGWE,65616,LIKWACHU,KANISANI
LINDI,65,RUANGWA,656,NANGANGA,65617,NANGANGA,MSIKITINI
LINDI,65,RUANGWA,656,NANGANGA,65617,NANGANGA,MWEMBENI
LINDI,65,RUANGWA,656,NANGANGA,65617,NANGANGA,KANISANI
LINDI,65,RUANGWA,656,NANGANGA,65617,NANGANGA,MAFURIKONI
LINDI,65,RUANGWA,656,NANGANGA,65617,NANGANGA,MASHINENI
LINDI,65,RUANGWA,656,NANGANGA,65617,NANGANGA,TANKINI
LINDI,65,RUANGWA,656,NANGANGA,65617,NANGANGA,SONGAMBELE
LINDI,65,RUANGWA,656,NANGANGA,65617,NANGANGA,NACHINGWEA
LINDI,65,RUANGWA,656,NANGANGA,65617,NANGANGA,MWANANYAMALA
LINDI,65,RUANGWA,656,NANGANGA,65617,NANGANGA,KINONDONI
LINDI,65,RUANGWA,656,NANGANGA,65617,MBECHA,MBECHA KATI
LINDI,65,RUANGWA,656,NANGANGA,65617,MBECHA,MSIKITINI
LINDI,65,RUANGWA,656,NANGANGA,65617,MBECHA,MKOPWELE
LINDI,65,RUANGWA,656,NANGANGA,65617,MBECHA,SHULENI
LINDI,65,RUANGWA,656,NANGANGA,65617,MBECHA,BARABARA SIGI
LINDI,65,RUANGWA,656,NANGANGA,65617,MBECHA,NG'UNI DARAJANI
LINDI,65,RUANGWA,656,NANGANGA,65617,MCHENGANYUMBA,MCHENGANYUMBA KATI
LINDI,65,RUANGWA,656,NANGANGA,65617,MCHENGANYUMBA,KILIMANI
LINDI,65,RUANGWA,656,NANGANGA,65617,MCHENGANYUMBA,BONDENI
LINDI,65,RUANGWA,656,NANGANGA,65617,MCHENGANYUMBA,KAMBINI
LINDI,65,RUANGWA,656,NANGANGA,65617,MTAKUJA,STENDI
LINDI,65,RUANGWA,656,NANGANGA,65617,MTAKUJA,ZAHANATI
LINDI,65,RUANGWA,656,NANGANGA,65617,MTAKUJA,MASHINENI
LINDI,65,RUANGWA,656,NANGANGA,65617,MTAKUJA,KIGAMBONI
LINDI,65,RUANGWA,656,NANGANGA,65617,MTAKUJA,MIEMBENI
LINDI,65,RUANGWA,656,NANGANGA,65617,MTAKUJA,TULIENI
LINDI,65,RUANGWA,656,NANGANGA,65617,MTAKUJA,ZIWANI
LINDI,65,RUANGWA,656,NANGANGA,65617,MTAKUJA,KILIMANIHEWA
LINDI,65,RUANGWA,656,NANGANGA,65617,MTAKUJA,MBUYUNI
LINDI,65,RUANGWA,656,NANGANGA,65617,MTAKUJA,NAHUNGO
LINDI,65,RUANGWA,656,NANDAGALA,65618,NANDAGALA  A,NANGURUWE
LINDI,65,RUANGWA,656,NANDAGALA,65618,NANDAGALA  A,LINDI
LINDI,65,RUANGWA,656,NANDAGALA,65618,NANDAGALA  A,CHIBARIKA
LINDI,65,RUANGWA,656,NANDAGALA,65618,NANDAGALA  A,NANDITI
LINDI,65,RUANGWA,656,NANDAGALA,65618,NANDAGALA B,INGAWALI
LINDI,65,RUANGWA,656,NANDAGALA,65618,NANDAGALA B,MATANGINI
LINDI,65,RUANGWA,656,NANDAGALA,65618,NANDAGALA B,CHIUKUTA
LINDI,65,RUANGWA,656,NANDAGALA,65618,NANDAGALA B,MPITILILA
LINDI,65,RUANGWA,656,NANDAGALA,65618,MMAWA,CHIANGANI
LINDI,65,RUANGWA,656,NANDAGALA,65618,MMAWA,MPANDACHI
LINDI,65,RUANGWA,656,NANDAGALA,65618,NAMAHEMA  A,MATOPENI
LINDI,65,RUANGWA,656,NANDAGALA,65618,NAMAHEMA  A,MISRI
LINDI,65,RUANGWA,656,NANDAGALA,65618,NAMAHEMA  A,NAKAPELO
LINDI,65,RUANGWA,656,NANDAGALA,65618,NAMAHEMA  B,MTAKUJA
LINDI,65,RUANGWA,656,NANDAGALA,65618,NAMAHEMA  B,MNINDU
LINDI,65,RUANGWA,656,NACHINGWEA,65619,NACHINGWEA,MSIKITINI
LINDI,65,RUANGWA,656,NACHINGWEA,65619,NACHINGWEA,AZIMIO
LINDI,65,RUANGWA,656,NACHINGWEA,65619,NACHINGWEA,MUUNGANO
LINDI,65,RUANGWA,656,NACHINGWEA,65619,NACHINGWEA,JANGWANI
LINDI,65,RUANGWA,656,NACHINGWEA,65619,NACHINGWEA,MWENGE
LINDI,65,RUANGWA,656,NACHINGWEA,65619,KILIMANIHEWA,CHANG'OMBE
LINDI,65,RUANGWA,656,NACHINGWEA,65619,KILIMANIHEWA,KEKO
LINDI,65,RUANGWA,656,NACHINGWEA,65619,KILIMANIHEWA,BUGURUNI
LINDI,65,RUANGWA,656,NACHINGWEA,65619,KILIMANIHEWA,MUHIMBILI
LINDI,65,RUANGWA,656,NACHINGWEA,65619,KILIMANIHEWA,OSTABEI
LINDI,65,RUANGWA,656,NACHINGWEA,65619,KILIMANIHEWA,MCHANAMO
LINDI,65,RUANGWA,656,NACHINGWEA,65619,DODOMA,MNAZI MMOJA
LINDI,65,RUANGWA,656,NACHINGWEA,65619,DODOMA,TANDIKA
LINDI,65,RUANGWA,656,NACHINGWEA,65619,DODOMA,MTAKUJA
LINDI,65,RUANGWA,656,NACHINGWEA,65619,DODOMA,CHANG'OMBE
LINDI,65,RUANGWA,656,NACHINGWEA,65619,DODOMA,MTICHI
LINDI,65,RUANGWA,656,MATAMBARALE,65620,NANDANDARA,KILIMANIHEWA
LINDI,65,RUANGWA,656,MATAMBARALE,65620,NANDANDARA,MAGEUZI
LINDI,65,RUANGWA,656,MATAMBARALE,65620,NANDANDARA,MPENZI
LINDI,65,RUANGWA,656,MATAMBARALE,65620,NANDANDARA,NAMTAMBA
LINDI,65,RUANGWA,656,MATAMBARALE,65620,MATAMBARALE KASKAZINI,KILIMAHEWA
LINDI,65,RUANGWA,656,MATAMBARALE,65620,MATAMBARALE KASKAZINI,MUHIMBILI
LINDI,65,RUANGWA,656,MATAMBARALE,65620,MATAMBARALE KASKAZINI,MTIBORA
LINDI,65,RUANGWA,656,MATAMBARALE,65620,MATAMBARALE KASKAZINI,NAMCHETO
LINDI,65,RUANGWA,656,MATAMBARALE,65620,MATAMBARALE KUSINI,LIWALE
LINDI,65,RUANGWA,656,MATAMBARALE,65620,MATAMBARALE KUSINI,NACHINGWEA
LINDI,65,RUANGWA,656,MATAMBARALE,65620,MATAMBARALE KUSINI,MAJENGO
LINDI,65,RUANGWA,656,MATAMBARALE,65620,MATAMBARALE KUSINI,MTAKUJA
LINDI,65,RUANGWA,656,MATAMBARALE,65620,NAMKATILA,SONGAMBELE
LINDI,65,RUANGWA,656,MATAMBARALE,65620,NAMKATILA,MAGEUZI
LINDI,65,RUANGWA,656,MATAMBARALE,65620,NAMKATILA,CHELEWENI
LINDI,65,RUANGWA,656,MATAMBARALE,65620,NAMKATILA,KIGAMBONI
LINDI,65,RUANGWA,656,CHIBULA,65621,CHIBULA,CHILUMBILU
LINDI,65,RUANGWA,656,CHIBULA,65621,CHIBULA,NG'ARARANGWE
LINDI,65,RUANGWA,656,CHIBULA,65621,CHIBULA,MCHANGANI
LINDI,65,RUANGWA,656,CHIBULA,65621,NAMIENJE,NAMIENJE
LINDI,65,RUANGWA,656,CHIBULA,65621,NAMIENJE,MNAZIMMOJA
LINDI,65,RUANGWA,656,CHIBULA,65621,LICHWACHWA,LICHWACHWA
LINDI,65,RUANGWA,656,CHIBULA,65621,LICHWACHWA,NAIVANGA
LINDI,65,RUANGWA,656,CHIBULA,65621,LICHWACHWA,LIGUNJE
LINDI,65,RUANGWA,656,CHIBULA,65621,LICHWACHWA,NAWACHI
LINDI,65,RUANGWA,656,CHIBULA,65621,LICHWACHWA,MTUMBULU
LINDI,65,RUANGWA,656,CHIBULA,65621,NACHIKALALA,CHIPAYAPAYA
LINDI,65,RUANGWA,656,CHIBULA,65621,NACHIKALALA,NACHIKALALA
LINDI,65,RUANGWA,656,CHIBULA,65621,MUHURU,NAMATINGANYA
LINDI,65,RUANGWA,656,CHIBULA,65621,MUHURU,NAIKOLELA
LINDI,65,RUANGWA,656,CHIBULA,65621,MUHURU,LIGENGE
LINDI,65,RUANGWA,656,MBWEMKURU (MACHANG'ANJA),65622,NANGURUGAI,NANGURUGAI
LINDI,65,RUANGWA,656,MBWEMKURU (MACHANG'ANJA),65622,NANGURUGAI,AMBYE
LINDI,65,RUANGWA,656,MBWEMKURU (MACHANG'ANJA),65622,NANGURUGAI,LUKOWE
LINDI,65,RUANGWA,656,MBWEMKURU (MACHANG'ANJA),65622,NANGURUGAI,MANGUKWA
LINDI,65,RUANGWA,656,MBWEMKURU (MACHANG'ANJA),65622,MACHANG'ANJA,MTAKUJA
LINDI,65,RUANGWA,656,MBWEMKURU (MACHANG'ANJA),65622,MACHANG'ANJA,MBUYUNI
LINDI,65,RUANGWA,656,MBWEMKURU (MACHANG'ANJA),65622,MACHANG'ANJA,KAJIUNGENI
LINDI,65,RUANGWA,656,MBWEMKURU (MACHANG'ANJA),65622,MACHANG'ANJA,MAJENGO
LINDI,65,RUANGWA,656,MBWEMKURU (MACHANG'ANJA),65622,MACHANG'ANJA,NJENGA
LINDI,65,RUANGWA,656,MBWEMKURU (MACHANG'ANJA),65622,CHIKWALE,CHIKWALE
LINDI,65,RUANGWA,656,MBWEMKURU (MACHANG'ANJA),65622,CHIKWALE,NAMAPUTU
LINDI,65,RUANGWA,656,MBWEMKURU (MACHANG'ANJA),65622,CHIUNDU,CHIUNDU
LINDI,65,RUANGWA,656,MBWEMKURU (MACHANG'ANJA),65622,CHIUNDU,NANJENJEMA
LINDI,65,RUANGWA,656,MBWEMKURU (MACHANG'ANJA),65622,CHIUNDU,NKACHILE
