REGION,POSTCODE,DISTRICT,POSTCODE,WARD,POSTCODE,STREET,PLACES
MANYARA,27,BABATI CBD,271,BABATI,27101,MRARA,KITONGOJI
MANYARA,27,BABATI CBD,271,BABATI,27101,BABATI MJINI,KITONGOJI
MANYARA,27,BABATI CBD,271,BABATI,27101,MAISAKA  B,KITONGOJI
MANYARA,27,BABATI CBD,271,BABATI,27101,KWERE,KITONGOJI
MANYARA,27,BABATI CBD,271,BABATI,27101,HANGONI,KITONGOJI
MANYARA,27,BABATI CBD,271,BABATI,27101,MAJENGO,KITONGOJI
MANYARA,27,BABATI CBD,271,BABATI,27101,WAANG'WARAY,KITONGOJI
MANYARA,27,BABATI CBD,271,NANGARA,27102,NANGARA ZIWANI,KITONGOJI
MANYARA,27,BABATI CBD,271,NANGARA,27102,NANGARA KATI,KITONGOJI
MANYARA,27,BABATI CBD,271,NANGARA,27102,MKUYUNI  A,KITONGOJI
MANYARA,27,BABATI CBD,271,NANGARA,27102,MKUYUNI  B,KITONGOJI
MANYARA,27,BABATI CBD,271,NANGARA,27102,MAWENI,KITONGOJI
MANYARA,27,BABATI CBD,271,NANGARA,27102,ARRI,KITONGOJI
MANYARA,27,BABATI CBD,271,NANGARA,27102,BALOWA,KITONGOJI
MANYARA,27,BABATI CBD,271,NANGARA,27102,HALLA,HALLA CHINI
MANYARA,27,BABATI CBD,271,NANGARA,27102,HALLA,HALLA JUU
MANYARA,27,BABATI CBD,271,NANGARA,27102,HALLA,HALLA KATI
MANYARA,27,BABATI CBD,271,BAGARA,27103,NYUNGUU,HALLA KATI
MANYARA,27,BABATI CBD,271,BAGARA,27103,KOMOTO,HALLA KATI
MANYARA,27,BABATI CBD,271,BAGARA,27103,OSTERBAY,HALLA KATI
MANYARA,27,BABATI CBD,271,BAGARA,27103,MJI MPYA,HALLA KATI
MANYARA,27,BABATI CBD,271,BAGARA,27103,NGARENARO,HALLA KATI
MANYARA,27,BABATI CBD,271,BAGARA,27103,NEGAMSI,HALLA KATI
MANYARA,27,BABATI CBD,271,BAGARA,27103,BAGARA ZIWANI,HALLA KATI
MANYARA,27,BABATI CBD,271,BAGARA,27103,MIOMBONI,HALLA KATI
MANYARA,27,BABATI CBD,271,BAGARA,27103,NAKWA,MAGENI
MANYARA,27,BABATI CBD,271,BAGARA,27103,NAKWA,KAYTO
MANYARA,27,BABATI CBD,271,BAGARA,27103,NAKWA,BAGARA
MANYARA,27,BABATI CBD,271,BAGARA,27103,NAKWA,SIMBAKI
MANYARA,27,BABATI CBD,271,BAGARA,27103,NAKWA,SUMBI
MANYARA,27,BABATI CBD,271,MAISAKA,27104,MAISAKA  A,SUMBI
MANYARA,27,BABATI CBD,271,MAISAKA,27104,MAISAKA  KATI,SUMBI
MANYARA,27,BABATI CBD,271,MAISAKA,27104,MURUKI,SUMBI
MANYARA,27,BABATI CBD,271,MAISAKA,27104,SAWE,SUMBI
MANYARA,27,BABATI CBD,271,MAISAKA,27104,KIONGOZI,KIONGOZI
MANYARA,27,BABATI CBD,271,MAISAKA,27104,KIONGOZI,MIGUNGANI
MANYARA,27,BABATI CBD,271,MAISAKA,27104,KIONGOZI,MISUNA
MANYARA,27,BABATI CBD,271,MAISAKA,27104,MALANGI,MALANGI
MANYARA,27,BABATI CBD,271,MAISAKA,27104,MALANGI,SINAI
MANYARA,27,BABATI CBD,271,MAISAKA,27104,MALANGI,SAWE
MANYARA,27,BABATI CBD,271,MAISAKA,27104,MALANGI,CHEMCHEM
MANYARA,27,BABATI CBD,271,MAISAKA,27104,MALANGI,DUDUMERA
MANYARA,27,BABATI CBD,271,SINGE,27105,GENDI KUU,DUDUMERA
MANYARA,27,BABATI CBD,271,SINGE,27105,NYAWARI,DUDUMERA
MANYARA,27,BABATI CBD,271,SINGE,27105,GENDI BARAZANI,DUDUMERA
MANYARA,27,BABATI CBD,271,SINGE,27105,MAJENGO MAPYA,DUDUMERA
MANYARA,27,BABATI CBD,271,SINGE,27105,MANAGHAT,AYAAYNE
MANYARA,27,BABATI CBD,271,SINGE,27105,MANAGHAT,SAMURE
MANYARA,27,BABATI CBD,271,SINGE,27105,MANAGHAT,DANDAAY
MANYARA,27,BABATI CBD,271,SINGE,27105,MANAGHAT,MAAYTSA
MANYARA,27,BABATI CBD,271,SINGE,27105,MANAGHAT,NAKWA
MANYARA,27,BABATI CBD,271,MUTUKA,27106,MUTUKA,SENDO A
MANYARA,27,BABATI CBD,271,MUTUKA,27106,MUTUKA,SENDO B
MANYARA,27,BABATI CBD,271,MUTUKA,27106,MUTUKA,MUTUKA
MANYARA,27,BABATI CBD,271,MUTUKA,27106,MUTUKA,SORA
MANYARA,27,BABATI CBD,271,MUTUKA,27106,CHEMCHEM,CHEMCHEM
MANYARA,27,BABATI CBD,271,MUTUKA,27106,CHEMCHEM,MOROROI
MANYARA,27,BABATI CBD,271,MUTUKA,27106,CHEMCHEM,SORA
MANYARA,27,BABATI CBD,271,BONGA,27107,DAWAR,SORA
MANYARA,27,BABATI CBD,271,BONGA,27107,BONGA MJINI,SORA
MANYARA,27,BABATI CBD,271,BONGA,27107,KANDAKA,SORA
MANYARA,27,BABATI CBD,271,BONGA,27107,AYA BADINE,SORA
MANYARA,27,BABATI CBD,271,BONGA,27107,WANGBOO,SORA
MANYARA,27,BABATI CBD,271,BONGA,27107,HARAA,URUSI
MANYARA,27,BABATI CBD,271,BONGA,27107,HARAA,HARAA
MANYARA,27,BABATI CBD,271,BONGA,27107,HARAA,KIGONGONI
MANYARA,27,BABATI CBD,271,BONGA,27107,HARAA,BUSLA
MANYARA,27,BABATI CBD,271,BONGA,27107,HIMITI,SAMURE
MANYARA,27,BABATI CBD,271,BONGA,27107,HIMITI,AYAHOMA
MANYARA,27,BABATI CBD,271,BONGA,27107,HIMITI,MIRAMBI
MANYARA,27,BABATI CBD,271,BONGA,27107,HIMITI,AMBALAKU
MANYARA,27,BABATI CBD,271,BONGA,27107,HIMITI,HARAA
MANYARA,27,BABATI CBD,271,SIGINO,27108,SIGINO,SIGINO CHINI
MANYARA,27,BABATI CBD,271,SIGINO,27108,SIGINO,HUDUMA
MANYARA,27,BABATI CBD,271,SIGINO,27108,SIGINO,CHORI
MANYARA,27,BABATI CBD,271,SIGINO,27108,SIGINO,GITORI
MANYARA,27,BABATI CBD,271,SIGINO,27108,DAGHAILOY,SAWEY
MANYARA,27,BABATI CBD,271,SIGINO,27108,DAGHAILOY,DAGHAILOY
MANYARA,27,BABATI CBD,271,SIGINO,27108,DAGHAILOY,QADUWET
MANYARA,27,BABATI CBD,271,SIGINO,27108,DAGHAILOY,WAANGBAY
MANYARA,27,BABATI CBD,271,SIGINO,27108,DAGHAILOY,NAITSORI
MANYARA,27,BABATI CBD,271,SIGINO,27108,SINGU,SINGU
MANYARA,27,BABATI CBD,271,SIGINO,27108,SINGU,KINYAMBULI
MANYARA,27,BABATI CBD,271,SIGINO,27108,SINGU,MAGARA
MANYARA,27,BABATI CBD,271,SIGINO,27108,SINGU,ENDASAGO  JUU
MANYARA,27,BABATI CBD,271,SIGINO,27108,IMBILILI,IMBILILI
MANYARA,27,BABATI CBD,271,SIGINO,27108,IMBILILI,IMBILILI KATI
MANYARA,27,BABATI CBD,271,SIGINO,27108,IMBILILI,IMBILILI CHINI
MANYARA,27,BABATI CBD,271,SIGINO,27108,IMBILILI,KASHOMO
MANYARA,27,BABATI,272,MAGUGU,27201,MAGUGU,MAJENGO A
MANYARA,27,BABATI,272,MAGUGU,27201,MAGUGU,MAJENGO B
MANYARA,27,BABATI,272,MAGUGU,27201,MAGUGU,WARANGI A
MANYARA,27,BABATI,272,MAGUGU,27201,MAGUGU,WARANGI B
MANYARA,27,BABATI,272,MAGUGU,27201,MAGUGU,MSIKITI
MANYARA,27,BABATI,272,MAGUGU,27201,MAGUGU,MBUGANI
MANYARA,27,BABATI,272,MAGUGU,27201,GICHAMEDA,GICHAMEDA A
MANYARA,27,BABATI,272,MAGUGU,27201,GICHAMEDA,GICHAMEDA B
MANYARA,27,BABATI,272,MAGUGU,27201,GICHAMEDA,GICHAMEDA C
MANYARA,27,BABATI,272,MAGUGU,27201,GICHAMEDA,MADIBILA
MANYARA,27,BABATI,272,MAGUGU,27201,MAPEA,MAPEA A
MANYARA,27,BABATI,272,MAGUGU,27201,MAPEA,MAPEA  B
MANYARA,27,BABATI,272,MAGUGU,27201,SARAME,TAIFA NJEMA
MANYARA,27,BABATI,272,MAGUGU,27201,SARAME,DOROBONI
MANYARA,27,BABATI,272,MAGUGU,27201,SARAME,KITETO
MANYARA,27,BABATI,272,MAGUGU,27201,SARAME,BULKERI
MANYARA,27,BABATI,272,MAGUGU,27201,SARAME,CHANGARAWE
MANYARA,27,BABATI,272,MAGUGU,27201,MASWARE,NDOROBONI
MANYARA,27,BABATI,272,MAGUGU,27201,MASWARE,KAMBI YA FISI
MANYARA,27,BABATI,272,MAGUGU,27201,MASWARE,MASWARE
MANYARA,27,BABATI,272,MAGUGU,27201,MAWEMAIRO,KITONGOJI A
MANYARA,27,BABATI,272,MAGUGU,27201,MAWEMAIRO,KITONGOJI  B
MANYARA,27,BABATI,272,MAGUGU,27201,MAWEMAIRO,MAJENGO
MANYARA,27,BABATI,272,MAGUGU,27201,MAWEMAIRO,MSIMBAZI
MANYARA,27,BABATI,272,MAGUGU,27201,MAWEMAIRO,BULKER
MANYARA,27,BABATI,272,MAGUGU,27201,MAWEMAIRO,MLIMANI
MANYARA,27,BABATI,272,MAGUGU,27201,MATUFA,SAU
MANYARA,27,BABATI,272,MAGUGU,27201,MATUFA,BURENGE
MANYARA,27,BABATI,272,MAGUGU,27201,MATUFA,KICHANGANI
MANYARA,27,BABATI,272,MAGUGU,27201,MATUFA,MIGUNGANI
MANYARA,27,BABATI,272,MWADA,27202,MWADA,MBUYUNI
MANYARA,27,BABATI,272,MWADA,27202,MWADA,BURUNGE A
MANYARA,27,BABATI,272,MWADA,27202,MWADA,BURUNGE B
MANYARA,27,BABATI,272,MWADA,27202,MWADA,BONDENI
MANYARA,27,BABATI,272,MWADA,27202,NGOLEY,NGOLEY  A
MANYARA,27,BABATI,272,MWADA,27202,NGOLEY,NGOLEY  B
MANYARA,27,BABATI,272,MWADA,27202,NGOLEY,NGOLEY  C
MANYARA,27,BABATI,272,MWADA,27202,SANGAIWE,SANGAIWE
MANYARA,27,BABATI,272,MWADA,27202,SANGAIWE,GEMBO
MANYARA,27,BABATI,272,MWADA,27202,SANGAIWE,OSOLEY
MANYARA,27,BABATI,272,NKAITI,27203,VILIMA VITATU,MDORI
MANYARA,27,BABATI,272,NKAITI,27203,VILIMA VITATU,KIGONGONI
MANYARA,27,BABATI,272,NKAITI,27203,VILIMA VITATU,MAREWA
MANYARA,27,BABATI,272,NKAITI,27203,VILIMA VITATU,MAGOMENI
MANYARA,27,BABATI,272,NKAITI,27203,VILIMA VITATU,MCHEMU
MANYARA,27,BABATI,272,NKAITI,27203,VILIMA VITATU,CHANGARAWE
MANYARA,27,BABATI,272,NKAITI,27203,MINJINGU,MMAS
MANYARA,27,BABATI,272,NKAITI,27203,MINJINGU,MAKAO MAPYA
MANYARA,27,BABATI,272,NKAITI,27203,MINJINGU,MBULUGU
MANYARA,27,BABATI,272,NKAITI,27203,MINJINGU,MMAS
MANYARA,27,BABATI,272,NKAITI,27203,OLASITI,OLTUKAI
MANYARA,27,BABATI,272,NKAITI,27203,OLASITI,ELUWAI
MANYARA,27,BABATI,272,NKAITI,27203,OLASITI,KIBAONI A
MANYARA,27,BABATI,272,NKAITI,27203,OLASITI,KIBAONI B
MANYARA,27,BABATI,272,NKAITI,27203,KAKOI,SONGA MBELE A
MANYARA,27,BABATI,272,NKAITI,27203,KAKOI,KISERIAN
MANYARA,27,BABATI,272,NKAITI,27203,KAKOI,OLEYOLOSI
MANYARA,27,BABATI,272,NKAITI,27203,KAKOI,SONGA MBELE
MANYARA,27,BABATI,272,NKAITI,27203,KAKOI,SONGA MBELE B
MANYARA,27,BABATI,272,MAGARA,27204,MANYARA,MANYARA
MANYARA,27,BABATI,272,MAGARA,27204,MANYARA,JANGWANI
MANYARA,27,BABATI,272,MAGARA,27204,MANYARA,KISESE A
MANYARA,27,BABATI,272,MAGARA,27204,MANYARA,KISESE B
MANYARA,27,BABATI,272,MAGARA,27204,MANYARA,KAMBI YA SIMBA
MANYARA,27,BABATI,272,MAGARA,27204,MAYOMAYOKA,MAYOMAYOKA
MANYARA,27,BABATI,272,MAGARA,27204,MAYOMAYOKA,MAYOKA A
MANYARA,27,BABATI,272,MAGARA,27204,MAYOMAYOKA,MAYOKA B
MANYARA,27,BABATI,272,MAGARA,27204,MAGARA,MAGARA
MANYARA,27,BABATI,272,MAGARA,27204,MAGARA,NGARENARO
MANYARA,27,BABATI,272,MAGARA,27204,MAGARA,MAJEGO
MANYARA,27,BABATI,272,MAGARA,27204,MAGARA,MIGUNGANI
MANYARA,27,BABATI,272,MAGARA,27204,MAWENI,MAWENI  A
MANYARA,27,BABATI,272,MAGARA,27204,MAWENI,MAWENI  B
MANYARA,27,BABATI,272,MAGARA,27204,MAWENI,NJORO
MANYARA,27,BABATI,272,MAGARA,27204,MAWENI,MAKOLE
MANYARA,27,BABATI,272,MAGARA,27204,MAWENI,KOROMPI
MANYARA,27,BABATI,272,MAGARA,27204,MOYA,JANGWANI
MANYARA,27,BABATI,272,MAGARA,27204,MOYA,SINZA
MANYARA,27,BABATI,272,MAGARA,27204,MOYA,MTO DAGAA
MANYARA,27,BABATI,272,MAGARA,27204,MOYA,KIGONGONI
MANYARA,27,BABATI,272,MAGARA,27204,MOYA,KORONGO LA NYUNI
MANYARA,27,BABATI,272,DAREDA,27205,SELOTO,SEMAK              A
MANYARA,27,BABATI,272,DAREDA,27205,SELOTO,SEMAK              B
MANYARA,27,BABATI,272,DAREDA,27205,SELOTO,QADABRADING
MANYARA,27,BABATI,272,DAREDA,27205,SELOTO,DAKWATARA     A
MANYARA,27,BABATI,272,DAREDA,27205,SELOTO,DAKWATARA     B
MANYARA,27,BABATI,272,DAREDA,27205,LOTO,GETALONG
MANYARA,27,BABATI,272,DAREDA,27205,LOTO,DARWET
MANYARA,27,BABATI,272,DAREDA,27205,LOTO,LOTO                 A
MANYARA,27,BABATI,272,DAREDA,27205,LOTO,LOTO                 B
MANYARA,27,BABATI,272,DAREDA,27205,LOTO,UWANJA WA NDEGE
MANYARA,27,BABATI,272,DAREDA,27205,BERMI,BERMI                A
MANYARA,27,BABATI,272,DAREDA,27205,BERMI,BERMI                B
MANYARA,27,BABATI,272,DAREDA,27205,BERMI,BERMI                C
MANYARA,27,BABATI,272,DABIL,27206,MAGANJWA,MAGANJWA      A
MANYARA,27,BABATI,272,DABIL,27206,MAGANJWA,GANUWASI
MANYARA,27,BABATI,272,DABIL,27206,MAGANJWA,MUNMUNANGW'
MANYARA,27,BABATI,272,DABIL,27206,MAGANJWA,SHAMNA
MANYARA,27,BABATI,272,DABIL,27206,DABIL,DABIL
MANYARA,27,BABATI,272,DABIL,27206,DABIL,LEHODESH
MANYARA,27,BABATI,272,DABIL,27206,DABIL,MASABA
MANYARA,27,BABATI,272,DABIL,27206,DABIL,MAGANJWA      B
MANYARA,27,BABATI,272,DABIL,27206,DABIL,HOREM
MANYARA,27,BABATI,272,DABIL,27206,MANDI,MANDI MASHARIKI
MANYARA,27,BABATI,272,DABIL,27206,MANDI,MANDI MAGHARIBI
MANYARA,27,BABATI,272,DABIL,27206,MANDI,GHARANGI
MANYARA,27,BABATI,272,DABIL,27206,SABILO,BULAGHAY
MANYARA,27,BABATI,272,DABIL,27206,SABILO,GETANYAMUI
MANYARA,27,BABATI,272,DABIL,27206,SABILO,BARYOMOT
MANYARA,27,BABATI,272,DABIL,27206,GIDEWARI,GIDEWARI
MANYARA,27,BABATI,272,DABIL,27206,GIDEWARI,ENDADU
MANYARA,27,BABATI,272,DABIL,27206,GIDEWARI,BIRSIMA
MANYARA,27,BABATI,272,DABIL,27206,GIDEWARI,GETAMUR
MANYARA,27,BABATI,272,DABIL,27206,GIDEWARI,ENDABANYEG
MANYARA,27,BABATI,272,DABIL,27206,GIDEWARI,QKWO
MANYARA,27,BABATI,272,BASHNET,27207,BASHNET,BASHNET KATI
MANYARA,27,BABATI,272,BASHNET,27207,BASHNET,TSAAYO
MANYARA,27,BABATI,272,BASHNET,27207,BASHNET,MASAKTA
MANYARA,27,BABATI,272,BASHNET,27207,BASHNET,MANDAGEW
MANYARA,27,BABATI,272,BASHNET,27207,BASHNET,AYAYAE
MANYARA,27,BABATI,272,BASHNET,27207,GUSE,AFANDI
MANYARA,27,BABATI,272,BASHNET,27207,GUSE,WANDUTA
MANYARA,27,BABATI,272,BASHNET,27207,GUSE,DAWATLAAMI
MANYARA,27,BABATI,272,BASHNET,27207,GUSE,MASABEDA
MANYARA,27,BABATI,272,BASHNET,27207,GUSE,GETABUSHKE
MANYARA,27,BABATI,272,BASHNET,27207,WALAHU,WALAHU KATI
MANYARA,27,BABATI,272,BASHNET,27207,WALAHU,WADRETA
MANYARA,27,BABATI,272,BASHNET,27207,WALAHU,ENDAGASKETI
MANYARA,27,BABATI,272,BASHNET,27207,WALAHU,INTISI
MANYARA,27,BABATI,272,BASHNET,27207,LONG,LONG
MANYARA,27,BABATI,272,BASHNET,27207,LONG,HHAYLOTO
MANYARA,27,BABATI,272,BASHNET,27207,LONG,ENDAW
MANYARA,27,BABATI,272,BASHNET,27207,LONG,QUNYA
MANYARA,27,BABATI,272,BASHNET,27207,LONG,AYATANGO
MANYARA,27,BABATI,272,NAR,27208,GABADAW,GABADAW
MANYARA,27,BABATI,272,NAR,27208,GABADAW,KANSAY
MANYARA,27,BABATI,272,NAR,27208,GABADAW,GETUMOKI
MANYARA,27,BABATI,272,NAR,27208,GABADAW,BASHNET JUU
MANYARA,27,BABATI,272,NAR,27208,GABADAW,KWANKWARI
MANYARA,27,BABATI,272,NAR,27208,GABADAW,BASHNET KATI
MANYARA,27,BABATI,272,NAR,27208,NAR,DAKWTLER
MANYARA,27,BABATI,272,NAR,27208,NAR,TITIWI
MANYARA,27,BABATI,272,NAR,27208,NAR,QANGHAR
MANYARA,27,BABATI,272,NAR,27208,NAR,BAJROMOT
MANYARA,27,BABATI,272,NAR,27208,NAR,QARGHARA
MANYARA,27,BABATI,272,NAR,27208,ENDAMANANG,CHEMCHEM
MANYARA,27,BABATI,272,NAR,27208,ENDAMANANG,DONYA
MANYARA,27,BABATI,272,NAR,27208,ENDAMANANG,DIGIRMO
MANYARA,27,BABATI,272,UFANA,27209,DIFFIR,DAYMBOY
MANYARA,27,BABATI,272,UFANA,27209,DIFFIR,MAGHANYA
MANYARA,27,BABATI,272,UFANA,27209,DIFFIR,DIFFIR
MANYARA,27,BABATI,272,UFANA,27209,UFANA,UFANA
MANYARA,27,BABATI,272,UFANA,27209,UFANA,SAGASAGE
MANYARA,27,BABATI,272,UFANA,27209,UFANA,DATARI
MANYARA,27,BABATI,272,UFANA,27209,UFANA,SEMONYA
MANYARA,27,BABATI,272,UFANA,27209,SAYDODA,GISGISIT
MANYARA,27,BABATI,272,UFANA,27209,SAYDODA,GIDAGAWUJI
MANYARA,27,BABATI,272,UFANA,27209,SAYDODA,ENDANGDI
MANYARA,27,BABATI,272,MADUNGA,27210,MADUNGA,ENDALAHA
MANYARA,27,BABATI,272,MADUNGA,27210,MADUNGA,NYARAT
MANYARA,27,BABATI,272,MADUNGA,27210,MADUNGA,TANGU
MANYARA,27,BABATI,272,MADUNGA,27210,MADUNGA,NGORONGORO    A
MANYARA,27,BABATI,272,MADUNGA,27210,UTWARI,TANGO
MANYARA,27,BABATI,272,MADUNGA,27210,UTWARI,GAJAL
MANYARA,27,BABATI,272,MADUNGA,27210,UTWARI,QAWLRAY
MANYARA,27,BABATI,272,MADUNGA,27210,GIDNG’WAR,QESIGE
MANYARA,27,BABATI,272,MADUNGA,27210,GIDNG’WAR,GABADAW
MANYARA,27,BABATI,272,MADUNGA,27210,GIDNG’WAR,GIDNG’WAR
MANYARA,27,BABATI,272,ENDAKISO,27211,GIJEDABUNG,KAMBINI A
MANYARA,27,BABATI,272,ENDAKISO,27211,GIJEDABUNG,KAMBINI B
MANYARA,27,BABATI,272,ENDAKISO,27211,GIJEDABUNG,NGUNGUNGU
MANYARA,27,BABATI,272,ENDAKISO,27211,GIJEDABUNG,SONGAMBELE
MANYARA,27,BABATI,272,ENDAKISO,27211,GIJEDABUNG,KISEYU
MANYARA,27,BABATI,272,ENDAKISO,27211,KWARAA,KWARAA
MANYARA,27,BABATI,272,ENDAKISO,27211,KWARAA,SANYA
MANYARA,27,BABATI,272,ENDAKISO,27211,KWARAA,KIKUYUNI
MANYARA,27,BABATI,272,ENDAKISO,27211,KWARAA,ENDAMAGHAI B
MANYARA,27,BABATI,272,ENDAKISO,27211,KWARAA,AMAGENDAI
MANYARA,27,BABATI,272,ENDAKISO,27211,ENDAKISO,ENDAMAGHAI A
MANYARA,27,BABATI,272,ENDAKISO,27211,ENDAKISO,KIFARU KATI
MANYARA,27,BABATI,272,ENDAKISO,27211,ENDAKISO,KIFARU JUU
MANYARA,27,BABATI,272,ENDAKISO,27211,ENDAKISO,SORA
MANYARA,27,BABATI,272,GALLAPO,27212,GALLAPO,GALLAPO MJINI
MANYARA,27,BABATI,272,GALLAPO,27212,GALLAPO,CHALO         A
MANYARA,27,BABATI,272,GALLAPO,27212,GALLAPO,CHALO         B
MANYARA,27,BABATI,272,GALLAPO,27212,GALLAPO,GALLAPO MISSION
MANYARA,27,BABATI,272,GALLAPO,27212,ENDANOGA,GALLAPO KATI
MANYARA,27,BABATI,272,GALLAPO,27212,ENDANOGA,TANGINI B
MANYARA,27,BABATI,272,GALLAPO,27212,ENDANOGA,TANGINI A
MANYARA,27,BABATI,272,GALLAPO,27212,ENDANOGA,NGARANARO A
MANYARA,27,BABATI,272,GALLAPO,27212,ENDANOGA,NGARANARO B
MANYARA,27,BABATI,272,GALLAPO,27212,AYAMANGO,AYAMANGO
MANYARA,27,BABATI,272,GALLAPO,27212,AYAMANGO,NANGARA
MANYARA,27,BABATI,272,GALLAPO,27212,AYAMANGO,BASODA
MANYARA,27,BABATI,272,GALLAPO,27212,AYAMANGO,MORONGI
MANYARA,27,BABATI,272,GALLAPO,27212,AYAMANGO,NGANYI
MANYARA,27,BABATI,272,GALLAPO,27212,HALLU,GEDAMAR
MANYARA,27,BABATI,272,GALLAPO,27212,HALLU,NYAMHALI
MANYARA,27,BABATI,272,GALLAPO,27212,HALLU,KISUTU
MANYARA,27,BABATI,272,GALLAPO,27212,GEDAMAR,GEDAMAR A
MANYARA,27,BABATI,272,GALLAPO,27212,GEDAMAR,GEDAMAR  B
MANYARA,27,BABATI,272,GALLAPO,27212,GEDAMAR,GEDAMAR  C
MANYARA,27,BABATI,272,QASH,27214,QASH,QASH
MANYARA,27,BABATI,272,QASH,27214,QASH,TANGINI B
MANYARA,27,BABATI,272,QASH,27214,QASH,MIGUNGANI
MANYARA,27,BABATI,272,QASH,27214,QASH,BAGAHRI
MANYARA,27,BABATI,272,QASH,27214,MAJENGO,MAJENGO A
MANYARA,27,BABATI,272,QASH,27214,MAJENGO,MAJENGO B
MANYARA,27,BABATI,272,QASH,27214,MAJENGO,MAJENGO C
MANYARA,27,BABATI,272,QASH,27214,ORNGA'DIDA,MALESHI MAWENI
MANYARA,27,BABATI,272,QASH,27214,ORNGA'DIDA,KINYASI
MANYARA,27,BABATI,272,QASH,27214,ORNGA'DIDA,MLIMANI
MANYARA,27,BABATI,272,QASH,27214,ORNGA'DIDA,CHANG'OMBE
MANYARA,27,BABATI,272,QASH,27214,ORNGA'DIDA,UJEJI
MANYARA,27,BABATI,272,QASH,27214,ORNGA'DIDA,MJI MPYA
MANYARA,27,BABATI,272,QASH,27214,ORNGA'DIDA,MIGUNGANI
MANYARA,27,BABATI,272,QASH,27214,ORNGA'DIDA,CHEMCHEM
MANYARA,27,BABATI,272,QASH,27214,TSAMASI,TSAMAS
MANYARA,27,BABATI,272,QASH,27214,TSAMASI,TUMBA
MANYARA,27,BABATI,272,QASH,27214,TSAMASI,HARAA
MANYARA,27,BABATI,272,QASH,27214,TSAMASI,CHALO
MANYARA,27,BABATI,272,QASH,27214,NG’WANG’WERI,NG’WANG’WERI
MANYARA,27,BABATI,272,QASH,27214,NG’WANG’WERI,AYACHOLI
MANYARA,27,BABATI,272,QASH,27214,NG’WANG’WERI,SORA
MANYARA,27,BABATI,272,QASH,27214,ENDADOSH,ENDADOSH
MANYARA,27,BABATI,272,QASH,27214,ENDADOSH,MPAKANI
MANYARA,27,BABATI,272,QASH,27214,ENDADOSH,KISIWANI
MANYARA,27,BABATI,272,QASH,27214,ENDADOSH,MAWENI
MANYARA,27,BABATI,272,RIRODA,27215,SANGARA,SANGARA
MANYARA,27,BABATI,272,RIRODA,27215,SANGARA,GIDESHAN
MANYARA,27,BABATI,272,RIRODA,27215,SANGARA,DAKAAMO
MANYARA,27,BABATI,272,RIRODA,27215,SANGARA,ENDABERG
MANYARA,27,BABATI,272,RIRODA,27215,SANGARA,QEDAGERERE      A
MANYARA,27,BABATI,272,RIRODA,27215,RIRODA,RIRODA KATI
MANYARA,27,BABATI,272,RIRODA,27215,RIRODA,HOMON
MANYARA,27,BABATI,272,RIRODA,27215,RIRODA,MAMAHASAMO
MANYARA,27,BABATI,272,RIRODA,27215,RIRODA,ATATLAA
MANYARA,27,BABATI,272,RIRODA,27215,RIRODA,QEDAGERERE      B
MANYARA,27,BABATI,272,RIRODA,27215,ENDABERG,ENDABERG
MANYARA,27,BABATI,272,RIRODA,27215,ENDABERG,AYAHATI
MANYARA,27,BABATI,272,RIRODA,27215,ENDABERG,GAYU
MANYARA,27,BABATI,272,RIRODA,27215,ENDABERG,GIROY
MANYARA,27,BABATI,272,RIRODA,27215,HEWASI,ENDASHANGWET
MANYARA,27,BABATI,272,RIRODA,27215,HEWASI,KITANGWHANOT
MANYARA,27,BABATI,272,RIRODA,27215,HEWASI,KHONGUMO
MANYARA,27,BABATI,272,AYASANDA,27216,AYASANDA,AYASANDA
MANYARA,27,BABATI,272,AYASANDA,27216,AYASANDA,ENDAQULAQUL
MANYARA,27,BABATI,272,AYASANDA,27216,AYASANDA,AYATLAA
MANYARA,27,BABATI,272,AYASANDA,27216,AYASANDA,HAITEMBA
MANYARA,27,BABATI,272,AYASANDA,27216,AYASANDA,AYAMANDOO
MANYARA,27,BABATI,272,AYASANDA,27216,AYASANDA,AYASLAKI
MANYARA,27,BABATI,272,AYASANDA,27216,ENDANACHAN,ENDANACHAN
MANYARA,27,BABATI,272,AYASANDA,27216,ENDANACHAN,DUGHAY
MANYARA,27,BABATI,272,AYASANDA,27216,ENDANACHAN,BUNGA
MANYARA,27,BABATI,272,AYASANDA,27216,ENDANACHAN,HOSHAN
MANYARA,27,BABATI,272,AYASANDA,27216,ENDANACHAN,QAYMANDA
MANYARA,27,BABATI,272,GIDAS,27217,BUBU,ENDAMAGHAY
MANYARA,27,BABATI,272,GIDAS,27217,BUBU,ENDARGHABAD
MANYARA,27,BABATI,272,GIDAS,27217,BUBU,ENDADU
MANYARA,27,BABATI,272,GIDAS,27217,BUBU,ENDABO
MANYARA,27,BABATI,272,GIDAS,27217,GIDAS,GIDAS
MANYARA,27,BABATI,272,GIDAS,27217,GIDAS,NGARENARO
MANYARA,27,BABATI,272,GIDAS,27217,GIDAS,MNADANI
MANYARA,27,BABATI,272,GIDAS,27217,GIDAS,HAYTEMBA
MANYARA,27,BABATI,272,GIDAS,27217,ENDADMET,ENDAMARIR
MANYARA,27,BABATI,272,GIDAS,27217,ENDADMET,ENDADU
MANYARA,27,BABATI,272,GIDAS,27217,ENDADMET,ENDADIMET
MANYARA,27,BABATI,272,GIDAS,27217,ENDADMET,HOSHAN
MANYARA,27,BABATI,272,GIDAS,27217,ENDAMAGHAY,ENDAMAGHAY
MANYARA,27,BABATI,272,GIDAS,27217,ENDAMAGHAY,ENDACHO
MANYARA,27,BABATI,272,GIDAS,27217,ENDAMAGHAY,ENDADU
MANYARA,27,BABATI,272,BOAY,27218,BOAY,MAGHALATA
MANYARA,27,BABATI,272,BOAY,27218,BOAY,DITSOMA
MANYARA,27,BABATI,272,BOAY,27218,BOAY,QAYMANDA
MANYARA,27,BABATI,272,BOAY,27218,GIJEDABOSHKA,GIJEDABOSHKA
MANYARA,27,BABATI,272,BOAY,27218,GIJEDABOSHKA,MHASHASHOTI
MANYARA,27,BABATI,272,BOAY,27218,GIJEDABOSHKA,MAAYDAATIN
MANYARA,27,BABATI,272,BOAY,27218,GIDABAGHAR,CHEMCHEM
MANYARA,27,BABATI,272,BOAY,27218,GIDABAGHAR,GONG
MANYARA,27,BABATI,272,BOAY,27218,GIDABAGHAR,TLAWI
MANYARA,27,BABATI,272,BOAY,27218,GIDABAGHAR,GIDABAGHAR
MANYARA,27,BABATI,272,BOAY,27218,GIDABAGHAR,BUBU
MANYARA,27,BABATI,272,DURU,27219,DURU,MANAGHA
MANYARA,27,BABATI,272,DURU,27219,DURU,QONAS
MANYARA,27,BABATI,272,DURU,27219,DURU,GIDAMUWOO     A
MANYARA,27,BABATI,272,DURU,27219,DURU,GIDAMUWOO     B
MANYARA,27,BABATI,272,DURU,27219,DURU,GITARA
MANYARA,27,BABATI,272,DURU,27219,GESBERT,GESBERT
MANYARA,27,BABATI,272,DURU,27219,GESBERT,QWARYASI
MANYARA,27,BABATI,272,DURU,27219,GESBERT,MANAGHA
MANYARA,27,BABATI,272,DURU,27219,GESBERT,DAKAAMO
MANYARA,27,BABATI,272,DURU,27219,ENDAGWE,ENDAGWE
MANYARA,27,BABATI,272,DURU,27219,ENDAGWE,HIYAM
MANYARA,27,BABATI,272,DURU,27219,ENDAGWE,AROYA
MANYARA,27,BABATI,272,DURU,27219,ENDAGWE,KHONGOMO
MANYARA,27,BABATI,272,DURU,27219,ENDAGWE,YAERI DANGI
MANYARA,27,BABATI,272,DURU,27219,HOSHANI,HOSHAN            A
MANYARA,27,BABATI,272,DURU,27219,HOSHANI,HOSHAN            B
MANYARA,27,BABATI,272,DURU,27219,HOSHANI,PONGAY
MANYARA,27,BABATI,272,DURU,27219,HOSHANI,ZIWANI
MANYARA,27,BABATI,272,DURU,27219,HOSHANI,MBUYUNI
MANYARA,27,BABATI,272,DURU,27219,HOSHANI,MUMBALA
MANYARA,27,BABATI,272,DURU,27219,YAROTONIC,YOROTONIK
MANYARA,27,BABATI,272,DURU,27219,YAROTONIC,KAMBI
MANYARA,27,BABATI,272,DURU,27219,YAROTONIC,NYAMAT
MANYARA,27,BABATI,272,DURU,27219,YAROTONIC,QALANDI
MANYARA,27,BABATI,272,ARRI,27220,DOHOM,DOHOM         A
MANYARA,27,BABATI,272,ARRI,27220,DOHOM,DOHOM         B
MANYARA,27,BABATI,272,ARRI,27220,DOHOM,DOHOM         C
MANYARA,27,BABATI,272,ARRI,27220,DOHOM,ANTSA
MANYARA,27,BABATI,272,ARRI,27220,MANAGHA,MANAGHA
MANYARA,27,BABATI,272,ARRI,27220,MANAGHA,GENEI
MANYARA,27,BABATI,272,ARRI,27220,MANAGHA,SLAHHAMO
MANYARA,27,BABATI,272,ARRI,27220,TSAAYO,TSAAYO          A
MANYARA,27,BABATI,272,ARRI,27220,TSAAYO,TSAAYO          B
MANYARA,27,BABATI,272,ARRI,27220,TSAAYO,AYAHAYSHI
MANYARA,27,BABATI,272,ARRI,27220,DUDIYE,DUDIYE
MANYARA,27,BABATI,272,ARRI,27220,DUDIYE,MERHAS
MANYARA,27,BABATI,272,ARRI,27220,DUDIYE,AYAGENDA
MANYARA,27,BABATI,272,ARRI,27220,DUDIYE,MAJENGO
MANYARA,27,BABATI,272,ARRI,27220,SHARMO,TLITA
MANYARA,27,BABATI,272,ARRI,27220,SHARMO,BARAS
MANYARA,27,BABATI,272,ARRI,27220,SHARMO,SABILO
MANYARA,27,BABATI,272,ARRI,27220,SHARMO,SHARMO
MANYARA,27,BABATI,272,ARRI,27220,ENDASAGO,ENDASAGO
MANYARA,27,BABATI,272,ARRI,27220,ENDASAGO,MAISAKA
MANYARA,27,BABATI,272,ARRI,27220,ENDASAGO,BERMI
MANYARA,27,BABATI,272,ARRI,27220,ARRI,GHEDALAN
MANYARA,27,BABATI,272,ARRI,27220,ARRI,TANGO
MANYARA,27,BABATI,272,ARRI,27220,ARRI,ARRI
MANYARA,27,BABATI,272,KIRU,27221,KIAMARA,KIROROMA
MANYARA,27,BABATI,272,KIRU,27221,KIAMARA,MGUNGANI
MANYARA,27,BABATI,272,KIRU,27221,KIAMARA,MIYOMBONI
MANYARA,27,BABATI,272,KIRU,27221,KIRU NDOGO,SUNGURA
MANYARA,27,BABATI,272,KIRU,27221,KIRU NDOGO,SONGA
MANYARA,27,BABATI,272,KIRU,27221,KIRU NDOGO,IRAQW
MANYARA,27,BABATI,272,KIRU,27221,KIRU SIX,NDOROBONI
MANYARA,27,BABATI,272,KIRU,27221,KIRU SIX,PIMBI A
MANYARA,27,BABATI,272,KIRU,27221,KIRU SIX,PIMBI B
MANYARA,27,BABATI,272,KIRU,27221,KIRU SIX,WAHARI
MANYARA,27,BABATI,272,KIRU,27221,KIRU  DICK,MBUNI
MANYARA,27,BABATI,272,KIRU,27221,KIRU  DICK,ENDASAGO  CHINI
MANYARA,27,BABATI,272,KIRU,27221,KIRU  DICK,DICK KATI
MANYARA,27,BABATI,272,KIRU,27221,ERRI,ERRI KATI
MANYARA,27,BABATI,272,KIRU,27221,ERRI,ERRI BONDENI
MANYARA,27,BABATI,272,KIRU,27221,ERRI,KINOIM
MANYARA,27,BABATI,272,KIRU,27221,ERRI,FARAP
MANYARA,27,BABATI,272,KIRU,27221,KOKOMAY,KOKOMAY
MANYARA,27,BABATI,272,KIRU,27221,KOKOMAY,MAJENGO
MANYARA,27,BABATI,272,KIRU,27221,KOKOMAY,KANDA
MANYARA,27,BABATI,272,KIRU,27221,KOKOMAY,QWAM
MANYARA,27,BABATI,272,MAMIRE,27222,ENDAGILE,GUBAI
MANYARA,27,BABATI,272,MAMIRE,27222,ENDAGILE,MAWANI
MANYARA,27,BABATI,272,MAMIRE,27222,ENDAGILE,MAJENGO
MANYARA,27,BABATI,272,MAMIRE,27222,MWINKANTSI,SENTA
MANYARA,27,BABATI,272,MAMIRE,27222,MWINKANTSI,MAJENGO
MANYARA,27,BABATI,272,MAMIRE,27222,MWINKANTSI,WALOA
MANYARA,27,BABATI,272,MAMIRE,27222,MWINKANTSI,KANTSI
MANYARA,27,BABATI,272,MAMIRE,27222,MWINKANTSI,MWIKA
MANYARA,27,BABATI,272,MAMIRE,27222,MAMIRE,MAMIRE KATI
MANYARA,27,BABATI,272,MAMIRE,27222,MAMIRE,SINGE
MANYARA,27,BABATI,272,MAMIRE,27222,MAMIRE,CHANG'OMBE
MANYARA,27,BABATI,272,MAMIRE,27222,MAMIRE,URANGINI
MANYARA,27,BABATI,272,MAMIRE,27222,MAMIRE,CHASIMBA
MANYARA,27,BABATI,272,AYALAGAYA,27223,DAREDA KATI,AYALAGAYA   A
MANYARA,27,BABATI,272,AYALAGAYA,27223,DAREDA KATI,AYALAGAYA   B
MANYARA,27,BABATI,272,AYALAGAYA,27223,DAREDA KATI,BACHO A
MANYARA,27,BABATI,272,AYALAGAYA,27223,DAREDA KATI,BACHO  B
MANYARA,27,BABATI,272,AYALAGAYA,27223,HAYSAM,GIDIM    A
MANYARA,27,BABATI,272,AYALAGAYA,27223,HAYSAM,GIDIM    B
MANYARA,27,BABATI,272,AYALAGAYA,27223,HAYSAM,GIDIM    C
MANYARA,27,BABATI,272,AYALAGAYA,27223,HAYSAM,HHEWAS
MANYARA,27,BABATI,272,AYALAGAYA,27223,GAJAL,SAMBO
MANYARA,27,BABATI,272,AYALAGAYA,27223,GAJAL,GIDMAKUMBIT
MANYARA,27,BABATI,272,AYALAGAYA,27223,GAJAL,TITIO
MANYARA,27,BABATI,272,AYALAGAYA,27223,GAJAL,GIDMIL
MANYARA,27,BABATI,272,SECHEDA,27224,DARWEDICK,SIGDI
MANYARA,27,BABATI,272,SECHEDA,27224,DARWEDICK,DARWEDICK
MANYARA,27,BABATI,272,SECHEDA,27224,DARWEDICK,DAGHUMI
MANYARA,27,BABATI,272,SECHEDA,27224,LUXMANDA,LUXMANDA
MANYARA,27,BABATI,272,SECHEDA,27224,LUXMANDA,DABASO
MANYARA,27,BABATI,272,SECHEDA,27224,SECHEDA,SECHEDA
MANYARA,27,BABATI,272,SECHEDA,27224,SECHEDA,LANGHANEDESH
MANYARA,27,BABATI,272,SECHEDA,27224,SECHEDA,SIRGEU
MANYARA,27,BABATI,272,SECHEDA,27224,SECHEDA,ISHPONET
MANYARA,27,BABATI,272,SECHEDA,27224,ORBESH,ISHBONE
MANYARA,27,BABATI,272,SECHEDA,27224,ORBESH,QAMDAY
MANYARA,27,BABATI,272,SECHEDA,27224,ORBESH,MIYAGH
MANYARA,27,BABATI,272,SECHEDA,27224,ORBESH,DILODA
MANYARA,27,BABATI,272,SECHEDA,27224,ORBESH,GIDARYODI
MANYARA,27,BABATI,272,KISANGAJI,27225,KISANGAJI,FURUTIA
MANYARA,27,BABATI,272,KISANGAJI,27225,KISANGAJI,IDULU
MANYARA,27,BABATI,272,KISANGAJI,27225,KISANGAJI,HUDUMA
MANYARA,27,BABATI,272,KISANGAJI,27225,KISANGAJI,KISANGAJI
MANYARA,27,BABATI,272,KISANGAJI,27225,SHAURIMOYO,SHAURIMOYO
MANYARA,27,BABATI,272,KISANGAJI,27225,SHAURIMOYO,MOHOLEY
MANYARA,27,BABATI,272,KISANGAJI,27225,SHAURIMOYO,BONDENI
MANYARA,27,BABATI,272,KISANGAJI,27225,KAZAROHO,KAZAROHO
MANYARA,27,BABATI,272,KISANGAJI,27225,KAZAROHO,MIGUNGANI
MANYARA,27,BABATI,272,KISANGAJI,27225,KAZAROHO,SENTA
MANYARA,27,BABATI,272,QAMEYU,27226,ENDAW,ENDAW
MANYARA,27,BABATI,272,QAMEYU,27226,ENDAW,ENDABOK
MANYARA,27,BABATI,272,QAMEYU,27226,ENDAW,LABALA
MANYARA,27,BABATI,272,QAMEYU,27226,ENDAW,AYAABEN
MANYARA,27,BABATI,272,QAMEYU,27226,QAMEYU,GIDNG'AT
MANYARA,27,BABATI,272,QAMEYU,27226,QAMEYU,QAMEYU
MANYARA,27,BABATI,272,QAMEYU,27226,QAMEYU,MAYSHI
MANYARA,27,BABATI,272,QAMEYU,27226,QAMEYU,AFIT
MANYARA,27,BABATI,272,QAMEYU,27226,MERR,BUUMO
MANYARA,27,BABATI,272,QAMEYU,27226,MERR,MARAMBI
MANYARA,27,BABATI,272,QAMEYU,27226,MERR,SABRO
MANYARA,27,BABATI,272,QAMEYU,27226,MERR,SHULENI
MANYARA,27,BABATI,272,QAMEYU,27226,GAWAL,GAWAL
MANYARA,27,BABATI,272,QAMEYU,27226,GAWAL,DIMOSANG'
MANYARA,27,BABATI,272,QAMEYU,27226,GAWAL,GINASAG
MANYARA,27,HANANG',273,KATESH,27301,GAWAL,KATESH STENDI
MANYARA,27,HANANG',273,KATESH,27301,GAWAL,HOMBAP
MANYARA,27,HANANG',273,KATESH,27301,GAWAL,KATESH ‘B’
MANYARA,27,HANANG',273,KATESH,27301,GAWAL,GIJEGA
MANYARA,27,HANANG',273,KATESH,27301,GAWAL,LAMAY
MANYARA,27,HANANG',273,GANANA,27302,GAWAL,KATESH ‘A’
MANYARA,27,HANANG',273,GANANA,27302,GAWAL,GANANA ‘A’
MANYARA,27,HANANG',273,GANANA,27302,GAWAL,GANANA ‘B’
MANYARA,27,HANANG',273,GANANA,27302,GAWAL,GANANA ‘C’
MANYARA,27,HANANG',273,GANANA,27302,GAWAL,QEDANG’ONY
MANYARA,27,HANANG',273,MOGITU,27303,GABADAW,GABADAW
MANYARA,27,HANANG',273,MOGITU,27303,GABADAW,ESHKESH
MANYARA,27,HANANG',273,MOGITU,27303,GABADAW,LABAY
MANYARA,27,HANANG',273,MOGITU,27303,GABADAW,FITSA
MANYARA,27,HANANG',273,MOGITU,27303,GIDAGAMOWD,GIDAGAMOWD
MANYARA,27,HANANG',273,MOGITU,27303,GIDAGAMOWD,HEWARI
MANYARA,27,HANANG',273,MOGITU,27303,GIDAGAMOWD,GIBORONG
MANYARA,27,HANANG',273,MOGITU,27303,GIDAGAMOWD,WARRET
MANYARA,27,HANANG',273,MOGITU,27303,MOGITU,DAGHWARE
MANYARA,27,HANANG',273,MOGITU,27303,MOGITU,MOGITU A
MANYARA,27,HANANG',273,MOGITU,27303,MOGITU,MOGITU B
MANYARA,27,HANANG',273,MOGITU,27303,MOGITU,SEMONYENDA
MANYARA,27,HANANG',273,MOGITU,27303,MOGITU,DAMBOY
MANYARA,27,HANANG',273,MOGITU,27303,MOGITU,WATENA
MANYARA,27,HANANG',273,MOGITU,27303,JORODOM,UDAMESCHEK
MANYARA,27,HANANG',273,MOGITU,27303,JORODOM,GAWAL
MANYARA,27,HANANG',273,MOGITU,27303,JORODOM,GWADAAT
MANYARA,27,HANANG',273,MOGITU,27303,JORODOM,JORODOM KATI
MANYARA,27,HANANG',273,MOGITU,27303,JORODOM,DARAJANI
MANYARA,27,HANANG',273,GENDABI,27304,GENDABI,DUMANANG
MANYARA,27,HANANG',273,GENDABI,27304,GENDABI,GENDABI
MANYARA,27,HANANG',273,GENDABI,27304,GENDABI,TANKI
MANYARA,27,HANANG',273,GENDABI,27304,GENDABI,UHURU
MANYARA,27,HANANG',273,GENDABI,27304,GENDABI,HERERAKTA
MANYARA,27,HANANG',273,GENDABI,27304,HARGHUSHAY,HARGHUSHAY
MANYARA,27,HANANG',273,GENDABI,27304,HARGHUSHAY,DAMAYGWA
MANYARA,27,HANANG',273,GENDABI,27304,HARGHUSHAY,ANTSI
MANYARA,27,HANANG',273,GENDABI,27304,HARGHUSHAY,GIDASIMU
MANYARA,27,HANANG',273,GENDABI,27304,HARGHUSHAY,GHORONG'EDA
MANYARA,27,HANANG',273,GENDABI,27304,SEBASI,SEBASI
MANYARA,27,HANANG',273,GENDABI,27304,SEBASI,MAJENGO
MANYARA,27,HANANG',273,GENDABI,27304,SEBASI,CHEMCHEMI
MANYARA,27,HANANG',273,GENDABI,27304,SEBASI,SEBASI JUU
MANYARA,27,HANANG',273,GENDABI,27304,SARJANDA,SARJANDA
MANYARA,27,HANANG',273,GENDABI,27304,SARJANDA,SONGAMBELE
MANYARA,27,HANANG',273,GENDABI,27304,SARJANDA,HEWGWALELLA
MANYARA,27,HANANG',273,GENDABI,27304,SARJANDA,TUMAINI
MANYARA,27,HANANG',273,GITTING,27305,BARJOMOT,BARJOMOT
MANYARA,27,HANANG',273,GITTING,27305,BARJOMOT,MOSHONDA
MANYARA,27,HANANG',273,GITTING,27305,BARJOMOT,SONGAMBELE
MANYARA,27,HANANG',273,GITTING,27305,BARJOMOT,GETALILI
MANYARA,27,HANANG',273,GITTING,27305,GOCHO,GOCHO A
MANYARA,27,HANANG',273,GITTING,27305,GOCHO,GOCHO B
MANYARA,27,HANANG',273,GITTING,27305,GOCHO,GOCHO C
MANYARA,27,HANANG',273,GITTING,27305,GOCHO,MAJENGO
MANYARA,27,HANANG',273,GITTING,27305,GITTING,BAGARA A
MANYARA,27,HANANG',273,GITTING,27305,GITTING,BAGARA B
MANYARA,27,HANANG',273,GITTING,27305,GITTING,HANANG
MANYARA,27,HANANG',273,GITTING,27305,GITTING,MALAP
MANYARA,27,HANANG',273,NANGWA,27306,BASHANG,GIRENDI
MANYARA,27,HANANG',273,NANGWA,27306,BASHANG,QOLOT
MANYARA,27,HANANG',273,NANGWA,27306,BASHANG,BASHANG
MANYARA,27,HANANG',273,NANGWA,27306,BASHANG,BIRGHATI
MANYARA,27,HANANG',273,NANGWA,27306,NANGWA,SONGAMBELE
MANYARA,27,HANANG',273,NANGWA,27306,NANGWA,DABUSI
MANYARA,27,HANANG',273,NANGWA,27306,NANGWA,MAJENGO
MANYARA,27,HANANG',273,NANGWA,27306,NANGWA,CHANGANYIKENI
MANYARA,27,HANANG',273,NANGWA,27306,NGORONGORO,NGORONGORO
MANYARA,27,HANANG',273,NANGWA,27306,NGORONGORO,FILUK
MANYARA,27,HANANG',273,NANGWA,27306,NGORONGORO,QUAMBASHARO
MANYARA,27,HANANG',273,NANGWA,27306,NGORONGORO,URUKUTODA
MANYARA,27,HANANG',273,NANGWA,27306,MLIMANI,MLIMANI
MANYARA,27,HANANG',273,NANGWA,27306,MLIMANI,ENDAMANANG
MANYARA,27,HANANG',273,NANGWA,27306,MLIMANI,NANGWA JUU
MANYARA,27,HANANG',273,NANGWA,27306,MLIMANI,GIRIGIRMO
MANYARA,27,HANANG',273,DIRMA,27307,DIRMA,NYASANEDA
MANYARA,27,HANANG',273,DIRMA,27307,DIRMA,BOBOKA
MANYARA,27,HANANG',273,DIRMA,27307,DIRMA,HUWANED
MANYARA,27,HANANG',273,DIRMA,27307,DIRMA,ROBANGA
MANYARA,27,HANANG',273,DIRMA,27307,GAWLOLO,BASSODAGWERGWA
MANYARA,27,HANANG',273,DIRMA,27307,GAWLOLO,BASSODESH
MANYARA,27,HANANG',273,DIRMA,27307,GAWLOLO,MWANNIDA
MANYARA,27,HANANG',273,DIRMA,27307,GAWLOLO,DARORDAW
MANYARA,27,HANANG',273,DIRMA,27307,QALOSENDO,QALOSENDO
MANYARA,27,HANANG',273,DIRMA,27307,QALOSENDO,MREKWA
MANYARA,27,HANANG',273,DIRMA,27307,QALOSENDO,BONGA
MANYARA,27,HANANG',273,SIMBAY,27308,GIDAGHARBU,GIDAGHARBU
MANYARA,27,HANANG',273,SIMBAY,27308,GIDAGHARBU,GIDABASHAK
MANYARA,27,HANANG',273,SIMBAY,27308,GIDAGHARBU,HAYARINGE
MANYARA,27,HANANG',273,SIMBAY,27308,GIDAGHARBU,GIDABAGHAR
MANYARA,27,HANANG',273,SIMBAY,27308,SIMBAY,SIMBAY
MANYARA,27,HANANG',273,SIMBAY,27308,SIMBAY,ORBESH
MANYARA,27,HANANG',273,SIMBAY,27308,SIMBAY,GIDAGHARBU
MANYARA,27,HANANG',273,SIMBAY,27308,SIMBAY,JEDAW
MANYARA,27,HANANG',273,SIMBAY,27308,SIMBAY,ENDASINYANYI
MANYARA,27,HANANG',273,SIMBAY,27308,GEMUNDA,GETAWILAN
MANYARA,27,HANANG',273,SIMBAY,27308,GEMUNDA,MAGARIMAJELA
MANYARA,27,HANANG',273,SIMBAY,27308,GEMUNDA,KANGARMAJELA
MANYARA,27,HANANG',273,SIMBAY,27308,GEMUNDA,MOHETABAGHE
MANYARA,27,HANANG',273,SIMBAY,27308,GEMUNDA,GEMUNDA
MANYARA,27,HANANG',273,HIDET,27309,BASSOTUGHANG,AFANDI
MANYARA,27,HANANG',273,HIDET,27309,BASSOTUGHANG,TLAA
MANYARA,27,HANANG',273,HIDET,27309,BASSOTUGHANG,NYAMUR
MANYARA,27,HANANG',273,HIDET,27309,BASSOTUGHANG,GONGOKHI
MANYARA,27,HANANG',273,HIDET,27309,BASSOTUGHANG,MOHETABAGHET
MANYARA,27,HANANG',273,HIDET,27309,BASSOTUGHANG,DOLOT
MANYARA,27,HANANG',273,HIDET,27309,HIDET,SHARAMAY
MANYARA,27,HANANG',273,HIDET,27309,HIDET,UDAGUTI
MANYARA,27,HANANG',273,HIDET,27309,ORBESH,ORBESH
MANYARA,27,HANANG',273,HIDET,27309,ORBESH,DOLOT
MANYARA,27,HANANG',273,HIDET,27309,ORBESH,GETARERA
MANYARA,27,HANANG',273,HIDET,27309,ORBESH,MAWENI
MANYARA,27,HANANG',273,MEASKRON,27310,GETAGHUL,GETAGHUL MASHARIKI
MANYARA,27,HANANG',273,MEASKRON,27310,GETAGHUL,GETAGHUL KATI
MANYARA,27,HANANG',273,MEASKRON,27310,GETAGHUL,SAGHADERO
MANYARA,27,HANANG',273,MEASKRON,27310,MAJENGO,ENDAHABUK
MANYARA,27,HANANG',273,MEASKRON,27310,MAJENGO,GWANAYA
MANYARA,27,HANANG',273,MEASKRON,27310,MAJENGO,MAJENGO
MANYARA,27,HANANG',273,MEASKRON,27310,MAJENGO,BONDENI
MANYARA,27,HANANG',273,MEASKRON,27310,MEASKRON,ATSI
MANYARA,27,HANANG',273,MEASKRON,27310,MEASKRON,SEMOYA
MANYARA,27,HANANG',273,MEASKRON,27310,SAGONG,TLAHER
MANYARA,27,HANANG',273,MEASKRON,27310,SAGONG,MURUGAS
MANYARA,27,HANANG',273,MEASKRON,27310,SAGONG,BARAKTA
MANYARA,27,HANANG',273,MEASKRON,27310,SAGONG,SAGONG
MANYARA,27,HANANG',273,MEASKRON,27310,MARA,MARA A
MANYARA,27,HANANG',273,MEASKRON,27310,MARA,MARA B
MANYARA,27,HANANG',273,MEASKRON,27310,MARA,MARA D
MANYARA,27,HANANG',273,MEASKRON,27310,QUTESH,MARA C
MANYARA,27,HANANG',273,MEASKRON,27310,QUTESH,GETESH
MANYARA,27,HANANG',273,MEASKRON,27310,QUTESH,MLANGALE
MANYARA,27,HANANG',273,ENDASIWOLD,27311,ENDASIWOLD,MWIGAWU
MANYARA,27,HANANG',273,ENDASIWOLD,27311,ENDASIWOLD,QALODA
MANYARA,27,HANANG',273,ENDASIWOLD,27311,ENDASIWOLD,MBUYUNI
MANYARA,27,HANANG',273,ENDASIWOLD,27311,ENDASIWOLD,MAJENGO
MANYARA,27,HANANG',273,ENDASIWOLD,27311,ENDASIWOLD,BONDENI
MANYARA,27,HANANG',273,ENDASIWOLD,27311,ENDASIWOLD,SIDIG
MANYARA,27,HANANG',273,ENDASIWOLD,27311,GARBAPI,GARBAPI
MANYARA,27,HANANG',273,ENDASIWOLD,27311,GARBAPI,FYEGA
MANYARA,27,HANANG',273,ENDASIWOLD,27311,GARBAPI,QAREBAY
MANYARA,27,HANANG',273,MASAKTA,27312,LAMBO,HAYDA
MANYARA,27,HANANG',273,MASAKTA,27312,LAMBO,MURSANDA
MANYARA,27,HANANG',273,MASAKTA,27312,LAMBO,MALA
MANYARA,27,HANANG',273,MASAKTA,27312,LAMBO,BACKCHAND
MANYARA,27,HANANG',273,MASAKTA,27312,MASAKTA,BUBU
MANYARA,27,HANANG',273,MASAKTA,27312,MASAKTA,BOHO
MANYARA,27,HANANG',273,MASAKTA,27312,MASAKTA,TIPIRI
MANYARA,27,HANANG',273,MASAKTA,27312,MASAKTA,MOHETU
MANYARA,27,HANANG',273,MASAKTA,27312,HOMARI,HOMARI
MANYARA,27,HANANG',273,MASAKTA,27312,HOMARI,YAROSIRONG
MANYARA,27,HANANG',273,MASAKTA,27312,HOMARI,GETIDAGAW
MANYARA,27,HANANG',273,MASQARODA,27313,GETASAM,ENDAMAJAM
MANYARA,27,HANANG',273,MASQARODA,27313,GETASAM,GIDABAHEW
MANYARA,27,HANANG',273,MASQARODA,27313,GETASAM,ORONDI
MANYARA,27,HANANG',273,MASQARODA,27313,GETASAM,MIEMBENI
MANYARA,27,HANANG',273,MASQARODA,27313,MASQARODA,QALODESH
MANYARA,27,HANANG',273,MASQARODA,27313,MASQARODA,GUDEDESH
MANYARA,27,HANANG',273,MASQARODA,27313,MASQARODA,BUBU
MANYARA,27,HANANG',273,MASQARODA,27313,MASQARODA,DERMO
MANYARA,27,HANANG',273,MASQARODA,27313,MASQARODA,UDABARA
MANYARA,27,HANANG',273,MASQARODA,27313,NG’ALDA,GHAREBAY
MANYARA,27,HANANG',273,MASQARODA,27313,NG’ALDA,MDELANI
MANYARA,27,HANANG',273,MASQARODA,27313,NG’ALDA,GETAGHUBAY
MANYARA,27,HANANG',273,ENDASAK,27314,ENDASAK,BAGARA
MANYARA,27,HANANG',273,ENDASAK,27314,ENDASAK,MAGOMENI
MANYARA,27,HANANG',273,ENDASAK,27314,ENDASAK,GODOWN
MANYARA,27,HANANG',273,ENDASAK,27314,ENDASAK,KIGONGONI
MANYARA,27,HANANG',273,ENDASAK,27314,QAREBAY,GONGOLAMBOTO
MANYARA,27,HANANG',273,ENDASAK,27314,QAREBAY,QAREBAY
MANYARA,27,HANANG',273,ENDASAK,27314,QAREBAY,ENDASAK
MANYARA,27,HANANG',273,ENDASAK,27314,QAREBAY,ENDAMANANG'
MANYARA,27,HANANG',273,ENDASAK,27314,QAREBAY,HULANDANG'ANG
MANYARA,27,HANANG',273,GIDAHABABIEG,27315,ENDASABOGHECHAN,ENDASOBOGHECHAN
MANYARA,27,HANANG',273,GIDAHABABIEG,27315,ENDASABOGHECHAN,YAREDAGAW
MANYARA,27,HANANG',273,GIDAHABABIEG,27315,ENDASABOGHECHAN,GUNANYAN
MANYARA,27,HANANG',273,GIDAHABABIEG,27315,ENDASABOGHECHAN,MANAMBA
MANYARA,27,HANANG',273,GIDAHABABIEG,27315,ENDASABOGHECHAN,BUBU
MANYARA,27,HANANG',273,GIDAHABABIEG,27315,GIDAHABABIEG,GIDAHABABIEG
MANYARA,27,HANANG',273,GIDAHABABIEG,27315,GIDAHABABIEG,LAMBO
MANYARA,27,HANANG',273,GIDAHABABIEG,27315,GIDAHABABIEG,GIDANGU
MANYARA,27,HANANG',273,GIDAHABABIEG,27315,GIDAMULA,GIDAMUGHOKA
MANYARA,27,HANANG',273,GIDAHABABIEG,27315,GIDAMULA,SIRINGIMU
MANYARA,27,HANANG',273,GIDAHABABIEG,27315,GIDAMULA,GIDAMULA
MANYARA,27,HANANG',273,GIDAHABABIEG,27315,GIDAMULA,MAJENGO
MANYARA,27,HANANG',273,GIDAHABABIEG,27315,GIDAMULA,SENJAWENDA
MANYARA,27,HANANG',273,SIROP,27316,MATANGARIMO,MATANGARIMO
MANYARA,27,HANANG',273,SIROP,27316,MATANGARIMO,SUERA
MANYARA,27,HANANG',273,SIROP,27316,MATANGARIMO,UYIMO
MANYARA,27,HANANG',273,SIROP,27316,MATANGARIMO,SLAMBAY
MANYARA,27,HANANG',273,SIROP,27316,MATANGARIMO,AATA
MANYARA,27,HANANG',273,SIROP,27316,MATANGARIMO,LAMBO
MANYARA,27,HANANG',273,SIROP,27316,KINACHERE,BOLISE
MANYARA,27,HANANG',273,SIROP,27316,KINACHERE,MAGUGU
MANYARA,27,HANANG',273,SIROP,27316,KINACHERE,AATA
MANYARA,27,HANANG',273,SIROP,27316,KINACHERE,LAMBO
MANYARA,27,HANANG',273,SIROP,27316,SIROP,SIROP
MANYARA,27,HANANG',273,SIROP,27316,SIROP,ENDADU
MANYARA,27,HANANG',273,SIROP,27316,SIROP,MNADANI
MANYARA,27,HANANG',273,SIROP,27316,SIROP,ENDASINYANYI
MANYARA,27,HANANG',273,SIROP,27316,SIROP,ORORIMO
MANYARA,27,HANANG',273,SIROP,27316,SIROP,KWAONA
MANYARA,27,HANANG',273,SIROP,27316,SIROP,ENDADU ”B”
MANYARA,27,HANANG',273,GISAMBALANG,27317,GISAMBALANG,GISAMBALANG
MANYARA,27,HANANG',273,GISAMBALANG,27317,GISAMBALANG,GANDI
MANYARA,27,HANANG',273,GISAMBALANG,27317,WAAMA,WAAMA
MANYARA,27,HANANG',273,GISAMBALANG,27317,WAAMA,KISIMANGIRI
MANYARA,27,HANANG',273,GISAMBALANG,27317,MASUSU,MBUYUNI
MANYARA,27,HANANG',273,GISAMBALANG,27317,MASUSU,HEYEDISHPONGA
MANYARA,27,HANANG',273,GISAMBALANG,27317,MASUSU,MASUSU
MANYARA,27,HANANG',273,GISAMBALANG,27317,MASUSU,WAAMKUNA
MANYARA,27,HANANG',273,GISAMBALANG,27317,WARANGA,WARANGA A
MANYARA,27,HANANG',273,GISAMBALANG,27317,WARANGA,WARANGA B
MANYARA,27,HANANG',273,GISAMBALANG,27317,WARANGA,HEWASE
MANYARA,27,HANANG',273,GISAMBALANG,27317,WARANGA,LAGHENGABUDEGA
MANYARA,27,HANANG',273,GISAMBALANG,27317,WARANGA,KILOMETA TANO
MANYARA,27,HANANG',273,GISAMBALANG,27317,WARANGA,MASAHHA
MANYARA,27,HANANG',273,GISAMBALANG,27317,WARANGA,LANGASESE
MANYARA,27,HANANG',273,LALAJI,27318,MURUMBA,MUUNGANO
MANYARA,27,HANANG',273,LALAJI,27318,MURUMBA,MURUMBA KATI
MANYARA,27,HANANG',273,LALAJI,27318,MURUMBA,MAENDELEO
MANYARA,27,HANANG',273,LALAJI,27318,MURUMBA,GABESH
MANYARA,27,HANANG',273,LALAJI,27318,MURUMBA,MAMBOSAWA
MANYARA,27,HANANG',273,LALAJI,27318,MURUMBA,SAMBELI
MANYARA,27,HANANG',273,LALAJI,27318,MURUMBA,MIPANDE
MANYARA,27,HANANG',273,LALAJI,27318,LALAJI,MAWE YA SIMBA
MANYARA,27,HANANG',273,LALAJI,27318,LALAJI,ENDABESHTA
MANYARA,27,HANANG',273,LALAJI,27318,LALAJI,KINYAWAHE
MANYARA,27,HANANG',273,LALAJI,27318,GORIMBA,GORIMBA
MANYARA,27,HANANG',273,LALAJI,27318,GORIMBA,GIDANG'WANI
MANYARA,27,HANANG',273,LALAJI,27318,GORIMBA,MASAKTA
MANYARA,27,HANANG',273,LALAJI,27318,GORIMBA,MLANGALI
MANYARA,27,HANANG',273,LALAJI,27318,GORIMBA,GIDAFIRA
MANYARA,27,HANANG',273,LALAJI,27318,DILODA,MURGEW
MANYARA,27,HANANG',273,LALAJI,27318,DILODA,MANOROWASI
MANYARA,27,HANANG',273,LALAJI,27318,DILODA,GIDABAGHARG
MANYARA,27,HANANG',273,LALAJI,27318,DILODA,ILALA
MANYARA,27,HANANG',273,LALAJI,27318,DILODA,MAGOMENI
MANYARA,27,HANANG',273,LALAJI,27318,DILODA,ENDALATA
MANYARA,27,HANANG',273,BALANGDALALU,27319,BALANGDALALU,GITAYANGA
MANYARA,27,HANANG',273,BALANGDALALU,27319,BALANGDALALU,BASODAGAW
MANYARA,27,HANANG',273,BALANGDALALU,27319,BALANGDALALU,MAREGA
MANYARA,27,HANANG',273,BALANGDALALU,27319,BALANGDALALU,MWANINA
MANYARA,27,HANANG',273,BALANGDALALU,27319,GIDABWANJA,GAMADI
MANYARA,27,HANANG',273,BALANGDALALU,27319,GIDABWANJA,GIDABIRJANDA
MANYARA,27,HANANG',273,BALANGDALALU,27319,GIDABWANJA,GIDABWANJA
MANYARA,27,HANANG',273,BALANGDALALU,27319,MURERU,LALU
MANYARA,27,HANANG',273,BALANGDALALU,27319,MURERU,RAGHONYANDA(A)
MANYARA,27,HANANG',273,BALANGDALALU,27319,MURERU,QANGDALALU
MANYARA,27,HANANG',273,BALANGDALALU,27319,MURERU,GESHATIBESHANGA
MANYARA,27,HANANG',273,BALANGDALALU,27319,MURERU,GIDAMAY
MANYARA,27,HANANG',273,BALANGDALALU,27319,MURERU,LAGHOJANDA
MANYARA,27,HANANG',273,BALANGDALALU,27319,MURERU,RAGHONYANDA(B)
MANYARA,27,HANANG',273,GEHANDU,27320,GEHANDU,MWAHU
MANYARA,27,HANANG',273,GEHANDU,27320,GEHANDU,GIDURUJIGESU
MANYARA,27,HANANG',273,GEHANDU,27320,GEHANDU,GWALALA
MANYARA,27,HANANG',273,GEHANDU,27320,GEHANDU,NGOROJANDA
MANYARA,27,HANANG',273,GEHANDU,27320,MING’ENYI,NG’ABATI
MANYARA,27,HANANG',273,GEHANDU,27320,MING’ENYI,BASSODANGAW
MANYARA,27,HANANG',273,GEHANDU,27320,MING’ENYI,DARAJIDA
MANYARA,27,HANANG',273,GEHANDU,27320,MING’ENYI,GICHILA
MANYARA,27,HANANG',273,GEHANDU,27320,MING’ENYI,GISAMJANGA
MANYARA,27,HANANG',273,GEHANDU,27320,MUGHUCHA,MUGHUCHA
MANYARA,27,HANANG',273,GEHANDU,27320,MUGHUCHA,QWARSE
MANYARA,27,HANANG',273,GEHANDU,27320,MUGHUCHA,WARETA
MANYARA,27,HANANG',273,LAGHANGA,27321,DAJAMEDA,NYANGURA A
MANYARA,27,HANANG',273,LAGHANGA,27321,DAJAMEDA,DAJAMEDA
MANYARA,27,HANANG',273,LAGHANGA,27321,DAJAMEDA,NYANGURA B
MANYARA,27,HANANG',273,LAGHANGA,27321,DAJAMEDA,HIRIRI
MANYARA,27,HANANG',273,LAGHANGA,27321,GAWIDU,GAWIDU KATI
MANYARA,27,HANANG',273,LAGHANGA,27321,GAWIDU,GIDAGONGU
MANYARA,27,HANANG',273,LAGHANGA,27321,GAWIDU,GIREBU
MANYARA,27,HANANG',273,LAGHANGA,27321,MUUNGANO,GIBORODA
MANYARA,27,HANANG',273,LAGHANGA,27321,MUUNGANO,GAWAL
MANYARA,27,HANANG',273,LAGHANGA,27321,MUUNGANO,HEYEDESH
MANYARA,27,HANANG',273,LAGHANGA,27321,LAGHANGA,GIDABORODA
MANYARA,27,HANANG',273,LAGHANGA,27321,LAGHANGA,UDAN’GU
MANYARA,27,HANANG',273,LAGHANGA,27321,LAGHANGA,GAULOLI
MANYARA,27,HANANG',273,LAGHANGA,27321,LAGHANGA,NYAYEMI
MANYARA,27,HANANG',273,GETANUWAS,27322,GETANUWAS,DIYAGWA
MANYARA,27,HANANG',273,GETANUWAS,27322,GETANUWAS,ENDAMUDAYGA
MANYARA,27,HANANG',273,GETANUWAS,27322,GETANUWAS,GETANUWAS
MANYARA,27,HANANG',273,GETANUWAS,27322,GIDIKA,GIDIKA
MANYARA,27,HANANG',273,GETANUWAS,27322,GIDIKA,DABESTA
MANYARA,27,HANANG',273,GETANUWAS,27322,GIDIKA,QALODERERA
MANYARA,27,HANANG',273,GETANUWAS,27322,GIDIKA,MUUNGANO
MANYARA,27,HANANG',273,GETANUWAS,27322,GIDIKA,GIDASAMORK
MANYARA,27,HANANG',273,GETANUWAS,27322,GIDIKA,ENDANUWAS
MANYARA,27,HANANG',273,GETANUWAS,27322,WANDELA,WANDELA
MANYARA,27,HANANG',273,GETANUWAS,27322,WANDELA,QALODERERA
MANYARA,27,HANANG',273,GETANUWAS,27322,WANDELA,MUGHUGHWANI
MANYARA,27,HANANG',273,GETANUWAS,27322,WANDELA,GINYAWIRI
MANYARA,27,HANANG',273,BASSOTU,27323,BASSOTU,BASSOTU A
MANYARA,27,HANANG',273,BASSOTU,27323,BASSOTU,BASOSTU B
MANYARA,27,HANANG',273,BASSOTU,27323,BASSOTU,DARIROJIK
MANYARA,27,HANANG',273,BASSOTU,27323,BASSOTU,LAJA
MANYARA,27,HANANG',273,BASSOTU,27323,BASSOTU,DERABEMBU
MANYARA,27,HANANG',273,BASSOTU,27323,BASSOTU,"BASSOTU ""C"""
MANYARA,27,HANANG',273,BASSOTU,27323,ENDAMUDAYGA,ENDAMUDAYGA
MANYARA,27,HANANG',273,BASSOTU,27323,ENDAMUDAYGA,ERABOSH
MANYARA,27,HANANG',273,BASSOTU,27323,ENDAMUDAYGA,ROCHEDA
MANYARA,27,HANANG',273,BASSOTU,27323,DILING’ANG,DILINGA’ANG
MANYARA,27,HANANG',273,BASSOTU,27323,DILING’ANG,BERERI
MANYARA,27,HANANG',273,BASSOTU,27323,DILING’ANG,GIDAMUNYODA
MANYARA,27,HANANG',273,BASSOTU,27323,DANG’AIDA,HAYEDAGOSAMGEGA
MANYARA,27,HANANG',273,BASSOTU,27323,DANG’AIDA,EROBASH
MANYARA,27,HANANG',273,BASSOTU,27323,DANG’AIDA,DAREDAW
MANYARA,27,HANANG',273,BASSODESH,27324,BASSODESH,BASSODESH
MANYARA,27,HANANG',273,BASSODESH,27324,BASSODESH,HENGENIC
MANYARA,27,HANANG',273,BASSODESH,27324,BASSODESH,WAREDIK
MANYARA,27,HANANG',273,BASSODESH,27324,GISIYAL,GISIYAL
MANYARA,27,HANANG',273,BASSODESH,27324,GISIYAL,GIDAGHENGA
MANYARA,27,HANANG',273,BASSODESH,27324,GISIYAL,BALELETA
MANYARA,27,HANANG',273,BASSODESH,27324,GISIYAL,INGATKWEGA
MANYARA,27,HANANG',273,BASSODESH,27324,GAGHATA,GAGHATA
MANYARA,27,HANANG',273,BASSODESH,27324,GAGHATA,ANGROJAND
MANYARA,27,HANANG',273,BASSODESH,27324,GAGHATA,WAREDIK
MANYARA,27,HANANG',273,BASSODESH,27324,GAGHATA,NGOROGHAT
MANYARA,27,HANANG',273,BASSODESH,27324,GIJETAMOHOG,HAYEDESH
MANYARA,27,HANANG',273,BASSODESH,27324,GIJETAMOHOG,ENDADANGI
MANYARA,27,HANANG',273,BASSODESH,27324,GIJETAMOHOG,GHAMBAGIJA
MANYARA,27,HANANG',273,BASSODESH,27324,GIJETAMOHOG,MOROJONDA
MANYARA,27,HANANG',273,BASSODESH,27324,NYABAT,NYABAT
MANYARA,27,HANANG',273,BASSODESH,27324,NYABAT,GHENG'DARAKCHEND
MANYARA,27,HANANG',273,BASSODESH,27324,NYABAT,NAWEDESH
MANYARA,27,HANANG',273,BASSODESH,27324,NYABAT,SHAMGHED
MANYARA,27,HANANG',273,HIRBADAW,27325,HIRBADAW,MAGHOJOA
MANYARA,27,HANANG',273,HIRBADAW,27325,HIRBADAW,MAPINDUZI
MANYARA,27,HANANG',273,HIRBADAW,27325,HIRBADAW,KAGERA
MANYARA,27,HANANG',273,HIRBADAW,27325,HIRBADAW,GESARAMU
MANYARA,27,HANANG',273,HIRBADAW,27325,HIRBADAW,MISENUWA
MANYARA,27,HANANG',273,HIRBADAW,27325,MAISAKA,MAISAKA
MANYARA,27,HANANG',273,HIRBADAW,27325,MAISAKA,MNADANI
MANYARA,27,HANANG',273,HIRBADAW,27325,MAISAKA,MENDAY
MANYARA,27,HANANG',273,HIRBADAW,27325,MAISAKA,NYERERE
MANYARA,27,HANANG',273,HIRBADAW,27325,MAISAKA,NGORONGORO
MANYARA,27,HANANG',273,HIRBADAW,27325,MWANGA,GIDARERI
MANYARA,27,HANANG',273,HIRBADAW,27325,MWANGA,QAREBAY
MANYARA,27,HANANG',273,HIRBADAW,27325,MWANGA,GETAMATAWI
MANYARA,27,HANANG',273,HIRBADAW,27325,MWANGA,QAMBEKWA
MANYARA,27,HANANG',273,HIRBADAW,27325,MWANGA,SINYARAYDA
MANYARA,27,HANANG',273,HIRBADAW,27325,SASUMWEGA,SASUMWEGA
MANYARA,27,HANANG',273,HIRBADAW,27325,SASUMWEGA,ENDASHENG'WEDA
MANYARA,27,HANANG',273,HIRBADAW,27325,SASUMWEGA,SINYAREDA
MANYARA,27,HANANG',273,HIRBADAW,27325,SASUMWEGA,ENDABASH
MANYARA,27,HANANG',273,HIRBADAW,27325,SASUMWEGA,OMBUSTA
MANYARA,27,HANANG',273,WARETA,27326,WARETA,WARETA KATI
MANYARA,27,HANANG',273,WARETA,27326,WARETA,LABAY
MANYARA,27,HANANG',273,WARETA,27326,WARETA,UDABADATKA
MANYARA,27,HANANG',273,WARETA,27326,WARETA,WARETA MAGHARIBI
MANYARA,27,HANANG',273,WARETA,27326,GETAK,GETAK
MANYARA,27,HANANG',273,WARETA,27326,GETAK,NYANGERA
MANYARA,27,HANANG',273,WARETA,27326,GETAK,MAR-O
MANYARA,27,HANANG',273,WARETA,27326,BASHANG,GIRENDI
MANYARA,27,HANANG',273,WARETA,27326,BASHANG,QOLOT
MANYARA,27,HANANG',273,WARETA,27326,BASHANG,BASHANG
MANYARA,27,HANANG',273,WARETA,27326,BASHANG,BIRGHATI
MANYARA,27,HANANG',273,DARWAR,27327,DARWAR,SAKALO
MANYARA,27,HANANG',273,DARWAR,27327,DARWAR,GIDAGHALAD
MANYARA,27,HANANG',273,DARWAR,27327,DARWAR,DAWAR
MANYARA,27,HANANG',273,DARWAR,27327,GESABOY,GASABOY
MANYARA,27,HANANG',273,DARWAR,27327,GESABOY,BASONYEGA
MANYARA,27,HANANG',273,DARWAR,27327,GESABOY,GISESONGA
MANYARA,27,HANANG',273,DARWAR,27327,KINYAMBURI,KINYAMBURI
MANYARA,27,HANANG',273,DARWAR,27327,KINYAMBURI,MKUYUNI
MANYARA,27,HANANG',273,DARWAR,27327,KINYAMBURI,MANGWAY
MANYARA,27,HANANG',273,ISHPONGA,27328,ISHPONGA,MAKAO MAKUU
MANYARA,27,HANANG',273,ISHPONGA,27328,ISHPONGA,MSHIKAMANO
MANYARA,27,HANANG',273,ISHPONGA,27328,ISHPONGA,ENDESH
MANYARA,27,HANANG',273,ISHPONGA,27328,ISHPONGA,GINIRISH
MANYARA,27,HANANG',273,ISHPONGA,27328,ISHPONGA,LUKHUMEDA
MANYARA,27,HANANG',273,ISHPONGA,27328,ISHPONGA,SONGAMBELE
MANYARA,27,HANANG',273,ISHPONGA,27328,GINIRISH,MUUNGANO
MANYARA,27,HANANG',273,ISHPONGA,27328,GINIRISH,GEWMUWOKCHENDA
MANYARA,27,HANANG',273,ISHPONGA,27328,GINIRISH,UMOJA
MANYARA,27,HANANG',273,ISHPONGA,27328,MIRONGORI,MIRONGORI
MANYARA,27,HANANG',273,ISHPONGA,27328,MIRONGORI,QATAJOMODA
MANYARA,27,HANANG',273,ISHPONGA,27328,MIRONGORI,GIRGIRMOD
MANYARA,27,HANANG',273,ISHPONGA,27328,MIRONGORI,HAQWASH
MANYARA,27,HANANG',273,ISHPONGA,27328,MIRONGORI,GIDAHANDI
MANYARA,27,HANANG',273,GARAWJA,27329,GARAWJA,INJOKA
MANYARA,27,HANANG',273,GARAWJA,27329,GARAWJA,QALOTUGRAJICK
MANYARA,27,HANANG',273,GARAWJA,27329,GARAWJA,NYOSHECHEDA
MANYARA,27,HANANG',273,GARAWJA,27329,DABASCHAND,GIDAGUNJA
MANYARA,27,HANANG',273,GARAWJA,27329,DABASCHAND,DABISHAND
MANYARA,27,HANANG',273,GARAWJA,27329,DABASCHAND,QARODARERA
MANYARA,27,HANANG',273,GARAWJA,27329,MUNYUNGURA,GIDAMUNYINGURA
MANYARA,27,HANANG',273,GARAWJA,27329,MUNYUNGURA,GETABALI
MANYARA,27,HANANG',273,GARAWJA,27329,MUNYUNGURA,ORNG'ADIYAN
MANYARA,27,HANANG',273,MULBADAW,27330,GALANGAL,GIDAMAMBURA
MANYARA,27,HANANG',273,MULBADAW,27330,GALANGAL,GALANGAL (CMSC)
MANYARA,27,HANANG',273,MULBADAW,27330,GALANGAL,HAYROHAY
MANYARA,27,HANANG',273,MULBADAW,27330,GALANGAL,GHAIRO
MANYARA,27,HANANG',273,MULBADAW,27330,GIDAMAMBURA,GIDAMAMBURA
MANYARA,27,HANANG',273,MULBADAW,27330,GIDAMAMBURA,LABAY
MANYARA,27,HANANG',273,MULBADAW,27330,GIDAMAMBURA,TENKI TATU
MANYARA,27,HANANG',273,MULBADAW,27330,MULBADAW,MUGUCHA
MANYARA,27,HANANG',273,MULBADAW,27330,MULBADAW,GIDABURUK
MANYARA,27,HANANG',273,MULBADAW,27330,MULBADAW,GOSANGADERWA
MANYARA,27,HANANG',273,ENDAGAW,27331,ENDAGAW,QAREBAY
MANYARA,27,HANANG',273,ENDAGAW,27331,ENDAGAW,OSTABEY
MANYARA,27,HANANG',273,ENDAGAW,27331,ENDAGAW,MLIMANI
MANYARA,27,HANANG',273,ENDAGAW,27331,ENDAGAW,BONDENI B
MANYARA,27,HANANG',273,ENDAGAW,27331,ENDAGAW,MNADANI
MANYARA,27,HANANG',273,ENDAGAW,27331,GIDANDU,KIVUKONI
MANYARA,27,HANANG',273,ENDAGAW,27331,GIDANDU,MAGOMENI
MANYARA,27,HANANG',273,ENDAGAW,27331,GIDANDU,BONDENI
MANYARA,27,HANANG',273,ENDAGAW,27331,GIDANDU,MAWENI
MANYARA,27,HANANG',273,ENDAGAW,27331,MORAM,KIBOKONI
MANYARA,27,HANANG',273,ENDAGAW,27331,MORAM,KIBOKONI B
MANYARA,27,HANANG',273,ENDAGAW,27331,MORAM,QUTASABAY
MANYARA,27,HANANG',273,ENDAGAW,27331,MORAM,MORAMU
MANYARA,27,HANANG',273,DUMBETA,27332,MORAM,DUMBETA
MANYARA,27,HANANG',273,DUMBETA,27332,MORAM,BASSODAGWARUK
MANYARA,27,HANANG',273,DUMBETA,27332,MORAM,LAMAY
MANYARA,27,HANANG',273,DUMBETA,27332,MORAM,GICHBOD
MANYARA,27,HANANG',273,DUMBETA,27332,MORAM,GIDAGHALELLENDA
MANYARA,27,HANANG',273,DUMBETA,27332,MORAM,JORJAJ
MANYARA,27,HANANG',273,DUMBETA,27332,MORAM,GISHAJI
MANYARA,27,HANANG',273,DUMBETA,27332,MORAM,BASSOTU NDOGO
MANYARA,27,HANANG',273,DUMBETA,27332,MORAM,BIAS
MANYARA,27,HANANG',273,JORDON,27333,MORAM,UDAMESCHEK
MANYARA,27,HANANG',273,JORDON,27333,MORAM,GAWAL
MANYARA,27,HANANG',273,JORDON,27333,MORAM,GWADAT
MANYARA,27,HANANG',273,JORDON,27333,MORAM,JORODOMKATI
MANYARA,27,HANANG',273,JORDON,27333,MORAM,SORA
MANYARA,27,HANANG',273,JORDON,27333,MORAM,YUDEDA
MANYARA,27,HANANG',273,JORDON,27333,MORAM,IDARA
MANYARA,27,HANANG',273,JORDON,27333,MORAM,DARAJANI
MANYARA,27,HANANG',273,JORDON,27333,MORAM,QUAREDAN
MANYARA,27,HANANG',273,JORDON,27333,MORAM,WATENA
MANYARA,27,HANANG',273,JORDON,27333,MORAM,UMBEDA
MANYARA,27,MBULU,274,AYOMOHE,27401,AYAMOHE,
MANYARA,27,MBULU,274,AYOMOHE,27401,KULE,
MANYARA,27,MBULU,274,AYOMOHE,27401,ISLAA,
MANYARA,27,MBULU,274,AYOMOHE,27401,TANGO,
MANYARA,27,MBULU,274,AYOMOHE,27401,GUWANGW,
MANYARA,27,MBULU,274,AYOMOHE,27401,DATLAA,
MANYARA,27,MBULU,274,AYOMOHE,27401,ANSLEY A,
MANYARA,27,MBULU,274,AYOMOHE,27401,QASHAN,
MANYARA,27,MBULU,274,SANU BARAY,27402,SANU GUWANG,
MANYARA,27,MBULU,274,SANU BARAY,27402,SANU,
MANYARA,27,MBULU,274,SANU BARAY,27402,HANTEE GAWA,
MANYARA,27,MBULU,274,SANU BARAY,27402,HANTEE BARAY,
MANYARA,27,MBULU,274,SANU BARAY,27402,AYAPARA MASHARIKI,
MANYARA,27,MBULU,274,SANU BARAY,27402,AYAPARA MAGHRIBI,
MANYARA,27,MBULU,274,IMBORU,27403,UJENZI,
MANYARA,27,MBULU,274,IMBORU,27403,TSEAY,
MANYARA,27,MBULU,274,IMBORU,27403,MARISH,
MANYARA,27,MBULU,274,IMBORU,27403,GIDBUGER,
MANYARA,27,MBULU,274,IMBORU,27403,ISALE,
MANYARA,27,MBULU,274,IMBORU,27403,SANU GILALA,
MANYARA,27,MBULU,274,IMBORU,27403,DAGHAT,
MANYARA,27,MBULU,274,IMBORU,27403,BARECK,
MANYARA,27,MBULU,274,IMBORU,27403,DUDNECK,
MANYARA,27,MBULU,274,IMBORU,27403,TANESCO,
MANYARA,27,MBULU,274,IMBORU,27403,BOMANI,
MANYARA,27,MBULU,274,IMBORU,27403,AYA NAADAY,
MANYARA,27,MBULU,274,ENDAGOKOT,27404,ENDAMASKI,
MANYARA,27,MBULU,274,ENDAGOKOT,27404,MAHANDA,
MANYARA,27,MBULU,274,ENDAGOKOT,27404,KHADAY,
MANYARA,27,MBULU,274,ENDAGOKOT,27404,GAWA,
MANYARA,27,MBULU,274,ENDAGOKOT,27404,SANU,
MANYARA,27,MBULU,274,ENDAGOKOT,27404,QASHOMAN,
MANYARA,27,MBULU,274,ENDAGOKOT,27404,TANGO,
MANYARA,27,MBULU,274,ENDAGOKOT,27404,DEMORO BANA,
MANYARA,27,MBULU,274,ENDAGOKOT,27404,MARIO,
MANYARA,27,MBULU,274,AYAMAANI,27405,AYAMAAMI,
MANYARA,27,MBULU,274,AYAMAANI,27405,HAYAHAYA,
MANYARA,27,MBULU,274,AYAMAANI,27405,ENDERER,
MANYARA,27,MBULU,274,AYAMAANI,27405,AYAINGI,
MANYARA,27,MBULU,274,AYAMAANI,27405,TANGO MAHAMI,
MANYARA,27,MBULU,274,AYAMAANI,27405,MISHIGHO,
MANYARA,27,MBULU,274,AYAMAANI,27405,AMAFALA,
MANYARA,27,MBULU,274,UHURU,27406,HARKA,
MANYARA,27,MBULU,274,UHURU,27406,MADUKANI,
MANYARA,27,MBULU,274,UHURU,27406,AYALABE,
MANYARA,27,MBULU,274,UHURU,27406,MARINGO,
MANYARA,27,MBULU,274,UHURU,27406,AYARAAT,
MANYARA,27,MBULU,274,UHURU,27406,BUWA,
MANYARA,27,MBULU,274,UHURU,27406,UHURU,
MANYARA,27,MBULU,274,BARGISH,27407,BARGISH ANTSI,ANTSI A
MANYARA,27,MBULU,274,BARGISH,27407,BARGISH ANTSI,ANTSI B
MANYARA,27,MBULU,274,BARGISH,27407,BARGISH ANTSI,SANGRYAN
MANYARA,27,MBULU,274,BARGISH,27407,BARGISH ANTSI,DAKW-NARI
MANYARA,27,MBULU,274,BARGISH,27407,BARGISH ANTSI,AYALOO
MANYARA,27,MBULU,274,BARGISH,27407,LAGHANDA MUR,GETAFIYE
MANYARA,27,MBULU,274,BARGISH,27407,LAGHANDA MUR,LAGHANDAMUR
MANYARA,27,MBULU,274,BARGISH,27407,LAGHANDA MUR,DAKW
MANYARA,27,MBULU,274,BARGISH,27407,LAGHANDA MUR,GAHABYA
MANYARA,27,MBULU,274,BARGISH,27407,BARGISH UWA,FIITA
MANYARA,27,MBULU,274,BARGISH,27407,BARGISH UWA,B/DAAW
MANYARA,27,MBULU,274,BARGISH,27407,BARGISH UWA,KINIHE
MANYARA,27,MBULU,274,BARGISH,27407,BARGISH UWA,HULANI
MANYARA,27,MBULU,274,BARGISH,27407,BARGISH UWA,HAYSANG
MANYARA,27,MBULU,274,GEHANDU,27408,TITIWI,GEHANDU
MANYARA,27,MBULU,274,GEHANDU,27408,TITIWI,TITIWI
MANYARA,27,MBULU,274,GEHANDU,27408,TITIWI,SARARATI
MANYARA,27,MBULU,274,GEHANDU,27408,TITIWI,AYASLORO
MANYARA,27,MBULU,274,GEHANDU,27408,TITIWI,GEER
MANYARA,27,MBULU,274,GEHANDU,27408,TITIWI,TLOMA
MANYARA,27,MBULU,274,GEHANDU,27408,TITIWI,MOSHANGI
MANYARA,27,MBULU,274,GEHANDU,27408,QATESH,GEHABYA
MANYARA,27,MBULU,274,GEHANDU,27408,QATESH,GENANG'W
MANYARA,27,MBULU,274,GEHANDU,27408,QATESH,DURU
MANYARA,27,MBULU,274,GEHANDU,27408,QATESH,MARANG
MANYARA,27,MBULU,274,GEHANDU,27408,QATESH,QATESH
MANYARA,27,MBULU,274,GEHANDU,27408,QATESH,JALOYAN
MANYARA,27,MBULU,274,GEHANDU,27408,QATESH,AYA GIRAY
MANYARA,27,MBULU,274,GEHANDU,27408,LANDA,TLAWI
MANYARA,27,MBULU,274,GEHANDU,27408,LANDA,LANDA
MANYARA,27,MBULU,274,GEHANDU,27408,LANDA,GIROAY
MANYARA,27,MBULU,274,GEHANDU,27408,LANDA,ANSLAY B
MANYARA,27,MBULU,274,GEHANDU,27408,TSAWA,QAMANTA
MANYARA,27,MBULU,274,GEHANDU,27408,TSAWA,TIPRI
MANYARA,27,MBULU,274,GEHANDU,27408,TSAWA,AYATAHANI
MANYARA,27,MBULU,274,GEHANDU,27408,TSAWA,DATLAA
MANYARA,27,MBULU,274,GEHANDU,27408,TSAWA,TSAWA
MANYARA,27,MBULU,274,GEHANDU,27408,TSAWA,AMOWA
MANYARA,27,MBULU,274,KAINAM,27409,KAINAMU,MANGOYA
MANYARA,27,MBULU,274,KAINAM,27409,KAINAMU,TSAAYORAT
MANYARA,27,MBULU,274,KAINAM,27409,KAINAMU,GONGALI
MANYARA,27,MBULU,274,KAINAM,27409,TSAAYO,MALTA
MANYARA,27,MBULU,274,KAINAM,27409,TSAAYO,KANAA
MANYARA,27,MBULU,274,KAINAM,27409,TSAAYO,BAMBE
MANYARA,27,MBULU,274,KAINAM,27409,HAREABI,AYAGUUNA
MANYARA,27,MBULU,274,KAINAM,27409,HAREABI,AYASLANSLA
MANYARA,27,MBULU,274,KAINAM,27409,HAREABI,HAY PAKAR
MANYARA,27,MBULU,274,KAINAM,27409,BANEE,BANEE
MANYARA,27,MBULU,274,KAINAM,27409,BANEE,QWALACH
MANYARA,27,MBULU,274,KAINAM,27409,BANEE,TSAAYO
MANYARA,27,MBULU,274,NAHASEY,27410,NAHASEY,AYABALAANGW
MANYARA,27,MBULU,274,NAHASEY,27410,NAHASEY,NAHASEY
MANYARA,27,MBULU,274,NAHASEY,27410,NAHASEY,AYAKINI
MANYARA,27,MBULU,274,NAHASEY,27410,HAYSALI,HAYSALI
MANYARA,27,MBULU,274,NAHASEY,27410,HAYSALI,AYATLAA
MANYARA,27,MBULU,274,NAHASEY,27410,HAYSALI,SLUA
MANYARA,27,MBULU,274,NAHASEY,27410,HASAMA,HASSAMA                  .
MANYARA,27,MBULU,274,NAHASEY,27410,HASAMA,SUUM
MANYARA,27,MBULU,274,NAHASEY,27410,HASAMA,AYAGWANDU
MANYARA,27,MBULU,274,NAMBIS,27411,HAYLOTO,HAYGHONGO
MANYARA,27,MBULU,274,NAMBIS,27411,HAYLOTO,TLOMA A
MANYARA,27,MBULU,274,NAMBIS,27411,HAYLOTO,AYANINGA
MANYARA,27,MBULU,274,NAMBIS,27411,HAYLOTO,TLOMA B
MANYARA,27,MBULU,274,NAMBIS,27411,HAYLOTO,HHAYHOTAY
MANYARA,27,MBULU,274,NAMBIS,27411,HAYLOTO,AYALOMAY
MANYARA,27,MBULU,274,NAMBIS,27411,HAYLOTO,ASLAHHA
MANYARA,27,MBULU,274,NAMBIS,27411,GWAAMI,AYATSILO
MANYARA,27,MBULU,274,NAMBIS,27411,GWAAMI,HHAYMAARAY
MANYARA,27,MBULU,274,NAMBIS,27411,GWAAMI,GWAAMI
MANYARA,27,MBULU,274,NAMBIS,27411,GWAAMI,TAKAARO
MANYARA,27,MBULU,274,NAMBIS,27411,KWERMUSL,HAYGHAFA
MANYARA,27,MBULU,274,NAMBIS,27411,KWERMUSL,HAYMANA
MANYARA,27,MBULU,274,NAMBIS,27411,KWERMUSL,GAMBUR
MANYARA,27,MBULU,274,NAMBIS,27411,KWERMUSL,GAERAMO
MANYARA,27,MBULU,274,NAMBIS,27411,KWERMUSL,HAYWAHA
MANYARA,27,MBULU,274,NAMBIS,27411,AMOWA,AMOWA A
MANYARA,27,MBULU,274,NAMBIS,27411,AMOWA,AMOA B
MANYARA,27,MBULU,274,NAMBIS,27411,AMOWA,SONARI
MANYARA,27,MBULU,274,NAMBIS,27411,AMOWA,AMOA C
MANYARA,27,MBULU,274,NAMBIS,27411,AMOWA,SLANSLI
MANYARA,27,MBULU,274,TLAWI,27412,TLAWI,GENAI
MANYARA,27,MBULU,274,TLAWI,27412,TLAWI,KWANKWARI
MANYARA,27,MBULU,274,TLAWI,27412,TLAWI,TINGATINGA
MANYARA,27,MBULU,274,TLAWI,27412,TLAWI,DAKW NARI
MANYARA,27,MBULU,274,TLAWI,27412,TLAWI,AYA DOSLA
MANYARA,27,MBULU,274,TLAWI,27412,JARANJAR,AYAHAWAY
MANYARA,27,MBULU,274,TLAWI,27412,JARANJAR,AYALABE
MANYARA,27,MBULU,274,TLAWI,27412,JARANJAR,SAHHATA
MANYARA,27,MBULU,274,TLAWI,27412,JARANJAR,GETAMAMA
MANYARA,27,MBULU,274,TLAWI,27412,JARANJAR,AYATIKINI
MANYARA,27,MBULU,274,TLAWI,27412,JARANJAR,NYANGERA
MANYARA,27,MBULU,274,TLAWI,27412,GUNENEDA,GUNENEDA
MANYARA,27,MBULU,274,TLAWI,27412,GUNENEDA,DANGULA
MANYARA,27,MBULU,274,TLAWI,27412,GUNENEDA,BAYDOSA
MANYARA,27,MBULU,274,TLAWI,27412,GUNENEDA,BANYEGA
MANYARA,27,MBULU,274,TLAWI,27412,GUNENEDA,JIJU
MANYARA,27,MBULU,274,TLAWI,27412,BOBOA,BOBOA JUU
MANYARA,27,MBULU,274,TLAWI,27412,BOBOA,QWALNET
MANYARA,27,MBULU,274,TLAWI,27412,BOBOA,BOBOA CHINI
MANYARA,27,MBULU,274,GUNYODA,27413,GUNYODA,GEHANDU
MANYARA,27,MBULU,274,GUNYODA,27413,GUNYODA,QWALNET
MANYARA,27,MBULU,274,GUNYODA,27413,GUNYODA,TUMBOAWAAK
MANYARA,27,MBULU,274,GUNYODA,27413,GEDAMAR,MUNDOW
MANYARA,27,MBULU,274,GUNYODA,27413,GEDAMAR,MORAM
MANYARA,27,MBULU,274,GUNYODA,27413,GEDAMAR,QWALNET JUU
MANYARA,27,MBULU,274,GUNYODA,27413,QALIEDA,DIDGOPTI
MANYARA,27,MBULU,274,GUNYODA,27413,QALIEDA,GUNYODA JUU
MANYARA,27,MBULU,274,GUNYODA,27413,QALIEDA,GUNYODA CHINI
MANYARA,27,MBULU,274,DAUDI,27414,MORINGA,MORINGA
MANYARA,27,MBULU,274,DAUDI,27414,MORINGA,GETAGU
MANYARA,27,MBULU,274,DAUDI,27414,MORINGA,MAGASI
MANYARA,27,MBULU,274,DAUDI,27414,MORINGA,AMPA
MANYARA,27,MBULU,274,DAUDI,27414,MORINGA,LABANI
MANYARA,27,MBULU,274,DAUDI,27414,GIDAMBA,GIDAMBA
MANYARA,27,MBULU,274,DAUDI,27414,GIDAMBA,DIMOSEGIT
MANYARA,27,MBULU,274,DAUDI,27414,GIDAMBA,DUNGHEDA
MANYARA,27,MBULU,274,MARANGW,27415,MARANG,SHANGWAT
MANYARA,27,MBULU,274,MARANGW,27415,MARANG,SIOLA
MANYARA,27,MBULU,274,MARANGW,27415,MARANG,GWANDUMEHHI DAAW
MANYARA,27,MBULU,274,MARANGW,27415,MARANG,GWANDUMEHHI
MANYARA,27,MBULU,274,MARANGW,27415,MARANG,MANGOYA
MANYARA,27,MBULU,274,MARANGW,27415,GWANDUMEHHI,AYAMUHALE
MANYARA,27,MBULU,274,MARANGW,27415,GWANDUMEHHI,LAGHANGABANGI
MANYARA,27,MBULU,274,MARANGW,27415,GWANDUMEHHI,NAROAWAK
MANYARA,27,MBULU,274,MARANGW,27415,GWANDUMEHHI,GWANDUMEHHI/A
MANYARA,27,MBULU,274,MARANGW,27415,GWANDUMEHHI,GETAFRO A
MANYARA,27,MBULU,274,MARANGW,27415,GWANDUMEHHI,AYAHHYTE
MANYARA,27,MBULU,274,MARANGW,27415,AICHO,SANJAL
MANYARA,27,MBULU,274,MARANGW,27415,AICHO,MANYIT
MANYARA,27,MBULU,274,MARANGW,27415,AICHO,AICHO KASKAZIMI
MANYARA,27,MBULU,274,MARANGW,27415,AICHO,AICHO KUSINI
MANYARA,27,MBULU,274,MASIEDA,27416,MASIEDA,GETFRO
MANYARA,27,MBULU,274,MASIEDA,27416,MASIEDA,UDAHAYA  A
MANYARA,27,MBULU,274,MASIEDA,27416,MASIEDA,UDAHAYA B
MANYARA,27,MBULU,274,MASIEDA,27416,MASIEDA,UMBUR
MANYARA,27,MBULU,274,MASIEDA,27416,MASIEDA,GAMOK
MANYARA,27,MBULU,274,MASIEDA,27416,GEMBAKW,GEMBAKW
MANYARA,27,MBULU,274,MASIEDA,27416,GEMBAKW,LASOSOK
MANYARA,27,MBULU,274,MASIEDA,27416,GEMBAKW,ENDAGAYDA
MANYARA,27,MBULU,274,MASIEDA,27416,GEMBAKW,GAMOK B
MANYARA,27,MBULU,274,MASIEDA,27416,GEMBAKW,MASIEDA JUU
MANYARA,27,MBULU,274,MASIEDA,27416,GEMBAKW,QARU
MANYARA,27,MBULU,274,MASIEDA,27416,ENDANYAWISH,SAYKOBE
MANYARA,27,MBULU,274,MASIEDA,27416,ENDANYAWISH,QALOJOJI
MANYARA,27,MBULU,274,MASIEDA,27416,ENDANYAWISH,GIDOSKWE
MANYARA,27,MBULU,274,MASIEDA,27416,ENDANYAWISH,UDABESH
MANYARA,27,MBULU,274,MASIEDA,27416,ENDANYAWISH,GATLAKO
MANYARA,27,MBULU,274,MASQARODA,27417,HARBANGHET,HARBANGHET KATI
MANYARA,27,MBULU,274,MASQARODA,27417,HARBANGHET,BAQHAM
MANYARA,27,MBULU,274,MASQARODA,27417,HARBANGHET,SHARAMO
MANYARA,27,MBULU,274,MASQARODA,27417,HARBANGHET,HAMROY
MANYARA,27,MBULU,274,MASQARODA,27417,HARBANGHET,LAGANG
MANYARA,27,MBULU,274,MASQARODA,27417,HARBANGHET,DANGWALDA
MANYARA,27,MBULU,274,MASQARODA,27417,GARBABI,EDERER                .
MANYARA,27,MBULU,274,MASQARODA,27417,GARBABI,MAARA
MANYARA,27,MBULU,274,MASQARODA,27417,GARBABI,NARI
MANYARA,27,MBULU,274,MASQARODA,27417,GARBABI,GIDGHAMBA
MANYARA,27,MBULU,274,MASQARODA,27417,GARBABI,GENDE
MANYARA,27,MBULU,274,MASQARODA,27417,GARBABI,WAASAY
MANYARA,27,MBULU,274,MASQARODA,27417,GARBABI,QATAMAGAMBERI
MANYARA,27,MBULU,274,MASQARODA,27417,MASQARODA,NAEMI
MANYARA,27,MBULU,274,MASQARODA,27417,MASQARODA,MAHINGE
MANYARA,27,MBULU,274,MASQARODA,27417,MASQARODA,MAHERIYAN
MANYARA,27,MBULU,274,MASQARODA,27417,MASQARODA,GENAI
MANYARA,27,MBULU,274,MASQARODA,27417,MASQARODA,GICHORA
MANYARA,27,MBULU,274,MASQARODA,27417,MASQARODA,BURACHAN
MANYARA,27,MBULU,274,YAEDA AMPA,27418,YAEDA AMPA,QEDESH
MANYARA,27,MBULU,274,YAEDA AMPA,27418,YAEDA AMPA,SANU
MANYARA,27,MBULU,274,YAEDA AMPA,27418,YAEDA AMPA,AYADOFA
MANYARA,27,MBULU,274,YAEDA AMPA,27418,YAEDA AMPA,QWALNET
MANYARA,27,MBULU,274,YAEDA AMPA,27418,YAEDA AMPA,HHANGALI
MANYARA,27,MBULU,274,YAEDA AMPA,27418,MANGISA,MAHINGE A
MANYARA,27,MBULU,274,YAEDA AMPA,27418,MANGISA,TSEAY
MANYARA,27,MBULU,274,YAEDA AMPA,27418,MANGISA,BABATI
MANYARA,27,MBULU,274,YAEDA AMPA,27418,MANGISA,GONGALI
MANYARA,27,MBULU,274,YAEDA AMPA,27418,MANGISA,MAHINGE B
MANYARA,27,MBULU,274,YAEDA AMPA,27418,MANGISA,AYAHILONG
MANYARA,27,MBULU,274,YAEDA AMPA,27418,MANGISA,IRAMBODA
MANYARA,27,MBULU,274,YAEDA AMPA,27418,HAYSENG,HAYSENGA
MANYARA,27,MBULU,274,YAEDA AMPA,27418,HAYSENG,AYAORI
MANYARA,27,MBULU,274,YAEDA AMPA,27418,HAYSENG,YARODOMU
MANYARA,27,MBULU,274,YAEDA AMPA,27418,HAYSENG,UDBURUNG
MANYARA,27,MBULU,274,YAEDA AMPA,27418,HAYSENG,AYAAMSI
MANYARA,27,MBULU,274,YAEDA AMPA,27418,ARRI,GILODAHARI
MANYARA,27,MBULU,274,YAEDA AMPA,27418,ARRI,HAYLOTO
MANYARA,27,MBULU,274,YAEDA AMPA,27418,ARRI,ARRI SHULENI
MANYARA,27,MBULU,274,YAEDA AMPA,27418,ARRI,TSAAYO
MANYARA,27,MBULU,274,YAEDA AMPA,27418,LAGHANGESH,TLOMA
MANYARA,27,MBULU,274,YAEDA AMPA,27418,LAGHANGESH,YAEDA RIVER
MANYARA,27,MBULU,274,YAEDA AMPA,27418,LAGHANGESH,QUTESH
MANYARA,27,MBULU,274,YAEDA AMPA,27418,LAGHANGESH,AYADUGHANG
MANYARA,27,MBULU,274,MURAY,27419,MURRAY,AYALOHI
MANYARA,27,MBULU,274,MURAY,27419,MURRAY,DOAYE
MANYARA,27,MBULU,274,MURAY,27419,MURRAY,TLIPOIM
MANYARA,27,MBULU,274,MURAY,27419,MURRAY,HAY TLAWI
MANYARA,27,MBULU,274,MURAY,27419,MAHERI,AYALOHI A
MANYARA,27,MBULU,274,MURAY,27419,MAHERI,HHAYBANGA
MANYARA,27,MBULU,274,MURAY,27419,MAHERI,MISKU
MANYARA,27,MBULU,274,MURAY,27419,MAHERI,BAYNO
MANYARA,27,MBULU,274,MURAY,27419,MAHERI,DANTSIM
MANYARA,27,MBULU,274,MURAY,27419,KUTA,WARIM
MANYARA,27,MBULU,274,MURAY,27419,KUTA,HHAYSLAY
MANYARA,27,MBULU,274,MURAY,27419,KUTA,SAMBO
MANYARA,27,MBULU,274,MURAY,27419,KUTA,HINDAY
MANYARA,27,MBULU,274,MURAY,27419,KUTA,TSARI
MANYARA,27,MBULU,274,MURAY,27419,QWAM,TLIKIE
MANYARA,27,MBULU,274,MURAY,27419,QWAM,HHAHHARI
MANYARA,27,MBULU,274,MURAY,27419,QWAM,TSEITA
MANYARA,27,MBULU,274,MURAY,27419,QWAM,QWAM
MANYARA,27,MBULU,274,MURAY,27419,QWAM,HHAYROANG
MANYARA,27,MBULU,274,TUMATI,27420,ENDOJI,ENDABINYEK
MANYARA,27,MBULU,274,TUMATI,27420,ENDOJI,ENDOJI
MANYARA,27,MBULU,274,TUMATI,27420,ENDOJI,HYDARER
MANYARA,27,MBULU,274,TUMATI,27420,ENDOJI,GIDURUDAGEW
MANYARA,27,MBULU,274,TUMATI,27420,ENDOJI,GIRSHAN
MANYARA,27,MBULU,274,TUMATI,27420,ENDOJI,FIITA
MANYARA,27,MBULU,274,TUMATI,27420,GETESH,QATESH
MANYARA,27,MBULU,274,TUMATI,27420,GETESH,GETESH
MANYARA,27,MBULU,274,TUMATI,27420,GETESH,GEHANDU
MANYARA,27,MBULU,274,TUMATI,27420,GETESH,ENDAMOMOYA
MANYARA,27,MBULU,274,TUMATI,27420,GETESH,HAREABI
MANYARA,27,MBULU,274,TUMATI,27420,MONGAHAY,ENDADOTO
MANYARA,27,MBULU,274,TUMATI,27420,MONGAHAY,AYASAHHTA B
MANYARA,27,MBULU,274,TUMATI,27420,MONGAHAY,AYASIRONG
MANYARA,27,MBULU,274,TUMATI,27420,MONGAHAY,DAKW AWAAK
MANYARA,27,MBULU,274,TUMATI,27420,MONGAHAY,AYASAHHTA A
MANYARA,27,MBULU,274,TUMATI,27420,ENDESH,HHAYLOTO
MANYARA,27,MBULU,274,TUMATI,27420,ENDESH,KAINAM
MANYARA,27,MBULU,274,TUMATI,27420,ENDESH,QAMBASHAWI
MANYARA,27,MBULU,274,TUMATI,27420,ENDESH,AYA ONA
MANYARA,27,MBULU,274,TUMATI,27420,ENDESH,NOWU
MANYARA,27,MBULU,274,TUMATI,27420,ENDESH,MONGAHAY
MANYARA,27,MBULU,274,TUMATI,27420,TUMATI,SANGARYAN
MANYARA,27,MBULU,274,TUMATI,27420,TUMATI,YAROTAMBURDA
MANYARA,27,MBULU,274,TUMATI,27420,TUMATI,QATAJIRING
MANYARA,27,MBULU,274,TUMATI,27420,TUMATI,TLAHASA
MANYARA,27,MBULU,274,TUMATI,27420,TUMATI,MANYANGURU
MANYARA,27,MBULU,274,TUMATI,27420,TUMATI,YAROTAMBURDA A
MANYARA,27,MBULU,274,TUMATI,27420,TUMATI,DILAGWEN
MANYARA,27,MBULU,274,TUMATI,27420,TUMATI,GIDIMAYA
MANYARA,27,MBULU,274,DONGOBESH,27421,DONGOBESH,SIMMHA
MANYARA,27,MBULU,274,DONGOBESH,27421,DONGOBESH,MAMBURAY
MANYARA,27,MBULU,274,DONGOBESH,27421,DONGOBESH,TANGU
MANYARA,27,MBULU,274,DONGOBESH,27421,DONGOBESH,FITSA
MANYARA,27,MBULU,274,DONGOBESH,27421,DONGOBESH,ULULU
MANYARA,27,MBULU,274,DONGOBESH,27421,DONGOBESHI CHINI,LAGHANAYAYA
MANYARA,27,MBULU,274,DONGOBESH,27421,DONGOBESHI CHINI,QASSES
MANYARA,27,MBULU,274,DONGOBESH,27421,DONGOBESHI CHINI,GIDBAGHAR
MANYARA,27,MBULU,274,DONGOBESH,27421,DONGOBESHI CHINI,QADESH
MANYARA,27,MBULU,274,DONGOBESH,27421,DONGOBESHI CHINI,YAMAY
MANYARA,27,MBULU,274,DONGOBESH,27421,DONGOBESHI CHINI,QALODA
MANYARA,27,MBULU,274,DONGOBESH,27421,DONGOBESHI CHINI,JAMBIDA
MANYARA,27,MBULU,274,DONGOBESH,27421,DONGOBESHI CHINI,LABAY
MANYARA,27,MBULU,274,DONGOBESH,27421,DONGOBESHI CHINI,QAGHA
MANYARA,27,MBULU,274,DONGOBESH,27421,DONGOBESHI CHINI,KULEYU
MANYARA,27,MBULU,274,DINAMU,27423,DIYOMAT,DIYOMAT KATI
MANYARA,27,MBULU,274,DINAMU,27423,DIYOMAT,DAKW TSAMASI
MANYARA,27,MBULU,274,DINAMU,27423,DIYOMAT,YUDEK
MANYARA,27,MBULU,274,DINAMU,27423,DIYOMAT,BAYROMOT
MANYARA,27,MBULU,274,DINAMU,27423,DIYOMAT,GONGALI
MANYARA,27,MBULU,274,DINAMU,27423,MUSLUR,MAGHATO
MANYARA,27,MBULU,274,DINAMU,27423,MUSLUR,GIDORSENGW
MANYARA,27,MBULU,274,DINAMU,27423,MUSLUR,TANGU
MANYARA,27,MBULU,274,DINAMU,27423,MUSLUR,MAGOA
MANYARA,27,MBULU,274,DINAMU,27423,MUSLUR,BAYGHUT
MANYARA,27,MBULU,274,DINAMU,27423,MAMAGI,DAKW HASSANGW
MANYARA,27,MBULU,274,DINAMU,27423,MAMAGI,KINYAMBURI
MANYARA,27,MBULU,274,DINAMU,27423,MAMAGI,MAMAGI MAGHARIBI
MANYARA,27,MBULU,274,DINAMU,27423,MAMAGI,MAMAGI MASHARIKI
MANYARA,27,MBULU,274,DINAMU,27423,MAMAGI,DODOMA
MANYARA,27,MBULU,274,DINAMU,27423,GENDA,MBELE YA MLIMA
MANYARA,27,MBULU,274,DINAMU,27423,GENDA,BARUCHAN
MANYARA,27,MBULU,274,DINAMU,27423,GENDA,SIMHHA
MANYARA,27,MBULU,274,DINAMU,27423,GETAGUJO,TLAQHI
MANYARA,27,MBULU,274,DINAMU,27423,GETAGUJO,MORAM
MANYARA,27,MBULU,274,DINAMU,27423,GETAGUJO,MANYARA
MANYARA,27,MBULU,274,DINAMU,27423,GETAGUJO,LAMBO
MANYARA,27,MBULU,274,DINAMU,27423,GETAGUJO,GETAGUJO
MANYARA,27,MBULU,274,BASHAY,27424,BASHAY,BASHAY
MANYARA,27,MBULU,274,BASHAY,27424,BASHAY,DAWATLAAMI
MANYARA,27,MBULU,274,BASHAY,27424,BASHAY,GENDI
MANYARA,27,MBULU,274,BASHAY,27424,BASHAY,SINAGOGI
MANYARA,27,MBULU,274,BASHAY,27424,YAEDA KATI,MAN -NGAY
MANYARA,27,MBULU,274,BASHAY,27424,YAEDA KATI,HAREABI
MANYARA,27,MBULU,274,BASHAY,27424,YAEDA KATI,HAREABI KATI
MANYARA,27,MBULU,274,BASHAY,27424,YAEDA KATI,ANSLANGW
MANYARA,27,MBULU,274,BASHAY,27424,YAEDA KATI,HAREABI MASHARIKI
MANYARA,27,MBULU,274,BASHAY,27424,HARSHA,HARSHA KUBWA
MANYARA,27,MBULU,274,BASHAY,27424,HARSHA,HARSHA NDOGO
MANYARA,27,MBULU,274,BASHAY,27424,HARSHA,DAKW - TLER -E
MANYARA,27,MBULU,274,BASHAY,27424,HARSHA,KINIHHE
MANYARA,27,MBULU,274,BASHAY,27424,HARSHA,TLAA- DO- ERRO
MANYARA,27,MBULU,274,BASHAY,27424,DIRIM,DIRIM
MANYARA,27,MBULU,274,BASHAY,27424,DIRIM,DAMBIA
MANYARA,27,MBULU,274,BASHAY,27424,DIRIM,DIRIM- MASHARIKI
MANYARA,27,MBULU,274,YAEDACHINI,27425,YAEDA CHINI,YAEDA CHINI
MANYARA,27,MBULU,274,YAEDACHINI,27425,YAEDA CHINI,LAGHANGADA MANGA
MANYARA,27,MBULU,274,YAEDACHINI,27425,YAEDA CHINI,GIDERU
MANYARA,27,MBULU,274,YAEDACHINI,27425,YAEDA CHINI,DUMANANG.
MANYARA,27,MBULU,274,YAEDACHINI,27425,YAEDA CHINI,JORJOT
MANYARA,27,MBULU,274,YAEDACHINI,27425,MONGO WA MONO,263. MONGOWA MONO
MANYARA,27,MBULU,274,YAEDACHINI,27425,MONGO WA MONO,MASHINODA
MANYARA,27,MBULU,274,YAEDACHINI,27425,MONGO WA MONO,ENDAJACHI
MANYARA,27,MBULU,274,YAEDACHINI,27425,MONGO WA MONO,MUDELECK
MANYARA,27,MBULU,274,YAEDACHINI,27425,MONGO WA MONO,MOHEDERER
MANYARA,27,MBULU,274,YAEDACHINI,27426,ENDAMILAY,ENDAMILAY
MANYARA,27,MBULU,274,YAEDACHINI,27426,ENDAMILAY,SOHHA
MANYARA,27,MBULU,274,YAEDACHINI,27426,ENDAMILAY,DUGMOSH
MANYARA,27,MBULU,274,YAEDACHINI,27426,ENDAMILAY,MAGENDAGESH
MANYARA,27,MBULU,274,YAEDACHINI,27426,ENDAMILAY,BURATA
MANYARA,27,MBULU,274,YAEDACHINI,27426,QANDACH,QANDACH
MANYARA,27,MBULU,274,YAEDACHINI,27426,QANDACH,QABUSH
MANYARA,27,MBULU,274,YAEDACHINI,27426,QANDACH,MAWENANE
MANYARA,27,MBULU,274,YAEDACHINI,27426,QANDACH,MAGAR
MANYARA,27,MBULU,274,YAEDACHINI,27426,QANDACH,QANDACH JUU
MANYARA,27,MBULU,274,YAEDACHINI,27426,QALODA GUNAWAY,QALODA GUNAWAY
MANYARA,27,MBULU,274,YAEDACHINI,27426,QALODA GUNAWAY,MAGENAGESH
MANYARA,27,MBULU,274,YAEDACHINI,27426,QALODA GUNAWAY,NYERERE
MANYARA,27,MBULU,274,YAEDACHINI,27426,QALODA GUNAWAY,LAMBO
MANYARA,27,MBULU,274,YAEDACHINI,27426,QALODA GUNAWAY,QALODA KATI
MANYARA,27,MBULU,274,YAEDACHINI,27426,ENDANACHAN,MADADURU
MANYARA,27,MBULU,274,YAEDACHINI,27426,ENDANACHAN,ENDANACHAN
MANYARA,27,MBULU,274,YAEDACHINI,27426,ENDANACHAN,BAREKW
MANYARA,27,MBULU,274,YAEDACHINI,27426,ENDANACHAN,BINJA
MANYARA,27,MBULU,274,YAEDACHINI,27426,ENDANACHAN,BISIYAN
MANYARA,27,MBULU,274,YAEDACHINI,27426,ENDARAT,ENDARAT
MANYARA,27,MBULU,274,YAEDACHINI,27426,ENDARAT,ENDONOGHWENI
MANYARA,27,MBULU,274,YAEDACHINI,27426,ENDARAT,BACKCHEK
MANYARA,27,MBULU,274,YAEDACHINI,27426,ENDARAT,KOKOTO
MANYARA,27,MBULU,274,YAEDACHINI,27426,ENDARAT,KINIHHE
MANYARA,27,MBULU,274,YAEDACHINI,27426,MURIKUCHIDA,398 MURKUCHIDA
MANYARA,27,MBULU,274,YAEDACHINI,27426,MURIKUCHIDA,GATAJIRIM
MANYARA,27,MBULU,274,YAEDACHINI,27426,MURIKUCHIDA,TLOMA SASAGI
MANYARA,27,MBULU,274,YAEDACHINI,27426,MURIKUCHIDA,TSANGWALI
MANYARA,27,MBULU,274,YAEDACHINI,27426,MURIKUCHIDA,SOHHA
MANYARA,27,MBULU,274,MAGHANG,27427,MAGHANG,HENGENI
MANYARA,27,MBULU,274,MAGHANG,27427,MAGHANG,SIMMHA
MANYARA,27,MBULU,274,MAGHANG,27427,MAGHANG,MAGHANG KATI
MANYARA,27,MBULU,274,MAGHANG,27427,MAGHANG JUU,DAGAY
MANYARA,27,MBULU,274,MAGHANG,27427,MAGHANG JUU,MUGURCHAN
MANYARA,27,MBULU,274,MAGHANG,27427,MAGHANG JUU,DUKHHASANGW
MANYARA,27,MBULU,274,MAGHANG,27427,GIDIMADOY,LAMBO
MANYARA,27,MBULU,274,MAGHANG,27427,GIDIMADOY,MANGO
MANYARA,27,MBULU,274,MAGHANG,27427,GIDIMADOY,DAGAY
MANYARA,27,MBULU,274,MAGHANG,27427,MAGHANG BARAZANI,BISIYAN
MANYARA,27,MBULU,274,MAGHANG,27427,MAGHANG BARAZANI,MAGHANG CHINI
MANYARA,27,MBULU,274,MAGHANG,27427,MAGHANG BARAZANI,TIITA
MANYARA,27,MBULU,274,MARETADU,27428,MARETADU JUU,BAKRAHANI
MANYARA,27,MBULU,274,MARETADU,27428,MARETADU JUU,KONTENA
MANYARA,27,MBULU,274,MARETADU,27428,MARETADU JUU,MORAM
MANYARA,27,MBULU,274,MARETADU,27428,MARETADU JUU,GIDIF
MANYARA,27,MBULU,274,MARETADU,27428,MARETADU JUU,BOLBOLAM
MANYARA,27,MBULU,274,MARETADU,27428,MARETADU CHINI,QATROS
MANYARA,27,MBULU,274,MARETADU,27428,MARETADU CHINI,DARABANGA
MANYARA,27,MBULU,274,MARETADU,27428,MARETADU CHINI,DABAS
MANYARA,27,MBULU,274,MARETADU,27428,MARETADU CHINI,GUWANG
MANYARA,27,MBULU,274,MARETADU,27428,MARETADU CHINI,KINYAMBURI
MANYARA,27,MBULU,274,MARETADU,27428,QAMTANANAT,SIIGIG
MANYARA,27,MBULU,274,MARETADU,27428,QAMTANANAT,MULBADAW
MANYARA,27,MBULU,274,MARETADU,27428,QAMTANANAT,QAMTANANAT
MANYARA,27,MBULU,274,MARETADU,27428,GARKAWE,GOSAMWAN
MANYARA,27,MBULU,274,MARETADU,27428,GARKAWE,KATI
MANYARA,27,MBULU,274,MARETADU,27428,GARKAWE,TLAABOA
MANYARA,27,MBULU,274,MARETADU,27428,GARKAWE,MANGAFI
MANYARA,27,MBULU,274,MARETADU,27428,GARKAWE,TSEAY
MANYARA,27,MBULU,274,MARETADU,27428,MAHERI,MAHERI
MANYARA,27,MBULU,274,MARETADU,27428,MAHERI,DILGWAJAWI
MANYARA,27,MBULU,274,MARETADU,27428,MAHERI,BEJU
MANYARA,27,MBULU,274,MARETADU,27428,MAHERI,SEMONYANDI
MANYARA,27,MBULU,274,MARETADU,27428,MAHERI,MENONGW
MANYARA,27,MBULU,274,HAYDARER,27429,DOTINA,MAGESH
MANYARA,27,MBULU,274,HAYDARER,27429,DOTINA,GUDA
MANYARA,27,MBULU,274,HAYDARER,27429,DOTINA,GINYAJAL
MANYARA,27,MBULU,274,HAYDARER,27429,DOTINA,DOTINA
MANYARA,27,MBULU,274,HAYDARER,27429,DOTINA,GIDGWAJE
MANYARA,27,MBULU,274,HAYDARER,27429,GIDBIYO,MARETADU
MANYARA,27,MBULU,274,HAYDARER,27429,GIDBIYO,SHAGWARGWET
MANYARA,27,MBULU,274,HAYDARER,27429,GIDBIYO,GIDBIYO
MANYARA,27,MBULU,274,HAYDARER,27429,SINGU,JAKAYA
MANYARA,27,MBULU,274,HAYDARER,27429,SINGU,GURAWE
MANYARA,27,MBULU,274,HAYDARER,27429,SINGU,GIDGHWENG
MANYARA,27,MBULU,274,HAYDARER,27429,SINGU,GURAWE KUSINI
MANYARA,27,MBULU,274,HAYDARER,27429,SINGU,GURAWE KASKAZINI
MANYARA,27,MBULU,274,HAYDARER,27429,SIMHHA,.MASAKTA
MANYARA,27,MBULU,274,HAYDARER,27429,SIMHHA,MORONJODA
MANYARA,27,MBULU,274,HAYDARER,27429,SIMHHA,MAKOMBANYANDI
MANYARA,27,MBULU,274,HAYDARER,27429,SIMHHA,.SINGU
MANYARA,27,MBULU,274,HAYDARER,27429,SIMHHA,SIMMHA
MANYARA,27,MBULU,274,HAYDARER,27429,HAYDERER,SOA
MANYARA,27,MBULU,274,HAYDARER,27429,HAYDERER,HYADERER JUU
MANYARA,27,MBULU,274,HAYDARER,27429,HAYDERER,DAGAY
MANYARA,27,MBULU,274,HAYDARER,27429,HAYDERER,QAGHAR
MANYARA,27,MBULU,274,HAYDARER,27429,HAYDERER,KINIHHE
MANYARA,27,MBULU,274,HAYDARER,27429,SEMONYANDI,GIDMADOY
MANYARA,27,MBULU,274,HAYDARER,27429,SEMONYANDI,WADRETA
MANYARA,27,MBULU,274,HAYDARER,27429,SEMONYANDI,MAHHAHHA
MANYARA,27,MBULU,274,HAYDARER,27429,SEMONYANDI,GURGUCHAND
MANYARA,27,MBULU,274,HAYDARER,27429,SEMONYANDI,BARABOJIK
MANYARA,27,MBULU,274,HAYDARER,27429,ENDAMASAK,EMDAMWIGASI
MANYARA,27,MBULU,274,HAYDARER,27429,ENDAMASAK,GETAQUL
MANYARA,27,MBULU,274,HAYDARER,27429,ENDAMASAK,ENDA MASAK
MANYARA,27,MBULU,274,HAYDARER,27429,ENDAMASAK,KWIRISHA
MANYARA,27,MBULU,274,HAYDARER,27429,ENDAMASAK,MASKAKA
MANYARA,27,MBULU,274,GETERER,27430,GETANYAMBA,GETERER
MANYARA,27,MBULU,274,GETERER,27430,GETANYAMBA,ENDAGAW JUU
MANYARA,27,MBULU,274,GETERER,27430,GETANYAMBA,CETRE
MANYARA,27,MBULU,274,GETERER,27430,GETANYAMBA,ENDAGAW CHINI
MANYARA,27,MBULU,274,GETERER,27430,GETANYAMBA,GETASHABAT
MANYARA,27,MBULU,274,GETERER,27430,MAGONG,MAGONG
MANYARA,27,MBULU,274,GETERER,27430,MAGONG,MASQARYE
MANYARA,27,MBULU,274,GETERER,27430,MAGONG,CHANGANYIKEN
MANYARA,27,MBULU,274,GETERER,27430,MAGONG,LAMBO
MANYARA,27,MBULU,274,GETERER,27430,MAGONG,.GENDA
MANYARA,27,MBULU,274,GETERER,27430,MAGONG,SHULENI
MANYARA,27,MBULU,274,GETERER,27430,MEWADAN,QALODARER
MANYARA,27,MBULU,274,GETERER,27430,MEWADAN,GWANDA
MANYARA,27,MBULU,274,GETERER,27430,MEWADAN,HAYEDA A
MANYARA,27,MBULU,274,GETERER,27430,MEWADAN,HAYEDA B
MANYARA,27,MBULU,274,GETERER,27430,ENDAGAW,ENDAGAW                   .
MANYARA,27,MBULU,274,GETERER,27430,ENDAGAW,QWACH
MANYARA,27,MBULU,274,GETERER,27430,ENDAGAW,GENDARYANDI
MANYARA,27,MBULU,274,GETERER,27430,GETERER,BISIAN CHINI
MANYARA,27,MBULU,274,GETERER,27430,GETERER,GETERER
MANYARA,27,MBULU,274,HAYDOM,27431,HAYDOM,MJI A
MANYARA,27,MBULU,274,HAYDOM,27431,HAYDOM,MJI B
MANYARA,27,MBULU,274,HAYDOM,27431,HAYDOM,AMANI
MANYARA,27,MBULU,274,HAYDOM,27431,HAYDOM,SAYUNI
MANYARA,27,MBULU,274,HAYDOM,27431,HAYDOM,UWANJA WA NDEGE
MANYARA,27,MBULU,274,HAYDOM,27431,HARAR,HARAR MLIMANI
MANYARA,27,MBULU,274,HAYDOM,27431,HARAR,ENDABARAK
MANYARA,27,MBULU,274,HAYDOM,27431,HARAR,GERSON
MANYARA,27,MBULU,274,HAYDOM,27431,HARAR,MASQARYE
MANYARA,27,MBULU,274,HAYDOM,27431,HARAR,DAKW HASANGW
MANYARA,27,MBULU,274,HAYDOM,27431,NG'ANDAKW,BISIYAN JUU
MANYARA,27,MBULU,274,HAYDOM,27431,NG'ANDAKW,NG'WANDAKW
MANYARA,27,MBULU,274,HAYDOM,27431,NG'ANDAKW,ENDABASH
MANYARA,27,MBULU,274,HAYDOM,27431,NG'ANDAKW,DAQARSI
MANYARA,27,MBULU,274,HAYDOM,27431,NG'ANDAKW,GENDAA
MANYARA,27,MBULU,274,HAYDOM,27431,BASONYAGWE,BISIYAN
MANYARA,27,MBULU,274,HAYDOM,27431,BASONYAGWE,GULAU
MANYARA,27,MBULU,274,HAYDOM,27431,BASONYAGWE,LAMBO
MANYARA,27,MBULU,274,HAYDOM,27431,BASONYAGWE,TSERE
MANYARA,27,MBULU,274,HAYDOM,27431,BASONYAGWE,DUXOFA
MANYARA,27,MBULU,274,HAYDOM,27431,ENDAHARGHADAT,GETAQUL
MANYARA,27,MBULU,274,HAYDOM,27431,ENDAHARGHADAT,INJUR
MANYARA,27,MBULU,274,HAYDOM,27431,ENDAHARGHADAT,ENDABASH
MANYARA,27,MBULU,274,HAYDOM,27431,ENDAHARGHADAT,KARERA
MANYARA,27,MBULU,274,HAYDOM,27431,ENDAHARGHADAT,KARIYAKO
MANYARA,27,MBULU,274,HAYDOM,27431,GEDURDAGAW,ENDAHARGADAT
MANYARA,27,MBULU,274,HAYDOM,27431,GEDURDAGAW,ENDAKET CHINI
MANYARA,27,MBULU,274,HAYDOM,27431,GEDURDAGAW,MACHIMBONI
MANYARA,27,MBULU,274,HAYDOM,27431,GEDURDAGAW,QALODA MARI
MANYARA,27,MBULU,274,HAYDOM,27431,GEDURDAGAW,ENDAGANG'WE
MANYARA,27,MBULU,274,ESHKESH,27432,ESHKESH,ESHKESH
MANYARA,27,MBULU,274,ESHKESH,27432,ESHKESH,DUGUMOSH
MANYARA,27,MBULU,274,ESHKESH,27432,ESHKESH,NYAMUSTA
MANYARA,27,MBULU,274,ESHKESH,27432,ESHKESH,DOMINIC
MANYARA,27,MBULU,274,ESHKESH,27432,ENDAGULDA,ENDAGULDA
MANYARA,27,MBULU,274,ESHKESH,27432,ENDAGULDA,LAGANGAGI DORJI
MANYARA,27,MBULU,274,ESHKESH,27432,ENDAGULDA,GUBOYAND
MANYARA,27,MBULU,274,ESHKESH,27432,ENDAGULDA,GULEW
MANYARA,27,MBULU,274,ESHKESH,27432,ENDAGULDA,MOHEDA MANANG
MANYARA,27,MBULU,274,ESHKESH,27432,DOMANGA,DOMANGA
MANYARA,27,MBULU,274,ESHKESH,27432,DOMANGA,GULEWDOMANGA
MANYARA,27,MBULU,274,ESHKESH,27432,DOMANGA,NAMBASITA
MANYARA,27,MBULU,274,ESHKESH,27432,DOMANGA,ENDESHI
MANYARA,27,MBULU,274,ESHKESH,27432,DOMANGA,LODGE
MANYARA,27,MBULU,274,GIDHIMU,27433,NG'ORAT,GENAI
MANYARA,27,MBULU,274,GIDHIMU,27433,NG'ORAT,QATAMUR
MANYARA,27,MBULU,274,GIDHIMU,27433,NG'ORAT,SABO
MANYARA,27,MBULU,274,GIDHIMU,27433,NG'ORAT,SAKUMAY
MANYARA,27,MBULU,274,GIDHIMU,27433,NG'ORAT,NG'ONG'ORDA
MANYARA,27,MBULU,274,GIDHIMU,27433,DUMANANG,GWANGWEDA
MANYARA,27,MBULU,274,GIDHIMU,27433,DUMANANG,QANYINGESH
MANYARA,27,MBULU,274,GIDHIMU,27433,DUMANANG,SIMHHA
MANYARA,27,MBULU,274,GIDHIMU,27433,DUMANANG,DUGROP
MANYARA,27,MBULU,274,GIDHIMU,27433,DUMANANG,DARBU
MANYARA,27,MBULU,274,GIDHIMU,27433,GUYE,GUYE
MANYARA,27,MBULU,274,GIDHIMU,27433,GUYE,GIDENYAN
MANYARA,27,MBULU,274,GIDHIMU,27433,GUYE,HOLAGHANG
MANYARA,27,MBULU,274,GIDHIMU,27433,GUYE,LAGHANDANUWAGI
MANYARA,27,MBULU,274,GIDHIMU,27433,GUYE,GINYABUDEL
MANYARA,27,MBULU,274,GIDHIMU,27433,GIDHIM,GIDHIM
MANYARA,27,MBULU,274,GIDHIMU,27433,GIDHIM,SAGHA
MANYARA,27,MBULU,274,GIDHIMU,27433,GIDHIM,SAGHANYANDA
MANYARA,27,MBULU,274,GIDHIMU,27433,GIDHIM,GIDIBESH
MANYARA,27,MBULU,274,GIDHIMU,27433,GIDHIM,GULDATY
MANYARA,27,MBULU,274,LABAY,27434,QATABELA,QATABELA
MANYARA,27,MBULU,274,LABAY,27434,QATABELA,HHOWI
MANYARA,27,MBULU,274,LABAY,27434,QATABELA,TSAMASI
MANYARA,27,MBULU,274,LABAY,27434,QATABELA,MIASHIKIRO
MANYARA,27,MBULU,274,LABAY,27434,BASODERER,DIRIM
MANYARA,27,MBULU,274,LABAY,27434,BASODERER,MARA
MANYARA,27,MBULU,274,LABAY,27434,BASODERER,BASODERER
MANYARA,27,MBULU,274,LABAY,27434,BASODERER,TLAARDAAT
MANYARA,27,MBULU,274,LABAY,27434,BASODERER,BAREK
MANYARA,27,MBULU,274,LABAY,27434,LABAY,LABAY
MANYARA,27,MBULU,274,LABAY,27434,LABAY,QAMBASIRO
MANYARA,27,MBULU,274,LABAY,27434,LABAY,MARA CHINI
MANYARA,27,MBULU,274,LABAY,27434,LABAY,MARA JUU
MANYARA,27,MBULU,274,ENDAHAGICHAN,27435,ENDADUBU,MISHONODA
MANYARA,27,MBULU,274,ENDAHAGICHAN,27435,ENDADUBU,ENDADUBU
MANYARA,27,MBULU,274,ENDAHAGICHAN,27435,ENDADUBU,ERMOYAN
MANYARA,27,MBULU,274,ENDAHAGICHAN,27435,ENDADUBU,GIDBENG
MANYARA,27,MBULU,274,ENDAHAGICHAN,27435,ENDADUBU,GIDOSKWE
MANYARA,27,MBULU,274,ENDAHAGICHAN,27435,MIQAW,ENDAMUNG
MANYARA,27,MBULU,274,ENDAHAGICHAN,27435,MIQAW,LABONG
MANYARA,27,MBULU,274,ENDAHAGICHAN,27435,MIQAW,LAGHANGARNO
MANYARA,27,MBULU,274,ENDAHAGICHAN,27435,ENDAHAGICHAN,SIMLEDA
MANYARA,27,MBULU,274,ENDAHAGICHAN,27435,ENDAHAGICHAN,GISINGE
MANYARA,27,MBULU,274,ENDAHAGICHAN,27435,ENDAHAGICHAN,ENDAHAGICHAN
MANYARA,27,MBULU,274,SILALODA,27436,ORBESH,ENDAHAGICHAN
MANYARA,27,MBULU,274,SILALODA,27436,SILALODA KATI,ENDAHAGICHAN
MANYARA,27,MBULU,274,SILALODA,27436,GWANDAWE,ENDAHAGICHAN
MANYARA,27,MBULU,274,SILALODA,27436,YAER AWAK,ENDAHAGICHAN
MANYARA,27,MBULU,274,SILALODA,27436,QASIRONG,ENDAHAGICHAN
MANYARA,27,MBULU,274,SILALODA,27436,GISRURUT,ENDAHAGICHAN
MANYARA,27,MBULU,274,SILALODA,27436,GEDAMAR,ENDAHAGICHAN
MANYARA,27,MBULU,274,SILALODA,27436,MANUWAS,ENDAHAGICHAN
MANYARA,27,KITETO,275,KIBAYA,27501,MANUWAS,BOMANI
MANYARA,27,KITETO,275,KIBAYA,27501,MANUWAS,MAFICHONI
MANYARA,27,KITETO,275,KIBAYA,27501,MANUWAS,NGARENARO
MANYARA,27,KITETO,275,KIBAYA,27501,MANUWAS,KIBAYA KATI
MANYARA,27,KITETO,275,KIBAYA,27501,MANUWAS,KANISANI
MANYARA,27,KITETO,275,BWAGAMOYO,27502,MANUWAS,JANGWANI
MANYARA,27,KITETO,275,BWAGAMOYO,27502,MANUWAS,MSENTE
MANYARA,27,KITETO,275,BWAGAMOYO,27502,MANUWAS,MAGUBIKE
MANYARA,27,KITETO,275,BWAGAMOYO,27502,MANUWAS,MSAKAMSAKA
MANYARA,27,KITETO,275,PARTIMBO,27503,PARTIMBO,ONJANYODO
MANYARA,27,KITETO,275,PARTIMBO,27503,PARTIMBO,ENGIRENYI
MANYARA,27,KITETO,275,PARTIMBO,27503,PARTIMBO,LAALAKIRI
MANYARA,27,KITETO,275,PARTIMBO,27503,PARTIMBO,KIMOTONGE
MANYARA,27,KITETO,275,PARTIMBO,27503,KIMANA,ESOIT
MANYARA,27,KITETO,275,PARTIMBO,27503,KIMANA,MBELI
MANYARA,27,KITETO,275,PARTIMBO,27503,KIMANA,NAPILIKUNYA
MANYARA,27,KITETO,275,PARTIMBO,27503,KIMANA,NARKUJUI
MANYARA,27,KITETO,275,PARTIMBO,27503,KIMANA,DENG'AROOJI
MANYARA,27,KITETO,275,PARTIMBO,27503,KIMANA,MIYOMBONI
MANYARA,27,KITETO,275,PARTIMBO,27503,MBIGIRI,MADUKANI
MANYARA,27,KITETO,275,PARTIMBO,27503,MBIGIRI,KWA NYANGE
MANYARA,27,KITETO,275,PARTIMBO,27503,MBIGIRI,KIMALAUNGA
MANYARA,27,KITETO,275,PARTIMBO,27503,MBIGIRI,NGITATI
MANYARA,27,KITETO,275,PARTIMBO,27503,MBIGIRI,KAMPUNI
MANYARA,27,KITETO,275,PARTIMBO,27503,ILERA,NALANG'TOMONI
MANYARA,27,KITETO,275,PARTIMBO,27503,ILERA,ESEKI
MANYARA,27,KITETO,275,NAMELOCK,27504,NAMELOCK,NAMELOCK SHULENI
MANYARA,27,KITETO,275,NAMELOCK,27504,NAMELOCK,TWANGA
MANYARA,27,KITETO,275,NAMELOCK,27504,NAMELOCK,LENDEBESI
MANYARA,27,KITETO,275,NAMELOCK,27504,NAMELOCK,OLPILIKATA
MANYARA,27,KITETO,275,NAMELOCK,27504,KINUA,KINUA
MANYARA,27,KITETO,275,NAMELOCK,27504,KINUA,CHANG'OMBE
MANYARA,27,KITETO,275,NAMELOCK,27504,LAALALA,LAALALA
MANYARA,27,KITETO,275,NAMELOCK,27504,LAALALA,LAMBALAMBA
MANYARA,27,KITETO,275,NAMELOCK,27504,LAALALA,KAZINGUMU
MANYARA,27,KITETO,275,NAMELOCK,27504,LAALALA,OLOIMUGI
MANYARA,27,KITETO,275,NAMELOCK,27504,LAALALA,HAMAI
MANYARA,27,KITETO,275,NAMELOCK,27504,LAALALA,ANDALETI
MANYARA,27,KITETO,275,NAMELOCK,27504,NJIAPANDA,NJIAPANDA SHULENI
MANYARA,27,KITETO,275,NAMELOCK,27504,NJIAPANDA,LENGUMWA
MANYARA,27,KITETO,275,NAMELOCK,27504,NJIAPANDA,LEGANGA
MANYARA,27,KITETO,275,NAMELOCK,27504,NJIAPANDA,MILEMILE
MANYARA,27,KITETO,275,NAMELOCK,27504,NJIAPANDA,LONGALOJI
MANYARA,27,KITETO,275,NJORO,27505,NDALETA,KILIMBEI
MANYARA,27,KITETO,275,NJORO,27505,NDALETA,BARABARANI
MANYARA,27,KITETO,275,NJORO,27505,NDALETA,BWAWANI
MANYARA,27,KITETO,275,NJORO,27505,ILNDORKONI,NDOROKONI
MANYARA,27,KITETO,275,NJORO,27505,ILNDORKONI,MAKASINI
MANYARA,27,KITETO,275,NJORO,27505,ILNDORKONI,OLMEMEI
MANYARA,27,KITETO,275,NJORO,27505,NJORO,GODOWN
MANYARA,27,KITETO,275,NJORO,27505,NJORO,UBURUNGENI
MANYARA,27,KITETO,275,NJORO,27505,NJORO,KIVUKONI
MANYARA,27,KITETO,275,NJORO,27505,NJORO,MAPINDUZI
MANYARA,27,KITETO,275,NJORO,27505,CHANG'OMBE,CHANG'OMBE
MANYARA,27,KITETO,275,NJORO,27505,CHANG'OMBE,MAJENGO
MANYARA,27,KITETO,275,NJORO,27505,CHANG'OMBE,MAENDELEO
MANYARA,27,KITETO,275,NJORO,27505,CHANG'OMBE,BWAWANI
MANYARA,27,KITETO,275,NJORO,27505,OLPOPONG'I,ESERIANI
MANYARA,27,KITETO,275,NJORO,27505,OLPOPONG'I,OLKINYEI
MANYARA,27,KITETO,275,NJORO,27505,MWANYA,MWANYA SHULENI
MANYARA,27,KITETO,275,NJORO,27505,MWANYA,MWANYA KATI
MANYARA,27,KITETO,275,NJORO,27505,MWANYA,CHANG'OMBE
MANYARA,27,KITETO,275,OLBOLOTI,27506,KIPERESA,KWA MAGUNGA
MANYARA,27,KITETO,275,OLBOLOTI,27506,KIPERESA,LEGANGA
MANYARA,27,KITETO,275,OLBOLOTI,27506,KIPERESA,SAMI
MANYARA,27,KITETO,275,OLBOLOTI,27506,KIPERESA,MAGUNGA
MANYARA,27,KITETO,275,OLBOLOTI,27506,KIPERESA,MAPINDUZI
MANYARA,27,KITETO,275,OLBOLOTI,27506,MWITIKIRA,KAZAMOYO
MANYARA,27,KITETO,275,OLBOLOTI,27506,MWITIKIRA,MWITIKIRA
MANYARA,27,KITETO,275,OLBOLOTI,27506,MWITIKIRA,ISANGA
MANYARA,27,KITETO,275,OLBOLOTI,27506,MWITIKIRA,AMARI
MANYARA,27,KITETO,275,OLBOLOTI,27506,MWITIKIRA,OLOITITI
MANYARA,27,KITETO,275,OLBOLOTI,27506,CHEKANAO,CHANGANYIKENI
MANYARA,27,KITETO,275,OLBOLOTI,27506,CHEKANAO,JUHUDI
MANYARA,27,KITETO,275,OLBOLOTI,27506,CHEKANAO,MJI MPYA
MANYARA,27,KITETO,275,OLBOLOTI,27506,CHEKANAO,BWAWANI
MANYARA,27,KITETO,275,OLBOLOTI,27506,CHEKANAO,SHULENI
MANYARA,27,KITETO,275,OLBOLOTI,27506,CHEKANAO,MLIMANI
MANYARA,27,KITETO,275,OLBOLOTI,27506,CHEKANAO,KICHWA CHA TEMBO
MANYARA,27,KITETO,275,MATUI,27507,CHEKANAO,SOWETO
MANYARA,27,KITETO,275,MATUI,27507,CHEKANAO,NAMANGA
MANYARA,27,KITETO,275,MATUI,27507,CHEKANAO,AZIMIO A
MANYARA,27,KITETO,275,MATUI,27507,CHEKANAO,AZIMIO B
MANYARA,27,KITETO,275,CHAPAKAZI,27508,CHAPAKAZI,CHAPAKAZI
MANYARA,27,KITETO,275,CHAPAKAZI,27508,CHAPAKAZI,MSAGALI
MANYARA,27,KITETO,275,CHAPAKAZI,27508,CHAPAKAZI,MNADANI
MANYARA,27,KITETO,275,CHAPAKAZI,27508,CHAPAKAZI,MAGUMU
MANYARA,27,KITETO,275,CHAPAKAZI,27508,CHAPAKAZI,MGOMBAGOMBA
MANYARA,27,KITETO,275,CHAPAKAZI,27508,OSTETI,OSTETI
MANYARA,27,KITETO,275,CHAPAKAZI,27508,OSTETI,SUBUGO
MANYARA,27,KITETO,275,CHAPAKAZI,27508,OSTETI,MBUGANI
MANYARA,27,KITETO,275,CHAPAKAZI,27508,ENGUSERO ENGINE,SORONGINE
MANYARA,27,KITETO,275,CHAPAKAZI,27508,ENGUSERO ENGINE,NKOLE
MANYARA,27,KITETO,275,ENGUSERO,27509,NGIPA,UBENANI
MANYARA,27,KITETO,275,ENGUSERO,27509,NGIPA,USWAHILINI
MANYARA,27,KITETO,275,ENGUSERO,27509,NGIPA,UKAGURUNI
MANYARA,27,KITETO,275,ENGUSERO,27509,NGIPA,MACHIGA
MANYARA,27,KITETO,275,ENGUSERO,27509,NGIPA,LUKUNJOKIE
MANYARA,27,KITETO,275,ENGUSERO,27509,ENGUSERO,MAKEDONIA
MANYARA,27,KITETO,275,ENGUSERO,27509,ENGUSERO,MABULULU
MANYARA,27,KITETO,275,ENGUSERO,27509,ENGUSERO,ENGUSERO A
MANYARA,27,KITETO,275,ENGUSERO,27509,ENGUSERO,CHECHENZA
MANYARA,27,KITETO,275,ENGUSERO,27509,ENGUSERO,ENGUSERO SHULENI
MANYARA,27,KITETO,275,ENGUSERO,27509,MDUNKU,MDUNKU
MANYARA,27,KITETO,275,ENGUSERO,27509,MDUNKU,MAJENGO
MANYARA,27,KITETO,275,ENGUSERO,27509,MDUNKU,MAGOMBAGOMBA
MANYARA,27,KITETO,275,ENGUSERO,27509,NASETAN,NASETAN
MANYARA,27,KITETO,275,ENGUSERO,27509,NASETAN,MELEMELE
MANYARA,27,KITETO,275,ENGUSERO,27509,NASETAN,ENGUSERO B
MANYARA,27,KITETO,275,DOSIDOSI,27510,ESUGUTA,MWANZA
MANYARA,27,KITETO,275,DOSIDOSI,27510,ESUGUTA,NAINI
MANYARA,27,KITETO,275,DOSIDOSI,27510,ESUGUTA,MAKULU
MANYARA,27,KITETO,275,DOSIDOSI,27510,DOSIDOSI,GOMBELO
MANYARA,27,KITETO,275,DOSIDOSI,27510,DOSIDOSI,KWAMAMBA
MANYARA,27,KITETO,275,DOSIDOSI,27510,DOSIDOSI,MARUDIO
MANYARA,27,KITETO,275,DOSIDOSI,27510,DOSIDOSI,ILOLO
MANYARA,27,KITETO,275,DOSIDOSI,27510,DOSIDOSI,MGURI
MANYARA,27,KITETO,275,DOSIDOSI,27510,DOSIDOSI,DOSIDOSI
MANYARA,27,KITETO,275,DOSIDOSI,27510,DOSIDOSI,MIEMBENI
MANYARA,27,KITETO,275,DOSIDOSI,27510,DOSIDOSI,KOLOMBIA
MANYARA,27,KITETO,275,DOSIDOSI,27510,NCHINILA,CHAN'GOMBE
MANYARA,27,KITETO,275,DOSIDOSI,27510,NCHINILA,MPAKANI
MANYARA,27,KITETO,275,DOSIDOSI,27510,NCHINILA,MAKULU
MANYARA,27,KITETO,275,SONGAMBELE,27511,SONGAMBELE,SONGAMBELE- MKOYO
MANYARA,27,KITETO,275,SONGAMBELE,27511,SONGAMBELE,MKANDAMIZE
MANYARA,27,KITETO,275,SONGAMBELE,27511,SONGAMBELE,MRUTOTO
MANYARA,27,KITETO,275,SONGAMBELE,27511,ORKINE,CHAPAKAZI
MANYARA,27,KITETO,275,SONGAMBELE,27511,ORKINE,AZIMIO
MANYARA,27,KITETO,275,SONGAMBELE,27511,ORKINE,MDUNKU
MANYARA,27,KITETO,275,SONGAMBELE,27511,ORKINE,LEMELO
MANYARA,27,KITETO,275,SONGAMBELE,27511,ORKINE,NGENJUNGAI
MANYARA,27,KITETO,275,MAGUNGU,27512,MAGUNGU,MAGUNGU
MANYARA,27,KITETO,275,MAGUNGU,27512,MAGUNGU,BWAWANI
MANYARA,27,KITETO,275,MAGUNGU,27512,MAGUNGU,CHAPAKAZI (IKULU)
MANYARA,27,KITETO,275,MAGUNGU,27512,MAGUNGU,SONGAMBELE
MANYARA,27,KITETO,275,MAGUNGU,27512,NHATI,NHATI
MANYARA,27,KITETO,275,MAGUNGU,27512,NHATI,NHATI MASHAMBANI
MANYARA,27,KITETO,275,MAGUNGU,27512,NHATI,TAKALOI
MANYARA,27,KITETO,275,MAGUNGU,27512,EMARTI,EMART
MANYARA,27,KITETO,275,MAGUNGU,27512,EMARTI,MNYANGWEI
MANYARA,27,KITETO,275,MAGUNGU,27512,EMARTI,ZAHANATI
MANYARA,27,KITETO,275,MAGUNGU,27512,EMARTI,OLMOTIO
MANYARA,27,KITETO,275,MAGUNGU,27512,EMARTI,MBIGIRI
MANYARA,27,KITETO,275,MAGUNGU,27512,EMARTI,KILOHI
MANYARA,27,KITETO,275,SUNYA,27513,ASAMATWA,MBITIO
MANYARA,27,KITETO,275,SUNYA,27513,ASAMATWA,MAPANGA
MANYARA,27,KITETO,275,SUNYA,27513,ASAMATWA,NDILALI
MANYARA,27,KITETO,275,SUNYA,27513,OLGIRA,MUTARUDI
MANYARA,27,KITETO,275,SUNYA,27513,OLGIRA,MACHAKOSI
MANYARA,27,KITETO,275,SUNYA,27513,OLGIRA,SONGAMBELE
MANYARA,27,KITETO,275,SUNYA,27513,OLGIRA,MBIKASI
MANYARA,27,KITETO,275,SUNYA,27513,OLGIRA,NATUSHU
MANYARA,27,KITETO,275,SUNYA,27513,SUNYA,MNADANI
MANYARA,27,KITETO,275,SUNYA,27513,SUNYA,IBUTU
MANYARA,27,KITETO,275,SUNYA,27513,SUNYA,LENDOLU
MANYARA,27,KITETO,275,SUNYA,27513,SUNYA,KIYEGEYA
MANYARA,27,KITETO,275,SUNYA,27513,SUNYA,KICHANGANI
MANYARA,27,KITETO,275,SUNYA,27513,SUNYA,JUHUDI
MANYARA,27,KITETO,275,SUNYA,27513,SUNYA,MAJENGO
MANYARA,27,KITETO,275,SUNYA,27513,SUNYA,MJI MPYA
MANYARA,27,KITETO,275,SUNYA,27513,CHANG'OMBE,CHANG'OMBE
MANYARA,27,KITETO,275,SUNYA,27513,CHANG'OMBE,KILAMA
MANYARA,27,KITETO,275,SUNYA,27513,CHANG'OMBE,SAMBWETI
MANYARA,27,KITETO,275,SUNYA,27513,MESERA,MAKUYU
MANYARA,27,KITETO,275,SUNYA,27513,MESERA,MESERA
MANYARA,27,KITETO,275,SUNYA,27513,MESERA,LORKIU
MANYARA,27,KITETO,275,SUNYA,27513,MESERA,NAALARANI
MANYARA,27,KITETO,275,SUNYA,27513,LOLTEPESI,BWAWANI
MANYARA,27,KITETO,275,SUNYA,27513,LOLTEPESI,CHANG'OMBE
MANYARA,27,KITETO,275,SUNYA,27513,LOLTEPESI,LOBOSOIT
MANYARA,27,KITETO,275,DONGO,27514,DONGO,CHAMWINO
MANYARA,27,KITETO,275,DONGO,27514,DONGO,SUBUGO
MANYARA,27,KITETO,275,DONGO,27514,DONGO,MAGOMENI
MANYARA,27,KITETO,275,DONGO,27514,LOGOET,LOGOETI
MANYARA,27,KITETO,275,DONGO,27514,,NGESE
MANYARA,27,KITETO,275,DONGO,27514,,TAKALOI
MANYARA,27,KITETO,275,DONGO,27514,CHANG'OMBE,NGUZO SITA
MANYARA,27,KITETO,275,DONGO,27514,CHANG'OMBE,MISHENI
MANYARA,27,KITETO,275,DONGO,27514,CHANG'OMBE,MBELI
MANYARA,27,KITETO,275,DONGO,27514,CHANG'OMBE,CHANG'OMBE
MANYARA,27,KITETO,275,LENGATEI,27515,LESOIT,OLBILIGIT
MANYARA,27,KITETO,275,LENGATEI,27515,LESOIT,ILKANDURURO
MANYARA,27,KITETO,275,LENGATEI,27515,LESOIT,CHANG'OMBE
MANYARA,27,KITETO,275,LENGATEI,27515,LESOIT,LESOIT KATI
MANYARA,27,KITETO,275,LENGATEI,27515,ENG'ONGONGARE,MULTURU
MANYARA,27,KITETO,275,LENGATEI,27515,ENG'ONGONGARE,LOONGUNG
MANYARA,27,KITETO,275,LENGATEI,27515,ENG'ONGONGARE,NENDEPES
MANYARA,27,KITETO,275,LENGATEI,27515,ENG'ONGONGARE,KIWANJA CHA NDEGE
MANYARA,27,KITETO,275,LENGATEI,27515,LENGATEI,KAGEZE
MANYARA,27,KITETO,275,LENGATEI,27515,LENGATEI,ILALA
MANYARA,27,KITETO,275,LENGATEI,27515,LENGATEI,MAGOMENI
MANYARA,27,KITETO,275,LENGATEI,27515,LENGATEI,MALIMAGO
MANYARA,27,KITETO,275,LENGATEI,27515,ZAMBIA,ZAMBIA
MANYARA,27,KITETO,275,LENGATEI,27515,ZAMBIA,MAKANYA
MANYARA,27,KITETO,275,LENGATEI,27515,ZAMBIA,MFAMPLA
MANYARA,27,KITETO,275,LENGATEI,27515,ZAMBIA,STAMILI
MANYARA,27,KITETO,275,LENGATEI,27515,ZAMBIA,NKALANGA
MANYARA,27,KITETO,275,LENGATEI,27515,OLKITIKITI,OLGILAL
MANYARA,27,KITETO,275,LENGATEI,27515,OLKITIKITI,LOSOROTOI
MANYARA,27,KITETO,275,LENGATEI,27515,OLKITIKITI,LAMUROTOI
MANYARA,27,KITETO,275,LENGATEI,27515,OLKITIKITI,SAPUKUPESI
MANYARA,27,KITETO,275,LENGATEI,27515,OLKITIKITI,OLUKOLIL
MANYARA,27,KITETO,275,LENGATEI,27515,OLKITIKITI,KIPOONY
MANYARA,27,KITETO,275,KIJUNGU,27516,KIJUNGU,MADUKANI
MANYARA,27,KITETO,275,KIJUNGU,27516,KIJUNGU,MAJENGO
MANYARA,27,KITETO,275,KIJUNGU,27516,KIJUNGU,KONA
MANYARA,27,KITETO,275,KIJUNGU,27516,LERUG,LENGOHOLAI
MANYARA,27,KITETO,275,KIJUNGU,27516,LERUG,NOSILALE
MANYARA,27,KITETO,275,KIJUNGU,27516,LERUG,NENDRIKI
MANYARA,27,KITETO,275,KIJUNGU,27516,NGAPAPA,NGAPAPA
MANYARA,27,KITETO,275,KIJUNGU,27516,NGAPAPA,LOSILALE
MANYARA,27,KITETO,275,LOOLERA,27517,LOOLERA,ENGUSERO MANYATA
MANYARA,27,KITETO,275,LOOLERA,27517,LOOLERA,LOIBOSIRET
MANYARA,27,KITETO,275,LOOLERA,27517,LOOLERA,OLKILORITI
MANYARA,27,KITETO,275,LOOLERA,27517,LEMBAPULI,NANYORO
MANYARA,27,KITETO,275,LOOLERA,27517,LEMBAPULI,OLKONONOI
MANYARA,27,KITETO,275,LOOLERA,27517,LEMBAPULI,ORKINGUNYOKIE
MANYARA,27,KITETO,275,LOOLERA,27517,AMEI,MBAMAY
MANYARA,27,KITETO,275,LOOLERA,27517,AMEI,KAPSYA
MANYARA,27,KITETO,275,LOOLERA,27517,AMEI,NGAMALU
MANYARA,27,KITETO,275,NDEDO,27518,NDEDO,ENGAHE
MANYARA,27,KITETO,275,NDEDO,27518,NDEDO,MADUKANI
MANYARA,27,KITETO,275,NDEDO,27518,NDEDO,SIMANJIRO
MANYARA,27,KITETO,275,NDEDO,27518,NDEDO,LARNG'ANY
MANYARA,27,KITETO,275,NDEDO,27518,NDEDO,LELIKUNYO
MANYARA,27,KITETO,275,NDEDO,27518,NDEDO,OLTEPES
MANYARA,27,KITETO,275,NDEDO,27518,IRNG'ABOLO,NG'ABOLO
MANYARA,27,KITETO,275,NDEDO,27518,IRNG'ABOLO,MNYAMBWAI
MANYARA,27,KITETO,275,NDEDO,27518,IRNG'ABOLO,OLDUPAI
MANYARA,27,KITETO,275,MAKAME,27519,MAKAME,ILKIMBEI
MANYARA,27,KITETO,275,MAKAME,27519,MAKAME,OLOJOTO
MANYARA,27,KITETO,275,MAKAME,27519,MAKAME,TIAKUNINI
MANYARA,27,KITETO,275,MAKAME,27519,MAKAME,EMBONG'ETI
MANYARA,27,KITETO,275,MAKAME,27519,MAKAME,KISERIAN
MANYARA,27,KITETO,275,MAKAME,27519,MAKAME,NDERITO
MANYARA,27,KITETO,275,MAKAME,27519,MAKAME,NAMELOCK
MANYARA,27,KITETO,275,MAKAME,27519,MAKAME,TAYEI
MANYARA,27,KITETO,275,MAKAME,27519,KATIKATI,LORGUM
MANYARA,27,KITETO,275,MAKAME,27519,KATIKATI,LALARAMI
MANYARA,27,KITETO,275,MAKAME,27519,KATIKATI,ARMARKARA
MANYARA,27,KITETO,275,MAKAME,27519,KATIKATI,ESILALEI
MANYARA,27,KITETO,275,MAKAME,27519,IRKIUSHBOR,LOLBENE
MANYARA,27,KITETO,275,MAKAME,27519,IRKIUSHBOR,IMBOPONG
MANYARA,27,KITETO,275,MAKAME,27519,IRKIUSHBOR,LANG'ANYI
MANYARA,27,KITETO,275,MAKAME,27519,IRKIUSHBOR,OSIREI
MANYARA,27,KITETO,275,MAKAME,27519,IRKIUSHBOR,ILCHURA
MANYARA,27,KITETO,275,MAKAME,27519,IRKIUSHBOR,ARMAME
MANYARA,27,KITETO,275,NDIRGISHI,27520,NDIRGISHI,MBANDE
MANYARA,27,KITETO,275,NDIRGISHI,27520,NDIRGISHI,MUUNGANO.
MANYARA,27,KITETO,275,NDIRGISHI,27520,NDIRGISHI,SHULENI
MANYARA,27,KITETO,275,NDIRGISHI,27520,NDIRGISHI,MLIMANI
MANYARA,27,KITETO,275,NDIRGISHI,27520,NDIRGISHI,NDIRGISHI VISIWANI
MANYARA,27,KITETO,275,NDIRGISHI,27520,TAIGO,TAIGO
MANYARA,27,KITETO,275,NDIRGISHI,27520,TAIGO,CHANG'OMBE
MANYARA,27,KITETO,275,NDIRGISHI,27520,TAIGO,LENGITOJO
MANYARA,27,KITETO,275,NDIRGISHI,27520,TAIGO,BWAWANI TAIGO
MANYARA,27,KITETO,275,NDIRGISHI,27520,KRASH,KRASH
MANYARA,27,KITETO,275,NDIRGISHI,27520,KRASH,MADUKANI
MANYARA,27,KITETO,275,NDIRGISHI,27520,KRASH,DOTTI
MANYARA,27,KITETO,275,NDIRGISHI,27520,NGIPA,USWAHILINI
MANYARA,27,KITETO,275,NDIRGISHI,27520,NGIPA,UKAGURUNI
MANYARA,27,KITETO,275,NDIRGISHI,27520,NGIPA,UBENANI
MANYARA,27,KITETO,275,NDIRGISHI,27520,NGIPA,LUKUNYUKIE
MANYARA,27,KITETO,275,NDIRGISHI,27520,NGIPA,MACHIGA
MANYARA,27,KITETO,275,LAISERI,27521,ENGUSEROSIDAN,"CHANG,OMBE"
MANYARA,27,KITETO,275,LAISERI,27521,ENGUSEROSIDAN,KICHANGANI
MANYARA,27,KITETO,275,LAISERI,27521,ENGUSEROSIDAN,MISHENI
MANYARA,27,KITETO,275,LAISERI,27521,LAISERI,NDOSEI
MANYARA,27,KITETO,275,LAISERI,27521,LAISERI,KILELENI
MANYARA,27,KITETO,275,LAISERI,27521,LAISERI,UHAMIAJI
MANYARA,27,KITETO,275,LAISERI,27521,LAISERI,NARAU
MANYARA,27,KITETO,275,LAISERI,27521,NDOTOI,NDOTOI
MANYARA,27,KITETO,275,LAISERI,27521,NDOTOI,KONYEKI
MANYARA,27,KITETO,275,LAISERI,27521,NDOTOI,MBAYEKI
MANYARA,27,KITETO,275,LAISERI,27521,NDOTOI,MBELI
MANYARA,27,KITETO,275,KALOLENI,27522,NDOTOI,KALOLENI
MANYARA,27,KITETO,275,KALOLENI,27522,NDOTOI,MSIKITINI
MANYARA,27,KITETO,275,KALOLENI,27522,NDOTOI,VUMILIA
MANYARA,27,KITETO,275,KALOLENI,27522,NDOTOI,MAJENGO MAPYA
MANYARA,27,KITETO,275,KALOLENI,27522,NDOTOI,SHILANGAA
MANYARA,27,KITETO,275,BWAWANI,27523,NDOTOI,BWAWANI
MANYARA,27,KITETO,275,BWAWANI,27523,NDOTOI,KIVUKONI
MANYARA,27,KITETO,275,BWAWANI,27523,NDOTOI,MAJENGO
MANYARA,27,KITETO,275,BWAWANI,27523,NDOTOI,MJI PYA
MANYARA,27,SIMANJIRO,276,ORKESUMET,27601,NDOTOI,ORKESUMET
MANYARA,27,SIMANJIRO,276,ORKESUMET,27601,NDOTOI,BOMANI
MANYARA,27,SIMANJIRO,276,ORKESUMET,27601,NDOTOI,NJIRO
MANYARA,27,SIMANJIRO,276,ORKESUMET,27601,NDOTOI,JITEGEMEE
MANYARA,27,SIMANJIRO,276,ORKESUMET,27601,NDOTOI,UHURU
MANYARA,27,SIMANJIRO,276,ORKESUMET,27601,NDOTOI,MKUMBI
MANYARA,27,SIMANJIRO,276,KITWAI,27602,KITWAI 'A',NDEPES
MANYARA,27,SIMANJIRO,276,KITWAI,27602,KITWAI 'A',TERERE
MANYARA,27,SIMANJIRO,276,KITWAI,27602,KITWAI 'A',NAIPUSHI
MANYARA,27,SIMANJIRO,276,KITWAI,27602,KITWAI 'A',LOLOKUMASH
MANYARA,27,SIMANJIRO,276,KITWAI,27602,KITWAI 'A',IRKIRIKO
MANYARA,27,SIMANJIRO,276,KITWAI,27602,KITWAI 'B',ORMEGORIBOO
MANYARA,27,SIMANJIRO,276,KITWAI,27602,KITWAI 'B',KITWAI 'B'
MANYARA,27,SIMANJIRO,276,KITWAI,27602,KITWAI 'B',KASANJO
MANYARA,27,SIMANJIRO,276,KITWAI,27602,KITWAI 'B',IRGOJINIA
MANYARA,27,SIMANJIRO,276,KITWAI,27602,KITWAI 'B',GURINYI
MANYARA,27,SIMANJIRO,276,KITWAI,27602,KITWAI 'B',ORCHILISH
MANYARA,27,SIMANJIRO,276,KITWAI,27602,LONDREKES,ORMANGWAI
MANYARA,27,SIMANJIRO,276,KITWAI,27602,LONDREKES,KUSHANGUU
MANYARA,27,SIMANJIRO,276,KITWAI,27602,LONDREKES,NENGOILALEI
MANYARA,27,SIMANJIRO,276,KITWAI,27602,LONDREKES,NJIAPANDA
MANYARA,27,SIMANJIRO,276,KITWAI,27602,LONDREKES,ENDONYOIBOO
MANYARA,27,SIMANJIRO,276,RUVU REMIT,27603,RUVU REMIT,SHULENI
MANYARA,27,SIMANJIRO,276,RUVU REMIT,27603,RUVU REMIT,OLBIL SHULENI
MANYARA,27,SIMANJIRO,276,RUVU REMIT,27603,RUVU REMIT,LOORIMBA
MANYARA,27,SIMANJIRO,276,RUVU REMIT,27603,LERUMO,OLERUMO
MANYARA,27,SIMANJIRO,276,RUVU REMIT,27603,LERUMO,EITII
MANYARA,27,SIMANJIRO,276,RUVU REMIT,27603,LERUMO,DARAJANI
MANYARA,27,SIMANJIRO,276,RUVU REMIT,27603,LERUMO,MBEJOT
MANYARA,27,SIMANJIRO,276,RUVU REMIT,27603,LERUMO,SENDELU
MANYARA,27,SIMANJIRO,276,RUVU REMIT,27603,LERUMO,NGIITO
MANYARA,27,SIMANJIRO,276,RUVU REMIT,27603,GUNGE,SUKUTA
MANYARA,27,SIMANJIRO,276,RUVU REMIT,27603,GUNGE,GUNGE DARAJANI
MANYARA,27,SIMANJIRO,276,RUVU REMIT,27603,GUNGE,OLKIRINE
MANYARA,27,SIMANJIRO,276,RUVU REMIT,27603,GUNGE,LASINNYA
MANYARA,27,SIMANJIRO,276,LOIBORSOIT,27604,LOIBORSOIT  B,ENGURASH
MANYARA,27,SIMANJIRO,276,LOIBORSOIT,27604,LOIBORSOIT  B,OTTIBU
MANYARA,27,SIMANJIRO,276,LOIBORSOIT,27604,LOIBORSOIT  B,MAZINDE
MANYARA,27,SIMANJIRO,276,LOIBORSOIT,27604,LOIBORSOIT  B,ISOIPAI
MANYARA,27,SIMANJIRO,276,LOIBORSOIT,27604,NGAGE,NGAGE A
MANYARA,27,SIMANJIRO,276,LOIBORSOIT,27604,NGAGE,NGAGE B
MANYARA,27,SIMANJIRO,276,NABERERA,27605,NABERERA,NABERERA MADUKANI
MANYARA,27,SIMANJIRO,276,NABERERA,27605,NABERERA,ESOITO MARITAT
MANYARA,27,SIMANJIRO,276,NABERERA,27605,NABERERA,ERKIDOMUNGE
MANYARA,27,SIMANJIRO,276,NABERERA,27605,NABERERA,KOSIKI
MANYARA,27,SIMANJIRO,276,NABERERA,27605,NABERERA,NAIBORNDERIT
MANYARA,27,SIMANJIRO,276,NABERERA,27605,NABERERA,ISOITO
MANYARA,27,SIMANJIRO,276,NABERERA,27605,NABERERA,LODOSOITO
MANYARA,27,SIMANJIRO,276,NABERERA,27605,NAMALULU,NAMALULU MADUKANI
MANYARA,27,SIMANJIRO,276,NABERERA,27605,NAMALULU,SAYAMA
MANYARA,27,SIMANJIRO,276,NABERERA,27605,NAMALULU,OLMOTI
MANYARA,27,SIMANJIRO,276,NABERERA,27605,NAMALULU,OLKILORIT
MANYARA,27,SIMANJIRO,276,NABERERA,27605,NAMALULU,ORKOKOTO
MANYARA,27,SIMANJIRO,276,NABERERA,27605,NAMALULU,ALAIMIRORI
MANYARA,27,SIMANJIRO,276,NABERERA,27605,NAMALULU,NGARKASHI
MANYARA,27,SIMANJIRO,276,NABERERA,27605,LANDANAI,LANDANAI MADUKANI
MANYARA,27,SIMANJIRO,276,NABERERA,27605,LANDANAI,ORMISIRA
MANYARA,27,SIMANJIRO,276,NABERERA,27605,LANDANAI,DODOMA
MANYARA,27,SIMANJIRO,276,NABERERA,27605,LANDANAI,LAIKA -SEKI
MANYARA,27,SIMANJIRO,276,NABERERA,27605,LANDANAI,KUMBUKUMBA
MANYARA,27,SIMANJIRO,276,NABERERA,27605,OKUTU,NDOVU
MANYARA,27,SIMANJIRO,276,NABERERA,27605,OKUTU,OLKTYAPORE
MANYARA,27,SIMANJIRO,276,NABERERA,27605,OKUTU,OKUTU JUU
MANYARA,27,SIMANJIRO,276,NABERERA,27605,OKUTU,LEMELEPO B
MANYARA,27,SIMANJIRO,276,NABERERA,27605,OKUTU,OLMORI
MANYARA,27,SIMANJIRO,276,NABERERA,27605,LOSOKONOI,LEMELPO A
MANYARA,27,SIMANJIRO,276,NABERERA,27605,LOSOKONOI,LOSOKONOI A
MANYARA,27,SIMANJIRO,276,NABERERA,27605,LOSOKONOI,LOSOKONOI B
MANYARA,27,SIMANJIRO,276,NABERERA,27605,LOLBENE,LOLBENE
MANYARA,27,SIMANJIRO,276,NABERERA,27605,LOLBENE,NJORONI
MANYARA,27,SIMANJIRO,276,NABERERA,27605,LOLBENE,ENGUSERONGINE
MANYARA,27,SIMANJIRO,276,NGORIKA,27606,NGORIKA,NGORIKA  “A”
MANYARA,27,SIMANJIRO,276,NGORIKA,27606,NGORIKA,NGORIKA  “B”
MANYARA,27,SIMANJIRO,276,NGORIKA,27606,NGORIKA,NGORIKA  “C”
MANYARA,27,SIMANJIRO,276,NGORIKA,27606,NGORIKA,NGORIKA  “D”
MANYARA,27,SIMANJIRO,276,NGORIKA,27606,NGORIKA,KARIATI
MANYARA,27,SIMANJIRO,276,NGORIKA,27606,NGORIKA,KAMBI YA CHUI
MANYARA,27,SIMANJIRO,276,NGORIKA,27606,NYUMBA YA MUNGU,SHULENI
MANYARA,27,SIMANJIRO,276,NGORIKA,27606,NYUMBA YA MUNGU,MASAINI
MANYARA,27,SIMANJIRO,276,NGORIKA,27606,NYUMBA YA MUNGU,MADUKANI
MANYARA,27,SIMANJIRO,276,NGORIKA,27606,NYUMBA YA MUNGU,MAJENGO MAPYA
MANYARA,27,SIMANJIRO,276,NGORIKA,27606,NYUMBA YA MUNGU,CHEMCHEM
MANYARA,27,SIMANJIRO,276,NGORIKA,27606,LEMKUNA,LEMKUNA
MANYARA,27,SIMANJIRO,276,NGORIKA,27606,LEMKUNA,MASAINI A
MANYARA,27,SIMANJIRO,276,NGORIKA,27606,LEMKUNA,MASAINI B
MANYARA,27,SIMANJIRO,276,NGORIKA,27606,LEMKUNA,LENGUNGUMWA
MANYARA,27,SIMANJIRO,276,NGORIKA,27606,LEMKUNA,LEMKUNA SHULENI
MANYARA,27,SIMANJIRO,276,MSITU WA TEMBO,27607,MSITU WA TEMBO,M/TEMBO “B”
MANYARA,27,SIMANJIRO,276,MSITU WA TEMBO,27607,MSITU WA TEMBO,MAJENGO
MANYARA,27,SIMANJIRO,276,MSITU WA TEMBO,27607,MSITU WA TEMBO,KIWOI.
MANYARA,27,SIMANJIRO,276,MSITU WA TEMBO,27607,LONDOTO,MSITU WA TEMBO“A”
MANYARA,27,SIMANJIRO,276,MSITU WA TEMBO,27607,LONDOTO,MSITU WA TEMBO“C”
MANYARA,27,SIMANJIRO,276,MSITU WA TEMBO,27607,LONDOTO,LONDOTO
MANYARA,27,SIMANJIRO,276,MSITU WA TEMBO,27607,LONDOTO,KITONGOJI 800
MANYARA,27,SIMANJIRO,276,MSITU WA TEMBO,27607,KIRUANI,KIRUANI A
MANYARA,27,SIMANJIRO,276,MSITU WA TEMBO,27607,KIRUANI,KIRUANI B
MANYARA,27,SIMANJIRO,276,MSITU WA TEMBO,27607,KIRUANI,KIRUANI C
MANYARA,27,SIMANJIRO,276,MSITU WA TEMBO,27607,MAGADINI,MAJENGO
MANYARA,27,SIMANJIRO,276,MSITU WA TEMBO,27607,MAGADINI,MAGADINI “A”
MANYARA,27,SIMANJIRO,276,MSITU WA TEMBO,27607,MAGADINI,MAGADINI “B”
MANYARA,27,SIMANJIRO,276,MSITU WA TEMBO,27607,MAGADINI,ENGOYASI
MANYARA,27,SIMANJIRO,276,MSITU WA TEMBO,27607,KORONGO,KATI
MANYARA,27,SIMANJIRO,276,MSITU WA TEMBO,27607,KORONGO,MJIMWEMA
MANYARA,27,SIMANJIRO,276,MSITU WA TEMBO,27607,KORONGO,VIWANDA
MANYARA,27,SIMANJIRO,276,MSITU WA TEMBO,27607,OLCHORONYORI,LENGUSO
MANYARA,27,SIMANJIRO,276,MSITU WA TEMBO,27607,OLCHORONYORI,LENGIJAPE
MANYARA,27,SIMANJIRO,276,MSITU WA TEMBO,27607,OLCHORONYORI,KISAMAA
MANYARA,27,SIMANJIRO,276,NAISINYAI,27608,LOSOITO,OLOSHONYOIKE
MANYARA,27,SIMANJIRO,276,NAISINYAI,27608,LOSOITO,NAISINYAI KATI
MANYARA,27,SIMANJIRO,276,NAISINYAI,27608,NAISINYAI,TANZANITE
MANYARA,27,SIMANJIRO,276,NAISINYAI,27608,NAISINYAI,NAMELOCK
MANYARA,27,SIMANJIRO,276,NAISINYAI,27608,NAEPO,NAMELOCK
MANYARA,27,SIMANJIRO,276,NAISINYAI,27608,NAEPO,KIBAONI
MANYARA,27,SIMANJIRO,276,NAISINYAI,27608,LENGASITI,ENGUSERO
MANYARA,27,SIMANJIRO,276,NAISINYAI,27608,LENGASITI,EDONYONAPI
MANYARA,27,SIMANJIRO,276,NAISINYAI,27608,KAMBI YA CHOKAA,NOMEUT
MANYARA,27,SIMANJIRO,276,NAISINYAI,27608,KAMBI YA CHOKAA,NASSEPA
MANYARA,27,SIMANJIRO,276,NAISINYAI,27608,KAMBI YA CHOKAA,SHULENI
MANYARA,27,SIMANJIRO,276,NAISINYAI,27608,KAMBI YA CHOKAA,ENGUSERO
MANYARA,27,SIMANJIRO,276,MERERANI,27609,KAMBI YA CHOKAA,TUNDURU
MANYARA,27,SIMANJIRO,276,MERERANI,27609,KAMBI YA CHOKAA,KILIMANJARO
MANYARA,27,SIMANJIRO,276,MERERANI,27609,KAMBI YA CHOKAA,MSIKITINI
MANYARA,27,SIMANJIRO,276,MERERANI,27609,KAMBI YA CHOKAA,MIRERANI
MANYARA,27,SIMANJIRO,276,MERERANI,27609,KAMBI YA CHOKAA,SONGAMBELE
MANYARA,27,SIMANJIRO,276,MERERANI,27609,KAMBI YA CHOKAA,MANYARA
MANYARA,27,SIMANJIRO,276,MERERANI,27609,KAMBI YA CHOKAA,GETINI
MANYARA,27,SIMANJIRO,276,MERERANI,27609,KAMBI YA CHOKAA,TANZANITE
MANYARA,27,SIMANJIRO,276,MERERANI,27609,KAMBI YA CHOKAA,TWIGA
MANYARA,27,SIMANJIRO,276,MERERANI,27609,KAMBI YA CHOKAA,KANGAROO
MANYARA,27,SIMANJIRO,276,MERERANI,27609,KAMBI YA CHOKAA,KWA NYITI
MANYARA,27,SIMANJIRO,276,MERERANI,27609,KAMBI YA CHOKAA,SONGAMBELE ‘A’
MANYARA,27,SIMANJIRO,276,SHAMBARAI,27610,SHAMBARAI,MASHAMBA MAPYA
MANYARA,27,SIMANJIRO,276,SHAMBARAI,27610,SHAMBARAI,SHAMBARAI KATI
MANYARA,27,SIMANJIRO,276,SHAMBARAI,27610,SHAMBARAI,ZINGATIA
MANYARA,27,SIMANJIRO,276,SHAMBARAI,27610,KANDESIKIRA,CHIEF MBARNOT
MANYARA,27,SIMANJIRO,276,SHAMBARAI,27610,KANDESIKIRA,MAENDELEO
MANYARA,27,SIMANJIRO,276,SHAMBARAI,27610,KANDESIKIRA,KISERIANI
MANYARA,27,SIMANJIRO,276,SHAMBARAI,27610,KANDESIKIRA,ALAHAIK
MANYARA,27,SIMANJIRO,276,SHAMBARAI,27610,OLBIL,NAMELOK
MANYARA,27,SIMANJIRO,276,SHAMBARAI,27610,OLBIL,KILENGESA
MANYARA,27,SIMANJIRO,276,SHAMBARAI,27610,OLBIL,ORNG’ARWA
MANYARA,27,SIMANJIRO,276,SHAMBARAI,27610,NAKWENI,NAKWENI
MANYARA,27,SIMANJIRO,276,SHAMBARAI,27610,NAKWENI,OLOBIL SHULENI
MANYARA,27,SIMANJIRO,276,SHAMBARAI,27610,NAKWENI,OREMIT
MANYARA,27,SIMANJIRO,276,SHAMBARAI,27610,KILOMBERO,KWATETOO
MANYARA,27,SIMANJIRO,276,SHAMBARAI,27610,KILOMBERO,NGII
MANYARA,27,SIMANJIRO,276,SHAMBARAI,27610,KILOMBERO,KILOMBELO SHULENI
MANYARA,27,SIMANJIRO,276,SHAMBARAI,27610,KILOMBERO,MAKAO MAPYA
MANYARA,27,SIMANJIRO,276,KOMOLO,27611,KOMOLO,TEMEKE
MANYARA,27,SIMANJIRO,276,KOMOLO,27611,KOMOLO,MADUKANI A
MANYARA,27,SIMANJIRO,276,KOMOLO,27611,KOMOLO,MADUKANI B
MANYARA,27,SIMANJIRO,276,KOMOLO,27611,KOMOLO,ALPAU
MANYARA,27,SIMANJIRO,276,KOMOLO,27611,KOMOLO,MACHIMBONI
MANYARA,27,SIMANJIRO,276,KOMOLO,27611,SUKURO,LENJENI
MANYARA,27,SIMANJIRO,276,KOMOLO,27611,SUKURO,ALSIPA
MANYARA,27,SIMANJIRO,276,KOMOLO,27611,SUKURO,KATIKATI
MANYARA,27,SIMANJIRO,276,KOMOLO,27611,SUKURO,NOWARAKE
MANYARA,27,SIMANJIRO,276,KOMOLO,27611,SUKURO,LEMBUTWA
MANYARA,27,SIMANJIRO,276,KOMOLO,27611,KITIANGARE,LOLTEPES
MANYARA,27,SIMANJIRO,276,KOMOLO,27611,KITIANGARE,LOIRERO
MANYARA,27,SIMANJIRO,276,KOMOLO,27611,KITIANGARE,NALARAMJI
MANYARA,27,SIMANJIRO,276,KOMOLO,27611,KITIANGARE,LOONGUNG
MANYARA,27,SIMANJIRO,276,KOMOLO,27611,NADONJUKIN,NADONJUKIN
MANYARA,27,SIMANJIRO,276,KOMOLO,27611,NADONJUKIN,ENGII
MANYARA,27,SIMANJIRO,276,KOMOLO,27611,NADONJUKIN,LOMBITKOTOS
MANYARA,27,SIMANJIRO,276,KOMOLO,27611,NADONJUKIN,MANGENY
MANYARA,27,SIMANJIRO,276,KOMOLO,27611,NADONJUKIN,OLEMBOLE
MANYARA,27,SIMANJIRO,276,KOMOLO,27611,NADONJUKIN,TANDAI
MANYARA,27,SIMANJIRO,276,KOMOLO,27611,NADONJUKIN,KWA MAJANGA
MANYARA,27,SIMANJIRO,276,KOMOLO,27611,NADONJUKIN,IRERGA
MANYARA,27,SIMANJIRO,276,OLJORO NAMBA 5,27612,OLJORO NO.5,OLJORO NO.5
MANYARA,27,SIMANJIRO,276,OLJORO NAMBA 6,27612,OLJORO NO.6,OLJORO NO.5 KATI
MANYARA,27,SIMANJIRO,276,OLJORO NAMBA 7,27612,OLJORO NO.7,TUKUSI
MANYARA,27,SIMANJIRO,276,OLJORO NAMBA 8,27612,OLJORO NO.8,KORONGO TATU
MANYARA,27,SIMANJIRO,276,OLJORO NAMBA 9,27612,OIBORKISHU,MAKUYUNI
MANYARA,27,SIMANJIRO,276,OLJORO NAMBA 10,27612,OIBORKISHU,BAROO
MANYARA,27,SIMANJIRO,276,OLJORO NAMBA 11,27612,OIBORKISHU,ERMARTI
MANYARA,27,SIMANJIRO,276,OLJORO NAMBA 12,27612,OIBORKISHU,LOLTEKES
MANYARA,27,SIMANJIRO,276,OLJORO NAMBA 13,27612,OIBORKISHU,KIRURUCK
MANYARA,27,SIMANJIRO,276,OLJORO NAMBA 14,27612,OIBORKISHU,LLAKARIAN
MANYARA,27,SIMANJIRO,276,OLJORO NAMBA 15,27612,LOROKARE,KAMPUNI
MANYARA,27,SIMANJIRO,276,OLJORO NAMBA 16,27612,LOROKARE,SONGAMBELE
MANYARA,27,SIMANJIRO,276,OLJORO NAMBA 17,27612,LOROKARE,KAMBI YA SIMBA
MANYARA,27,SIMANJIRO,276,OLJORO NAMBA 18,27612,LOROKARE,LOROKARE PROPER
MANYARA,27,SIMANJIRO,276,OLJORO NAMBA 19,27612,LOROKARE,ALASIRA
MANYARA,27,SIMANJIRO,276,OLJORO NAMBA 20,27612,LOSINYAI,KASTAM
MANYARA,27,SIMANJIRO,276,OLJORO NAMBA 21,27612,LOSINYAI,KERERE
MANYARA,27,SIMANJIRO,276,OLJORO NAMBA 22,27612,LOSINYAI,KATI
MANYARA,27,SIMANJIRO,276,OLJORO NAMBA 23,27612,LOSINYAI,ASAJULO
MANYARA,27,SIMANJIRO,276,OLJORO NAMBA 24,27612,LOSINYAI,KATI
MANYARA,27,SIMANJIRO,276,OLJORO NAMBA 25,27612,EINOT,MUMBU
MANYARA,27,SIMANJIRO,276,OLJORO NAMBA 26,27612,EINOT,OSUGUNAI
MANYARA,27,SIMANJIRO,276,OLJORO NAMBA 27,27612,EINOT,KIWANJA NDEGE
MANYARA,27,SIMANJIRO,276,OLJORO NAMBA 28,27612,EINOT,NDUKUSI NAMBA 5
MANYARA,27,SIMANJIRO,276,TERRAT,27613,TERRAT,LORMUKUTA A
MANYARA,27,SIMANJIRO,276,TERRAT,27613,TERRAT,LORMUKUTA B
MANYARA,27,SIMANJIRO,276,TERRAT,27613,TERRAT,SHULENI
MANYARA,27,SIMANJIRO,276,TERRAT,27613,TERRAT,ARMATE
MANYARA,27,SIMANJIRO,276,TERRAT,27613,TERRAT,LORNGOSWANI
MANYARA,27,SIMANJIRO,276,TERRAT,27613,TERRAT,LONDER
MANYARA,27,SIMANJIRO,276,TERRAT,27613,TERRAT,LONDELEMET A
MANYARA,27,SIMANJIRO,276,TERRAT,27613,TERRAT,LONDELEMET B
MANYARA,27,SIMANJIRO,276,TERRAT,27613,TERRAT,MADUKANI
MANYARA,27,SIMANJIRO,276,TERRAT,27613,TERRAT,"MADUKANI ""B"" OFISI"
MANYARA,27,SIMANJIRO,276,TERRAT,27613,LOSWAKI,MBOKO
MANYARA,27,SIMANJIRO,276,TERRAT,27613,LOSWAKI,IMBUKO
MANYARA,27,SIMANJIRO,276,TERRAT,27613,LOSWAKI,INGEREIYANI
MANYARA,27,SIMANJIRO,276,TERRAT,27613,LOSWAKI,SHULENI KUTOI
MANYARA,27,SIMANJIRO,276,TERRAT,27613,LOSWAKI,ORMOTOOO
MANYARA,27,SIMANJIRO,276,TERRAT,27613,ENGONONGOI,ENGONONGOI
MANYARA,27,SIMANJIRO,276,TERRAT,27613,ENGONONGOI,LEKUTA
MANYARA,27,SIMANJIRO,276,TERRAT,27613,ENGONONGOI,LALULUNGA
MANYARA,27,SIMANJIRO,276,TERRAT,27613,ENGONONGOI,OLOPIROKI
MANYARA,27,SIMANJIRO,276,TERRAT,27613,ENGONONGOI,LOOBDERKES
MANYARA,27,SIMANJIRO,276,TERRAT,27613,ENGONONGOI,MBUKO
MANYARA,27,SIMANJIRO,276,TERRAT,27613,ENGONONGOI,LEKIRERGA
MANYARA,27,SIMANJIRO,276,EMBOREET,27614,EMBOREET,EMBOREET MADUKANI
MANYARA,27,SIMANJIRO,276,EMBOREET,27614,EMBOREET,ESILALEI
MANYARA,27,SIMANJIRO,276,EMBOREET,27614,EMBOREET,ORMELELEKI
MANYARA,27,SIMANJIRO,276,EMBOREET,27614,EMBOREET,OLENAITUNYO
MANYARA,27,SIMANJIRO,276,EMBOREET,27614,EMBOREET,LOORKATIAL
MANYARA,27,SIMANJIRO,276,EMBOREET,27614,EMBOREET,INGUNG
MANYARA,27,SIMANJIRO,276,EMBOREET,27614,EMBOREET,KATIKATI
MANYARA,27,SIMANJIRO,276,EMBOREET,27614,EMBOREET,OSILALEI
MANYARA,27,SIMANJIRO,276,EMBOREET,27614,LOIBORSOIT A,MADUKANI
MANYARA,27,SIMANJIRO,276,EMBOREET,27614,LOIBORSOIT A,ENGARKESHI
MANYARA,27,SIMANJIRO,276,EMBOREET,27614,LOIBORSOIT A,ORMOTOOO
MANYARA,27,SIMANJIRO,276,EMBOREET,27614,LOIBORSOIT A,ORKIJAPE
MANYARA,27,SIMANJIRO,276,EMBOREET,27614,LOIBORSOIT A,ENGARKESH B
MANYARA,27,SIMANJIRO,276,EMBOREET,27614,NYORIT,NYORIT
MANYARA,27,SIMANJIRO,276,EMBOREET,27614,NYORIT,LLBORU
MANYARA,27,SIMANJIRO,276,LOIBORSIRET,27615,LOIBORSIRET,MADUKANI
MANYARA,27,SIMANJIRO,276,LOIBORSIRET,27615,LOIBORSIRET,ENDEPESI
MANYARA,27,SIMANJIRO,276,LOIBORSIRET,27615,LOIBORSIRET,IRMANGWA
MANYARA,27,SIMANJIRO,276,LOIBORSIRET,27615,LOIBORSIRET,MOOMUNYI
MANYARA,27,SIMANJIRO,276,LOIBORSIRET,27615,LOIBORSIRET,OLTEPELEKI
MANYARA,27,SIMANJIRO,276,LOIBORSIRET,27615,LOIBORSIRET,KAANGALA
MANYARA,27,SIMANJIRO,276,LOIBORSIRET,27615,NARAKAUWO,MTONI
MANYARA,27,SIMANJIRO,276,LOIBORSIRET,27615,NARAKAUWO,LICHALAI
MANYARA,27,SIMANJIRO,276,LOIBORSIRET,27615,NARAKAUWO,NOOMOKON
MANYARA,27,SIMANJIRO,276,LOIBORSIRET,27615,NARAKAUWO,ORKIRINGO
MANYARA,27,SIMANJIRO,276,LOIBORSIRET,27615,NARAKAUWO,OLTOTOI
MANYARA,27,SIMANJIRO,276,LOIBORSIRET,27615,NARAKAUWO,IRETET
MANYARA,27,SIMANJIRO,276,LOIBORSIRET,27615,NARAKAUWO,ALADALU
MANYARA,27,SIMANJIRO,276,LOIBORSIRET,27615,KIMOTOROK,OLTOTOI
MANYARA,27,SIMANJIRO,276,LOIBORSIRET,27615,KIMOTOROK,ARKASUPAI
MANYARA,27,SIMANJIRO,276,LOIBORSIRET,27615,KIMOTOROK,KISONGO
MANYARA,27,SIMANJIRO,276,LOIBORSIRET,27615,KIMOTOROK,ALADALU
MANYARA,27,SIMANJIRO,276,LOIBORSIRET,27615,KIMOTOROK,LEMOOTI
MANYARA,27,SIMANJIRO,276,ENDIAMUTU,27616,KIMOTOROK,KAZA MOYO JUU
MANYARA,27,SIMANJIRO,276,ENDIAMUTU,27616,KIMOTOROK,KAZA MOYO
MANYARA,27,SIMANJIRO,276,ENDIAMUTU,27616,KIMOTOROK,MJI MPYA
MANYARA,27,SIMANJIRO,276,ENDIAMUTU,27616,KIMOTOROK,ZAIRE
MANYARA,27,SIMANJIRO,276,ENDIAMUTU,27616,KIMOTOROK,KAIRO
MANYARA,27,SIMANJIRO,276,ENDIAMUTU,27616,KIMOTOROK,SEKONDARI
MANYARA,27,SIMANJIRO,276,ENDIAMUTU,27616,KIMOTOROK,KILIMAHEWA
MANYARA,27,SIMANJIRO,276,ENDIAMUTU,27616,KIMOTOROK,TANESCO
MANYARA,27,SIMANJIRO,276,ENDIAMUTU,27616,KIMOTOROK,TUPENDANE
MANYARA,27,SIMANJIRO,276,ENDIAMUTU,27616,KIMOTOROK,KISIMANI
MANYARA,27,SIMANJIRO,276,ENDIAMUTU,27616,KIMOTOROK,TANGI LA MAJI
MANYARA,27,SIMANJIRO,276,ENDIAMUTU,27616,KIMOTOROK,ENDIAMTU
MANYARA,27,SIMANJIRO,276,EDONYONGIJAPE,27617,ENDONYONGIJAPE,ENDONYONGIJAPE A
MANYARA,27,SIMANJIRO,276,EDONYONGIJAPE,27617,ENDONYONGIJAPE,ENDONYONGIJAPE B
MANYARA,27,SIMANJIRO,276,EDONYONGIJAPE,27617,ENDONYONGIJAPE,OSILALEI
MANYARA,27,SIMANJIRO,276,EDONYONGIJAPE,27617,IRKUJIT,IRKUJIT
MANYARA,27,SIMANJIRO,276,EDONYONGIJAPE,27617,IRKUJIT,NEMATESIA
MANYARA,27,SIMANJIRO,276,EDONYONGIJAPE,27617,IRKUJIT,HERI
MANYARA,27,SIMANJIRO,276,EDONYONGIJAPE,27617,ORKIRUNG'UNG'U,KATIKATI
MANYARA,27,SIMANJIRO,276,EDONYONGIJAPE,27617,ORKIRUNG'UNG'U,ANJURAI
MANYARA,27,SIMANJIRO,276,EDONYONGIJAPE,27617,ORKIRUNG'UNG'U,OLEKAYANGA
MANYARA,27,SIMANJIRO,276,LANGAI,27618,NAROSOITO,NENGAMANI
MANYARA,27,SIMANJIRO,276,LANGAI,27618,NAROSOITO,NAROSOITO
MANYARA,27,SIMANJIRO,276,LANGAI,27618,NAROSOITO,NOMEUTI
MANYARA,27,SIMANJIRO,276,LANGAI,27618,LORMORIJOI,NAIBORNDET
MANYARA,27,SIMANJIRO,276,LANGAI,27618,LORMORIJOI,LORMORIJOI
MANYARA,27,SIMANJIRO,276,LANGAI,27618,LORMORIJOI,OLUTUKUTA
MANYARA,27,SIMANJIRO,276,LANGAI,27618,LANGAI,NAAJU
MANYARA,27,SIMANJIRO,276,LANGAI,27618,LANGAI,LANGAI A
MANYARA,27,SIMANJIRO,276,LANGAI,27618,LANGAI,LANGAI B
