REGION,POSTCODE,DISTRICT,POSTCODE,WARD,POSTCODE,STREET,PLACES
MARA,31,MUSOMA CBD,311,MUKENDO,31101,,MUKENDO
MARA,31,MUSOMA CBD,311,MUKENDO,31101,,NYERERE
MARA,31,MUSOMA CBD,311,MUKENDO,31101,,SOKOINE
MARA,31,MUSOMA CBD,311,MWIGOBERO,31102,,MWIGOBERO A
MARA,31,MUSOMA CBD,311,MWIGOBERO,31102,,MWIGOBERO B
MARA,31,MUSOMA CBD,311,MWIGOBERO,31102,,MWIGOBERO C
MARA,31,MUSOMA CBD,311,MWIGOBERO,31102,,MWIGOBERO D
MARA,31,MUSOMA CBD,311,IRINGO,31103,,IRINGO A
MARA,31,MUSOMA CBD,311,IRINGO,31103,,IRINGO B
MARA,31,MUSOMA CBD,311,IRINGO,31103,,IRINGO C
MARA,31,MUSOMA CBD,311,IRINGO,31103,,MLIMANI
MARA,31,MUSOMA CBD,311,KITAJI,31104,,KITAJI A
MARA,31,MUSOMA CBD,311,KITAJI,31104,,KITAJI B
MARA,31,MUSOMA CBD,311,KITAJI,31104,,KITAJI C
MARA,31,MUSOMA CBD,311,KITAJI,31104,,KITAJI D
MARA,31,MUSOMA CBD,311,KAMUNYONGE,31105,,BIAFRA
MARA,31,MUSOMA CBD,311,KAMUNYONGE,31105,,BONDENI
MARA,31,MUSOMA CBD,311,KAMUNYONGE,31105,,MAJITA ROAD
MARA,31,MUSOMA CBD,311,KAMUNYONGE,31105,,UWANJA WA NDEGE
MARA,31,MUSOMA CBD,311,MWISENGE,31106,,PWANI
MARA,31,MUSOMA CBD,311,MWISENGE,31106,,MKINYERERO
MARA,31,MUSOMA CBD,311,MWISENGE,31106,,MAJITA ROAD
MARA,31,MUSOMA CBD,311,MWISENGE,31106,,VETA
MARA,31,MUSOMA CBD,311,MWISENGE,31106,,MTAKUJA “A”
MARA,31,MUSOMA CBD,311,MWISENGE,31106,,MTAKUJA “B”
MARA,31,MUSOMA CBD,311,MWISENGE,31106,,ZAHANATI
MARA,31,MUSOMA CBD,311,MWISENGE,31106,,SOKONI
MARA,31,MUSOMA CBD,311,NYAMATARE,31107,,MARA SEKONDARI
MARA,31,MUSOMA CBD,311,NYAMATARE,31107,,MTONGORI
MARA,31,MUSOMA CBD,311,NYAMATARE,31107,,WAKARA
MARA,31,MUSOMA CBD,311,NYAMATARE,31107,,NYABURANGI
MARA,31,MUSOMA CBD,311,NYAMATARE,31107,,NYAMATARE
MARA,31,MUSOMA CBD,311,NYASHO,31108,,MAGEREZA
MARA,31,MUSOMA CBD,311,NYASHO,31108,,MLANGO MMOJA
MARA,31,MUSOMA CBD,311,NYASHO,31108,,NYASHO KATI
MARA,31,MUSOMA CBD,311,NYASHO,31108,,NYASHO SHULENI
MARA,31,MUSOMA CBD,311,NYASHO,31108,,NYASHO SOKONI
MARA,31,MUSOMA CBD,311,NYAKATO,31109,,BARUTI
MARA,31,MUSOMA CBD,311,NYAKATO,31109,,MAZIWA
MARA,31,MUSOMA CBD,311,NYAKATO,31109,,BONDENI
MARA,31,MUSOMA CBD,311,NYAKATO,31109,,MLIMANI
MARA,31,MUSOMA CBD,311,MAKOKO,31110,,NYARIGAMBA
MARA,31,MUSOMA CBD,311,MAKOKO,31110,,ZIWANI
MARA,31,MUSOMA CBD,311,MAKOKO,31110,,KINYANG’WENA
MARA,31,MUSOMA CBD,311,MAKOKO,31110,,BUKANGA
MARA,31,MUSOMA CBD,311,MAKOKO,31110,,NYAMIONGO “A”
MARA,31,MUSOMA CBD,311,MAKOKO,31110,,NYAMIONGO “B”
MARA,31,MUSOMA CBD,311,MAKOKO,31110,,GENGENI
MARA,31,MUSOMA CBD,311,MAKOKO,31110,,ZANZIBAR
MARA,31,MUSOMA CBD,311,BUHARE,31111,,BUHARE
MARA,31,MUSOMA CBD,311,BUHARE,31111,,BUHARE KATI
MARA,31,MUSOMA CBD,311,BUHARE,31111,,MUGARANJABO
MARA,31,MUSOMA CBD,311,KIGERA,31112,,BONDE KATI “A”
MARA,31,MUSOMA CBD,311,KIGERA,31112,,BONDE KATI “B”
MARA,31,MUSOMA CBD,311,KIGERA,31112,,MWINYILE “A”
MARA,31,MUSOMA CBD,311,KIGERA,31112,,MWINYALE “B”
MARA,31,MUSOMA CBD,311,BWERI,31113,,BWERI
MARA,31,MUSOMA CBD,311,BWERI,31113,,NYABISARYE
MARA,31,MUSOMA CBD,311,BWERI,31113,,MOREMBE
MARA,31,MUSOMA CBD,311,BWERI,31113,,SONGE
MARA,31,MUSOMA CBD,311,BWERI,31113,,BUKOBA
MARA,31,MUSOMA CBD,311,RWAMLIMI,31114,,RWAMLIMI
MARA,31,MUSOMA CBD,311,RWAMLIMI,31114,,MACHINJIONI
MARA,31,MUSOMA CBD,311,RWAMLIMI,31114,,NYARUSURYA
MARA,31,MUSOMA CBD,311,RWAMLIMI,31114,,SONGAMBELE
MARA,31,MUSOMA CBD,311,KWANGWA,31115,,KWANGWA “A”
MARA,31,MUSOMA CBD,311,KWANGWA,31115,,KWANGWA “B”
MARA,31,MUSOMA CBD,311,KWANGWA,31115,,KIARA “A”
MARA,31,MUSOMA CBD,311,KWANGWA,31115,,KIARA “B”
MARA,31,MUSOMA CBD,311,MSHIKAMANO,31116,,MSHIKAMANO “A”
MARA,31,MUSOMA CBD,311,MSHIKAMANO,31116,,MSHIKAMANO “B”
MARA,31,MUSOMA CBD,311,MSHIKAMANO,31116,,MSHIKAMANO “C”
MARA,31,MUSOMA CBD,311,MSHIKAMANO,31116,,SANANE
MARA,31,MUSOMA CBD,311,MUGANGO,31117,KURWAKI,EMWALA
MARA,31,MUSOMA CBD,311,MUGANGO,31117,KURWAKI,KATI
MARA,31,MUSOMA CBD,311,MUGANGO,31117,KURWAKI,KURUSOLI
MARA,31,MUSOMA CBD,311,MUGANGO,31117,KWIBARA,MADUKANI
MARA,31,MUSOMA CBD,311,MUGANGO,31117,KWIBARA,KONG'U
MARA,31,MUSOMA CBD,311,MUGANGO,31117,KWIBARA,MUGANE
MARA,31,MUSOMA CBD,311,MUGANGO,31117,KWIBARA,NYANG'AYA
MARA,31,MUSOMA CBD,311,MUGANGO,31117,KWIBARA,BUGURA
MARA,31,MUSOMA CBD,311,MUGANGO,31117,KWIBARA,BIGEE
MARA,31,MUSOMA CBD,311,MUGANGO,31117,KWIBARA,KAMUGANE
MARA,31,MUSOMA CBD,311,MUGANGO,31117,NYANG'OMA,MWIKUMBO
MARA,31,MUSOMA CBD,311,MUGANGO,31117,NYANG'OMA,MBIBHIJAASI
MARA,31,MUSOMA CBD,311,MUGANGO,31117,NYANG'OMA,NYAKATO
MARA,31,MUSOMA CBD,311,MUGANGO,31117,NYANG'OMA,NYANG'OMA- SENTA
MARA,31,MUSOMA CBD,311,NYAMRANDIRIRA,31118,SEKA,LALASALAMA
MARA,31,MUSOMA CBD,311,NYAMRANDIRIRA,31118,SEKA,MLANDIZI
MARA,31,MUSOMA CBD,311,NYAMRANDIRIRA,31118,SEKA,KACHINYARA
MARA,31,MUSOMA CBD,311,NYAMRANDIRIRA,31118,SEKA,SENTA
MARA,31,MUSOMA CBD,311,NYAMRANDIRIRA,31118,SEKA,KUCHITIMBO
MARA,31,MUSOMA CBD,311,NYAMRANDIRIRA,31118,SEKA,KAGURU
MARA,31,MUSOMA CBD,311,NYAMRANDIRIRA,31118,SEKA,NYAMRANDIRIRA
MARA,31,MUSOMA CBD,311,NYAMRANDIRIRA,31118,MIKUYU,SONGAMBELE
MARA,31,MUSOMA CBD,311,NYAMRANDIRIRA,31118,MIKUYU,MTAKUJA
MARA,31,MUSOMA CBD,311,NYAMRANDIRIRA,31118,MIKUYU,MIEMBENI
MARA,31,MUSOMA CBD,311,NYAMRANDIRIRA,31118,CHUMWI,SONGAMBELE
MARA,31,MUSOMA CBD,311,NYAMRANDIRIRA,31118,CHUMWI,MTAKUJA
MARA,31,MUSOMA CBD,311,NYAMRANDIRIRA,31118,CHUMWI,SHULENI
MARA,31,MUSOMA CBD,311,NYAMRANDIRIRA,31118,CHUMWI,NYACHUMWI
MARA,31,MUSOMA CBD,311,NYAMRANDIRIRA,31118,CHUMWI,MWITOTO
MARA,31,MUSOMA CBD,311,NYAMRANDIRIRA,31118,KASOMA,BUTIAMA
MARA,31,MUSOMA CBD,311,NYAMRANDIRIRA,31118,KASOMA,NYASESI
MARA,31,MUSOMA CBD,311,NYAMRANDIRIRA,31118,KASOMA,NYANGUGE
MARA,31,MUSOMA CBD,311,NYAMRANDIRIRA,31118,KASOMA,STOONI
MARA,31,MUSOMA CBD,311,NYAMRANDIRIRA,31118,KASOMA,RWANGA
MARA,31,MUSOMA CBD,311,NYAMRANDIRIRA,31118,KASOMA,MOROGORA
MARA,31,MUSOMA CBD,311,NYAMRANDIRIRA,31118,KABONI,NYAMAKARIRO
MARA,31,MUSOMA CBD,311,NYAMRANDIRIRA,31118,KABONI,KASOMA
MARA,31,MUSOMA CBD,311,NYAMRANDIRIRA,31118,KABONI,KABONI
MARA,31,MUSOMA CBD,311,NYAMBONO,31119,SARAGANA,KAMATONDO
MARA,31,MUSOMA CBD,311,NYAMBONO,31119,SARAGANA,KEMORI
MARA,31,MUSOMA CBD,311,NYAMBONO,31119,SARAGANA,MADUKANI
MARA,31,MUSOMA CBD,311,NYAMBONO,31119,SARAGANA,MAGUNDUSI
MARA,31,MUSOMA CBD,311,NYAMBONO,31119,SARAGANA,MANG'OMBE
MARA,31,MUSOMA CBD,311,NYAMBONO,31119,SARAGANA,MLIMANI
MARA,31,MUSOMA CBD,311,NYAMBONO,31119,SARAGANA,KABISE
MARA,31,MUSOMA CBD,311,NYAMBONO,31119,SARAGANA,SENTA
MARA,31,MUSOMA CBD,311,NYAMBONO,31119,SARAGANA,STOONI
MARA,31,MUSOMA CBD,311,NYAMBONO,31119,NYAMBONO,NYAGOGO A
MARA,31,MUSOMA CBD,311,NYAMBONO,31119,NYAMBONO,KAMATONDO
MARA,31,MUSOMA CBD,311,NYAMBONO,31119,NYAMBONO,NYAGOGO B
MARA,31,MUSOMA CBD,311,NYAMBONO,31119,NYAMBONO,NYAGOGO KATI
MARA,31,MUSOMA CBD,311,NYAMBONO,31119,NYAMBONO,NYETASYO
MARA,31,MUSOMA CBD,311,NYAMBONO,31119,NYAMBONO,KWIRINGILILO
MARA,31,MUSOMA CBD,311,NYAMBONO,31119,NYAMBONO,NYABARANGO
MARA,31,MUSOMA CBD,311,BUGOJI,31120,BUGOJI,KAMISARWA
MARA,31,MUSOMA CBD,311,BUGOJI,31120,BUGOJI,KABISE
MARA,31,MUSOMA CBD,311,BUGOJI,31120,BUGOJI,A- KATI
MARA,31,MUSOMA CBD,311,BUGOJI,31120,BUGOJI,STOONI
MARA,31,MUSOMA CBD,311,BUGOJI,31120,BUGOJI,BUGOJI C
MARA,31,MUSOMA CBD,311,BUGOJI,31120,KANDEREMA,NYERERE ROAD
MARA,31,MUSOMA CBD,311,BUGOJI,31120,KANDEREMA,KANDEREMA
MARA,31,MUSOMA CBD,311,BUGOJI,31120,KANDEREMA,TENDA MEMA
MARA,31,MUSOMA CBD,311,BUGOJI,31120,KANDEREMA,WARIKU
MARA,31,MUSOMA CBD,311,BUGOJI,31120,KABURABURA,SONGAMBELE
MARA,31,MUSOMA CBD,311,BUGOJI,31120,KABURABURA,SENTA
MARA,31,MUSOMA CBD,311,BUGOJI,31120,KABURABURA,KATI
MARA,31,MUSOMA CBD,311,BUGOJI,31120,KABURABURA,KWISAENGE
MARA,31,MUSOMA CBD,311,BUGOJI,31120,KABURABURA,KILOLELI
MARA,31,MUSOMA CBD,311,BWASI,31121,BWASI,MTAKUJA
MARA,31,MUSOMA CBD,311,BWASI,31121,BWASI,RUGONGO
MARA,31,MUSOMA CBD,311,BWASI,31121,BWASI,BURUMA
MARA,31,MUSOMA CBD,311,BWASI,31121,BWASI,MASONGE
MARA,31,MUSOMA CBD,311,BWASI,31121,BWASI,KAMTIMBA
MARA,31,MUSOMA CBD,311,BWASI,31121,BUGUNDA,MURUMOGA
MARA,31,MUSOMA CBD,311,BWASI,31121,BUGUNDA,KUMSIMA
MARA,31,MUSOMA CBD,311,BWASI,31121,BUGUNDA,KUMANGO
MARA,31,MUSOMA CBD,311,BWASI,31121,BUGUNDA,KIJIWENI
MARA,31,MUSOMA CBD,311,BWASI,31121,BUGUNDA,BULAMBA A
MARA,31,MUSOMA CBD,311,BWASI,31121,BUGUNDA,BULAMBA B
MARA,31,MUSOMA CBD,311,BWASI,31121,BUGUNDA,KAYOLA
MARA,31,MUSOMA CBD,311,BWASI,31121,BUGUNDA,BUGALE
MARA,31,MUSOMA CBD,311,BWASI,31121,KOME,MKERO
MARA,31,MUSOMA CBD,311,BWASI,31121,KOME,SONGAMBELE
MARA,31,MUSOMA CBD,311,BWASI,31121,KOME,SENTA
MARA,31,MUSOMA CBD,311,BWASI,31121,KOME,BUTIMBA
MARA,31,MUSOMA CBD,311,BWASI,31121,KOME,MTAKUJA
MARA,31,MUSOMA CBD,311,BWASI,31121,KOME,KOME BEACH
MARA,31,MUSOMA CBD,311,BWASI,31121,KOME,BUSASA
MARA,31,MUSOMA CBD,311,BWASI,31121,KOME,NYANGUGE
MARA,31,MUSOMA CBD,311,BWASI,31121,KOME,NYASUNGAMIE
MARA,31,MUSOMA CBD,311,BWASI,31121,KOME,KABUREGE
MARA,31,MUSOMA CBD,311,SUGUTI,31122,SUGUTI,MADUKANI
MARA,31,MUSOMA CBD,311,SUGUTI,31122,SUGUTI,NYASURULA
MARA,31,MUSOMA CBD,311,SUGUTI,31122,SUGUTI,KARUSENYI
MARA,31,MUSOMA CBD,311,SUGUTI,31122,SUGUTI,KWIKONERO
MARA,31,MUSOMA CBD,311,SUGUTI,31122,SUGUTI,MWIGOBERO
MARA,31,MUSOMA CBD,311,SUGUTI,31122,KUSENYI,NYANSINJARU
MARA,31,MUSOMA CBD,311,SUGUTI,31122,KUSENYI,MANG'OMBE
MARA,31,MUSOMA CBD,311,SUGUTI,31122,KUSENYI,KWIKUYU
MARA,31,MUSOMA CBD,311,SUGUTI,31122,KUSENYI,NYABWEKE
MARA,31,MUSOMA CBD,311,SUGUTI,31122,CHIRORWE,STOONI
MARA,31,MUSOMA CBD,311,SUGUTI,31122,CHIRORWE,LUPA
MARA,31,MUSOMA CBD,311,SUGUTI,31122,CHIRORWE,SOKOINE
MARA,31,MUSOMA CBD,311,SUGUTI,31122,CHIRORWE,NYABERANGO
MARA,31,MUSOMA CBD,311,SUGUTI,31122,CHIRORWE,RWAMAKORO
MARA,31,MUSOMA CBD,311,SUGUTI,31122,WANYERE,KOMESI
MARA,31,MUSOMA CBD,311,SUGUTI,31122,WANYERE,MURURANGU
MARA,31,MUSOMA CBD,311,SUGUTI,31122,WANYERE,MWIKORO
MARA,31,MUSOMA CBD,311,SUGUTI,31122,WANYERE,MURUGEE
MARA,31,MUSOMA CBD,311,SUGUTI,31122,WANYERE,AMBAGAI
MARA,31,MUSOMA CBD,311,SUGUTI,31122,WANYERE,MIHURU
MARA,31,MUSOMA CBD,311,BUKUMI,31123,BUKUMI,MWIKUNGU
MARA,31,MUSOMA CBD,311,BUKUMI,31123,BUKUMI,MTANDWE
MARA,31,MUSOMA CBD,311,BUKUMI,31123,BUKUMI,MRORE
MARA,31,MUSOMA CBD,311,BUKUMI,31123,BUKUMI,CENTRE
MARA,31,MUSOMA CBD,311,BUKUMI,31123,BUKUMI,KUKEMA
MARA,31,MUSOMA CBD,311,BUKUMI,31123,BUKUMI,BURUNGU
MARA,31,MUSOMA CBD,311,BUKUMI,31123,BUSEKERA,MCHIRONGO
MARA,31,MUSOMA CBD,311,BUKUMI,31123,BUSEKERA,MKANYENYE
MARA,31,MUSOMA CBD,311,BUKUMI,31123,BUSEKERA,MTIRO
MARA,31,MUSOMA CBD,311,BUKUMI,31123,BUSEKERA,NYABIGOMA
MARA,31,MUSOMA CBD,311,BUKUMI,31123,BUIRA,MWIKONDA
MARA,31,MUSOMA CBD,311,BUKUMI,31123,BUIRA,CHIBUI
MARA,31,MUSOMA CBD,311,BUKUMI,31123,BUIRA,MANG'OMBE
MARA,31,MUSOMA CBD,311,BUKUMI,31123,BUIRA,MWISIBA
MARA,31,MUSOMA CBD,311,BUKUMI,31123,BURAGA,MUSOKWA
MARA,31,MUSOMA CBD,311,BUKUMI,31123,BURAGA,MAGHARIBI
MARA,31,MUSOMA CBD,311,BUKUMI,31123,BURAGA,MIKOROSHONI
MARA,31,MUSOMA CBD,311,BUKUMI,31123,BURAGA,BUTEGE
MARA,31,MUSOMA CBD,311,BUKUMI,31123,BURAGA,KURUGEE
MARA,31,MUSOMA CBD,311,BUKUMI,31123,BURAGA,BURAGA MWALONI
MARA,31,MUSOMA CBD,311,MAKOJO,31124,MAKOJO,SENTA
MARA,31,MUSOMA CBD,311,MAKOJO,31124,MAKOJO,KAMTIMBA
MARA,31,MUSOMA CBD,311,MAKOJO,31124,MAKOJO,KANG'ENDO
MARA,31,MUSOMA CBD,311,MAKOJO,31124,MAKOJO,KURUJARE
MARA,31,MUSOMA CBD,311,MAKOJO,31124,MAKOJO,KATI
MARA,31,MUSOMA CBD,311,MAKOJO,31124,MAKOJO,KURUTANGA
MARA,31,MUSOMA CBD,311,MAKOJO,31124,CHITARE,BUNG'OMA
MARA,31,MUSOMA CBD,311,MAKOJO,31124,CHITARE,KUNYIRWA
MARA,31,MUSOMA CBD,311,MAKOJO,31124,CHITARE,MWIKOKO
MARA,31,MUSOMA CBD,311,MAKOJO,31124,CHITARE,MWIGOBE
MARA,31,MUSOMA CBD,311,MAKOJO,31124,CHITARE,KASIA
MARA,31,MUSOMA CBD,311,MAKOJO,31124,CHITARE,KUMSIMA
MARA,31,MUSOMA CBD,311,MAKOJO,31124,CHIMATI,KURWAMA
MARA,31,MUSOMA CBD,311,MAKOJO,31124,CHIMATI,BUTEGE
MARA,31,MUSOMA CBD,311,MAKOJO,31124,CHIMATI,KURUTAGA
MARA,31,MUSOMA CBD,311,MAKOJO,31124,CHIMATI,MWIRINGA
MARA,31,MUSOMA CBD,311,MAKOJO,31124,CHIMATI,BUKARAKAMBA
MARA,31,MUSOMA CBD,311,MAKOJO,31124,CHIMATI,KUKARANDA
MARA,31,MUSOMA CBD,311,TEGERUKA,31125,TEGERUKA,KABUNGONGWA
MARA,31,MUSOMA CBD,311,TEGERUKA,31125,TEGERUKA,MANG'ARA
MARA,31,MUSOMA CBD,311,TEGERUKA,31125,TEGERUKA,NYAMINYA
MARA,31,MUSOMA CBD,311,TEGERUKA,31125,TEGERUKA,GULIO
MARA,31,MUSOMA CBD,311,TEGERUKA,31125,TEGERUKA,BUGURA
MARA,31,MUSOMA CBD,311,TEGERUKA,31125,TEGERUKA,KUMTUA
MARA,31,MUSOMA CBD,311,TEGERUKA,31125,MAYANI,ZAHANATI
MARA,31,MUSOMA CBD,311,TEGERUKA,31125,MAYANI,GULIO
MARA,31,MUSOMA CBD,311,TEGERUKA,31125,MAYANI,MBAGE
MARA,31,MUSOMA CBD,311,TEGERUKA,31125,MAYANI,MACHINJIONI
MARA,31,MUSOMA CBD,311,TEGERUKA,31125,MAYANI,NYARUFUNJO
MARA,31,MUSOMA CBD,311,TEGERUKA,31125,MAYANI,KUKIKUKWE
MARA,31,MUSOMA CBD,311,TEGERUKA,31125,KATARYO,SENTA
MARA,31,MUSOMA CBD,311,TEGERUKA,31125,KATARYO,KWIGUMU
MARA,31,MUSOMA CBD,311,TEGERUKA,31125,KATARYO,NYASAYENGE
MARA,31,MUSOMA CBD,311,TEGERUKA,31125,KATARYO,KUMSEGE
MARA,31,MUSOMA CBD,311,TEGERUKA,31125,KATARYO,KISAMAMBOGO
MARA,31,MUSOMA CBD,311,TEGERUKA,31125,KATARYO,MLIMANI
MARA,31,MUSOMA CBD,311,BUGWEMA,31126,MASINONO,MASINONO A
MARA,31,MUSOMA CBD,311,BUGWEMA,31126,MASINONO,MASINONO B
MARA,31,MUSOMA CBD,311,BUGWEMA,31126,MASINONO,JITIROLA
MARA,31,MUSOMA CBD,311,BUGWEMA,31126,MASINONO,KINYANGERERE
MARA,31,MUSOMA CBD,311,BUGWEMA,31126,KINYANG'ERERE,WACHELE
MARA,31,MUSOMA CBD,311,BUGWEMA,31126,KINYANG'ERERE,NYASAHENGE
MARA,31,MUSOMA CBD,311,BUGWEMA,31126,KINYANG'ERERE,KINYANG'ERERE
MARA,31,MUSOMA CBD,311,BUGWEMA,31126,BUGWEMA,KAGERA
MARA,31,MUSOMA CBD,311,BUGWEMA,31126,BUGWEMA,KASENYI
MARA,31,MUSOMA CBD,311,BUGWEMA,31126,BUGWEMA,MWIYERO
MARA,31,MUSOMA CBD,311,BUGWEMA,31126,BUGWEMA,SORA
MARA,31,MUSOMA CBD,311,BUGWEMA,31126,BUGWEMA,ZIWANI
MARA,31,MUSOMA CBD,311,BUGWEMA,31126,BUGWEMA,RWAMASISI
MARA,31,MUSOMA CBD,311,BUGWEMA,31126,MUHOJI,BUTIAMA
MARA,31,MUSOMA CBD,311,BUGWEMA,31126,MUHOJI,BUGWEMA
MARA,31,MUSOMA CBD,311,BUGWEMA,31126,MUHOJI,NTEGERI
MARA,31,MUSOMA CBD,311,BUGWEMA,31126,MUHOJI,ZANZIBAR
MARA,31,MUSOMA CBD,311,BUGWEMA,31126,MUHOJI,MASANJABUKA
MARA,31,MUSOMA CBD,311,BUGWEMA,31126,MUHOJI,KYABARIMI
MARA,31,MUSOMA CBD,311,BUGWEMA,31126,MUHOJI,IKOMA
MARA,31,MUSOMA CBD,311,KIRIBA,31127,BWAI KWITURURU,KWITURURU
MARA,31,MUSOMA CBD,311,KIRIBA,31127,BWAI KWITURURU,MWIKALE
MARA,31,MUSOMA CBD,311,KIRIBA,31127,BWAI KWITURURU,BUSUMI
MARA,31,MUSOMA CBD,311,KIRIBA,31127,BWAI KWITURURU,MRUGEE
MARA,31,MUSOMA CBD,311,KIRIBA,31127,BWAI KWITURURU,MIEMBENI
MARA,31,MUSOMA CBD,311,KIRIBA,31127,BWAI KWITURURU,KATI
MARA,31,MUSOMA CBD,311,KIRIBA,31127,BWAI KWITURURU,CHAMASEJO
MARA,31,MUSOMA CBD,311,KIRIBA,31127,BWAI KWITURURU,CHANYAURU
MARA,31,MUSOMA CBD,311,KIRIBA,31127,BWAI KWITURURU,BUSHORA
MARA,31,MUSOMA CBD,311,KIRIBA,31127,BWAI KWITURURU,KUMRERE
MARA,31,MUSOMA CBD,311,KIRIBA,31127,BWAI KUMSOMA,BUKOKO
MARA,31,MUSOMA CBD,311,KIRIBA,31127,BWAI KUMSOMA,ESEME
MARA,31,MUSOMA CBD,311,KIRIBA,31127,BWAI KUMSOMA,BONDENI
MARA,31,MUSOMA CBD,311,KIRIBA,31127,BWAI KUMSOMA,BUJA
MARA,31,MUSOMA CBD,311,KIRIBA,31127,BWAI KUMSOMA,PARIS
MARA,31,MUSOMA CBD,311,KIRIBA,31127,BWAI KUMSOMA,BUSIKWA
MARA,31,MUSOMA CBD,311,KIRIBA,31127,BWAI KUMSOMA,MCHITO
MARA,31,MUSOMA CBD,311,KIRIBA,31127,BWAI KUMSOMA,KAGONGO
MARA,31,MUSOMA CBD,311,KIRIBA,31127,KIRIBA,KATI
MARA,31,MUSOMA CBD,311,KIRIBA,31127,KIRIBA,SONGAMBELE
MARA,31,MUSOMA CBD,311,KIRIBA,31127,KIRIBA,KUBUINGI
MARA,31,MUSOMA CBD,311,KIRIBA,31127,KIRIBA,NYAKATO
MARA,31,MUSOMA CBD,311,KIRIBA,31127,KIRIBA,NYAKABUI
MARA,31,MUSOMA CBD,311,KIRIBA,31127,KIRIBA,KUMBOI
MARA,31,MUSOMA CBD,311,MURANGI,31128,MURANGI,SENTA
MARA,31,MUSOMA CBD,311,MURANGI,31128,MURANGI,HOSPITALI
MARA,31,MUSOMA CBD,311,MURANGI,31128,MURANGI,NYARUFU
MARA,31,MUSOMA CBD,311,MURANGI,31128,MURANGI,NYAMAGANA
MARA,31,MUSOMA CBD,311,MURANGI,31128,MURANGI,MNADANI
MARA,31,MUSOMA CBD,311,MURANGI,31128,LYASEMBE,MKUNJIRWA
MARA,31,MUSOMA CBD,311,MURANGI,31128,LYASEMBE,MAGHARIBI
MARA,31,MUSOMA CBD,311,MURANGI,31128,LYASEMBE,RWANGUNDU
MARA,31,MUSOMA CBD,311,MURANGI,31128,LYASEMBE,KATI
MARA,31,MUSOMA CBD,311,MURANGI,31128,LYASEMBE,MWEMBENI
MARA,31,MUSOMA CBD,311,MUSANJA,31129,MUSANJA,GOMORA
MARA,31,MUSOMA CBD,311,MUSANJA,31129,MUSANJA,KAARAGA
MARA,31,MUSOMA CBD,311,MUSANJA,31129,MUSANJA,KUKEMA
MARA,31,MUSOMA CBD,311,MUSANJA,31129,NYABAENGERE,KAIRO
MARA,31,MUSOMA CBD,311,MUSANJA,31129,NYABAENGERE,KAMUJELA
MARA,31,MUSOMA CBD,311,MUSANJA,31129,NYABAENGERE,NYABAENGERE
MARA,31,MUSOMA CBD,311,MUSANJA,31129,NYABAENGERE,CHAKAROSO
MARA,31,MUSOMA CBD,311,MUSANJA,31129,MABUI MERAFURU,MIEMBENI
MARA,31,MUSOMA CBD,311,MUSANJA,31129,MABUI MERAFURU,NYANG'OMAGO
MARA,31,MUSOMA CBD,311,MUSANJA,31129,MABUI MERAFURU,NYARUFU
MARA,31,MUSOMA CBD,311,MUSANJA,31129,MABUI MERAFURU,MWIGASIKU
MARA,31,MUSOMA CBD,311,MUSANJA,31129,MABUI MERAFURU,KATI
MARA,31,MUSOMA CBD,311,MUSANJA,31129,MABUI MERAFURU,MWITININI
MARA,31,MUSOMA CBD,311,BUKIMA,31130,BUKIMA,SENTA
MARA,31,MUSOMA CBD,311,BUKIMA,31130,BUKIMA,SOKONI
MARA,31,MUSOMA CBD,311,BUKIMA,31130,BUKIMA,NYAMBAJE
MARA,31,MUSOMA CBD,311,BUKIMA,31130,BUKIMA,STOONI
MARA,31,MUSOMA CBD,311,BUKIMA,31130,BUKIMA,BUKIMA
MARA,31,MUSOMA CBD,311,BUKIMA,31130,BUKIMA,SHULENI
MARA,31,MUSOMA CBD,311,BUKIMA,31130,BUKIMA,MAJITA
MARA,31,MUSOMA CBD,311,BUKIMA,31130,BUKIMA,ZAHANATI
MARA,31,MUSOMA CBD,311,BUKIMA,31130,BUKIMA,NYAMAGANA
MARA,31,MUSOMA CBD,311,BUKIMA,31130,BUTATA,SHULENI
MARA,31,MUSOMA CBD,311,BUKIMA,31130,BUTATA,KUCHIKEREGE
MARA,31,MUSOMA CBD,311,BUKIMA,31130,BUTATA,MMATONGO
MARA,31,MUSOMA CBD,311,BUKIMA,31130,BUTATA,BUGERE
MARA,31,MUSOMA CBD,311,BUKIMA,31130,BUTATA,KANYAGO
MARA,31,MUSOMA CBD,311,BUKIMA,31130,BUTATA,KURUGONGO
MARA,31,MUSOMA CBD,311,BUKIMA,31130,KASTAM,KASTAM
MARA,31,MUSOMA CBD,311,BUKIMA,31130,KASTAM,KWISANJU
MARA,31,MUSOMA CBD,311,BUKIMA,31130,KASTAM,NYEGUGU
MARA,31,MUSOMA CBD,311,BUKIMA,31130,KASTAM,KUMURELE
MARA,31,MUSOMA CBD,311,RUSOLI,31131,BUANGA,RWAMATOKE
MARA,31,MUSOMA CBD,311,RUSOLI,31131,BUANGA,KUSENYI
MARA,31,MUSOMA CBD,311,RUSOLI,31131,BUANGA,CHABUKAI
MARA,31,MUSOMA CBD,311,RUSOLI,31131,BUANGA,NYASEMBE
MARA,31,MUSOMA CBD,311,RUSOLI,31131,BUANGA,NYABULUNGI
MARA,31,MUSOMA CBD,311,RUSOLI,31131,BUANGA,CHIRUGWE
MARA,31,MUSOMA CBD,311,RUSOLI,31131,BUANGA,NYASAUNGU
MARA,31,MUSOMA CBD,311,RUSOLI,31131,BUANGA,RWANYAGO
MARA,31,MUSOMA CBD,311,RUSOLI,31131,BUANGA,NYANG'OMAGO
MARA,31,MUSOMA CBD,311,RUSOLI,31131,KWIKEREGE,RUSOLI
MARA,31,MUSOMA CBD,311,RUSOLI,31131,KWIKEREGE,KWIKEREGE
MARA,31,MUSOMA CBD,311,RUSOLI,31131,KWIKEREGE,BUSAULE
MARA,31,MUSOMA CBD,311,RUSOLI,31131,KWIKEREGE,SOKOINE
MARA,31,MUSOMA CBD,311,RUSOLI,31131,RUSOLI,BWENDA
MARA,31,MUSOMA CBD,311,RUSOLI,31131,RUSOLI,CHAKALEBA
MARA,31,MUSOMA CBD,311,RUSOLI,31131,RUSOLI,NYAMRIBWA
MARA,31,MUSOMA CBD,311,RUSOLI,31131,RUSOLI,CHINYEBUI
MARA,31,MUSOMA CBD,311,RUSOLI,31131,RUSOLI,RUSOLI
MARA,31,MUSOMA CBD,311,RUSOLI,31131,RUSOLI,RUSOLI KATI
MARA,31,MUSOMA CBD,311,BUSAMBARA,31132,KWIKUBA,KWIKUBA
MARA,31,MUSOMA CBD,311,BUSAMBARA,31132,KWIKUBA,NYAMEMBEBE
MARA,31,MUSOMA CBD,311,BUSAMBARA,31132,KWIKUBA,NYABIWIWI
MARA,31,MUSOMA CBD,311,BUSAMBARA,31132,MANEKE,STOONI
MARA,31,MUSOMA CBD,311,BUSAMBARA,31132,MANEKE,MSIKITI
MARA,31,MUSOMA CBD,311,BUSAMBARA,31132,MANEKE,NYAKATO
MARA,31,MUSOMA CBD,311,BUSAMBARA,31132,MANEKE,NYAMAKOMAGO
MARA,31,MUSOMA CBD,311,BUSAMBARA,31132,MANEKE,SHULENI
MARA,31,MUSOMA CBD,311,BUSAMBARA,31132,MANEKE,SONGAMBELE
MARA,31,MUSOMA CBD,311,BUSAMBARA,31132,MANEKE,MTAKUJA
MARA,31,MUSOMA CBD,311,BUSAMBARA,31132,MANEKE,MANEKE KATI
MARA,31,MUSOMA CBD,311,BUSAMBARA,31132,MWIRINGO,MAKOKO
MARA,31,MUSOMA CBD,311,BUSAMBARA,31132,MWIRINGO,ZIWA
MARA,31,MUSOMA CBD,311,BUSAMBARA,31132,MWIRINGO,MTAKUJA
MARA,31,MUSOMA CBD,311,BUSAMBARA,31132,MWIRINGO,KAMAKUNJA
MARA,31,MUSOMA CBD,311,BUSAMBARA,31132,MWIRINGO,MANG'OMBE
MARA,31,MUSOMA CBD,311,BUSAMBARA,31132,MWIRINGO,KATI
MARA,31,MUSOMA CBD,311,BULINGA,31133,BULINGA,KUMSIMA
MARA,31,MUSOMA CBD,311,BULINGA,31133,BULINGA,KUCHIMA
MARA,31,MUSOMA CBD,311,BULINGA,31133,BULINGA,NYABUGORO
MARA,31,MUSOMA CBD,311,BULINGA,31133,BULINGA,BUSIGU
MARA,31,MUSOMA CBD,311,BULINGA,31133,BULINGA,KAMUNAGE
MARA,31,MUSOMA CBD,311,BULINGA,31133,BUJAGA,MURUGEE
MARA,31,MUSOMA CBD,311,BULINGA,31133,BUJAGA,MUSEKA
MARA,31,MUSOMA CBD,311,BULINGA,31133,BUJAGA,BUJAGA
MARA,31,MUSOMA CBD,311,BULINGA,31133,BUJAGA,KURUGONGO
MARA,31,MUSOMA CBD,311,BULINGA,31133,BUSUNGU,RYANJUGU
MARA,31,MUSOMA CBD,311,BULINGA,31133,BUSUNGU,BUTABARE
MARA,31,MUSOMA CBD,311,BULINGA,31133,BUSUNGU,KAGERA
MARA,31,MUSOMA CBD,311,IFULIFU,31134,KABEGI,KABEGI
MARA,31,MUSOMA CBD,311,IFULIFU,31134,KABEGI,ERANGARA
MARA,31,MUSOMA CBD,311,IFULIFU,31134,KABEGI,NYANG'OMA
MARA,31,MUSOMA CBD,311,IFULIFU,31134,KABEGI,SENTA
MARA,31,MUSOMA CBD,311,IFULIFU,31134,KABEGI,NYAMAHERI
MARA,31,MUSOMA CBD,311,IFULIFU,31134,KABEGI,BINYAGO
MARA,31,MUSOMA CBD,311,IFULIFU,31134,NYASAUNGU,RWASOGA
MARA,31,MUSOMA CBD,311,IFULIFU,31134,NYASAUNGU,NYAKURU
MARA,31,MUSOMA CBD,311,IFULIFU,31134,NYASAUNGU,NYASAUNGU
MARA,31,MUSOMA CBD,311,IFULIFU,31134,NYASAUNGU,MASWA
MARA,31,MUSOMA CBD,311,IFULIFU,31134,KIEMBA,IFULIFU
MARA,31,MUSOMA CBD,311,IFULIFU,31134,KIEMBA,BUKUYU
MARA,31,MUSOMA CBD,311,IFULIFU,31134,KIEMBA,NYAMITI
MARA,31,MUSOMA CBD,311,IFULIFU,31134,KIEMBA,MURUNYIGO
MARA,31,MUSOMA CBD,311,IFULIFU,31134,KIEMBA,KIEMBA KATI
MARA,31,MUSOMA CBD,311,IFULIFU,31134,KIEMBA,KIMILAMBASA
MARA,31,MUSOMA CBD,311,IFULIFU,31134,KIEMBA,SEKA
MARA,31,MUSOMA CBD,311,ETARO,31135,RUKUBA,MIONYO
MARA,31,MUSOMA CBD,311,ETARO,31135,RUKUBA,MAKARI
MARA,31,MUSOMA CBD,311,ETARO,31135,RUKUBA,KINYANJOI
MARA,31,MUSOMA CBD,311,ETARO,31135,RUKUBA,SENG'ENGE
MARA,31,MUSOMA CBD,311,ETARO,31135,ETARO,NYANTIRA
MARA,31,MUSOMA CBD,311,ETARO,31135,ETARO,MASIMBI
MARA,31,MUSOMA CBD,311,ETARO,31135,ETARO,NYABIGUGU
MARA,31,MUSOMA CBD,311,ETARO,31135,ETARO,MKIRAGO
MARA,31,MUSOMA CBD,311,ETARO,31135,ETARO,KURUKANGARA
MARA,31,MUSOMA CBD,311,ETARO,31135,ETARO,KATI
MARA,31,MUSOMA CBD,311,ETARO,31135,MMAHARE,SAILON
MARA,31,MUSOMA CBD,311,ETARO,31135,MMAHARE,MUSURURA
MARA,31,MUSOMA CBD,311,ETARO,31135,MMAHARE,MWILANGI
MARA,31,MUSOMA CBD,311,ETARO,31135,MMAHARE,RYAMUGUNE
MARA,31,MUSOMA CBD,311,ETARO,31135,MMAHARE,FORESTI
MARA,31,MUSOMA CBD,311,ETARO,31135,BUSAMBA,EGENGE
MARA,31,MUSOMA CBD,311,ETARO,31135,BUSAMBA,NYAMAWA
MARA,31,MUSOMA CBD,311,ETARO,31135,BUSAMBA,NYAMKURU
MARA,31,MUSOMA CBD,311,ETARO,31135,BUSAMBA,MATUMBI
MARA,31,MUSOMA CBD,311,NYEGINA,31136,MKIRIRA,KURUMURI
MARA,31,MUSOMA CBD,311,NYEGINA,31136,MKIRIRA,NYEGINA
MARA,31,MUSOMA CBD,311,NYEGINA,31136,MKIRIRA,NYAMILAMA
MARA,31,MUSOMA CBD,311,NYEGINA,31136,MKIRIRA,MUNGORI
MARA,31,MUSOMA CBD,311,NYEGINA,31136,MKIRIRA,MURUTONGO
MARA,31,MUSOMA CBD,311,NYEGINA,31136,MKIRIRA,RYANGARA
MARA,31,MUSOMA CBD,311,NYEGINA,31136,MKIRIRA,RYAMUGUNE
MARA,31,MUSOMA CBD,311,NYEGINA,31136,NYEGINA,SEKA
MARA,31,MUSOMA CBD,311,NYEGINA,31136,NYEGINA,BURAMBA
MARA,31,MUSOMA CBD,311,NYEGINA,31136,NYEGINA,NYANTIRA
MARA,31,MUSOMA CBD,311,NYEGINA,31136,NYEGINA,NYEGINA KATI
MARA,31,MUSOMA CBD,311,NYEGINA,31136,NYEGINA,MUSALABA
MARA,31,MUSOMA CBD,311,NYEGINA,31136,NYEGINA,NYAMAGERA
MARA,31,MUSOMA CBD,311,NYEGINA,31136,KURUKEREGE,STOO
MARA,31,MUSOMA CBD,311,NYEGINA,31136,KURUKEREGE,RWESABANU
MARA,31,MUSOMA CBD,311,NYEGINA,31136,KURUKEREGE,ESIRA
MARA,31,MUSOMA CBD,311,NYEGINA,31136,KURUKEREGE,KITOMIRA
MARA,31,MUSOMA CBD,311,NYAKATENDE,31137,NYAKATENDE,SEKA
MARA,31,MUSOMA CBD,311,NYAKATENDE,31137,NYAKATENDE,KUMSERERE
MARA,31,MUSOMA CBD,311,NYAKATENDE,31137,NYAKATENDE,NYAKATENDE
MARA,31,MUSOMA CBD,311,NYAKATENDE,31137,NYAKATENDE,GATUNDU
MARA,31,MUSOMA CBD,311,NYAKATENDE,31137,NYAKATENDE,BUSUNA
MARA,31,MUSOMA CBD,311,NYAKATENDE,31137,NYAKATENDE,NYAKATO
MARA,31,MUSOMA CBD,311,NYAKATENDE,31137,KIGERA,KATI
MARA,31,MUSOMA CBD,311,NYAKATENDE,31137,KIGERA,ETUMA
MARA,31,MUSOMA CBD,311,NYAKATENDE,31137,KIGERA,EKUNGU
MARA,31,MUSOMA CBD,311,NYAKATENDE,31137,KIGERA,MWIRYANYO
MARA,31,MUSOMA CBD,311,NYAKATENDE,31137,KIGERA,KUSENYI
MARA,31,MUSOMA CBD,311,NYAKATENDE,31137,KAKISHERI,SONGAMBELE
MARA,31,MUSOMA CBD,311,NYAKATENDE,31137,KAKISHERI,NYASATU
MARA,31,MUSOMA CBD,311,NYAKATENDE,31137,KAKISHERI,EKONDO
MARA,31,MUSOMA CBD,311,NYAKATENDE,31137,KAKISHERI,KAKISHERI
MARA,31,MUSOMA CBD,311,NYAKATENDE,31137,KAMUGURUKI,KAMUGURUKI
MARA,31,MUSOMA CBD,311,NYAKATENDE,31137,KAMUGURUKI,NYANJUNJUME
MARA,31,MUSOMA CBD,311,NYAKATENDE,31137,KAMUGURUKI,MTAKUJA
MARA,31,MUSOMA CBD,311,NYAKATENDE,31137,KAMUGURUKI,NYARUBAMBA
MARA,31,MUSOMA CBD,311,NYAKATENDE,31137,KAMUGURUKI,KIUNDA
MARA,31,BUTIAMA,312,BUTIAMA,31201,BUTIAMA,MUHUNDA
MARA,31,BUTIAMA,312,BUTIAMA,31201,BUTIAMA,BUTASYA
MARA,31,BUTIAMA,312,BUTIAMA,31201,BUTIAMA,NYAMAGEMBE
MARA,31,BUTIAMA,312,BUTIAMA,31201,BUTIAMA,MTUZU
MARA,31,BUTIAMA,312,BUTIAMA,31201,BUTIAMA,KITANGA
MARA,31,BUTIAMA,312,BUTIAMA,31201,BUTIAMA,MAKORE
MARA,31,BUTIAMA,312,BUTIAMA,31201,BUTIAMA,IKOROKOMYO
MARA,31,BUTIAMA,312,BUTIAMA,31201,RWAMKOMA,KANGAMBURA
MARA,31,BUTIAMA,312,BUTIAMA,31201,RWAMKOMA,KAMIMANGE
MARA,31,BUTIAMA,312,BUTIAMA,31201,RWAMKOMA,MANG'ATIKA
MARA,31,BUTIAMA,312,BUTIAMA,31201,RWAMKOMA,MANYAWA
MARA,31,BUTIAMA,312,BUTIAMA,31201,RWAMKOMA,RWISAKA
MARA,31,BUTIAMA,312,BUTIAMA,31201,RWAMKOMA,BUKAMBIRO
MARA,31,BUTIAMA,312,BUTIAMA,31201,BUTURU,KWIGEGO
MARA,31,BUTIAMA,312,BUTIAMA,31201,BUTURU,LUSANZATI
MARA,31,BUTIAMA,312,BUTIAMA,31201,BUTURU,NYAWARYOBA
MARA,31,BUTIAMA,312,BUTIAMA,31201,BUTURU,KWIHURI
MARA,31,BUTIAMA,312,BUTIAMA,31201,BUTURU,KITARIKIRO
MARA,31,BUTIAMA,312,BUTIAMA,31201,BUTURU,MARANDA
MARA,31,BUTIAMA,312,BUTIAMA,31201,BUTURU,NYAKIKUNGU
MARA,31,BUTIAMA,312,BUTIAMA,31201,BUTURU,GIMENYE
MARA,31,BUTIAMA,312,BURUMA,31202,SONGORA,BURUMA
MARA,31,BUTIAMA,312,BURUMA,31202,SONGORA,KISOKOBE
MARA,31,BUTIAMA,312,BURUMA,31202,SONGORA,RUSUHI
MARA,31,BUTIAMA,312,BURUMA,31202,SONGORA,RUHWE
MARA,31,BUTIAMA,312,BURUMA,31202,SONGORA,IGURWIBI
MARA,31,BUTIAMA,312,BURUMA,31202,SONGORA,IRIMBA
MARA,31,BUTIAMA,312,BURUMA,31202,SONGORA,BIRANGARA
MARA,31,BUTIAMA,312,BURUMA,31202,SONGORA,NYASURURA
MARA,31,BUTIAMA,312,BURUMA,31202,RYAMUGABO,MIFUGO
MARA,31,BUTIAMA,312,BURUMA,31202,RYAMUGABO,KATI
MARA,31,BUTIAMA,312,BURUMA,31202,RYAMUGABO,MWANZO
MARA,31,BUTIAMA,312,BURUMA,31202,RYAMUGABO,SONGAMBELE
MARA,31,BUTIAMA,312,BURUMA,31202,RYAMUGABO,TUBA
MARA,31,BUTIAMA,312,BURUMA,31202,ISABA,NYANG’OMBE
MARA,31,BUTIAMA,312,BURUMA,31202,ISABA,KUKIGANANA
MARA,31,BUTIAMA,312,BURUMA,31202,ISABA,KITARE
MARA,31,BUTIAMA,312,BURUMA,31202,ISABA,KWITIRA
MARA,31,BUTIAMA,312,BURUMA,31202,ISABA,KIREGERE
MARA,31,BUTIAMA,312,BURUMA,31202,ISABA,KYANGUNGE
MARA,31,BUTIAMA,312,BURUMA,31202,TONYO,TONYO
MARA,31,BUTIAMA,312,BURUMA,31202,TONYO,NYAMBURATAKYA
MARA,31,BUTIAMA,312,BURUMA,31202,TONYO,KIBIGA
MARA,31,BUTIAMA,312,BURUMA,31202,TONYO,NYIKOKO
MARA,31,BUTIAMA,312,BURUMA,31202,MWIKORO,KIGUMU A
MARA,31,BUTIAMA,312,BURUMA,31202,MWIKORO,KIGUMU B
MARA,31,BUTIAMA,312,BURUMA,31202,MWIKORO,TARIMANSOTI
MARA,31,BUTIAMA,312,BURUMA,31202,MWIKORO,NYAMWALA
MARA,31,BUTIAMA,312,BURUMA,31202,MWIKORO,NYAMIKA
MARA,31,BUTIAMA,312,BURUMA,31202,MWIKORO,NYAMAGEMBE
MARA,31,BUTIAMA,312,BURUMA,31202,MWIKORO,RUHUNGO
MARA,31,BUTIAMA,312,BURUMA,31202,MWIKORO,SENTA
MARA,31,BUTIAMA,312,BURUMA,31202,MWIKORO,MAJENGO
MARA,31,BUTIAMA,312,BWIREGI,31204,RYAMISANGA,BUHENCHE
MARA,31,BUTIAMA,312,BWIREGI,31204,RYAMISANGA,KYAREMA
MARA,31,BUTIAMA,312,BWIREGI,31204,RYAMISANGA,KEYEBU
MARA,31,BUTIAMA,312,BWIREGI,31204,RYAMISANGA,SENTA
MARA,31,BUTIAMA,312,BWIREGI,31204,RYAMISANGA,SERENGETI
MARA,31,BUTIAMA,312,BWIREGI,31204,KETASAKWA,BIAFRA
MARA,31,BUTIAMA,312,BWIREGI,31204,KETASAKWA,MKORONGO
MARA,31,BUTIAMA,312,BWIREGI,31204,KETASAKWA,KETASAKWA
MARA,31,BUTIAMA,312,BWIREGI,31204,KETASAKWA,KWISWA
MARA,31,BUTIAMA,312,BWIREGI,31204,MASURURA,KANISANI
MARA,31,BUTIAMA,312,BWIREGI,31204,MASURURA,MTUKULA
MARA,31,BUTIAMA,312,BWIREGI,31204,MASURURA,KYAWAROKWE
MARA,31,BUTIAMA,312,BWIREGI,31204,MASURURA,NGEREKWE
MARA,31,BUTIAMA,312,BWIREGI,31204,MASURURA,SENTA
MARA,31,BUTIAMA,312,BWIREGI,31204,MASURURA,NYANKANGARA
MARA,31,BUTIAMA,312,BWIREGI,31204,MASURURA,KUBIGINA
MARA,31,BUTIAMA,312,BWIREGI,31204,MASURURA,BUMASWA
MARA,31,BUTIAMA,312,BWIREGI,31204,MASURURA,MARAMA
MARA,31,BUTIAMA,312,BWIREGI,31204,KAMGENDI,SENTA
MARA,31,BUTIAMA,312,BWIREGI,31204,KAMGENDI,MTUKULA
MARA,31,BUTIAMA,312,BWIREGI,31204,KAMGENDI,TAMBISA
MARA,31,BUTIAMA,312,BWIREGI,31204,KAMGENDI,BURUNDI
MARA,31,BUTIAMA,312,BWIREGI,31204,KAMGENDI,NYARUKORU
MARA,31,BUTIAMA,312,BWIREGI,31204,KAMGENDI,SONGAMBELE
MARA,31,BUTIAMA,312,BWIREGI,31204,KAMGENDI,KABISARWI
MARA,31,BUTIAMA,312,BUKABWA,31205,BUKWABA,KARUKANGARA
MARA,31,BUTIAMA,312,BUKABWA,31205,BUKWABA,MISISYE
MARA,31,BUTIAMA,312,BUKABWA,31205,BUKWABA,MWEMBENI
MARA,31,BUTIAMA,312,BUKABWA,31205,BUKWABA,NYABESAWA
MARA,31,BUTIAMA,312,BUKABWA,31205,BUKWABA,NYAMASARU
MARA,31,BUTIAMA,312,BUKABWA,31205,BUKWABA,KUBIKWABI
MARA,31,BUTIAMA,312,BUKABWA,31205,BUKWABA,KUBISIKI
MARA,31,BUTIAMA,312,BUKABWA,31205,BUKWABA,MEREGERI
MARA,31,BUTIAMA,312,BUKABWA,31205,MMAZAMI,RUGARA
MARA,31,BUTIAMA,312,BUKABWA,31205,MMAZAMI,KYESWA
MARA,31,BUTIAMA,312,BUKABWA,31205,MMAZAMI,KYAWAZAMWE
MARA,31,BUTIAMA,312,BUKABWA,31205,MMAZAMI,BUHARE
MARA,31,BUTIAMA,312,BUKABWA,31205,MMAZAMI,NYABASAMBAYA
MARA,31,BUTIAMA,312,BUKABWA,31205,MMAZAMI,NYAMBO
MARA,31,BUTIAMA,312,BUKABWA,31205,MMAZAMI,TONYO
MARA,31,BUTIAMA,312,BUKABWA,31205,KIRUMI,MANG’OMBE
MARA,31,BUTIAMA,312,BUKABWA,31205,KIRUMI,NYAMAKAKA
MARA,31,BUTIAMA,312,BUKABWA,31205,KIRUMI,NYAMISANGURA
MARA,31,BUTIAMA,312,BUKABWA,31205,KIRUMI,KYASUKE
MARA,31,BUTIAMA,312,MURIAZA,31206,MURIAZA,KAMUNYA
MARA,31,BUTIAMA,312,MURIAZA,31206,MURIAZA,TAHO
MARA,31,BUTIAMA,312,MURIAZA,31206,MURIAZA,RUHATA
MARA,31,BUTIAMA,312,MURIAZA,31206,MURIAZA,RIIGINGA
MARA,31,BUTIAMA,312,MURIAZA,31206,MURIAZA,MARIBA
MARA,31,BUTIAMA,312,MURIAZA,31206,MURIAZA,NYANZUGU
MARA,31,BUTIAMA,312,MURIAZA,31206,MURIAZA,KITABAGA
MARA,31,BUTIAMA,312,MURIAZA,31206,MURIAZA,NYABILANGO
MARA,31,BUTIAMA,312,MURIAZA,31206,MURIAZA,NYAGENI
MARA,31,BUTIAMA,312,MURIAZA,31206,BUMANGI,KYAMANGWE
MARA,31,BUTIAMA,312,MURIAZA,31206,BUMANGI,KAKISENGERE
MARA,31,BUTIAMA,312,MURIAZA,31206,BUMANGI,KYASAMTI
MARA,31,BUTIAMA,312,MURIAZA,31206,BUMANGI,BUKINGA
MARA,31,BUTIAMA,312,MURIAZA,31206,BUMANGI,KITAGURA
MARA,31,BUTIAMA,312,MURIAZA,31206,BUMANGI,MISATWE
MARA,31,BUTIAMA,312,MURIAZA,31206,BUMANGI,KENG’ETA
MARA,31,BUTIAMA,312,MURIAZA,31206,BUMANGI,MIBANGO
MARA,31,BUTIAMA,312,MURIAZA,31206,BUMANGI,NYAMISARWE
MARA,31,BUTIAMA,312,MURIAZA,31206,KIZARU,BURAGERERO
MARA,31,BUTIAMA,312,MURIAZA,31206,KIZARU,IBURA
MARA,31,BUTIAMA,312,MURIAZA,31206,KIZARU,KWIGINA
MARA,31,BUTIAMA,312,MURIAZA,31206,KIZARU,KING’OORORA
MARA,31,BUTIAMA,312,MURIAZA,31206,KIZARU,MANG’OMBE
MARA,31,BUTIAMA,312,MURIAZA,31206,KIZARU,KWIBUSI
MARA,31,BUTIAMA,312,MURIAZA,31206,KIZARU,MUMOKOMYO
MARA,31,BUTIAMA,312,MURIAZA,31206,KIZARU,KWIMANGE
MARA,31,BUTIAMA,312,MASABA,31207,BISARYE,NYAG’OMBE
MARA,31,BUTIAMA,312,MASABA,31207,BISARYE,MTARURA
MARA,31,BUTIAMA,312,MASABA,31207,BISARYE,NYABITARAMANKA
MARA,31,BUTIAMA,312,MASABA,31207,BISARYE,NYAKAGIANA
MARA,31,BUTIAMA,312,MASABA,31207,BISARYE,KURUTAMBI
MARA,31,BUTIAMA,312,MASABA,31207,BISARYE,NYARWAMONO
MARA,31,BUTIAMA,312,MASABA,31207,BISARYE,NYABUBUMARI
MARA,31,BUTIAMA,312,MASABA,31207,NYASIRORI,NYABISAWA
MARA,31,BUTIAMA,312,MASABA,31207,NYASIRORI,NYASIRORI
MARA,31,BUTIAMA,312,MASABA,31207,NYASIRORI,NYAMURASA
MARA,31,BUTIAMA,312,MASABA,31207,NYASIRORI,MURUKORE
MARA,31,BUTIAMA,312,MASABA,31207,NYASIRORI,KYAMASABETA
MARA,31,BUTIAMA,312,MASABA,31207,NYASIRORI,NYABUBUMARI
MARA,31,BUTIAMA,312,MASABA,31207,KWIGUTU,BINETE
MARA,31,BUTIAMA,312,MASABA,31207,KWIGUTU,NYABIHENGU
MARA,31,BUTIAMA,312,MASABA,31207,KWIGUTU,NYAMAHANGARA
MARA,31,BUTIAMA,312,MASABA,31207,KWIGUTU,BUTAMBAHU
MARA,31,BUTIAMA,312,MASABA,31207,KWIGUTU,NYABIKWABI
MARA,31,BUTIAMA,312,MASABA,31207,KWIGUTU,KUKIGUMU
MARA,31,BUTIAMA,312,BUTUGURI,31208,KIBUBWA,KIBUBWA
MARA,31,BUTIAMA,312,BUTUGURI,31208,KIBUBWA,TAHO
MARA,31,BUTIAMA,312,BUTUGURI,31208,KIBUBWA,NYAMISANGURA
MARA,31,BUTIAMA,312,BUTUGURI,31208,KIBUBWA,KINGERU
MARA,31,BUTIAMA,312,BUTUGURI,31208,KIBUBWA,MAGUNGA
MARA,31,BUTIAMA,312,BUTUGURI,31208,KISAMWENE,KWERE
MARA,31,BUTIAMA,312,BUTUGURI,31208,KISAMWENE,NYAMGUSA
MARA,31,BUTIAMA,312,BUTUGURI,31208,KISAMWENE,NYABIMORI
MARA,31,BUTIAMA,312,BUTUGURI,31208,KISAMWENE,NYAMUKANGIRI
MARA,31,BUTIAMA,312,BUTUGURI,31208,KISAMWENE,NYAMINOZI
MARA,31,BUTIAMA,312,BUTUGURI,31208,KISAMWENE,TII
MARA,31,BUTIAMA,312,BUTUGURI,31208,BUSIRIME,BUSIRIME
MARA,31,BUTIAMA,312,BUTUGURI,31208,BUSIRIME,KIBUGA
MARA,31,BUTIAMA,312,BUTUGURI,31208,BUSIRIME,KASURE
MARA,31,BUTIAMA,312,BUTUGURI,31208,BUSIRIME,KAHARANGWETA
MARA,31,BUTIAMA,312,KUKIRANGO,31209,NYAMISISYE,MADUKANI
MARA,31,BUTIAMA,312,KUKIRANGO,31209,NYAMISISYE,KURWAKI
MARA,31,BUTIAMA,312,KUKIRANGO,31209,NYAMISISYE,NYASUNA
MARA,31,BUTIAMA,312,KUKIRANGO,31209,NYAMISISYE,KIBISA
MARA,31,BUTIAMA,312,KUKIRANGO,31209,NYAMISISYE,KUKIRANGO
MARA,31,BUTIAMA,312,KUKIRANGO,31209,NYAMISISYE,MKUYUNI
MARA,31,BUTIAMA,312,KUKIRANGO,31209,NYAMISISYE,SABASABA
MARA,31,BUTIAMA,312,KUKIRANGO,31209,SINGU,BUSARAGA
MARA,31,BUTIAMA,312,KUKIRANGO,31209,SINGU,SINGU
MARA,31,BUTIAMA,312,KUKIRANGO,31209,SINGU,MAHAKAMANI
MARA,31,BUTIAMA,312,KUKIRANGO,31209,SINGU,MAKUNDUSINI
MARA,31,BUTIAMA,312,KUKIRANGO,31209,SINGU,NYANG’OMBE
MARA,31,BUTIAMA,312,KUKIRANGO,31209,KIABAKARI,NYAMONGO B
MARA,31,BUTIAMA,312,KUKIRANGO,31209,KIABAKARI,MADARAKA
MARA,31,BUTIAMA,312,KUKIRANGO,31209,KIABAKARI,KUKIYUGU
MARA,31,BUTIAMA,312,KUKIRANGO,31209,KIABAKARI,KUKIRANGO
MARA,31,BUTIAMA,312,KUKIRANGO,31209,KIABAKARI,GENEVA
MARA,31,BUTIAMA,312,KUKIRANGO,31209,KYAWAZARU,KYARANO
MARA,31,BUTIAMA,312,KUKIRANGO,31209,KYAWAZARU,SERENGETI
MARA,31,BUTIAMA,312,KUKIRANGO,31209,KYAWAZARU,KYAWAZARU
MARA,31,BUTIAMA,312,KUKIRANGO,31209,KYAWAZARU,NYAMONGO A
MARA,31,BUTIAMA,312,KUKIRANGO,31209,KYAWAZARU,MRUTU
MARA,31,BUTIAMA,312,KUKIRANGO,31209,MWANZABURIGA,KUMIMBI
MARA,31,BUTIAMA,312,KUKIRANGO,31209,MWANZABURIGA,KATI
MARA,31,BUTIAMA,312,KUKIRANGO,31209,MWANZABURIGA,BUKINGA
MARA,31,BUTIAMA,312,KUKIRANGO,31209,MWANZABURIGA,KUKIZUNGU
MARA,31,BUTIAMA,312,KYANYARI,31213,NYAKISWA,NYAKISWA SENTA
MARA,31,BUTIAMA,312,KYANYARI,31213,NYAKISWA,ITUA
MARA,31,BUTIAMA,312,KYANYARI,31213,NYAKISWA,BAHINI
MARA,31,BUTIAMA,312,KYANYARI,31213,NYAKISWA,KIHUZU
MARA,31,BUTIAMA,312,KYANYARI,31213,NYAKISWA,MURUNGUTA
MARA,31,BUTIAMA,312,KYANYARI,31213,NYAMIKOMA,NYAKIBOGA
MARA,31,BUTIAMA,312,KYANYARI,31213,NYAMIKOMA,KANGAMBURI
MARA,31,BUTIAMA,312,KYANYARI,31213,NYAMIKOMA,KITANYWEKA
MARA,31,BUTIAMA,312,KYANYARI,31213,NYAMIKOMA,KUHOKA
MARA,31,BUTIAMA,312,KYANYARI,31213,NYAMIKOMA,MUGANZA A
MARA,31,BUTIAMA,312,KYANYARI,31213,NYAMIKOMA,MUGANZA B
MARA,31,BUTIAMA,312,KYANYARI,31213,NYAMIKOMA,NYASESI
MARA,31,BUTIAMA,312,KYANYARI,31213,NYAMIKOMA,MAJENGO
MARA,31,BUTIAMA,312,KYANYARI,31213,NYAMIKOMA,SENTA
MARA,31,BUTIAMA,312,KYANYARI,31213,MWIBAGI,TERITA
MARA,31,BUTIAMA,312,KYANYARI,31213,MWIBAGI,MBUGANI
MARA,31,BUTIAMA,312,KYANYARI,31213,MWIBAGI,KUKINYAGO
MARA,31,BUTIAMA,312,KYANYARI,31213,MWIBAGI,KATI
MARA,31,BUTIAMA,312,KYANYARI,31213,MWIBAGI,MKUYUNI
MARA,31,BUTIAMA,312,KYANYARI,31213,MWIBAGI,MAGHARIBI
MARA,31,BUTIAMA,312,BUHEMBA,31223,MATONGO,SENTA
MARA,31,BUTIAMA,312,BUHEMBA,31223,MATONGO,TURUGURU
MARA,31,BUTIAMA,312,BUHEMBA,31223,MATONGO,KIZANDA
MARA,31,BUTIAMA,312,BUHEMBA,31223,MATONGO,SERENGETI
MARA,31,BUTIAMA,312,BUHEMBA,31223,MATONGO,KABENGEE
MARA,31,BUTIAMA,312,BUHEMBA,31223,MATONGO,KYAMUKO
MARA,31,BUTIAMA,312,BUHEMBA,31223,MATONGO,NYAWIKOMBA
MARA,31,BUTIAMA,312,BUHEMBA,31223,MATONGO,NYAKITITA
MARA,31,BUTIAMA,312,BUHEMBA,31223,MATONGO,SANIA A
MARA,31,BUTIAMA,312,BUHEMBA,31223,MATONGO,SANIA B
MARA,31,BUTIAMA,312,BUHEMBA,31223,KINYARIRI,BUKAMBIRO
MARA,31,BUTIAMA,312,BUHEMBA,31223,KINYARIRI,KURUSANZATI
MARA,31,BUTIAMA,312,BUHEMBA,31223,KINYARIRI,KUSAYA
MARA,31,BUTIAMA,312,BUHEMBA,31223,KINYARIRI,MALEZI
MARA,31,BUTIAMA,312,BUHEMBA,31223,KINYARIRI,KINYARIRI
MARA,31,BUTIAMA,312,BUHEMBA,31223,BIATIKA,KAMUGWE
MARA,31,BUTIAMA,312,BUHEMBA,31223,BIATIKA,NYASAIRA
MARA,31,BUTIAMA,312,BUHEMBA,31223,BIATIKA,MABENGO
MARA,31,BUTIAMA,312,BUHEMBA,31223,BIATIKA,FUTA KAMBA
MARA,31,BUTIAMA,312,BUHEMBA,31223,BIATIKA,IKOMA ROAD A
MARA,31,BUTIAMA,312,BUHEMBA,31223,BIATIKA,IKOMA ROAD B
MARA,31,BUTIAMA,312,BUHEMBA,31223,BIATIKA,NYAMSISA
MARA,31,BUTIAMA,312,BUHEMBA,31223,BIATIKA,NYABIGORI
MARA,31,BUTIAMA,312,BUHEMBA,31223,BIATIKA,MBASOMI
MARA,31,BUTIAMA,312,NYAMIMANGE,31224,NYANKOMA,KEWANCHA
MARA,31,BUTIAMA,312,NYAMIMANGE,31224,NYANKOMA,KIAGATA MADUKANI
MARA,31,BUTIAMA,312,NYAMIMANGE,31224,NYANKOMA,ISANGURA
MARA,31,BUTIAMA,312,NYAMIMANGE,31224,NYANKOMA,KABWASI
MARA,31,BUTIAMA,312,NYAMIMANGE,31224,NYANKOMA,SERENGETI
MARA,31,BUTIAMA,312,NYAMIMANGE,31224,NYANKOMA,NYAMASONGO
MARA,31,BUTIAMA,312,NYAMIMANGE,31224,NYANKOMA,NYAMIHURU
MARA,31,BUTIAMA,312,NYAMIMANGE,31224,NYANKOMA,MAMITITU
MARA,31,BUTIAMA,312,NYAMIMANGE,31224,NYANKOMA,SANIA
MARA,31,BUTIAMA,312,NYAMIMANGE,31224,NYANKOMA,MTAKUJA
MARA,31,BUTIAMA,312,NYAMIMANGE,31224,KWISARO,IKONGO RYAKISHERI
MARA,31,BUTIAMA,312,NYAMIMANGE,31224,KWISARO,KWISARO
MARA,31,BUTIAMA,312,NYAMIMANGE,31224,KWISARO,KIAGATA NDOGO
MARA,31,BUTIAMA,312,NYAMIMANGE,31224,KWISARO,NYAMUSENSE
MARA,31,BUTIAMA,312,NYAMIMANGE,31224,KWISARO,MLIMANI
MARA,31,BUTIAMA,312,BUSWAHILI,31225,BUSWAHILI,KIGUMU
MARA,31,BUTIAMA,312,BUSWAHILI,31225,BUSWAHILI,BIAFRA
MARA,31,BUTIAMA,312,BUSWAHILI,31225,BUSWAHILI,MTUKULA
MARA,31,BUTIAMA,312,BUSWAHILI,31225,BUSWAHILI,NYADEWA
MARA,31,BUTIAMA,312,BUSWAHILI,31225,KONGOTO,KYABAKARI A
MARA,31,BUTIAMA,312,BUSWAHILI,31225,KONGOTO,KYABAKARI B
MARA,31,BUTIAMA,312,BUSWAHILI,31225,KONGOTO,SENTA
MARA,31,BUTIAMA,312,BUSWAHILI,31225,KONGOTO,ZAHANATI
MARA,31,BUTIAMA,312,BUSWAHILI,31225,KONGOTO,MLIMANI
MARA,31,BUTIAMA,312,BUSWAHILI,31225,KONGOTO,GHANTENDE
MARA,31,BUTIAMA,312,BUSWAHILI,31225,KONGOTO,SHULE
MARA,31,BUTIAMA,312,BUSWAHILI,31225,WEGERO,KITOZARE A
MARA,31,BUTIAMA,312,BUSWAHILI,31225,WEGERO,KITOZARE B
MARA,31,BUTIAMA,312,BUSWAHILI,31225,WEGERO,KITOZARE C
MARA,31,BUTIAMA,312,BUSWAHILI,31225,WEGERO,BUMANGI A
MARA,31,BUTIAMA,312,BUSWAHILI,31225,WEGERO,BUMANGI B
MARA,31,BUTIAMA,312,BUSWAHILI,31225,WEGERO,BUMANGI C
MARA,31,BUTIAMA,312,BUSWAHILI,31225,WEGERO,NYIROBI A
MARA,31,BUTIAMA,312,BUSWAHILI,31225,WEGERO,NYIROBI B
MARA,31,BUTIAMA,312,BUSWAHILI,31225,WEGERO,BUTAKWA
MARA,31,BUTIAMA,312,BUSWAHILI,31225,WEGERO,NYIREMA
MARA,31,BUTIAMA,312,BUSWAHILI,31225,BARANGA,GHANTENDE
MARA,31,BUTIAMA,312,BUSWAHILI,31225,BARANGA,NYARURERA
MARA,31,BUTIAMA,312,BUSWAHILI,31225,BARANGA,NYAMEKO
MARA,31,BUTIAMA,312,BUSWAHILI,31225,BARANGA,KYABUKINA
MARA,31,BUTIAMA,312,BUSWAHILI,31225,BARANGA,KWISANGURA A
MARA,31,BUTIAMA,312,BUSWAHILI,31225,BARANGA,KWISANGURA B
MARA,31,BUTIAMA,312,BUSWAHILI,31225,BARANGA,BIANKA
MARA,31,BUTIAMA,312,BUSWAHILI,31225,BARANGA,BURUNDI
MARA,31,BUTIAMA,312,BUSWAHILI,31225,BARANGA,SENTA A
MARA,31,BUTIAMA,312,BUSWAHILI,31225,BARANGA,SENTA B
MARA,31,BUTIAMA,312,MIRWA,31228,MIRWA,NYASISORI
MARA,31,BUTIAMA,312,MIRWA,31228,MIRWA,NYAKOMOGO
MARA,31,BUTIAMA,312,MIRWA,31228,MIRWA,RYABUGARO
MARA,31,BUTIAMA,312,MIRWA,31228,MIRWA,NYAMAKANU
MARA,31,BUTIAMA,312,MIRWA,31228,MIRWA,KISAWABUKYA
MARA,31,BUTIAMA,312,MIRWA,31228,MIRWA,GORANGA
MARA,31,BUTIAMA,312,MIRWA,31228,MIRWA,MIRWA
MARA,31,BUTIAMA,312,MIRWA,31228,MAGUNGA,KUKITARAMANKA
MARA,31,BUTIAMA,312,MIRWA,31228,MAGUNGA,WAKILIBA
MARA,31,BUTIAMA,312,MIRWA,31228,MAGUNGA,KAMIMANGE
MARA,31,BUTIAMA,312,MIRWA,31228,MAGUNGA,RWAMAKORE
MARA,31,BUTIAMA,312,MIRWA,31228,MAGUNGA,BWEZINDWI
MARA,31,BUTIAMA,312,MIRWA,31228,TARANI,KWIMANGE
MARA,31,BUTIAMA,312,MIRWA,31228,TARANI,KAZIMBURA
MARA,31,BUTIAMA,312,MIRWA,31228,TARANI,KAMUZORI
MARA,31,BUTIAMA,312,MIRWA,31228,TARANI,KURUSIRU
MARA,31,BUTIAMA,312,MIRWA,31228,TARANI,KAMUGUNDA
MARA,31,BUTIAMA,312,MIRWA,31228,TARANI,MANYAWA
MARA,31,BUTIAMA,312,BISUMWA,31230,BISUMWA,SENTA
MARA,31,BUTIAMA,312,BISUMWA,31230,BISUMWA,KAGINAKERU
MARA,31,BUTIAMA,312,BISUMWA,31230,BISUMWA,ITUMBI
MARA,31,BUTIAMA,312,BISUMWA,31230,BISUMWA,MENOGAKA
MARA,31,BUTIAMA,312,BISUMWA,31230,BISUMWA,NYAMAHERI
MARA,31,BUTIAMA,312,BISUMWA,31230,BISUMWA,MWEMBE MANG’AA
MARA,31,BUTIAMA,312,BISUMWA,31230,BISUMWA,NYAGWEMA
MARA,31,BUTIAMA,312,BISUMWA,31230,BISUMWA,BIGANANA
MARA,31,BUTIAMA,312,BISUMWA,31230,BISUMWA,KURUKEREGE
MARA,31,BUTIAMA,312,BISUMWA,31230,NYABEKWABI,NYABEKWABI SENTA
MARA,31,BUTIAMA,312,BISUMWA,31230,NYABEKWABI,SERU
MARA,31,BUTIAMA,312,BISUMWA,31230,NYABEKWABI,MIGOMBANI
MARA,31,BUTIAMA,312,BISUMWA,31230,NYABEKWABI,MAZAMI
MARA,31,BUTIAMA,312,BISUMWA,31230,NYABEKWABI,MLIMANI
MARA,31,BUTIAMA,312,BISUMWA,31230,NYABEKWABI,KYAMAENGO
MARA,31,BUTIAMA,312,BISUMWA,31230,NYABEKWABI,RUNG’USA
MARA,31,BUTIAMA,312,BISUMWA,31230,NYABEKWABI,NYAMIRI
MARA,31,BUTIAMA,312,BISUMWA,31230,NYABEKWABI,NYANKERU
MARA,31,BUTIAMA,312,BISUMWA,31230,NYABEKWABI,MMACHAME
MARA,31,BUTIAMA,312,BISUMWA,31230,KYAMAJOJE,NYANKERO
MARA,31,BUTIAMA,312,BISUMWA,31230,KYAMAJOJE,NYABUFU
MARA,31,BUTIAMA,312,BISUMWA,31230,KYAMAJOJE,KUMULALA
MARA,31,BUTIAMA,312,BISUMWA,31230,KYAMAJOJE,NYANG'AYA
MARA,31,BUTIAMA,312,BISUMWA,31230,KYAMAJOJE,KASINDI
MARA,31,BUTIAMA,312,BISUMWA,31230,KYAMAJOJE,NYABEKWABI
MARA,31,BUTIAMA,312,BISUMWA,31230,KYAMAJOJE,KYAMAJOJE
MARA,31,BUTIAMA,312,BISUMWA,31230,KYAMAJOJE,BISANGATI
MARA,31,BUTIAMA,312,BISUMWA,31230,KYAMAJOJE,NYANGOGOMA
MARA,31,BUTIAMA,312,BISUMWA,31230,KYAMAJOJE,KYAMAJOJE
MARA,31,BUTIAMA,312,BISUMWA,31230,NYARUKORU,NYARUKORU KATI
MARA,31,BUTIAMA,312,BISUMWA,31230,NYARUKORU,KOHARAMA
MARA,31,BUTIAMA,312,BISUMWA,31230,NYARUKORU,KARANTINI
MARA,31,BUTIAMA,312,BISUMWA,31230,NYARUKORU,RWAMASIRORI
MARA,31,BUTIAMA,312,BISUMWA,31230,NYARUKORU,RUGUSA
MARA,31,BUTIAMA,312,BUSEGWE,31231,BUSEGWE,KUNGA
MARA,31,BUTIAMA,312,BUSEGWE,31231,BUSEGWE,KISISYE
MARA,31,BUTIAMA,312,BUSEGWE,31231,BUSEGWE,MISSION
MARA,31,BUTIAMA,312,BUSEGWE,31231,BUSEGWE,ISUNURU
MARA,31,BUTIAMA,312,BUSEGWE,31231,BUSEGWE,BWANA
MARA,31,BUTIAMA,312,BUSEGWE,31231,NYANZA,NYABIKERYA
MARA,31,BUTIAMA,312,BUSEGWE,31231,NYANZA,KURUSIRU
MARA,31,BUTIAMA,312,BUSEGWE,31231,NYANZA,NGUBWE
MARA,31,BUTIAMA,312,BUSEGWE,31231,NYANZA,MAGOROMBE
MARA,31,BUTIAMA,312,BUSEGWE,31231,NYANZA,NYABUKANO
MARA,31,BUTIAMA,312,BUSEGWE,31231,KIGORI,NYARUHEMBE
MARA,31,BUTIAMA,312,BUSEGWE,31231,KIGORI,BUHUZI
MARA,31,BUTIAMA,312,BUSEGWE,31231,KIGORI,KIGORI
MARA,31,BUTIAMA,312,BUSEGWE,31231,KIGORI,NYAMISANGURA
MARA,31,BUTIAMA,312,SIRORISIMBA,31232,SIRORISIMBA.,MADUKANI A
MARA,31,BUTIAMA,312,SIRORISIMBA,31232,SIRORISIMBA.,MADUKANI B
MARA,31,BUTIAMA,312,SIRORISIMBA,31232,SIRORISIMBA.,BITOTONI
MARA,31,BUTIAMA,312,SIRORISIMBA,31232,SIRORISIMBA.,MTUKURA
MARA,31,BUTIAMA,312,SIRORISIMBA,31232,RWASERETA,RWASERETA
MARA,31,BUTIAMA,312,SIRORISIMBA,31232,RWASERETA,KOMARAHA
MARA,31,BUTIAMA,312,SIRORISIMBA,31232,RWASERETA,KITARAMAKA
MARA,31,BUTIAMA,312,SIRORISIMBA,31232,RWASERETA,MAJENGO
MARA,31,BUTIAMA,312,SIRORISIMBA,31232,RWASERETA,NYANDEWA
MARA,31,BUTIAMA,312,SIRORISIMBA,31232,RWASERETA,KOMACHALE
MARA,31,BUTIAMA,312,SIRORISIMBA,31232,NYAMBILI,MAJENGO
MARA,31,BUTIAMA,312,SIRORISIMBA,31232,NYAMBILI,NYANDEWA
MARA,31,BUTIAMA,312,SIRORISIMBA,31232,NYAMBILI,KOMACHALE
MARA,31,BUTIAMA,312,SIRORISIMBA,31232,KITARAMANKA,KIAMAIA
MARA,31,BUTIAMA,312,SIRORISIMBA,31232,KITARAMANKA,NYAMIMANGE
MARA,31,BUTIAMA,312,SIRORISIMBA,31232,KITARAMANKA,BUTUKANSARO
MARA,31,BUTIAMA,312,SIRORISIMBA,31232,KITARAMANKA,MWIRINGO
MARA,31,BUTIAMA,312,NYANKANGA,31233,NYANKANGA,NYANKANGA KATI
MARA,31,BUTIAMA,312,NYANKANGA,31233,NYANKANGA,NYAMBO
MARA,31,BUTIAMA,312,NYANKANGA,31233,NYANKANGA,RYAMANIGWE
MARA,31,BUTIAMA,312,NYANKANGA,31233,NYANKANGA,RYABARI
MARA,31,BUTIAMA,312,NYANKANGA,31233,NYANKANGA,MOSHENTOBEKE
MARA,31,BUTIAMA,312,NYANKANGA,31233,NYANKANGA,MMAKO
MARA,31,BUTIAMA,312,NYANKANGA,31233,NYANKANGA,MUKIRINGO
MARA,31,BUTIAMA,312,NYANKANGA,31233,NYANKANGA,IGENAMWE
MARA,31,BUTIAMA,312,NYANKANGA,31233,NYABANGE,NYABANGE
MARA,31,BUTIAMA,312,NYANKANGA,31233,NYABANGE,KYAMAKERYA
MARA,31,BUTIAMA,312,NYANKANGA,31233,NYABANGE,MMANYARA
MARA,31,BUTIAMA,312,NYANKANGA,31233,NYABANGE,MISHANDWA
MARA,31,BUTIAMA,312,KAMUGEGI,31235,KAMUGEGI,RWAMILUMBI
MARA,31,BUTIAMA,312,KAMUGEGI,31235,KAMUGEGI,MUBISAKA
MARA,31,BUTIAMA,312,KAMUGEGI,31235,KAMUGEGI,SENGEREMA
MARA,31,BUTIAMA,312,KAMUGEGI,31235,KAMUGEGI,NYAMTANGARIKO
MARA,31,BUTIAMA,312,KAMUGEGI,31235,KYANTUNGWE,KYANTUNGWE A
MARA,31,BUTIAMA,312,KAMUGEGI,31235,KYANTUNGWE,KYANTUNGWE B
MARA,31,BUTIAMA,312,KAMUGEGI,31235,KYANTUNGWE,NYAMAGANA
MARA,31,BUTIAMA,312,KAMUGEGI,31235,KYANTUNGWE,NYANGUTURI
MARA,31,BUTIAMA,312,KAMUGEGI,31235,KYANTUNGWE,SAKE
MARA,31,BUTIAMA,312,KAMUGEGI,31235,KYANTUNGWE,NYABIRIZA
MARA,31,BUTIAMA,312,KAMUGEGI,31235,KYAWAZARU,KYARANO
MARA,31,BUTIAMA,312,KAMUGEGI,31235,KYAWAZARU,SERENGETI
MARA,31,BUTIAMA,312,KAMUGEGI,31235,KYAWAZARU,KYAWAZARU
MARA,31,BUTIAMA,312,KAMUGEGI,31235,KYAWAZARU,NYAMONGO A
MARA,31,BUTIAMA,312,KAMUGEGI,31235,KYAWAZARU,MRUTU
MARA,31,RORYA,313,BUKURA,31301,BUBOMBI,MADUKANI
MARA,31,RORYA,313,BUKURA,31301,BUBOMBI,ANYUONG
MARA,31,RORYA,313,BUKURA,31301,BUBOMBI,ZAHANATI
MARA,31,RORYA,313,BUKURA,31301,BUBOMBI,NYAMAGOGONI
MARA,31,RORYA,313,BUKURA,31301,BUBOMBI,MTAKUJA
MARA,31,RORYA,313,BUKURA,31301,BUBOMBI,NYABERO
MARA,31,RORYA,313,BUKURA,31301,BUBOMBI,SHULENI
MARA,31,RORYA,313,BUKURA,31301,BUBOMBI,GIBENI
MARA,31,RORYA,313,BUKURA,31301,BUBOMBI,MAKAO MAKUU
MARA,31,RORYA,313,BUKURA,31301,BUBOMBI,KOKOTO
MARA,31,RORYA,313,BUKURA,31301,BUBOMBI,BUKURA
MARA,31,RORYA,313,BUKURA,31301,BUBOMBI,SHULENI
MARA,31,RORYA,313,BUKURA,31301,BUBOMBI,SAKAWA
MARA,31,RORYA,313,BUKURA,31301,KIRONGWE,KITUO
MARA,31,RORYA,313,BUKURA,31301,KIRONGWE,CENTRE
MARA,31,RORYA,313,BUKURA,31301,KIRONGWE,GIRANGO
MARA,31,RORYA,313,BUKURA,31301,KIRONGWE,LWALA
MARA,31,RORYA,313,BUKURA,31301,KIRONGWE,LWANDA AGAGO
MARA,31,RORYA,313,BUKURA,31301,KIRONGWE,NYAHERA
MARA,31,RORYA,313,BUKURA,31301,KIRONGWE,UNDER BAY
MARA,31,RORYA,313,BUKURA,31301,NYAMBORI,VUNJA AMRI
MARA,31,RORYA,313,BUKURA,31301,NYAMBORI,ZAHANATI
MARA,31,RORYA,313,BUKURA,31301,NYAMBORI,CENTRE
MARA,31,RORYA,313,BUKURA,31301,NYAMBORI,BUKIRO
MARA,31,RORYA,313,BUKURA,31301,THABACHE,KOYIE
MARA,31,RORYA,313,BUKURA,31301,THABACHE,SHAURI YAKO
MARA,31,RORYA,313,BUKURA,31301,THABACHE,OBEMBE
MARA,31,RORYA,313,BUKURA,31301,THABACHE,KORINO
MARA,31,RORYA,313,BUKURA,31301,BWIRI,BWRI 'A'
MARA,31,RORYA,313,BUKURA,31301,BWIRI,BWIRI 'B'
MARA,31,RORYA,313,BUKURA,31301,BWIRI,NYANGOKO
MARA,31,RORYA,313,BUKURA,31301,BWIRI,NYANGWE
MARA,31,RORYA,313,BUKURA,31301,BWIRI,OGWEDH
MARA,31,RORYA,313,BUKURA,31301,BWIRI,MZINGA
MARA,31,RORYA,313,BUKURA,31301,BWIRI,MWIRARO
MARA,31,RORYA,313,TAI,31302,SHIRATI SOTA,SOTA
MARA,31,RORYA,313,TAI,31302,SHIRATI SOTA,GINGO
MARA,31,RORYA,313,TAI,31302,SHIRATI SOTA,KIRENGO
MARA,31,RORYA,313,TAI,31302,SHIRATI SOTA,SIDIKA
MARA,31,RORYA,313,TAI,31302,SHIRATI SOTA,MAGAMAGA
MARA,31,RORYA,313,TAI,31302,NYAMAGONGO,AROMBE
MARA,31,RORYA,313,TAI,31302,NYAMAGONGO,MAKAO MAKUU
MARA,31,RORYA,313,TAI,31302,NYAMAGONGO,MBIRE
MARA,31,RORYA,313,TAI,31302,NYAMAGONGO,OBOKE
MARA,31,RORYA,313,TAI,31302,NYAMAGONGO,NYAMSARWA
MARA,31,RORYA,313,TAI,31302,NYAHERA,ITACHIRO
MARA,31,RORYA,313,TAI,31302,NYAHERA,MAKAO MAKUU
MARA,31,RORYA,313,TAI,31302,NYAHERA,SENTA
MARA,31,RORYA,313,TAI,31302,NYAHERA,RABOUR
MARA,31,RORYA,313,TAI,31302,NYAHERA,NYAKIBORI 'A'
MARA,31,RORYA,313,TAI,31302,NYAHERA,KIGUMI
MARA,31,RORYA,313,TAI,31302,NYAHERA,NYAHERA
MARA,31,RORYA,313,TAI,31302,NYAHERA,NYAKIBORI  'B'
MARA,31,RORYA,313,TAI,31302,MASONGA,KYAMBOGO
MARA,31,RORYA,313,TAI,31302,MASONGA,TAI
MARA,31,RORYA,313,TAI,31302,MASONGA,BUGOGE
MARA,31,RORYA,313,TAI,31302,MASONGA,BUCHORE
MARA,31,RORYA,313,TAI,31302,MASONGA,NYAMONGO
MARA,31,RORYA,313,TAI,31302,MASONGA,MASONGA
MARA,31,RORYA,313,KITEMBE,31303,KITEMBE,OWILA
MARA,31,RORYA,313,KITEMBE,31303,KITEMBE,MIDAMBA
MARA,31,RORYA,313,KITEMBE,31303,KITEMBE,MISRI
MARA,31,RORYA,313,KITEMBE,31303,KITEMBE,SIREBE
MARA,31,RORYA,313,KITEMBE,31303,NYAMBOGO,NYAMBOGO S/M
MARA,31,RORYA,313,KITEMBE,31303,NYAMBOGO,WANGELONG'O
MARA,31,RORYA,313,KITEMBE,31303,NYAMBOGO,OTOCHOGO
MARA,31,RORYA,313,KITEMBE,31303,NYAMBOGO,DAGOPA
MARA,31,RORYA,313,KITEMBE,31303,NYAMBOGO,KITUO CENTRE
MARA,31,RORYA,313,KITEMBE,31303,SAKAWA,KISUGE
MARA,31,RORYA,313,KITEMBE,31303,SAKAWA,TOBWE
MARA,31,RORYA,313,KITEMBE,31303,SAKAWA,CHARYA
MARA,31,RORYA,313,KITEMBE,31303,SAKAWA,AGAK
MARA,31,RORYA,313,KITEMBE,31303,SAKAWA,MAUWE
MARA,31,RORYA,313,KITEMBE,31303,SAKAWA,LUANDA SIMBIRI
MARA,31,RORYA,313,KITEMBE,31303,SAKAWA,MAKONGENI
MARA,31,RORYA,313,KITEMBE,31303,SAKAWA,MARIWA
MARA,31,RORYA,313,ROCHE,31304,ROCHE,DARAJANI
MARA,31,RORYA,313,ROCHE,31304,ROCHE,RATIA
MARA,31,RORYA,313,ROCHE,31304,ROCHE,MIKOROSHONI
MARA,31,RORYA,313,ROCHE,31304,ROCHE,MIGEKO
MARA,31,RORYA,313,ROCHE,31304,ROCHE,OGOSE
MARA,31,RORYA,313,ROCHE,31304,ROCHE,NYATAYA
MARA,31,RORYA,313,ROCHE,31304,ROCHE,OBAR GAGI
MARA,31,RORYA,313,ROCHE,31304,OSIRI,OPASI
MARA,31,RORYA,313,ROCHE,31304,OSIRI,RABOLO
MARA,31,RORYA,313,ROCHE,31304,OSIRI,MABATINI
MARA,31,RORYA,313,ROCHE,31304,OSIRI,LOR BIMBE
MARA,31,RORYA,313,ROCHE,31304,NG'OPE,SENTA
MARA,31,RORYA,313,ROCHE,31304,NG'OPE,BONDO
MARA,31,RORYA,313,ROCHE,31304,NG'OPE,RADIENYA
MARA,31,RORYA,313,ROCHE,31304,NG'OPE,OKUORO
MARA,31,RORYA,313,ROCHE,31304,NG'OPE,LUORE
MARA,31,RORYA,313,MKOMA,31305,NG'OPE,KABWANA
MARA,31,RORYA,313,MKOMA,31305,NG'OPE,OBOKE
MARA,31,RORYA,313,MKOMA,31305,NG'OPE,NGASARO
MARA,31,RORYA,313,MKOMA,31305,NG'OPE,OBWERE
MARA,31,RORYA,313,MKOMA,31305,NG'OPE,MICHIRE
MARA,31,RORYA,313,NYAHONGO,31306,MINIGO,KIRUMBA MAWE MATATU
MARA,31,RORYA,313,NYAHONGO,31306,MINIGO,BUHEMBA
MARA,31,RORYA,313,NYAHONGO,31306,MINIGO,MABATINI
MARA,31,RORYA,313,NYAHONGO,31306,MINIGO,KYABIBI
MARA,31,RORYA,313,NYAHONGO,31306,MINIGO,KANYAMETHO
MARA,31,RORYA,313,NYAHONGO,31306,MINIGO,BUTIAMA
MARA,31,RORYA,313,NYAHONGO,31306,MINIGO,NYAKARIKA
MARA,31,RORYA,313,NYAHONGO,31306,NYAMKONGE,CHAPA KAZI
MARA,31,RORYA,313,NYAHONGO,31306,NYAMKONGE,LUANDA
MARA,31,RORYA,313,NYAHONGO,31306,NYAMKONGE,SARAGIRE
MARA,31,RORYA,313,NYAHONGO,31306,NYAMKONGE,KUBA
MARA,31,RORYA,313,NYAHONGO,31306,NYAMKONGE,SONGAMBELE
MARA,31,RORYA,313,NYAHONGO,31306,NYAMKONGE,NYAGILO
MARA,31,RORYA,313,NYAHONGO,31306,MANYANYI,KYABIBI
MARA,31,RORYA,313,NYAHONGO,31306,MANYANYI,KITIMA
MARA,31,RORYA,313,NYAHONGO,31306,MANYANYI,MANYANYI
MARA,31,RORYA,313,NYAHONGO,31306,MANYANYI,NYANDOTO
MARA,31,RORYA,313,NYAHONGO,31306,MANYANYI,OBOLO
MARA,31,RORYA,313,NYAHONGO,31306,MANYANYI,NYAHELA
MARA,31,RORYA,313,NYAHONGO,31306,MANYANYI,NYANDURU
MARA,31,RORYA,313,NYAHONGO,31306,RYAGATI,NYAMWITA
MARA,31,RORYA,313,NYAHONGO,31306,RYAGATI,SOMONI
MARA,31,RORYA,313,NYAHONGO,31306,RYAGATI,MABATINI
MARA,31,RORYA,313,NYAHONGO,31306,RYAGATI,BONDENI
MARA,31,RORYA,313,NYAHONGO,31306,RYAGATI,MKOROSHONI
MARA,31,RORYA,313,NYAMTINGA,31307,RWANGENYI,KINGURUIRA
MARA,31,RORYA,313,NYAMTINGA,31307,RWANGENYI,ZANZIBAR
MARA,31,RORYA,313,NYAMTINGA,31307,RWANGENYI,NGOCHONI
MARA,31,RORYA,313,NYAMTINGA,31307,RWANGENYI,SENTA
MARA,31,RORYA,313,NYAMTINGA,31307,RWANGENYI,ANGOLA
MARA,31,RORYA,313,NYAMTINGA,31307,RWANGENYI,CCM
MARA,31,RORYA,313,NYAMTINGA,31307,RWANGENYI,HORORO
MARA,31,RORYA,313,NYAMTINGA,31307,RWANGENYI,ZAHANATI
MARA,31,RORYA,313,NYAMTINGA,31307,BUSANGA,KIGARA
MARA,31,RORYA,313,NYAMTINGA,31307,BUSANGA,NYABUKONG'U
MARA,31,RORYA,313,NYAMTINGA,31307,BUSANGA,KISENGO
MARA,31,RORYA,313,NYAMTINGA,31307,BUSANGA,NYADIBORE
MARA,31,RORYA,313,NYAMTINGA,31307,BUSANGA,KYASUSU
MARA,31,RORYA,313,NYAMTINGA,31307,BUSANGA,SIKO
MARA,31,RORYA,313,NYAMTINGA,31307,BUSANGA,NYIBOIYA
MARA,31,RORYA,313,NYAMTINGA,31307,NYAROMBO,BUTIAMA
MARA,31,RORYA,313,NYAMTINGA,31307,NYAROMBO,MABATINI
MARA,31,RORYA,313,NYAMTINGA,31307,NYAROMBO,NYIBOHIA
MARA,31,RORYA,313,NYAMTINGA,31307,NYAROMBO,KIMANCHE
MARA,31,RORYA,313,NYAMTINGA,31307,NYAROMBO,MTAKUJA
MARA,31,RORYA,313,NYAMTINGA,31307,MANILA,MKUYUNI
MARA,31,RORYA,313,NYAMTINGA,31307,MANILA,SHULENI
MARA,31,RORYA,313,NYAMTINGA,31307,MANILA,MAKONGENI
MARA,31,RORYA,313,NYAMTINGA,31307,MANILA,SENTA
MARA,31,RORYA,313,NYAMTINGA,31307,MANILA,MLANGONI
MARA,31,RORYA,313,NYAMTINGA,31307,MANILA,ABURURU
MARA,31,RORYA,313,NYAMAGARO,31308,NYANG'OMBE,NYARUSISI
MARA,31,RORYA,313,NYAMAGARO,31308,NYANG'OMBE,IKWENYA
MARA,31,RORYA,313,NYAMAGARO,31308,NYANG'OMBE,NYANGABO
MARA,31,RORYA,313,NYAMAGARO,31308,BUGENDI,BUGENDI
MARA,31,RORYA,313,NYAMAGARO,31308,BUGENDI,NYANCHABO
MARA,31,RORYA,313,NYAMAGARO,31308,BUGENDI,NYAMAGARO
MARA,31,RORYA,313,NYAMAGARO,31308,BUGENDI,MIKOROSHONI
MARA,31,RORYA,313,NYAMAGARO,31308,BUGENDI,IBARANO
MARA,31,RORYA,313,NYAMAGARO,31308,MUHARANGO,MUHARANGO
MARA,31,RORYA,313,NYAMAGARO,31308,MUHARANGO,NYAMWAGA
MARA,31,RORYA,313,NYAMAGARO,31308,MUHARANGO,KYAMKAMI
MARA,31,RORYA,313,NYAMAGARO,31308,MUHARANGO,ISENGA
MARA,31,RORYA,313,KIROGO,31309,BURERE,BURERE
MARA,31,RORYA,313,KIROGO,31309,BURERE,KISENGO
MARA,31,RORYA,313,KIROGO,31309,BURERE,KINGIGORO
MARA,31,RORYA,313,KIROGO,31309,KIROGO,KIROGO
MARA,31,RORYA,313,KIROGO,31309,KIROGO,MUBUMBA
MARA,31,RORYA,313,KIROGO,31309,KIROGO,KYAMWANGA
MARA,31,RORYA,313,KIROGO,31309,KIROGO,MASONGORA
MARA,31,RORYA,313,KIROGO,31309,KIROGO,MUCHIROBI
MARA,31,RORYA,313,KIROGO,31309,KIROGO,CHERECHE
MARA,31,RORYA,313,KIROGO,31309,KIROGO,ODUMBA
MARA,31,RORYA,313,KIROGO,31309,KIROGO,NYARAMBI
MARA,31,RORYA,313,KIROGO,31309,RADIENYA,ASAO
MARA,31,RORYA,313,KIROGO,31309,RADIENYA,RADIENYA
MARA,31,RORYA,313,KIROGO,31309,RADIENYA,AMANI
MARA,31,RORYA,313,KIROGO,31309,RADIENYA,APONDO
MARA,31,RORYA,313,KIROGO,31309,NYABIWE,KAGERA
MARA,31,RORYA,313,KIROGO,31309,NYABIWE,RYAMANG'ANG'A
MARA,31,RORYA,313,KIROGO,31309,NYABIWE,BWIRI
MARA,31,RORYA,313,KIROGO,31309,NYABIWE,NYABIWE
MARA,31,RORYA,313,KIGUNGA,31310,MASIKE,BUGOGA
MARA,31,RORYA,313,KIGUNGA,31310,MASIKE,NYABARARA
MARA,31,RORYA,313,KIGUNGA,31310,MASIKE,MASIKE
MARA,31,RORYA,313,KIGUNGA,31310,MASIKE,NYASARANGATI
MARA,31,RORYA,313,KIGUNGA,31310,MASIKE,KANYAKRERE
MARA,31,RORYA,313,KIGUNGA,31310,MASIKE,ADUOYO
MARA,31,RORYA,313,KIGUNGA,31310,LUANDA,LUANDA
MARA,31,RORYA,313,KIGUNGA,31310,LUANDA,MANGORORA
MARA,31,RORYA,313,KIGUNGA,31310,LUANDA,NYAKINGONYI
MARA,31,RORYA,313,KIGUNGA,31310,LUANDA,KIGUNGA
MARA,31,RORYA,313,KIGUNGA,31310,RANDA,KYAMAGAKA
MARA,31,RORYA,313,KIGUNGA,31310,RANDA,RYANG'OMA
MARA,31,RORYA,313,KIGUNGA,31310,RANDA,RANDA
MARA,31,RORYA,313,KIGUNGA,31310,RANDA,SERENGETI
MARA,31,RORYA,313,KIGUNGA,31310,RANDA,MORI
MARA,31,RORYA,313,KIGUNGA,31310,RANDA,MASARA
MARA,31,RORYA,313,KIGUNGA,31310,RANDA,NYAMBECHE
MARA,31,RORYA,313,KIGUNGA,31310,BUKAMA,BUKAMA
MARA,31,RORYA,313,KIGUNGA,31310,BUKAMA,KYAEMBWE
MARA,31,RORYA,313,KIGUNGA,31310,BUKAMA,BONDENI
MARA,31,RORYA,313,KIGUNGA,31310,BUKAMA,SOKORABOLO
MARA,31,RORYA,313,KIGUNGA,31310,BUKAMA,MASANA
MARA,31,RORYA,313,KIGUNGA,31310,BUKAMA,MKOMA
MARA,31,RORYA,313,MIRARE,31311,RYAGORO,MLIMANI
MARA,31,RORYA,313,MIRARE,31311,RYAGORO,OBUYA
MARA,31,RORYA,313,MIRARE,31311,RYAGORO,SENTA
MARA,31,RORYA,313,MIRARE,31311,RYAGORO,SARO
MARA,31,RORYA,313,MIRARE,31311,INGRI JUU,KYAEMBWE
MARA,31,RORYA,313,MIRARE,31311,INGRI JUU,IRINGO
MARA,31,RORYA,313,MIRARE,31311,INGRI JUU,NYAUKE ROAD
MARA,31,RORYA,313,MIRARE,31311,INGRI JUU,LAMBO ROAD
MARA,31,RORYA,313,MIRARE,31311,INGRI JUU,MWEMBENI
MARA,31,RORYA,313,MIRARE,31311,MALONGO,NYAMWARE
MARA,31,RORYA,313,MIRARE,31311,MALONGO,MAKONGENI
MARA,31,RORYA,313,MIRARE,31311,MALONGO,MABATINI
MARA,31,RORYA,313,MIRARE,31311,MALONGO,MACHAWA
MARA,31,RORYA,313,MIRARE,31311,SUDI,SEREMBE
MARA,31,RORYA,313,MIRARE,31311,SUDI,NYARIO
MARA,31,RORYA,313,MIRARE,31311,SUDI,OWILA
MARA,31,RORYA,313,MIRARE,31311,SUDI,LUORWA
MARA,31,RORYA,313,MIRARE,31311,SUDI,DAGO
MARA,31,RORYA,313,MIRARE,31311,SUDI,SIRUNGA
MARA,31,RORYA,313,MIRARE,31311,SUDI,AFYA
MARA,31,RORYA,313,MIRARE,31311,SUDI,KARIAKOO
MARA,31,RORYA,313,MIRARE,31311,SUDI,SENTA
MARA,31,RORYA,313,MIRARE,31311,SUDI,BUKOBA
MARA,31,RORYA,313,MIRARE,31311,SUDI,ODORO
MARA,31,RORYA,313,GORIBE,31312,PANYAKOO,MAUMAU
MARA,31,RORYA,313,GORIBE,31312,PANYAKOO,MAKONGENI
MARA,31,RORYA,313,GORIBE,31312,PANYAKOO,NYADUR
MARA,31,RORYA,313,GORIBE,31312,PANYAKOO,MABATINI
MARA,31,RORYA,313,GORIBE,31312,PANYAKOO,SONGAMBELE
MARA,31,RORYA,313,GORIBE,31312,PANYAKOO,SORONETA
MARA,31,RORYA,313,GORIBE,31312,PANYAKOO,MAUWE
MARA,31,RORYA,313,GORIBE,31312,TATWE,CENTRE
MARA,31,RORYA,313,GORIBE,31312,TATWE,NYANGEKRE
MARA,31,RORYA,313,GORIBE,31312,TATWE,NYANJOGU
MARA,31,RORYA,313,GORIBE,31312,TATWE,SONGAMBELE
MARA,31,RORYA,313,GORIBE,31312,TATWE,KISANA
MARA,31,RORYA,313,GORIBE,31312,TATWE,RABOUR
MARA,31,RORYA,313,GORIBE,31312,TATWE,SORI
MARA,31,RORYA,313,GORIBE,31312,TATWE,ZAHANATI
MARA,31,RORYA,313,GORIBE,31312,NYAMUSI,RYAMAAGE
MARA,31,RORYA,313,GORIBE,31312,NYAMUSI,MAJENGO
MARA,31,RORYA,313,GORIBE,31312,NYAMUSI,MARIWA
MARA,31,RORYA,313,GORIBE,31312,NYAMUSI,LWANDA
MARA,31,RORYA,313,GORIBE,31312,NYAMUSI,NYAMUSI
MARA,31,RORYA,313,IKOMA,31313,IKOMA,NYANTHACHO
MARA,31,RORYA,313,IKOMA,31313,IKOMA,LOLIONDO
MARA,31,RORYA,313,IKOMA,31313,IKOMA,NYAMUHUNDA
MARA,31,RORYA,313,IKOMA,31313,IKOMA,KOBORYA
MARA,31,RORYA,313,IKOMA,31313,IKOMA,NYAMASANDA JUU
MARA,31,RORYA,313,IKOMA,31313,IKOMA,NYAMONGO
MARA,31,RORYA,313,IKOMA,31313,IKOMA,KIBISO
MARA,31,RORYA,313,IKOMA,31313,IKOMA,BWAWANI
MARA,31,RORYA,313,IKOMA,31313,IKOMA,ONDOCHE
MARA,31,RORYA,313,IKOMA,31313,KOGAJA,NYAMATHO
MARA,31,RORYA,313,IKOMA,31313,KOGAJA,NYAMIRI
MARA,31,RORYA,313,IKOMA,31313,KOGAJA,LUANDA
MARA,31,RORYA,313,IKOMA,31313,KOGAJA,GENGE
MARA,31,RORYA,313,IKOMA,31313,KOGAJA,SHULENI
MARA,31,RORYA,313,IKOMA,31313,KOGAJA,MADUKANI
MARA,31,RORYA,313,IKOMA,31313,KOGAJA,SOGORONYI
MARA,31,RORYA,313,IKOMA,31313,KOGAJA,HAMIS
MARA,31,RORYA,313,IKOMA,31313,KOGAJA,MAKONGENI
MARA,31,RORYA,313,IKOMA,31313,NYAMASANDA,NYAKENGE
MARA,31,RORYA,313,IKOMA,31313,NYAMASANDA,NYAMASANDA CHINI
MARA,31,RORYA,313,IKOMA,31313,NYAMASANDA,NYAMASANDA JUU
MARA,31,RORYA,313,IKOMA,31313,NYAMASANDA,SENTA
MARA,31,RORYA,313,IKOMA,31313,NYAMASANDA,MAKONGENI
MARA,31,RORYA,313,IKOMA,31313,NYAMASANDA,CHABOKE
MARA,31,RORYA,313,IKOMA,31313,NYAMASANDA,RODY
MARA,31,RORYA,313,IKOMA,31313,NYAMASANDA,MADUKANI
MARA,31,RORYA,313,KORYO,31314,NYANDUGA,TANKI
MARA,31,RORYA,313,KORYO,31314,NYANDUGA,SENTA
MARA,31,RORYA,313,KORYO,31314,NYANDUGA,KOBONDO
MARA,31,RORYA,313,KORYO,31314,NYANDUGA,NG'OPE
MARA,31,RORYA,313,KORYO,31314,NYANDUGA,SENTA
MARA,31,RORYA,313,KORYO,31314,NYANDUGA,MASANGURA
MARA,31,RORYA,313,KORYO,31314,NYANDUGA,MIRARE
MARA,31,RORYA,313,KORYO,31314,MANG'ORE,MANG'ORE
MARA,31,RORYA,313,KORYO,31314,MANG'ORE,MANGLA
MARA,31,RORYA,313,KORYO,31314,UTEGI,SENTA 'B'
MARA,31,RORYA,313,KORYO,31314,UTEGI,KICHUTHI
MARA,31,RORYA,313,KORYO,31314,MAJENGO,NYARONGI
MARA,31,RORYA,313,KORYO,31314,MAJENGO,KIWANDANI
MARA,31,RORYA,313,KORYO,31314,MAJENGO,BEGI
MARA,31,RORYA,313,KORYO,31314,MAJENGO,SENTA 'A'
MARA,31,RORYA,313,BUKWE,31315,NYASORO,MABATINI
MARA,31,RORYA,313,BUKWE,31315,NYASORO,KIBINYONGO
MARA,31,RORYA,313,BUKWE,31315,NYASORO,MARIWA
MARA,31,RORYA,313,BUKWE,31315,NYASORO,MAGINA
MARA,31,RORYA,313,BUKWE,31315,NYASORO,CHUCHURI
MARA,31,RORYA,313,BUKWE,31315,NYASORO,NYAMAGINA
MARA,31,RORYA,313,BUKWE,31315,NYASORO,NYASORO KATI
MARA,31,RORYA,313,BUKWE,31315,NYASORO,NYAMENGERE
MARA,31,RORYA,313,BUKWE,31315,MIKA,BEGI
MARA,31,RORYA,313,BUKWE,31315,MIKA,NYARIOBO
MARA,31,RORYA,313,BUKWE,31315,MIKA,BUKWE
MARA,31,RORYA,313,BUKWE,31315,MIKA,NYANGOTO
MARA,31,RORYA,313,BUKWE,31315,MIKA,ORINGA
MARA,31,RORYA,313,NYATHOROGO,31316,OMUGA,WAMOCHA
MARA,31,RORYA,313,NYATHOROGO,31316,OMUGA,MAWEGO
MARA,31,RORYA,313,NYATHOROGO,31316,OMUGA,AHERO
MARA,31,RORYA,313,NYATHOROGO,31316,OMUGA,OMBASSA
MARA,31,RORYA,313,NYATHOROGO,31316,OMUGA,NYONYANG
MARA,31,RORYA,313,NYATHOROGO,31316,OMUGA,DENGA
MARA,31,RORYA,313,NYATHOROGO,31316,OMUGA,KUMBINI
MARA,31,RORYA,313,NYATHOROGO,31316,OMUGA,OGONGO
MARA,31,RORYA,313,NYATHOROGO,31316,NYASOKO,NYASOKO CHINI
MARA,31,RORYA,313,NYATHOROGO,31316,NYASOKO,RABOUR
MARA,31,RORYA,313,NYATHOROGO,31316,NYASOKO,KIPINGI
MARA,31,RORYA,313,NYATHOROGO,31316,NYASOKO,ZAHANATI
MARA,31,RORYA,313,NYATHOROGO,31316,KOWAK,MANYARA
MARA,31,RORYA,313,NYATHOROGO,31316,KOWAK,MORI
MARA,31,RORYA,313,NYATHOROGO,31316,KOWAK,RABOUR 'A'
MARA,31,RORYA,313,NYATHOROGO,31316,KOWAK,RABOUR 'B'
MARA,31,RORYA,313,NYATHOROGO,31316,KOWAK,SAYE JUU
MARA,31,RORYA,313,NYATHOROGO,31316,KOWAK,SAYE CHINI
MARA,31,RORYA,313,NYATHOROGO,31316,KOWAK,DUDU
MARA,31,RORYA,313,NYATHOROGO,31316,KOWAK,ALARA
MARA,31,RORYA,313,KYANG'OMBE,31317,NYIHARA,NYAMIRI
MARA,31,RORYA,313,KYANG'OMBE,31317,NYIHARA,KIVUKONI
MARA,31,RORYA,313,KYANG'OMBE,31317,NYIHARA,NYARUKARABWE
MARA,31,RORYA,313,KYANG'OMBE,31317,NYIHARA,NYANG'ORE
MARA,31,RORYA,313,KYANG'OMBE,31317,NYIHARA,KWISENSE
MARA,31,RORYA,313,KYANG'OMBE,31317,RUHU,SENTA
MARA,31,RORYA,313,KYANG'OMBE,31317,RUHU,KITAHIRO
MARA,31,RORYA,313,KYANG'OMBE,31317,RUHU,MSASANI
MARA,31,RORYA,313,KYANG'OMBE,31317,RUHU,MLIMANI
MARA,31,RORYA,313,KYANG'OMBE,31317,RUHU,SHULENI
MARA,31,RORYA,313,KYANG'OMBE,31317,MUHUNDWE,KENG'NYI
MARA,31,RORYA,313,KYANG'OMBE,31317,MUHUNDWE,MUHUNDWE KATA
MARA,31,RORYA,313,KYANG'OMBE,31317,MUHUNDWE,NYAMUMA
MARA,31,RORYA,313,KYANG'OMBE,31317,MUHUNDWE,KOROKEREGE
MARA,31,RORYA,313,KYANG'OMBE,31317,MUHUNDWE,MOHEMWE
MARA,31,RORYA,313,NYAMUNGA,31318,KIBUYI,KIHUNDA
MARA,31,RORYA,313,NYAMUNGA,31318,KIBUYI,NYABISONGA
MARA,31,RORYA,313,NYAMUNGA,31318,KIBUYI,NYAMUNGA
MARA,31,RORYA,313,NYAMUNGA,31318,KIBUYI,KWIHAGI
MARA,31,RORYA,313,NYAMUNGA,31318,MKENGWA,BUGARIKA
MARA,31,RORYA,313,NYAMUNGA,31318,MKENGWA,NGOCHE
MARA,31,RORYA,313,NYAMUNGA,31318,MKENGWA,BUTUNDA
MARA,31,RORYA,313,NYAMUNGA,31318,MKENGWA,KYEHUMWA
MARA,31,RORYA,313,NYAMUNGA,31318,KINESI,KWEROMA
MARA,31,RORYA,313,NYAMUNGA,31318,KINESI,KWITONYI
MARA,31,RORYA,313,NYAMUNGA,31318,KINESI,NYIRAHO
MARA,31,RORYA,313,NYAMUNGA,31318,KINESI,MWISORI
MARA,31,RORYA,313,NYAMUNGA,31318,KINESI,KYAMAHASHE
MARA,31,RORYA,313,NYAMUNGA,31318,KINESI,MIGUTI
MARA,31,RORYA,313,NYAMUNGA,31318,ISANGO,NYASOKO
MARA,31,RORYA,313,NYAMUNGA,31318,ISANGO,ISANGO
MARA,31,RORYA,313,NYAMUNGA,31318,ISANGO,RYAKOTORE
MARA,31,RORYA,313,NYAMUNGA,31318,ISANGO,UZUNGUNI
MARA,31,RORYA,313,KOMUGE,31319,KOMUGE,IRINDIBWA
MARA,31,RORYA,313,KOMUGE,31319,KOMUGE,MANYARA
MARA,31,RORYA,313,KOMUGE,31319,KOMUGE,ISANO
MARA,31,RORYA,313,KOMUGE,31319,KOMUGE,NGERERI
MARA,31,RORYA,313,KOMUGE,31319,KOMUGE,MWISENO
MARA,31,RORYA,313,KOMUGE,31319,KOMUGE,MLIMANI
MARA,31,RORYA,313,KOMUGE,31319,KOMUGE,SONGAMBELE
MARA,31,RORYA,313,KOMUGE,31319,BUGANJO,ALARA
MARA,31,RORYA,313,KOMUGE,31319,BUGANJO,MASURURA
MARA,31,RORYA,313,KOMUGE,31319,BUGANJO,KONGO
MARA,31,RORYA,313,KOMUGE,31319,BUGANJO,LUANDA
MARA,31,RORYA,313,KOMUGE,31319,BUGANJO,SENYE
MARA,31,RORYA,313,KOMUGE,31319,BUGANJO,NYAWITA
MARA,31,RORYA,313,KOMUGE,31319,BUGANJO,NYAHONGO
MARA,31,RORYA,313,KOMUGE,31319,KYAMWAME,GALILAYA
MARA,31,RORYA,313,KOMUGE,31319,KYAMWAME,NKONGORE
MARA,31,RORYA,313,KOMUGE,31319,KYAMWAME,MJINI KATI
MARA,31,RORYA,313,KOMUGE,31319,KYAMWAME,MTAKUJA
MARA,31,RORYA,313,KOMUGE,31319,IRIENYI,MOTETE
MARA,31,RORYA,313,KOMUGE,31319,IRIENYI,NTOROKO
MARA,31,RORYA,313,KOMUGE,31319,IRIENYI,ITITWE
MARA,31,RORYA,313,KOMUGE,31319,IRIENYI,KYANSHOGU
MARA,31,RORYA,313,KOMUGE,31319,IRIENYI,NYAKATENDE
MARA,31,RORYA,313,KOMUGE,31319,IRIENYI,MAREGERI
MARA,31,RORYA,313,KOMUGE,31319,KURUYA,SHULENI
MARA,31,RORYA,313,KOMUGE,31319,KURUYA,SENTA
MARA,31,RORYA,313,KOMUGE,31319,KURUYA,KIRUMI
MARA,31,RORYA,313,KOMUGE,31319,KURUYA,MBATAMO
MARA,31,RORYA,313,KOMUGE,31319,KURUYA,NYAMWIRIANDA
MARA,31,RORYA,313,KOMUGE,31319,KURUYA,KYEBU
MARA,31,RORYA,313,RABOUR,31320,RABOUR,RABOUR
MARA,31,RORYA,313,RABOUR,31320,RABOUR,ONG'AYO
MARA,31,RORYA,313,RABOUR,31320,RABOUR,NAKO
MARA,31,RORYA,313,RABOUR,31320,RABOUR,AEKO
MARA,31,RORYA,313,RABOUR,31320,RABOUR,RADIENYA
MARA,31,RORYA,313,RABOUR,31320,RABOUR,NYANDIANY
MARA,31,RORYA,313,RABOUR,31320,RABOUR,MARIWA
MARA,31,RORYA,313,RABOUR,31320,RABOUR,MASUSA
MARA,31,RORYA,313,RABOUR,31320,OLIYO,OWANDA
MARA,31,RORYA,313,RABOUR,31320,OLIYO,TOTO
MARA,31,RORYA,313,RABOUR,31320,OLIYO,LWALA
MARA,31,RORYA,313,RABOUR,31320,OLIYO,NYABURONGO
MARA,31,RORYA,313,RABOUR,31320,OLIYO,KONYA
MARA,31,RORYA,313,RABOUR,31320,OLIYO,LUALA
MARA,31,RORYA,313,RABOUR,31320,OLIYO,ALARA
MARA,31,RORYA,313,RABOUR,31320,OLIYO,NYAMANYIENDE
MARA,31,RORYA,313,RABOUR,31320,MAKONGORO,KASINO
MARA,31,RORYA,313,RABOUR,31320,MAKONGORO,NYAKOBA
MARA,31,RORYA,313,RABOUR,31320,MAKONGORO,NYAYO
MARA,31,RORYA,313,RABOUR,31320,MAKONGORO,LIGERO
MARA,31,RORYA,313,RABOUR,31320,MAKONGORO,SIBURO
MARA,31,RORYA,313,RABOUR,31320,MAKONGORO,NYIRONGE
MARA,31,RORYA,313,RABOUR,31320,MAKONGORO,KOMOLO
MARA,31,RORYA,313,RABOUR,31320,MAKONGORO,NYANUNGU
MARA,31,RORYA,313,RABOUR,31320,MAKONGORO,KAGECHA
MARA,31,RORYA,313,RABOUR,31320,MAKONGORO,OWICH
MARA,31,RORYA,313,RABOUR,31320,MAKONGORO,KAKSINGRI
MARA,31,RORYA,313,KISUMWA,31321,NYANCHABAKENYE,BUHEMBA
MARA,31,RORYA,313,KISUMWA,31321,NYANCHABAKENYE,GUSUHI
MARA,31,RORYA,313,KISUMWA,31321,NYANCHABAKENYE,KYABAROTI
MARA,31,RORYA,313,KISUMWA,31321,NYANCHABAKENYE,KOROMONE
MARA,31,RORYA,313,KISUMWA,31321,NYANCHABAKENYE,NYANKOMOGO
MARA,31,RORYA,313,KISUMWA,31321,NYANCHABAKENYE,KYABUNYONYI
MARA,31,RORYA,313,KISUMWA,31321,NYANCHABAKENYE,BUGOTI
MARA,31,RORYA,313,KISUMWA,31321,NYANCHABAKENYE,SAMO
MARA,31,RORYA,313,KISUMWA,31321,NYANCHABAKENYE,KYEBE
MARA,31,RORYA,313,KISUMWA,31321,NYANJAGI,NYANGOSO
MARA,31,RORYA,313,KISUMWA,31321,NYANJAGI,SHULENI
MARA,31,RORYA,313,KISUMWA,31321,NYANJAGI,KOSASI
MARA,31,RORYA,313,KISUMWA,31321,NYANJAGI,MKUYUNI
MARA,31,RORYA,313,KISUMWA,31321,NYANJAGI,NYAMAHE
MARA,31,RORYA,313,KISUMWA,31321,KISUMWA,KISUMWA
MARA,31,RORYA,313,KISUMWA,31321,KISUMWA,KYAMUGIRE
MARA,31,RORYA,313,KISUMWA,31321,KISUMWA,BYASHUSHE
MARA,31,RORYA,313,KISUMWA,31321,KISUMWA,KYABUNYINYI
MARA,31,RORYA,313,KISUMWA,31321,KISUMWA,SENTA
MARA,31,RORYA,313,KISUMWA,31321,KISUMWA,MWISYAGA
MARA,31,RORYA,313,KISUMWA,31321,KISUMWA,TINGIRIME
MARA,31,RORYA,313,KISUMWA,31321,KISUMWA,KITONGO
MARA,31,RORYA,313,KISUMWA,31321,KISUMWA,GUSUHI
MARA,31,RORYA,313,KISUMWA,31321,KWIBUSE,BOSSI
MARA,31,RORYA,313,KISUMWA,31321,KWIBUSE,KISOGOTI
MARA,31,RORYA,313,KISUMWA,31321,KWIBUSE,KWIBUSE
MARA,31,RORYA,313,KISUMWA,31321,KWIBUSE,NYANGABI
MARA,31,RORYA,313,KISUMWA,31321,KWIBUSE,KUKONA
MARA,31,RORYA,313,KISUMWA,31321,KWIBUSE,NYABIRIMA
MARA,31,RORYA,313,KISUMWA,31321,MARASIBORA,KAMBA
MARA,31,RORYA,313,KISUMWA,31321,MARASIBORA,MLIMANI
MARA,31,RORYA,313,KISUMWA,31321,MARASIBORA,SENTA
MARA,31,RORYA,313,KISUMWA,31321,MARASIBORA,KARAMA
MARA,31,RORYA,313,KISUMWA,31321,MARASIBORA,KYANGERA
MARA,31,RORYA,313,KISUMWA,31321,MARASIBORA,ISUTI
MARA,31,RORYA,313,KISUMWA,31321,MARASIBORA,RENGO
MARA,31,RORYA,313,KINYENCHE,31322,NYABIKONDO,ODUDO
MARA,31,RORYA,313,KINYENCHE,31322,NYABIKONDO,NYANKORE
MARA,31,RORYA,313,KINYENCHE,31322,NYABIKONDO,MKUYUNI
MARA,31,RORYA,313,KINYENCHE,31322,NYABIKONDO,BININIGWE
MARA,31,RORYA,313,KINYENCHE,31322,NYABIKONDO,NYATHOROGO
MARA,31,RORYA,313,KINYENCHE,31322,NYABIKONDO,RYAKITUMBE
MARA,31,RORYA,313,KINYENCHE,31322,OMOCHE,MKUYUNI
MARA,31,RORYA,313,KINYENCHE,31322,OMOCHE,OMUYA
MARA,31,RORYA,313,KINYENCHE,31322,OMOCHE,OMOCHE 'B'
MARA,31,RORYA,313,KINYENCHE,31322,OMOCHE,MAKUTANO
MARA,31,RORYA,313,KINYENCHE,31322,OMOCHE,OMOCHE CENTRE
MARA,31,RORYA,313,KINYENCHE,31322,OMOCHE,DODOMA
MARA,31,RORYA,313,KINYENCHE,31322,NYAMIRENDE,OMOYA
MARA,31,RORYA,313,KINYENCHE,31322,NYAMIRENDE,KARIAKOO
MARA,31,RORYA,313,KINYENCHE,31322,NYAMIRENDE,NYAMIRENDE
MARA,31,RORYA,313,KINYENCHE,31322,NYAMIRENDE,MTAKUJA
MARA,31,RORYA,313,KINYENCHE,31322,NYAMIRENDE,SUBA
MARA,31,RORYA,313,KINYENCHE,31322,LOLWE,KYONYO
MARA,31,RORYA,313,KINYENCHE,31322,LOLWE,SAGO
MARA,31,RORYA,313,KINYENCHE,31322,LOLWE,KINYENCHE
MARA,31,RORYA,313,KINYENCHE,31322,LOLWE,NYAMITHIRE
MARA,31,RORYA,313,KINYENCHE,31322,LOLWE,KATANI
MARA,31,RORYA,313,KYANGASAGA,31323,GABIMORI,NGURUMI
MARA,31,RORYA,313,KYANGASAGA,31323,GABIMORI,ISUKA
MARA,31,RORYA,313,KYANGASAGA,31323,GABIMORI,NYASAGARO
MARA,31,RORYA,313,KYANGASAGA,31323,GABIMORI,BUHARE
MARA,31,RORYA,313,KYANGASAGA,31323,KYANGASAGA,MKIRINGO
MARA,31,RORYA,313,KYANGASAGA,31323,KYANGASAGA,KYANGASAGA
MARA,31,RORYA,313,KYANGASAGA,31323,KYANGASAGA,SONJO
MARA,31,RORYA,313,BARAKI,31324,BITIRYO,MUSOMA
MARA,31,RORYA,313,BARAKI,31324,BITIRYO,GWABAKARI
MARA,31,RORYA,313,BARAKI,31324,BITIRYO,MAJENGO
MARA,31,RORYA,313,BARAKI,31324,BITIRYO,MTAKUJA
MARA,31,RORYA,313,BARAKI,31324,BITIRYO,NYAHONGO
MARA,31,RORYA,313,BARAKI,31324,BITIRYO,MWISOTA
MARA,31,RORYA,313,BARAKI,31324,KYANYAMOSANA,KYANYAMOSANA
MARA,31,RORYA,313,BARAKI,31324,KYANYAMOSANA,KWITANKA
MARA,31,RORYA,313,BARAKI,31324,KYANYAMOSANA,NYAMUME
MARA,31,RORYA,313,BARAKI,31324,KYANYAMOSANA,KUBITEBE
MARA,31,RORYA,313,BARAKI,31324,BARAKI,MJI MWEMA
MARA,31,RORYA,313,BARAKI,31324,BARAKI,KIGOMA
MARA,31,RORYA,313,BARAKI,31324,BARAKI,NYANSONA
MARA,31,RORYA,313,BARAKI,31324,BARAKI,BARAKI
MARA,31,RORYA,313,BARAKI,31324,BARAKI,SONGAMBELE
MARA,31,RORYA,313,BARAKI,31324,BARAKI,BOMANI
MARA,31,RORYA,313,NYABURONGO,31325,CHERECHE,OBOLO
MARA,31,RORYA,313,NYABURONGO,31325,CHERECHE,ZAHANATI
MARA,31,RORYA,313,NYABURONGO,31325,CHERECHE,OMOGA
MARA,31,RORYA,313,NYABURONGO,31325,CHERECHE,NYARUGUSU
MARA,31,RORYA,313,NYABURONGO,31325,MORI,MORI
MARA,31,RORYA,313,NYABURONGO,31325,MORI,RORYA
MARA,31,RORYA,313,NYABURONGO,31325,MORI,MTAKUJA
MARA,31,RORYA,313,NYABURONGO,31325,OCHUNA,RATA
MARA,31,RORYA,313,NYABURONGO,31325,OCHUNA,UWANJAMPIRA
MARA,31,RORYA,313,NYABURONGO,31325,OCHUNA,S/MSINGI
MARA,31,RORYA,313,NYABURONGO,31325,OCHUNA,OCHUNA CENTRRE
MARA,31,RORYA,313,NYABURONGO,31325,OCHUNA,RANJIRA
MARA,31,RORYA,313,NYABURONGO,31325,DETT,OBINJU
MARA,31,RORYA,313,NYABURONGO,31325,DETT,KAGONO
MARA,31,RORYA,313,NYABURONGO,31325,DETT,OMBO
MARA,31,RORYA,313,NYABURONGO,31325,DETT,MAMBAKODERO
MARA,31,RORYA,313,RARANYA,31326,DETT,KYARIKO
MARA,31,RORYA,313,RARANYA,31326,DETT,NYAMASIEKI
MARA,31,RORYA,313,RARANYA,31326,DETT,MABATINI
MARA,31,RORYA,313,RARANYA,31326,DETT,RARANYA
MARA,31,TARIME,314,BOMANI,31401,BUHEMBA,
MARA,31,TARIME,314,BOMANI,31401,MAWASILIANO,
MARA,31,TARIME,314,BOMANI,31401,NHC,
MARA,31,TARIME,314,BOMANI,31401,ANGLIKANA,
MARA,31,TARIME,314,BOMANI,31401,BIAMBWI,
MARA,31,TARIME,314,BOMANI,31401,MAGEREZA,
MARA,31,TARIME,314,BOMANI,31401,BOMANI,
MARA,31,TARIME,314,SABASABA,31402,SABASABA,
MARA,31,TARIME,314,SABASABA,31402,SERENGETI,
MARA,31,TARIME,314,SABASABA,31402,"SONGAMBELE ""A""",
MARA,31,TARIME,314,SABASABA,31402,"SONGAMBELE ""B""",
MARA,31,TARIME,314,SABASABA,31402,SAMARTANI,
MARA,31,TARIME,314,SABASABA,31402,CHOMETE,
MARA,31,TARIME,314,SABASABA,31402,NYANGAI,
MARA,31,TARIME,314,SABASABA,31402,KIMUSI,
MARA,31,TARIME,314,SABASABA,31402,MAKIRE,
MARA,31,TARIME,314,SABASABA,31402,NYARUSAHI,
MARA,31,TARIME,314,SABASABA,31402,IGANANA,
MARA,31,TARIME,314,SABASABA,31402,KIBASA,
MARA,31,TARIME,314,NYAMISANGURA,31403,MASATI HIGHWAY,
MARA,31,TARIME,314,NYAMISANGURA,31403,STAREHE,
MARA,31,TARIME,314,NYAMISANGURA,31403,MUSATI,
MARA,31,TARIME,314,NYAMISANGURA,31403,MWANGAZA,
MARA,31,TARIME,314,NYAMISANGURA,31403,RONSOTI,
MARA,31,TARIME,314,NYAMISANGURA,31403,BUGOSI,
MARA,31,TARIME,314,TURWA,31404,REBU CENTRE,
MARA,31,TARIME,314,TURWA,31404,UWANJA WA NDEGE,
MARA,31,TARIME,314,TURWA,31404,KEBIKINI,
MARA,31,TARIME,314,TURWA,31404,GIMENYA,
MARA,31,TARIME,314,TURWA,31404,KOKEHOGOMA,
MARA,31,TARIME,314,TURWA,31404,REBU SHULENI,
MARA,31,TARIME,314,TURWA,31404,BUGUTI,
MARA,31,TARIME,314,TURWA,31404,MKUYUNI,
MARA,31,TARIME,314,NYANDOTO,31405,"MASURURA,",
MARA,31,TARIME,314,NYANDOTO,31405,NYAKISESE,
MARA,31,TARIME,314,NYANDOTO,31405,KEMOGE,
MARA,31,TARIME,314,NYANDOTO,31405,NYANSURURA,
MARA,31,TARIME,314,NYANDOTO,31405,NGUKU,
MARA,31,TARIME,314,NYANDOTO,31405,BIAMBWI,
MARA,31,TARIME,314,NYANDOTO,31405,NYAMOKANGE,
MARA,31,TARIME,314,NYANDOTO,31405,ITUNUNU,
MARA,31,TARIME,314,NYANDOTO,31405,NYASEBE,
MARA,31,TARIME,314,NYANDOTO,31405,NYAKEHENENE,
MARA,31,TARIME,314,NYANDOTO,31405,MNAGUSI,
MARA,31,TARIME,314,BUMERA,31406,KITENGA,KYEYA
MARA,31,TARIME,314,BUMERA,31406,KITENGA,NYEREMA
MARA,31,TARIME,314,BUMERA,31406,KITENGA,KURUMWA
MARA,31,TARIME,314,BUMERA,31406,KITENGA,SENTA
MARA,31,TARIME,314,BUMERA,31406,KITENGA,MEKOMA
MARA,31,TARIME,314,BUMERA,31406,KITENGA,KENYABWIRI
MARA,31,TARIME,314,BUMERA,31406,KITENGA,KWIRAHA
MARA,31,TARIME,314,BUMERA,31406,KITENGA,RYAMONCHO
MARA,31,TARIME,314,BUMERA,31406,KITENGA,BUGUTA
MARA,31,TARIME,314,BUMERA,31406,KITERERE,SOOKOLOGI
MARA,31,TARIME,314,BUMERA,31406,KITERERE,BUTOBORI
MARA,31,TARIME,314,BUMERA,31406,KITERERE,SAKARYAKANYA
MARA,31,TARIME,314,BUMERA,31406,KITERERE,BANGURA
MARA,31,TARIME,314,BUMERA,31406,TURUGETI,NGUKU
MARA,31,TARIME,314,BUMERA,31406,TURUGETI,SONGAMBELE
MARA,31,TARIME,314,BUMERA,31406,TURUGETI,GWIKO
MARA,31,TARIME,314,BUMERA,31406,TURUGETI,MABUTE
MARA,31,TARIME,314,BUMERA,31406,TURUGETI,MANG'ORE
MARA,31,TARIME,314,BUMERA,31406,TURUGETI,RUNYERERE
MARA,31,TARIME,314,BUMERA,31406,TURUGETI,NYATEKERE
MARA,31,TARIME,314,BUMERA,31406,KWISARARA,SENTA
MARA,31,TARIME,314,BUMERA,31406,KWISARARA,BUNYAMA
MARA,31,TARIME,314,BUMERA,31406,KWISARARA,BUKIRO
MARA,31,TARIME,314,BUMERA,31406,KWISARARA,NYAKUNGURU
MARA,31,TARIME,314,BUMERA,31406,KWISARARA,NYARERO
MARA,31,TARIME,314,BUMERA,31406,KWISARARA,MAHIRINYA
MARA,31,TARIME,314,BUMERA,31406,KWISARARA,KEGOMBA
MARA,31,TARIME,314,SUSUNI,31407,KEROTI,ITACHA
MARA,31,TARIME,314,SUSUNI,31407,KEROTI,ITUMBE
MARA,31,TARIME,314,SUSUNI,31407,KEROTI,RENYABASOBA
MARA,31,TARIME,314,SUSUNI,31407,KEROTI,NYABIGENA
MARA,31,TARIME,314,SUSUNI,31407,KEROTI,KUCHIKAMBI
MARA,31,TARIME,314,SUSUNI,31407,KEROTI,KEROTI
MARA,31,TARIME,314,SUSUNI,31407,KIONGERA,KEMOGEMBA
MARA,31,TARIME,314,SUSUNI,31407,KIONGERA,MASINCHA
MARA,31,TARIME,314,SUSUNI,31407,KIONGERA,KIRUMI
MARA,31,TARIME,314,SUSUNI,31407,KIONGERA,"ROBATENDE ""A"""
MARA,31,TARIME,314,SUSUNI,31407,KIONGERA,SENTA
MARA,31,TARIME,314,SUSUNI,31407,KIONGERA,"ROBATENDE ""B"""
MARA,31,TARIME,314,SUSUNI,31407,KIKOMORI,KIKOMORI SENTA
MARA,31,TARIME,314,SUSUNI,31407,KIKOMORI,BUGUTA
MARA,31,TARIME,314,SUSUNI,31407,KIKOMORI,KEBOBORA
MARA,31,TARIME,314,SUSUNI,31407,KIKOMORI,KOROGARE
MARA,31,TARIME,314,SUSUNI,31407,KIKOMORI,KWITARE
MARA,31,TARIME,314,SUSUNI,31407,KIKOMORI,KEBAGERE
MARA,31,TARIME,314,SUSUNI,31407,NYABIRONGO,NYABIRONGO SHULENI
MARA,31,TARIME,314,SUSUNI,31407,NYABIRONGO,MGWERA
MARA,31,TARIME,314,SUSUNI,31407,NYABIRONGO,KIJIWENI
MARA,31,TARIME,314,SUSUNI,31407,NYABIRONGO,MAGANGE
MARA,31,TARIME,314,SUSUNI,31407,NYABIRONGO,RENYANSARE
MARA,31,TARIME,314,SUSUNI,31407,NYABIRONGO,GWITIRYO
MARA,31,TARIME,314,SUSUNI,31407,MATAMANKWE,MATAMANKWE SENTA
MARA,31,TARIME,314,SUSUNI,31407,MATAMANKWE,SUSUNI
MARA,31,TARIME,314,SUSUNI,31407,MATAMANKWE,KIBOBORA B
MARA,31,TARIME,314,SUSUNI,31407,MATAMANKWE,TERYA
MARA,31,TARIME,314,SUSUNI,31407,MATAMANKWE,NYAMOBASO
MARA,31,TARIME,314,MWEMA,31408,KOROTAMBE,NYAMUSI
MARA,31,TARIME,314,MWEMA,31408,KOROTAMBE,NYABICHUNE
MARA,31,TARIME,314,MWEMA,31408,KOROTAMBE,SENTA
MARA,31,TARIME,314,MWEMA,31408,KOROTAMBE,KOKEREGEYA
MARA,31,TARIME,314,MWEMA,31408,KOROTAMBE,MWEMA
MARA,31,TARIME,314,MWEMA,31408,KOROTAMBE,WAKULIMA
MARA,31,TARIME,314,MWEMA,31408,NYAKANGARA,GWIKONGORE
MARA,31,TARIME,314,MWEMA,31408,NYAKANGARA,RENYANKOMO
MARA,31,TARIME,314,MWEMA,31408,NYAKANGARA,NCHOKE
MARA,31,TARIME,314,MWEMA,31408,NYAMOHONDA,NYAMOHONDA
MARA,31,TARIME,314,MWEMA,31408,NYAMOHONDA,KWIGENGE
MARA,31,TARIME,314,MWEMA,31408,NYAMOHONDA,IBOKOHO
MARA,31,TARIME,314,MWEMA,31408,NYAMOHONDA,KOKEBABE
MARA,31,TARIME,314,MWEMA,31408,NYAMOHONDA,NYAMBEGA
MARA,31,TARIME,314,MWEMA,31408,KUBITERERE,NYAMBACHE
MARA,31,TARIME,314,MWEMA,31408,KUBITERERE,MLIMANI
MARA,31,TARIME,314,MWEMA,31408,KUBITERERE,NYANSINE
MARA,31,TARIME,314,MWEMA,31408,KUBITERERE,SENTA
MARA,31,TARIME,314,MWEMA,31408,KUBITERERE,NYAKUNGURU
MARA,31,TARIME,314,SIRARI,31409,SOKONI,MLIMANI
MARA,31,TARIME,314,SIRARI,31409,SOKONI,SOKONI
MARA,31,TARIME,314,SIRARI,31409,SOKONI,NYAIROMA
MARA,31,TARIME,314,SIRARI,31409,SOKONI,MAJENGO MAPYA
MARA,31,TARIME,314,SIRARI,31409,BURIBA,KENANSO
MARA,31,TARIME,314,SIRARI,31409,BURIBA,SIRARI
MARA,31,TARIME,314,SIRARI,31409,BURIBA,NYATITI
MARA,31,TARIME,314,SIRARI,31409,BURIBA,NYASOKO
MARA,31,TARIME,314,SIRARI,31409,MPAKANI,FORODHANI
MARA,31,TARIME,314,SIRARI,31409,MPAKANI,KEMWITA WAHENDE
MARA,31,TARIME,314,SIRARI,31409,MPAKANI,NYAMOREGE
MARA,31,TARIME,314,SIRARI,31409,MPAKANI,BONDENI
MARA,31,TARIME,314,SIRARI,31409,KANISANI,GWITANKA
MARA,31,TARIME,314,SIRARI,31409,KANISANI,KANISANI
MARA,31,TARIME,314,SIRARI,31409,KANISANI,NYATORAHA
MARA,31,TARIME,314,BINAGI,31410,NYAMWIGURA,NYAMATAGITO
MARA,31,TARIME,314,BINAGI,31410,NYAMWIGURA,GWISANA
MARA,31,TARIME,314,BINAGI,31410,NYAMWIGURA,KWIRIBA
MARA,31,TARIME,314,BINAGI,31410,NYAMWIGURA,KESINGAKA
MARA,31,TARIME,314,BINAGI,31410,NYAMWIGURA,KEMELA
MARA,31,TARIME,314,BINAGI,31410,NYAMWIGURA,KETOKA
MARA,31,TARIME,314,BINAGI,31410,NYAMWIGURA,IHITYA
MARA,31,TARIME,314,BINAGI,31410,NYAMWIGURA,SENTA
MARA,31,TARIME,314,BINAGI,31410,NYAMWIGURA,MASANA
MARA,31,TARIME,314,BINAGI,31410,NYAMWIGURA,MANYENYA
MARA,31,TARIME,314,BINAGI,31410,MAGOMA,NYAMERENGE
MARA,31,TARIME,314,BINAGI,31410,MAGOMA,NYAMESOCHO
MARA,31,TARIME,314,BINAGI,31410,MAGOMA,MAKONGE
MARA,31,TARIME,314,BINAGI,31410,MAGOMA,MUHURU
MARA,31,TARIME,314,BINAGI,31410,MAGOMA,NYATAHANIA
MARA,31,TARIME,314,BINAGI,31410,MAGOMA,SENTA
MARA,31,TARIME,314,BINAGI,31410,NYASARICHO,SENTA
MARA,31,TARIME,314,BINAGI,31410,NYASARICHO,BUKONGE
MARA,31,TARIME,314,BINAGI,31410,NYASARICHO,NYAMIHUTO
MARA,31,TARIME,314,BINAGI,31410,NYASARICHO,NYABAHENGERE
MARA,31,TARIME,314,BINAGI,31410,NYASARICHO,BUCHORA
MARA,31,TARIME,314,KIBASUKA,31411,NYARWANA,NYABORI
MARA,31,TARIME,314,KIBASUKA,31411,NYARWANA,NYARWANA SENTA
MARA,31,TARIME,314,KIBASUKA,31411,NYARWANA,MEKENDE
MARA,31,TARIME,314,KIBASUKA,31411,NYARWANA,KENYAROBI
MARA,31,TARIME,314,KIBASUKA,31411,NYARWANA,NYABOKARAGATI SENTA
MARA,31,TARIME,314,KIBASUKA,31411,NYARWANA,KEMOTYA
MARA,31,TARIME,314,KIBASUKA,31411,NYARWANA,NYAHONGO
MARA,31,TARIME,314,KIBASUKA,31411,NYARWANA,NYANSURURA
MARA,31,TARIME,314,KIBASUKA,31411,NYARWANA,MWARA
MARA,31,TARIME,314,KIBASUKA,31411,NYAKUNGURU,GWIKONGO
MARA,31,TARIME,314,KIBASUKA,31411,NYAKUNGURU,NYAKUNGURU SENTA
MARA,31,TARIME,314,KIBASUKA,31411,NYAKUNGURU,MOCHONGOCHO
MARA,31,TARIME,314,KIBASUKA,31411,NYAKUNGURU,NYAMICHALE
MARA,31,TARIME,314,KIBASUKA,31411,NYAKUNGURU,NYANKORAMBE SENTA
MARA,31,TARIME,314,KIBASUKA,31411,NYAKUNGURU,SEREGETA
MARA,31,TARIME,314,KIBASUKA,31411,NYAKUNGURU,NYAMUMA
MARA,31,TARIME,314,KIBASUKA,31411,NYAKUNGURU,NYAMANCHE
MARA,31,TARIME,314,KIBASUKA,31411,NYAKUNGURU,ITANDURA
MARA,31,TARIME,314,KIBASUKA,31411,NYAKUNGURU,TURUTURU
MARA,31,TARIME,314,KIBASUKA,31411,WEIGITA,BONSABI
MARA,31,TARIME,314,KIBASUKA,31411,WEIGITA,SENTA
MARA,31,TARIME,314,KIBASUKA,31411,WEIGITA,NYANCHAGE
MARA,31,TARIME,314,KIBASUKA,31411,WEIGITA,NYAMBECHE
MARA,31,TARIME,314,KIBASUKA,31411,WEIGITA,NYAIREMA
MARA,31,TARIME,314,KIBASUKA,31411,WEIGITA,KEMORABU
MARA,31,TARIME,314,KIBASUKA,31411,WEIGITA,BUNCHARI
MARA,31,TARIME,314,KIBASUKA,31411,KEISAKA,KEISAKA
MARA,31,TARIME,314,KIBASUKA,31411,KEISAKA,SONGAMBELE
MARA,31,TARIME,314,KIBASUKA,31411,KEISAKA,KUBIRERA
MARA,31,TARIME,314,KIBASUKA,31411,KEISAKA,GWITENDE
MARA,31,TARIME,314,KIBASUKA,31411,KEISAKA,BIKARABWA
MARA,31,TARIME,314,MATONGO,31412,NYANGOTO,MASANGORA
MARA,31,TARIME,314,MATONGO,31412,NYANGOTO,NYAMERAMA
MARA,31,TARIME,314,MATONGO,31412,NYANGOTO,BOTANGA
MARA,31,TARIME,314,MATONGO,31412,NYANGOTO,KWINYUNYI
MARA,31,TARIME,314,MATONGO,31412,NYANGOTO,SENTA SHULE
MARA,31,TARIME,314,MATONGO,31412,NYANGOTO,NYABIBAGO
MARA,31,TARIME,314,MATONGO,31412,NYANGOTO,KEMAGUTU
MARA,31,TARIME,314,MATONGO,31412,NYANGOTO,KENYANGI
MARA,31,TARIME,314,MATONGO,31412,NYANGOTO,KEGONGA A
MARA,31,TARIME,314,MATONGO,31412,NYANGOTO,KEGONGA B
MARA,31,TARIME,314,MATONGO,31412,NYABICHUNE,NYABICHUNE
MARA,31,TARIME,314,MATONGO,31412,NYABICHUNE,NYARERO
MARA,31,TARIME,314,MATONGO,31412,NYABICHUNE,KWIMANGE
MARA,31,TARIME,314,MATONGO,31412,NYABICHUNE,KOMAWARE
MARA,31,TARIME,314,MATONGO,31412,NYABICHUNE,KEMACHALE
MARA,31,TARIME,314,MATONGO,31412,NYABICHUNE,MASINKI
MARA,31,TARIME,314,MATONGO,31412,MJINI KATI,MJINI KATI
MARA,31,TARIME,314,MATONGO,31412,MJINI KATI,KEBAMONCHE
MARA,31,TARIME,314,MATONGO,31412,MJINI KATI,NYABIKONDO
MARA,31,TARIME,314,MATONGO,31412,MJINI KATI,SUNGUSUNGU
MARA,31,TARIME,314,MATONGO,31412,MJINI KATI,NYANKURU
MARA,31,TARIME,314,MATONGO,31412,MJINI KATI,MLIMANI
MARA,31,TARIME,314,MATONGO,31412,MATONGO,MASANGORA
MARA,31,TARIME,314,MATONGO,31412,MATONGO,NYAMERAMA
MARA,31,TARIME,314,MATONGO,31412,MATONGO,BOTANGA
MARA,31,TARIME,314,MATONGO,31412,MATONGO,KWINYUNYI
MARA,31,TARIME,314,MATONGO,31412,MATONGO,SENTA SHULE
MARA,31,TARIME,314,MATONGO,31412,MATONGO,NYABIBAGO
MARA,31,TARIME,314,MATONGO,31412,MATONGO,KEMAGUTU
MARA,31,TARIME,314,MATONGO,31412,MATONGO,KENYANGI
MARA,31,TARIME,314,MANGA,31413,MTANA,KETASOBA
MARA,31,TARIME,314,MANGA,31413,MTANA,MTANA  SENTA
MARA,31,TARIME,314,MANGA,31413,MTANA,KURUYA
MARA,31,TARIME,314,MANGA,31413,MTANA,KEBOSERE
MARA,31,TARIME,314,MANGA,31413,MTANA,SONGAMBELE
MARA,31,TARIME,314,MANGA,31413,MTANA,NYABIGA
MARA,31,TARIME,314,MANGA,31413,KEMBWI,NYANKOMOGO
MARA,31,TARIME,314,MANGA,31413,KEMBWI,RYAMWENGE
MARA,31,TARIME,314,MANGA,31413,KEMBWI,BUREMERA
MARA,31,TARIME,314,MANGA,31413,KEMBWI,KWIGERA
MARA,31,TARIME,314,MANGA,31413,KEMBWI,NYABOSONGO
MARA,31,TARIME,314,MANGA,31413,BISARWI,BURIMBA
MARA,31,TARIME,314,MANGA,31413,BISARWI,BISARWI
MARA,31,TARIME,314,MANGA,31413,BISARWI,NYAMATANKE
MARA,31,TARIME,314,MANGA,31413,BISARWI,BURONGO
MARA,31,TARIME,314,MANGA,31413,BISARWI,BUKOMBWE
MARA,31,TARIME,314,MANGA,31413,BISARWI,MAKORA
MARA,31,TARIME,314,MANGA,31413,BISARWI,KEMONSERE
MARA,31,TARIME,314,MANGA,31413,BISARWI,KWIKOMA
MARA,31,TARIME,314,PEMBA,31414,PEMBA,PEMBA SENTA
MARA,31,TARIME,314,PEMBA,31414,PEMBA,KEMWITA
MARA,31,TARIME,314,PEMBA,31414,PEMBA,GIBASUKA
MARA,31,TARIME,314,PEMBA,31414,PEMBA,MLIMANI
MARA,31,TARIME,314,PEMBA,31414,PEMBA,KUGUYI
MARA,31,TARIME,314,PEMBA,31414,PEMBA,MASARARA
MARA,31,TARIME,314,PEMBA,31414,KYORUBA,MASURURA
MARA,31,TARIME,314,PEMBA,31414,KYORUBA,ROTELELE
MARA,31,TARIME,314,PEMBA,31414,KYORUBA,KYORUBA SENTA
MARA,31,TARIME,314,PEMBA,31414,KYORUBA,NYABONSENDEI
MARA,31,TARIME,314,PEMBA,31414,KYORUBA,REMERONGO
MARA,31,TARIME,314,PEMBA,31414,NYABISAGA,NYABISAGA SENTA
MARA,31,TARIME,314,PEMBA,31414,NYABISAGA,NYAIRAKO
MARA,31,TARIME,314,PEMBA,31414,NYABISAGA,SANG'ANGA
MARA,31,TARIME,314,PEMBA,31414,NYABISAGA,KEGESAMBI
MARA,31,TARIME,314,PEMBA,31414,NYABISAGA,GOSEBE
MARA,31,TARIME,314,PEMBA,31414,NYABISAGA,KWIRIBA
MARA,31,TARIME,314,NYAKONGA,31415,MAGOTO,NYANSWEGA
MARA,31,TARIME,314,NYAKONGA,31415,MAGOTO,NYANGWE
MARA,31,TARIME,314,NYAKONGA,31415,MAGOTO,GAKENDO
MARA,31,TARIME,314,NYAKONGA,31415,KEBWEYE,KOMOMENDI
MARA,31,TARIME,314,NYAKONGA,31415,KEBWEYE,BUCHORA
MARA,31,TARIME,314,NYAKONGA,31415,KEBWEYE,KOMAGORI
MARA,31,TARIME,314,NYAKONGA,31415,KEBWEYE,KEBWEYE SENTA
MARA,31,TARIME,314,NYAKONGA,31415,KEBWEYE,NYANG'ITI
MARA,31,TARIME,314,NYAKONGA,31415,NYAKONGA,NYAKONGA
MARA,31,TARIME,314,NYAKONGA,31415,NYAKONGA,MKUYUNI
MARA,31,TARIME,314,NYAKONGA,31415,NYAKONGA,NYAMESANGA
MARA,31,TARIME,314,NYAKONGA,31415,NYAKONGA,KEBURWI
MARA,31,TARIME,314,NYARERO,31416,NYARERO,KITERERE
MARA,31,TARIME,314,NYARERO,31416,NYARERO,SENTA
MARA,31,TARIME,314,NYARERO,31416,NYARERO,MOREMBE
MARA,31,TARIME,314,NYARERO,31416,NYARERO,NYANSAMORE
MARA,31,TARIME,314,NYARERO,31416,NYARERO,MOTAMBE
MARA,31,TARIME,314,NYARERO,31416,NYARERO,NYAIGERA
MARA,31,TARIME,314,NYARERO,31416,KEMAKORERE,KIHERO
MARA,31,TARIME,314,NYARERO,31416,KEMAKORERE,MBURWA
MARA,31,TARIME,314,NYARERO,31416,KEMAKORERE,NYAIGERA
MARA,31,TARIME,314,NYARERO,31416,KEMAKORERE,KOBA
MARA,31,TARIME,314,NYARERO,31416,SORONETA,NYABIKONDO
MARA,31,TARIME,314,NYARERO,31416,SORONETA,NYARUTU
MARA,31,TARIME,314,NYARERO,31416,SORONETA,NGUKUESAHE
MARA,31,TARIME,314,NYARERO,31416,SORONETA,NYAMATARABE
MARA,31,TARIME,314,NYARERO,31416,ROSANA,SENTA
MARA,31,TARIME,314,NYARERO,31416,ROSANA,KENYAMORI
MARA,31,TARIME,314,NYARERO,31416,ROSANA,NG'ARAMU
MARA,31,TARIME,314,NYARERO,31416,ROSANA,BYASOYA
MARA,31,TARIME,314,NYARERO,31416,ROSANA,KENG'ORI
MARA,31,TARIME,314,NYAMWAGA,31417,KEISANGORA,MARURU
MARA,31,TARIME,314,NYAMWAGA,31417,KEISANGORA,KEISUNGURUTA
MARA,31,TARIME,314,NYAMWAGA,31417,KEISANGORA,KERUTA
MARA,31,TARIME,314,NYAMWAGA,31417,KEISANGORA,SENTA
MARA,31,TARIME,314,NYAMWAGA,31417,KEISANGORA,NYAMERAMA
MARA,31,TARIME,314,NYAMWAGA,31417,KEISANGORA,GONYI
MARA,31,TARIME,314,NYAMWAGA,31417,KEISANGORA,MATONGO
MARA,31,TARIME,314,NYAMWAGA,31417,NYAMWAGA,NYAMWAGA SENTA
MARA,31,TARIME,314,NYAMWAGA,31417,NYAMWAGA,MESERO
MARA,31,TARIME,314,NYAMWAGA,31417,NYAMWAGA,MUCHANCHARA
MARA,31,TARIME,314,NYAMWAGA,31417,NYAMWAGA,MAKERERO
MARA,31,TARIME,314,NYAMWAGA,31417,KIMUSI,GWIKUNIRI
MARA,31,TARIME,314,NYAMWAGA,31417,KIMUSI,NYAMAHIRIRI
MARA,31,TARIME,314,NYAMWAGA,31417,KIMUSI,KIMUSI SENTA
MARA,31,TARIME,314,NYAMWAGA,31417,KIMUSI,BOKARA  SENTA
MARA,31,TARIME,314,NYAMWAGA,31417,KIMUSI,NYARUSIAGA
MARA,31,TARIME,314,NYAMWAGA,31417,KIMUSI,MELALE
MARA,31,TARIME,314,NYAMWAGA,31417,KIMUSI,NYAMOSARO
MARA,31,TARIME,314,NYAMWAGA,31417,KOMARERA,KOMARERA
MARA,31,TARIME,314,NYAMWAGA,31417,KOMARERA,NTARECHAGINI
MARA,31,TARIME,314,NYAMWAGA,31417,KOMARERA,KOKEMANGE
MARA,31,TARIME,314,NYAMWAGA,31417,KOMARERA,MOHARANGO
MARA,31,TARIME,314,NYAMWAGA,31417,GWITARE,NYAMIOBO
MARA,31,TARIME,314,NYAMWAGA,31417,GWITARE,GWITARE SENTA
MARA,31,TARIME,314,NYAMWAGA,31417,GWITARE,BWENGERI
MARA,31,TARIME,314,NYAMWAGA,31417,GWITARE,RONKORE
MARA,31,TARIME,314,NYARUKOBA,31418,MSEGE,NYABIGA
MARA,31,TARIME,314,NYARUKOBA,31418,MSEGE,METHAHURO
MARA,31,TARIME,314,NYARUKOBA,31418,MSEGE,ITEMA
MARA,31,TARIME,314,NYARUKOBA,31418,MSEGE,KEBAIYA
MARA,31,TARIME,314,NYARUKOBA,31418,MSEGE,RONCHABO
MARA,31,TARIME,314,NYARUKOBA,31418,MSEGE,REWANDWE
MARA,31,TARIME,314,NYARUKOBA,31418,MSEGE,BONG'ENG'E SENTA
MARA,31,TARIME,314,NYARUKOBA,31418,GENKURU,KOMARERA
MARA,31,TARIME,314,NYARUKOBA,31418,GENKURU,KURUYA
MARA,31,TARIME,314,NYARUKOBA,31418,GENKURU,NYAROKOBA
MARA,31,TARIME,314,NYARUKOBA,31418,GENKURU,NYAMEMANGE
MARA,31,TARIME,314,KEMAMBO,31419,KEWANJA,NYABIKONDO
MARA,31,TARIME,314,KEMAMBO,31419,KEWANJA,GONSARA
MARA,31,TARIME,314,KEMAMBO,31419,KEWANJA,MAGENA
MARA,31,TARIME,314,KEMAMBO,31419,KEWANJA,NYAIHETO
MARA,31,TARIME,314,KEMAMBO,31419,KEWANJA,KEMAMBO
MARA,31,TARIME,314,KEMAMBO,31419,KEWANJA,BUKUBE
MARA,31,TARIME,314,KEMAMBO,31419,KEWANJA,KEGONCHE
MARA,31,TARIME,314,KEMAMBO,31419,KEWANJA,MJINI KATI
MARA,31,TARIME,314,KEMAMBO,31419,KEWANJA,KENYAITANKA
MARA,31,TARIME,314,KEMAMBO,31419,MRITO,MIRIMINSI
MARA,31,TARIME,314,KEMAMBO,31419,MRITO,MABERA SENTA
MARA,31,TARIME,314,KEMAMBO,31419,MRITO,KEISANKWE
MARA,31,TARIME,314,KEMAMBO,31419,MRITO,KEGHATI
MARA,31,TARIME,314,KEMAMBO,31419,MRITO,NYAMBEHO
MARA,31,TARIME,314,KEMAMBO,31419,MRITO,NYANGEBO
MARA,31,TARIME,314,KEMAMBO,31419,MRITO,KUMCHONGOME
MARA,31,TARIME,314,KEMAMBO,31419,MRITO,MORONGO SENTA
MARA,31,TARIME,314,KEMAMBO,31419,MRITO,RORYA
MARA,31,TARIME,314,KEMAMBO,31419,MRITO,KENGOKA
MARA,31,TARIME,314,KEMAMBO,31419,MRITO,NYABIHERERO
MARA,31,TARIME,314,KEMAMBO,31419,KERENDE,NYABUCHINCHIBU
MARA,31,TARIME,314,KEMAMBO,31419,KERENDE,NYAMAKO
MARA,31,TARIME,314,KEMAMBO,31419,KERENDE,NG'ENG'I
MARA,31,TARIME,314,KEMAMBO,31419,KERENDE,MALERA
MARA,31,TARIME,314,KEMAMBO,31419,KERENDE,NYANKOMOGO
MARA,31,TARIME,314,KEMAMBO,31419,KERENDE,ISAKAHEMBE
MARA,31,TARIME,314,KEMAMBO,31419,KERENDE,NYAMENG'OSA
MARA,31,TARIME,314,KEMAMBO,31419,KERENDE,NTIMARO
MARA,31,TARIME,314,KEMAMBO,31419,KERENDE,MOGOSI
MARA,31,TARIME,314,MURIBA,31420,MURIBA,KUMWIKA
MARA,31,TARIME,314,MURIBA,31420,MURIBA,KEBOSE
MARA,31,TARIME,314,MURIBA,31420,MURIBA,KUMWIKA SENTA
MARA,31,TARIME,314,MURIBA,31420,MURIBA,BIASINDA
MARA,31,TARIME,314,MURIBA,31420,MURIBA,KERYOBA
MARA,31,TARIME,314,MURIBA,31420,TAGARE,TAGARE
MARA,31,TARIME,314,MURIBA,31420,TAGARE,MURIBA
MARA,31,TARIME,314,MURIBA,31420,TAGARE,RECHUMA
MARA,31,TARIME,314,MURIBA,31420,TAGARE,ISARARA
MARA,31,TARIME,314,MURIBA,31420,TAGARE,MEKOMA
MARA,31,TARIME,314,MURIBA,31420,BUNGURERE,BUNGURERE SENTA
MARA,31,TARIME,314,MURIBA,31420,BUNGURERE,BUGUCHA
MARA,31,TARIME,314,MURIBA,31420,BUNGURERE,IKORO
MARA,31,TARIME,314,MURIBA,31420,BUNGURERE,KEBONONARI
MARA,31,TARIME,314,MURIBA,31420,BUNGURERE,KOGESANGORA
MARA,31,TARIME,314,MURIBA,31420,KOBORI,KOBORI SENTA
MARA,31,TARIME,314,MURIBA,31420,KOBORI,KWIRIBA
MARA,31,TARIME,314,MURIBA,31420,KOBORI,NYANTARE
MARA,31,TARIME,314,MURIBA,31420,KOBORI,GUKINISYA
MARA,31,TARIME,314,NYANUNGU,31421,KEGONGA,KWIBATE
MARA,31,TARIME,314,NYANUNGU,31421,KEGONGA,BORASA
MARA,31,TARIME,314,NYANUNGU,31421,KEGONGA,KEGONGA SENTA
MARA,31,TARIME,314,NYANUNGU,31421,KEGONGA,ISORYA
MARA,31,TARIME,314,NYANUNGU,31421,KEGONGA,GIYEME
MARA,31,TARIME,314,NYANUNGU,31421,NYANDAGE,NYANDAGE
MARA,31,TARIME,314,NYANUNGU,31421,NYANDAGE,GETORONG'O
MARA,31,TARIME,314,NYANUNGU,31421,NYANDAGE,KWISARO
MARA,31,TARIME,314,NYANUNGU,31421,NYANDAGE,NYARUSUSUNI
MARA,31,TARIME,314,NYANUNGU,31421,NYANDAGE,MISIMEI
MARA,31,TARIME,314,NYANUNGU,31421,NYANDAGE,NGORI
MARA,31,TARIME,314,NYANUNGU,31421,MANGUCHA,MANGUCHA SENTA
MARA,31,TARIME,314,NYANUNGU,31421,MANGUCHA,IKORONGO
MARA,31,TARIME,314,NYANUNGU,31421,MANGUCHA,KEBOSE
MARA,31,TARIME,314,NYANUNGU,31421,MANGUCHA,NYAMISARO
MARA,31,TARIME,314,NYANUNGU,31421,MANGUCHA,NYAMOTAMBE
MARA,31,TARIME,314,NYANUNGU,31421,MANGUCHA,MATOKE
MARA,31,TARIME,314,NYANUNGU,31421,NYAMOMBARA,MUMWAMU
MARA,31,TARIME,314,NYANUNGU,31421,NYAMOMBARA,KEBERENGE
MARA,31,TARIME,314,NYANUNGU,31421,NYAMOMBARA,REMALELA
MARA,31,TARIME,314,NYANUNGU,31421,NYAMOMBARA,NYAMEMANGE
MARA,31,TARIME,314,NYANUNGU,31421,NYAMOMBARA,NYANUNGU
MARA,31,TARIME,314,NYANUNGU,31421,NYAMOMBARA,GETENA
MARA,31,TARIME,314,NYANUNGU,31421,NYAMOMBARA,KOMORAMA
MARA,31,TARIME,314,NYANUNGU,31421,NYAMOMBARA,NYAMOMBARA
MARA,31,TARIME,314,GORONG'A,31422,KITAWASI,KITAWASI SENTA
MARA,31,TARIME,314,GORONG'A,31422,KITAWASI,REMARERA
MARA,31,TARIME,314,GORONG'A,31422,KITAWASI,MOHARANGO
MARA,31,TARIME,314,GORONG'A,31422,KITAWASI,GIBASISI
MARA,31,TARIME,314,GORONG'A,31422,KITAWASI,NYABORI
MARA,31,TARIME,314,GORONG'A,31422,MASURURA,MASURURA
MARA,31,TARIME,314,GORONG'A,31422,MASURURA,NYANTARE
MARA,31,TARIME,314,GORONG'A,31422,MASURURA,KEWEIRUMBE
MARA,31,TARIME,314,GORONG'A,31422,MASURURA,NYAICHIRICHIRI
MARA,31,TARIME,314,GORONG'A,31422,MASURURA,KEMOSETI
MARA,31,TARIME,314,GORONG'A,31422,MASANGA,TIGITE
MARA,31,TARIME,314,GORONG'A,31422,MASANGA,KWIGORI
MARA,31,TARIME,314,GORONG'A,31422,MASANGA,MASANGA SENTA
MARA,31,TARIME,314,GORONG'A,31422,MASANGA,NYAMERAMA SENTA
MARA,31,TARIME,314,GORONG'A,31422,MASANGA,KEMOSAHE
MARA,31,TARIME,314,GORONG'A,31422,MASANGA,KEMANGARI
MARA,31,TARIME,314,GORONG'A,31422,KENYAMOSABI,KENYAMOSABI
MARA,31,TARIME,314,GORONG'A,31422,KENYAMOSABI,NGONCHE
MARA,31,TARIME,314,GORONG'A,31422,KENYAMOSABI,NYAMAGONGWE
MARA,31,TARIME,314,GORONG'A,31422,KENYAMOSABI,KIOBOKE
MARA,31,TARIME,314,GWITIRYO,31423,GWITIRYO,GHOKENG'ONO
MARA,31,TARIME,314,GWITIRYO,31423,GWITIRYO,RONGURARO
MARA,31,TARIME,314,GWITIRYO,31423,GWITIRYO,NYANG'ITI
MARA,31,TARIME,314,GWITIRYO,31423,GWITIRYO,NYAIHUNYO
MARA,31,TARIME,314,GWITIRYO,31423,GWITIRYO,NYAIROMA
MARA,31,TARIME,314,GWITIRYO,31423,GWITIRYO,KWIWALE
MARA,31,TARIME,314,GWITIRYO,31423,GWITIRYO,NYAGACHALE
MARA,31,TARIME,314,GWITIRYO,31423,GETAGASEMBE,CHERERA
MARA,31,TARIME,314,GWITIRYO,31423,GETAGASEMBE,NYAGAMURU
MARA,31,TARIME,314,GWITIRYO,31423,GETAGASEMBE,BUCHORA
MARA,31,TARIME,314,GWITIRYO,31423,GETAGASEMBE,BUMARI
MARA,31,TARIME,314,GWITIRYO,31423,GETAGASEMBE,BWIYAGERO
MARA,31,TARIME,314,MBOGI,31424,NYABITOCHO,NYABITOCHO
MARA,31,TARIME,314,MBOGI,31424,NYABITOCHO,GOKEBOSE
MARA,31,TARIME,314,MBOGI,31424,NYABITOCHO,NYABINEMBU
MARA,31,TARIME,314,MBOGI,31424,NYABITOCHO,GETAIGORO
MARA,31,TARIME,314,MBOGI,31424,NYABITOCHO,STEND
MARA,31,TARIME,314,MBOGI,31424,NYABITOCHO,MBOGI
MARA,31,TARIME,314,MBOGI,31424,"BOREGA ""B""",BOREGA SENTA
MARA,31,TARIME,314,MBOGI,31424,"BOREGA ""B""",RENYAMWARYA
MARA,31,TARIME,314,MBOGI,31424,"BOREGA ""B""",KENYABWEGENYE
MARA,31,TARIME,314,MBOGI,31424,"BOREGA ""B""",KOGAINI
MARA,31,TARIME,314,MBOGI,31424,"BOREGA ""B""",MUGOYEGA
MARA,31,TARIME,314,MBOGI,31424,"BOREGA ""B""",KUBIRITOHO
MARA,31,TARIME,314,MBOGI,31424,GETENGA,GETENGA
MARA,31,TARIME,314,MBOGI,31424,GETENGA,NYAROGATAI
MARA,31,TARIME,314,MBOGI,31424,GETENGA,MASURURA
MARA,31,TARIME,314,MBOGI,31424,GETENGA,KITAGUTITI
MARA,31,TARIME,314,MBOGI,31424,GETENGA,NYAMEMBA
MARA,31,TARIME,314,MBOGI,31424,GETENGA,KEBEYO
MARA,31,TARIME,314,MBOGI,31424,GETENGA,ROOKO
MARA,31,TARIME,314,KIORE,31425,NKEREGE,NYABOSONGO
MARA,31,TARIME,314,KIORE,31425,NKEREGE,TIGIRI
MARA,31,TARIME,314,KIORE,31425,NKEREGE,SENTA
MARA,31,TARIME,314,KIORE,31425,NKEREGE,BISARWA
MARA,31,TARIME,314,KIORE,31425,NKEREGE,MASOTA
MARA,31,TARIME,314,KIORE,31425,NKEREGE,HAZINA
MARA,31,TARIME,314,KIORE,31425,NKEREGE,NYAKIYONGI
MARA,31,TARIME,314,KIORE,31425,NYAGISYA,KIORE
MARA,31,TARIME,314,KIORE,31425,NYAGISYA,SENTA
MARA,31,TARIME,314,KIORE,31425,NYAGISYA,MASURURA
MARA,31,TARIME,314,KIORE,31425,NYAGISYA,ITACHO
MARA,31,TARIME,314,KIORE,31425,NYAGISYA,NYAHONGO
MARA,31,TARIME,314,KIORE,31425,NYAGISYA,KINYABAIKWABE
MARA,31,TARIME,314,KIORE,31425,NYAGISYA,KWIGORI
MARA,31,TARIME,314,KIORE,31425,KEWAMAMBA,KEWANYANGO
MARA,31,TARIME,314,KIORE,31425,KEWAMAMBA,GEOKORU
MARA,31,TARIME,314,KIORE,31425,KEWAMAMBA,NYAMANG'ARI
MARA,31,TARIME,314,KIORE,31425,KEWAMAMBA,MAGAKA
MARA,31,TARIME,314,KIORE,31425,KEWAMAMBA,MAGANGE
MARA,31,TARIME,314,KIORE,31425,KEWAMAMBA,KEWAIRUNGU
MARA,31,TARIME,314,KOMASWA,31426,SOMBANYASOKO,MAJIMAJI
MARA,31,TARIME,314,KOMASWA,31426,SOMBANYASOKO,NYANGOGE
MARA,31,TARIME,314,KOMASWA,31426,SOMBANYASOKO,SENTA
MARA,31,TARIME,314,KOMASWA,31426,SOMBANYASOKO,KEBOSERE
MARA,31,TARIME,314,KOMASWA,31426,NYAMIRAMBARO,KWIKOMA
MARA,31,TARIME,314,KOMASWA,31426,NYAMIRAMBARO,NYABUKANO
MARA,31,TARIME,314,KOMASWA,31426,NYAMIRAMBARO,NYAMETEMBE
MARA,31,TARIME,314,KOMASWA,31426,NYAMIRAMBARO,NYAMEMANGE
MARA,31,TARIME,314,KOMASWA,31426,SURUBU,GABOCHA
MARA,31,TARIME,314,KOMASWA,31426,SURUBU,NYANTARE
MARA,31,TARIME,314,KOMASWA,31426,SURUBU,SURUBU SENTA
MARA,31,TARIME,314,KOMASWA,31426,SURUBU,MTUKURA
MARA,31,TARIME,314,KOMASWA,31426,SURUBU,KONG'ENG'I
MARA,31,TARIME,314,NYASINCHA,31427,NYANTIRA,NYAMBECHE
MARA,31,TARIME,314,NYASINCHA,31427,NYANTIRA,MURINGI
MARA,31,TARIME,314,NYASINCHA,31427,NYANTIRA,SALILO
MARA,31,TARIME,314,NYASINCHA,31427,NYANTIRA,NYAMITEMBE
MARA,31,TARIME,314,NYASINCHA,31427,NYANTIRA,REMBAILE
MARA,31,TARIME,314,NYASINCHA,31427,NYANTIRA,ITEREMIA
MARA,31,TARIME,314,NYASINCHA,31427,NYANTIRA,KOGETENDE
MARA,31,TARIME,314,NYASINCHA,31427,NYASINCHA,MAKONGE
MARA,31,TARIME,314,NYASINCHA,31427,NYASINCHA,MUTINITI
MARA,31,TARIME,314,NYASINCHA,31427,NYASINCHA,NYANSINCHA
MARA,31,TARIME,314,NYASINCHA,31427,NYASINCHA,GUKIMUSI
MARA,31,TARIME,314,ITIRYO,31428,ITIRYO,ITIRYO SENTA
MARA,31,TARIME,314,ITIRYO,31428,ITIRYO,KWIGOGO
MARA,31,TARIME,314,ITIRYO,31428,ITIRYO,MANYATA
MARA,31,TARIME,314,ITIRYO,31428,ITIRYO,NYAITEBE
MARA,31,TARIME,314,ITIRYO,31428,ITIRYO,KWIRAMBO
MARA,31,TARIME,314,ITIRYO,31428,NYANKONI,NYANKONI
MARA,31,TARIME,314,ITIRYO,31428,NYANKONI,KWIHANGO
MARA,31,TARIME,314,ITIRYO,31428,NYANKONI,TISSYA
MARA,31,TARIME,314,ITIRYO,31428,NYANKONI,GITIMAMA
MARA,31,TARIME,314,ITIRYO,31428,NYANKONI,BIKONGE
MARA,31,TARIME,314,ITIRYO,31428,KANGARIANI,KANGARIANI SENTA
MARA,31,TARIME,314,ITIRYO,31428,KANGARIANI,ISAGO
MARA,31,TARIME,314,ITIRYO,31428,KANGARIANI,BIRANDI
MARA,31,TARIME,314,ITIRYO,31428,KANGARIANI,SEGESAI
MARA,31,TARIME,314,ITIRYO,31428,KANGARIANI,BIRIRA SENTA
MARA,31,TARIME,314,KATERE,31429,BINAGI,
MARA,31,TARIME,314,KATERE,31429,NYAGASARA,
MARA,31,TARIME,314,KATERE,31429,MARURU,
MARA,31,TARIME,314,KATERE,31429,KITATUKYA,
MARA,31,TARIME,314,KATERE,31429,KEDELI,
MARA,31,TARIME,314,KATERE,31429,MOGABIRI CENTRE,
MARA,31,TARIME,314,KATERE,31429,NYAMIOBO,
MARA,31,TARIME,314,KATERE,31429,NYAMAISANA,
MARA,31,TARIME,314,KATERE,31429,KIBUMAYI,
MARA,31,TARIME,314,KATERE,31429,NYAMASAMORE,
MARA,31,TARIME,314,KATERE,31429,KWIGORONTO,
MARA,31,TARIME,314,KATERE,31429,BUTIRYA,
MARA,31,TARIME,314,KATERE,31429,NSOMBA,
MARA,31,TARIME,314,GANYANGE,31430,GANYANGE,MESERERE
MARA,31,TARIME,314,GANYANGE,31430,GANYANGE,NYAMOSENSE
MARA,31,TARIME,314,GANYANGE,31430,GANYANGE,NTAGACHA
MARA,31,TARIME,314,GANYANGE,31430,GANYANGE,NYAMBILI
MARA,31,TARIME,314,GANYANGE,31430,GANYANGE,GANTENDE
MARA,31,TARIME,314,GANYANGE,31430,"BOREGA ""A""",MANYUMBA
MARA,31,TARIME,314,GANYANGE,31430,"BOREGA ""A""",MESOCHO
MARA,31,TARIME,314,GANYANGE,31430,"BOREGA ""A""",KOMAGORI
MARA,31,TARIME,314,GANYANGE,31430,"BOREGA ""A""",BOREGA MJINI
MARA,31,TARIME,314,GANYANGE,31430,NYAKALIMA,NYASANGAI
MARA,31,TARIME,314,GANYANGE,31430,NYAKALIMA,KENGABI
MARA,31,TARIME,314,GANYANGE,31430,NYAKALIMA,KEGONCHE
MARA,31,TARIME,314,NKENDE,31431,ROMOLI,
MARA,31,TARIME,314,NKENDE,31431,KIRUMI,
MARA,31,TARIME,314,NKENDE,31431,REMBIRWI,
MARA,31,TARIME,314,NKENDE,31431,KWIBANGA,
MARA,31,TARIME,314,NKENDE,31431,NKENDE SHULENI,
MARA,31,TARIME,314,NKENDE,31431,ITEBE,
MARA,31,TARIME,314,NKENDE,31431,NYAMETEMBE,
MARA,31,TARIME,314,NKENDE,31431,NYAMIOBO,
MARA,31,TARIME,314,NKENDE,31431,KETARE,
MARA,31,TARIME,314,NKENDE,31431,TARAMORONI,
MARA,31,TARIME,314,NKENDE,31431,KUMUTURU,
MARA,31,TARIME,314,NKENDE,31431,KOGESENDA,
MARA,31,TARIME,314,NKENDE,31431,KENYAMBI,
MARA,31,TARIME,314,NKENDE,31431,SHULENI,
MARA,31,TARIME,314,KENYAMANYORI,31432,RONGA,
MARA,31,TARIME,314,KENYAMANYORI,31432,MAKAO,
MARA,31,TARIME,314,KENYAMANYORI,31432,CHIRA,
MARA,31,TARIME,314,KENYAMANYORI,31432,NYAMETEMBE,
MARA,31,TARIME,314,KENYAMANYORI,31432,KOGETE,
MARA,31,TARIME,314,KENYAMANYORI,31432,MWIBARI,
MARA,31,TARIME,314,KENYAMANYORI,31432,KEBAGA,
MARA,31,TARIME,314,KENYAMANYORI,31432,"TAGOTA ""A""",
MARA,31,TARIME,314,REGICHERI,31433,REMAGWE,KIGANGONI
MARA,31,TARIME,314,REGICHERI,31433,REMAGWE,KIJIWENI
MARA,31,TARIME,314,REGICHERI,31433,REMAGWE,KENGUMACHE
MARA,31,TARIME,314,REGICHERI,31433,REMAGWE,CCM
MARA,31,TARIME,314,REGICHERI,31433,REMAGWE,MHARANGO
MARA,31,TARIME,314,REGICHERI,31433,NYABICHUNE,NYABICHUNE
MARA,31,TARIME,314,REGICHERI,31433,NYABICHUNE,KEGERA
MARA,31,TARIME,314,REGICHERI,31433,NYABICHUNE,REGICHERI
MARA,31,TARIME,314,REGICHERI,31433,NYABICHUNE,KEMEREMO
MARA,31,TARIME,314,REGICHERI,31433,NYABICHUNE,MATUCHO
MARA,31,TARIME,314,REGICHERI,31433,NG'ERENG'ERE,BUHEMBA
MARA,31,TARIME,314,REGICHERI,31433,NG'ERENG'ERE,NYAMARAGA
MARA,31,TARIME,314,REGICHERI,31433,NG'ERENG'ERE,NYANSISINE
MARA,31,TARIME,314,REGICHERI,31433,NG'ERENG'ERE,GOBAIYA
MARA,31,TARIME,314,KWIHANCHA,31434,GIBASO,KWIBOSE
MARA,31,TARIME,314,KWIHANCHA,31434,GIBASO,KANURU
MARA,31,TARIME,314,KWIHANCHA,31434,GIBASO,MAKONGE
MARA,31,TARIME,314,KWIHANCHA,31434,GIBASO,GUKIHURU
MARA,31,TARIME,314,KWIHANCHA,31434,GIBASO,GIBASO SENTA
MARA,31,TARIME,314,KWIHANCHA,31434,KARAKATONGA,KARAKATONGA
MARA,31,TARIME,314,KWIHANCHA,31434,KARAKATONGA,GONGORA
MARA,31,TARIME,314,KWIHANCHA,31434,KARAKATONGA,KEREBA
MARA,31,TARIME,314,KWIHANCHA,31434,KARAKATONGA,NYARAMAWE
MARA,31,TARIME,314,KWIHANCHA,31434,NYABIRONGO,NYABIRONGO
MARA,31,TARIME,314,KWIHANCHA,31434,NYABIRONGO,BYATANGANA
MARA,31,TARIME,314,KWIHANCHA,31434,NYABIRONGO,NYAGANSESE
MARA,31,TARIME,314,KWIHANCHA,31434,NYABIRONGO,MUNUNA
MARA,31,BUNDA,315,BUNDA MJINI,31501,SABASABA,
MARA,31,BUNDA,315,BUNDA MJINI,31501,STENDI / ZAMANI,
MARA,31,BUNDA,315,BUNDA MJINI,31501,POSTA,
MARA,31,BUNDA,315,BUNDA MJINI,31501,NYERERE,
MARA,31,BUNDA,315,BUNDA STOO,31502,MIGUNGANI,
MARA,31,BUNDA,315,BUNDA STOO,31502,MTUKULA,
MARA,31,BUNDA,315,BUNDA STOO,31502,MIEMBENI,
MARA,31,BUNDA,315,BUNDA STOO,31502,BIGUTU,
MARA,31,BUNDA,315,BUNDA STOO,31502,ISENYI,
MARA,31,BUNDA,315,BUNDA STOO,31502,MASHINE YA MAJI,
MARA,31,BUNDA,315,BUNDA STOO,31502,KILIMANI,
MARA,31,BUNDA,315,BUNDA STOO,31502,IDARA YA MAJI,
MARA,31,BUNDA,315,BUNDA STOO,31502,BONDENI,
MARA,31,BUNDA,315,BUNDA STOO,31502,BUTAKALE,
MARA,31,BUNDA,315,BALILI,31503,RUBANA,
MARA,31,BUNDA,315,BALILI,31503,STOO,
MARA,31,BUNDA,315,BALILI,31503,MASHARIKI,
MARA,31,BUNDA,315,BALILI,31503,MLIMANI,
MARA,31,BUNDA,315,BALILI,31503,BALILI,
MARA,31,BUNDA,315,NYASURA,31504,NYASURA 'A',
MARA,31,BUNDA,315,NYASURA,31504,NYASURA 'B',
MARA,31,BUNDA,315,NYASURA,31504,NYASURA 'C',
MARA,31,BUNDA,315,NYASURA,31504,NYASURA 'D',
MARA,31,BUNDA,315,GUTA,31505,NYABEHU CHINI,
MARA,31,BUNDA,315,GUTA,31505,SENTA,
MARA,31,BUNDA,315,GUTA,31505,BUSIMBITI,
MARA,31,BUNDA,315,GUTA,31505,MTAKUJA,
MARA,31,BUNDA,315,GUTA,31505,NYANTARE,
MARA,31,BUNDA,315,GUTA,31505,MAKONGENI,
MARA,31,BUNDA,315,GUTA,31505,MABATINI A,
MARA,31,BUNDA,315,GUTA,31505,MABATINI B,
MARA,31,BUNDA,315,GUTA,31505,KILUMI,
MARA,31,BUNDA,315,GUTA,31505,BUSIGWALA,
MARA,31,BUNDA,315,GUTA,31505,NYANDAGO,
MARA,31,BUNDA,315,GUTA,31505,MASUFINI,
MARA,31,BUNDA,315,GUTA,31505,IHALE,
MARA,31,BUNDA,315,GUTA,31505,MTONI,
MARA,31,BUNDA,315,GUTA,31505,MLANGI MWITOTO,
MARA,31,BUNDA,315,GUTA,31505,GUTA MJINI,
MARA,31,BUNDA,315,GUTA,31505,MLANGI MWITOTO B,
MARA,31,BUNDA,315,GUTA,31505,BUKOKWA,
MARA,31,BUNDA,315,GUTA,31505,NYAMSEGENYA,
MARA,31,BUNDA,315,GUTA,31505,KURUGONGO,
MARA,31,BUNDA,315,GUTA,31505,MAZINGIRA,
MARA,31,BUNDA,315,GUTA,31505,SHULENI,
MARA,31,BUNDA,315,GUTA,31505,NYAWEGALE,
MARA,31,BUNDA,315,GUTA,31505,CHANGOMBE,
MARA,31,BUNDA,315,GUTA,31505,SHINYANGA,
MARA,31,BUNDA,315,GUTA,31505,IHALE,
MARA,31,BUNDA,315,GUTA,31505,BOMBANI,
MARA,31,BUNDA,315,GUTA,31505,KUNANGA,
MARA,31,BUNDA,315,GUTA,31505,IKULELI,
MARA,31,BUNDA,315,GUTA,31505,STOONI,
MARA,31,BUNDA,315,KABASA,31506,MAJENGO,
MARA,31,BUNDA,315,KABASA,31506,NYAKA,
MARA,31,BUNDA,315,KABASA,31506,MIEMBE SITA,
MARA,31,BUNDA,315,KABASA,31506,KUNG'OMBE KATI,
MARA,31,BUNDA,315,KABASA,31506,NYAMKONG'OTI,
MARA,31,BUNDA,315,KABASA,31506,NYANG'OSO,
MARA,31,BUNDA,315,KABASA,31506,NYIHANGA,
MARA,31,BUNDA,315,KABASA,31506,KALISUMBA/STOO,
MARA,31,BUNDA,315,KABASA,31506,KALISUMBA/SHULENI,
MARA,31,BUNDA,315,KABASA,31506,BUSWETA,
MARA,31,BUNDA,315,KABASA,31506,MUNGUTU,
MARA,31,BUNDA,315,KABASA,31506,KISAMI,
MARA,31,BUNDA,315,KABASA,31506,MIKONGENI,
MARA,31,BUNDA,315,KABASA,31506,SONGAMBELE,
MARA,31,BUNDA,315,KABASA,31506,IBIGI,
MARA,31,BUNDA,315,KABASA,31506,NYASANA KATI,
MARA,31,BUNDA,315,KABASA,31506,NYAMILAMA YA JUU,
MARA,31,BUNDA,315,KABASA,31506,NYAMILAMA YA CHINI,
MARA,31,BUNDA,315,KABASA,31506,KIMANYILWENTEMI,
MARA,31,BUNDA,315,KABASA,31506,MINE,
MARA,31,BUNDA,315,KUNZUGU,31507,NYAMTAJA,
MARA,31,BUNDA,315,KUNZUGU,31507,KIGANGA A,
MARA,31,BUNDA,315,KUNZUGU,31507,KIGINGA B,
MARA,31,BUNDA,315,KUNZUGU,31507,KATI,
MARA,31,BUNDA,315,KUNZUGU,31507,MAGHARIBI A,
MARA,31,BUNDA,315,KUNZUGU,31507,MAGHARIBI B,
MARA,31,BUNDA,315,KUNZUGU,31507,MASHIRIKI,
MARA,31,BUNDA,315,KUNZUGU,31507,KATI,
MARA,31,BUNDA,315,KUNZUGU,31507,KASKAZINI,
MARA,31,BUNDA,315,KUNZUGU,31507,KUSINI,
MARA,31,BUNDA,315,KUNZUGU,31507,IMALANGOYE,
MARA,31,BUNDA,315,KUNZUGU,31507,KARIKOO,
MARA,31,BUNDA,315,KUNZUGU,31507,MEZA,
MARA,31,BUNDA,315,KUNZUGU,31507,KILABELA A,
MARA,31,BUNDA,315,KUNZUGU,31507,KILABELA B,
MARA,31,BUNDA,315,KUNZUGU,31507,SERENGETI A,
MARA,31,BUNDA,315,KUNZUGU,31507,SERENGETI B,
MARA,31,BUNDA,315,KUNZUGU,31507,CCM,
MARA,31,BUNDA,315,KUNZUGU,31507,SHULENI,
MARA,31,BUNDA,315,KUNZUGU,31507,MAGHARIBI,
MARA,31,BUNDA,315,KUNZUGU,31507,STOONI,
MARA,31,BUNDA,315,KUNZUGU,31507,MASHARIKI,
MARA,31,BUNDA,315,MCHARO,31508,CHANGUGE,BUTAKARE
MARA,31,BUNDA,315,MCHARO,31508,CHANGUGE,STOONI
MARA,31,BUNDA,315,MCHARO,31508,CHANGUGE,BUNAIBARA
MARA,31,BUNDA,315,MCHARO,31508,CHANGUGE,NYARUTURUGURU
MARA,31,BUNDA,315,MCHARO,31508,CHANGUGE,MAHAMENI
MARA,31,BUNDA,315,MCHARO,31508,MIHALE,SENTA
MARA,31,BUNDA,315,MCHARO,31508,MIHALE,BYOTE
MARA,31,BUNDA,315,MCHARO,31508,MIHALE,CCM
MARA,31,BUNDA,315,MCHARO,31508,NYAMATOKE,KATI
MARA,31,BUNDA,315,MCHARO,31508,NYAMATOKE,AZIMIO
MARA,31,BUNDA,315,MCHARO,31508,NYAMATOKE,UKOMBOZI
MARA,31,BUNDA,315,MCHARO,31508,NYAMATOKE,MAJUSHAA
MARA,31,BUNDA,315,MCHARO,31508,NYAMATOKE,IKOMA RODI
MARA,31,BUNDA,315,MCHARO,31508,NYAMATOKE,MASHARIKI
MARA,31,BUNDA,315,MCHARO,31508,KISANGWA,MANGENYO
MARA,31,BUNDA,315,MCHARO,31508,KISANGWA,KATANI
MARA,31,BUNDA,315,MCHARO,31508,KISANGWA,SENGEREMA
MARA,31,BUNDA,315,MCHARO,31508,MCHARO,MWABASABI
MARA,31,BUNDA,315,MCHARO,31508,MCHARO,MIEMBENI
MARA,31,BUNDA,315,MCHARO,31508,MCHARO,MADUKANI
MARA,31,BUNDA,315,MCHARO,31508,MCHARO,MLIMANI
MARA,31,BUNDA,315,SAZIRA,31509,RUSELU,
MARA,31,BUNDA,315,SAZIRA,31509,MISISI SENTA,
MARA,31,BUNDA,315,SAZIRA,31509,NYAMBITILWA,
MARA,31,BUNDA,315,SAZIRA,31509,BULOSWA,
MARA,31,BUNDA,315,SAZIRA,31509,MASENGETE,
MARA,31,BUNDA,315,SAZIRA,31509,BUKORE,
MARA,31,BUNDA,315,SAZIRA,31509,SHULENI,
MARA,31,BUNDA,315,SAZIRA,31509,NYIENDO,
MARA,31,BUNDA,315,SAZIRA,31509,NYARUGA,
MARA,31,BUNDA,315,SAZIRA,31509,MIRUNGU,
MARA,31,BUNDA,315,SAZIRA,31509,NYAMIGUNGA,
MARA,31,BUNDA,315,SAZIRA,31509,KATI,
MARA,31,BUNDA,315,SAZIRA,31509,MWALINA,
MARA,31,BUNDA,315,SAZIRA,31509,ITABI,
MARA,31,BUNDA,315,SAZIRA,31509,CHABUTWA,
MARA,31,BUNDA,315,SAZIRA,31509,MBUGANI,
MARA,31,BUNDA,315,SAZIRA,31509,NYAMUNYU,
MARA,31,BUNDA,315,SAZIRA,31509,WISEGERE,
MARA,31,BUNDA,315,SAZIRA,31509,KINAMO,
MARA,31,BUNDA,315,SAZIRA,31509,ISAMBYA,
MARA,31,BUNDA,315,SAZIRA,31509,SENTA,
MARA,31,BUNDA,315,SAZIRA,31509,MKURUBI,
MARA,31,BUNDA,315,SAZIRA,31509,SUGUTI,
MARA,31,BUNDA,315,SAZIRA,31509,MUHEME,
MARA,31,BUNDA,315,SAZIRA,31509,KWIGUNGA,
MARA,31,BUNDA,315,WARIKU,31510,KAMKENGA,KAMBARAGE
MARA,31,BUNDA,315,WARIKU,31510,KAMKENGA,LINDARA
MARA,31,BUNDA,315,WARIKU,31510,KAMKENGA,MAGEREZA
MARA,31,BUNDA,315,WARIKU,31510,KAMKENGA,MAPINDUZI
MARA,31,BUNDA,315,WARIKU,31510,KAMKENGA,NYANDAGO
MARA,31,BUNDA,315,WARIKU,31510,KAMKENGA,STOONI
MARA,31,BUNDA,315,WARIKU,31510,KANGETUTYA,BUGANDO
MARA,31,BUNDA,315,WARIKU,31510,KANGETUTYA,MAZAO
MARA,31,BUNDA,315,WARIKU,31510,KANGETUTYA,MAGINA MERU
MARA,31,BUNDA,315,WARIKU,31510,KANGETUTYA,MAKALEKALE
MARA,31,BUNDA,315,WARIKU,31510,KANGETUTYA,MWABASABI
MARA,31,BUNDA,315,WARIKU,31510,KANGETUTYA,SENTA
MARA,31,BUNDA,315,WARIKU,31510,KIWASI,NYAMAMBA
MARA,31,BUNDA,315,WARIKU,31510,KIWASI,STOONI
MARA,31,BUNDA,315,WARIKU,31510,KIWASI,WARIKU
MARA,31,BUNDA,315,WARIKU,31510,RWABU,KISAYENGE
MARA,31,BUNDA,315,WARIKU,31510,RWABU,MAJIMAJI
MARA,31,BUNDA,315,WARIKU,31510,RWABU,NYASHIMBA
MARA,31,BUNDA,315,WARIKU,31510,RWABU,SENTA
MARA,31,BUNDA,315,WARIKU,31510,RWABU,SHULENI
MARA,31,BUNDA,315,NYAMUSWA,31511,NYAMUSWA,KOMONGWE
MARA,31,BUNDA,315,NYAMUSWA,31511,NYAMUSWA,MSIKITINI
MARA,31,BUNDA,315,NYAMUSWA,31511,NYAMUSWA,MSIRIGANYI
MARA,31,BUNDA,315,NYAMUSWA,31511,NYAMUSWA,SEKA
MARA,31,BUNDA,315,NYAMUSWA,31511,NYAMUSWA,MSASANI
MARA,31,BUNDA,315,NYAMUSWA,31511,NYAMUSWA,KANISANI
MARA,31,BUNDA,315,NYAMUSWA,31511,NYAMUSWA,SHULENI
MARA,31,BUNDA,315,NYAMUSWA,31511,NYAMUSWA,LAMBONI
MARA,31,BUNDA,315,NYAMUSWA,31511,NYAMUSWA,NYABIKERE
MARA,31,BUNDA,315,NYAMUSWA,31511,"MAKONGORO ""A""",MAKONGORO CHINI
MARA,31,BUNDA,315,NYAMUSWA,31511,"MAKONGORO ""A""",MAHAKAMANI
MARA,31,BUNDA,315,NYAMUSWA,31511,"MAKONGORO ""A""",WASAGARO
MARA,31,BUNDA,315,NYAMUSWA,31511,"MAKONGORO ""A""",WAGWENGA
MARA,31,BUNDA,315,NYAMUSWA,31511,BUKAMA,BUSENGETE
MARA,31,BUNDA,315,NYAMUSWA,31511,BUKAMA,BUSORE
MARA,31,BUNDA,315,NYAMUSWA,31511,BUKAMA,MISION
MARA,31,BUNDA,315,NYAMUSWA,31511,BUKAMA,MANYAGO
MARA,31,BUNDA,315,NYAMUSWA,31511,"MAKONGORO ""B""",MAKONGORO KATI
MARA,31,BUNDA,315,NYAMUSWA,31511,"MAKONGORO ""B""",MANYAGO
MARA,31,BUNDA,315,NYAMUSWA,31511,"MAKONGORO ""B""",CHABWASI
MARA,31,BUNDA,315,NYAMUSWA,31511,"MAKONGORO ""B""",KERABE
MARA,31,BUNDA,315,HUNYARI,31512,MARIWANDA,BUTAZA
MARA,31,BUNDA,315,HUNYARI,31512,MARIWANDA,BWAWANI
MARA,31,BUNDA,315,HUNYARI,31512,MARIWANDA,KEZANG'A
MARA,31,BUNDA,315,HUNYARI,31512,MARIWANDA,MHONZI B
MARA,31,BUNDA,315,HUNYARI,31512,MARIWANDA,LAMBONI
MARA,31,BUNDA,315,HUNYARI,31512,MARIWANDA,NYIGONZO
MARA,31,BUNDA,315,HUNYARI,31512,HUNYARI,NYANGOTO
MARA,31,BUNDA,315,HUNYARI,31512,HUNYARI,BUNYUNYI
MARA,31,BUNDA,315,HUNYARI,31512,HUNYARI,RUBANA
MARA,31,BUNDA,315,HUNYARI,31512,HUNYARI,WOSANZA A
MARA,31,BUNDA,315,HUNYARI,31512,HUNYARI,WOSANZA B
MARA,31,BUNDA,315,HUNYARI,31512,HUNYARI,NYAMATUTU A
MARA,31,BUNDA,315,HUNYARI,31512,HUNYARI,SEDEKO
MARA,31,BUNDA,315,HUNYARI,31512,HUNYARI,NYAKABINDI
MARA,31,BUNDA,315,HUNYARI,31512,HUNYARI,MANANGASI
MARA,31,BUNDA,315,HUNYARI,31512,HUNYARI,NYAMATUTU B
MARA,31,BUNDA,315,HUNYARI,31512,HUNYARI,MUMAGUNGA
MARA,31,BUNDA,315,HUNYARI,31512,HUNYARI,BULYAMBEZI
MARA,31,BUNDA,315,HUNYARI,31512,HUNYARI,MARAHA
MARA,31,BUNDA,315,HUNYARI,31512,HUNYARI,SUGUTI
MARA,31,BUNDA,315,HUNYARI,31512,KIHUMBU,SENTA
MARA,31,BUNDA,315,HUNYARI,31512,KIHUMBU,SOTEKI
MARA,31,BUNDA,315,HUNYARI,31512,KIHUMBU,MAGANANA
MARA,31,BUNDA,315,HUNYARI,31512,SABASITA,MASELO
MARA,31,BUNDA,315,HUNYARI,31512,SABASITA,MJAKINYWA
MARA,31,BUNDA,315,HUNYARI,31512,SABASITA,MUMWALO
MARA,31,BUNDA,315,HUNYARI,31512,SABASITA,ILALYA
MARA,31,BUNDA,315,HUNYARI,31512,SABASITA,BHORAZA
MARA,31,BUNDA,315,HUNYARI,31512,SABASITA,SABASITA
MARA,31,BUNDA,315,HUNYARI,31512,SABASITA,KITARAYEKA
MARA,31,BUNDA,315,HUNYARI,31512,SABASITA,KICHABWASI
MARA,31,BUNDA,315,HUNYARI,31512,SARAKWA,NYAGENGA
MARA,31,BUNDA,315,HUNYARI,31512,SARAKWA,MAHINA
MARA,31,BUNDA,315,HUNYARI,31512,SARAKWA,RUMANI
MARA,31,BUNDA,315,HUNYARI,31512,SARAKWA,MRERI
MARA,31,BUNDA,315,HUNYARI,31512,SARAKWA,BUJANGARI
MARA,31,BUNDA,315,HUNYARI,31512,SARAKWA,KITAGANKA
MARA,31,BUNDA,315,HUNYARI,31512,SARAKWA,MHONZI A
MARA,31,BUNDA,315,HUNYARI,31512,SARAKWA,MCHANGANI
MARA,31,BUNDA,315,HUNYARI,31512,SARAKWA,UWANJA WA NDEGE
MARA,31,BUNDA,315,HUNYARI,31512,SARAKWA,SINGO
MARA,31,BUNDA,315,HUNYARI,31512,SARAKWA,KILIMANI
MARA,31,BUNDA,315,HUNYARI,31512,SARAKWA,LYAHIKA
MARA,31,BUNDA,315,HUNYARI,31512,SARAKWA,GANDETA
MARA,31,BUNDA,315,HUNYARI,31512,SARAKWA,MASABA
MARA,31,BUNDA,315,HUNYARI,31512,SARAKWA,KIBOROGOTA
MARA,31,BUNDA,315,HUNYARI,31512,SARAKWA,WAMUGUNDA
MARA,31,BUNDA,315,MUGETA,31513,MUGETA,BUKOBA
MARA,31,BUNDA,315,MUGETA,31513,MUGETA,GOGEYA
MARA,31,BUNDA,315,MUGETA,31513,MUGETA,MADUKANI
MARA,31,BUNDA,315,MUGETA,31513,KYANDEGE,SEDEKO
MARA,31,BUNDA,315,MUGETA,31513,KYANDEGE,NYAKYARA
MARA,31,BUNDA,315,MUGETA,31513,KYANDEGE,ROMAGORI
MARA,31,BUNDA,315,MUGETA,31513,TINGIRIMA,CHAMTIRO
MARA,31,BUNDA,315,MUGETA,31513,TINGIRIMA,STOONI
MARA,31,BUNDA,315,MUGETA,31513,TINGIRIMA,MOBIMAHE
MARA,31,BUNDA,315,MUGETA,31513,TINGIRIMA,TINGIRIMA
MARA,31,BUNDA,315,MUGETA,31513,SANZATI,WAGUMI
MARA,31,BUNDA,315,MUGETA,31513,SANZATI,CHAMRIHO
MARA,31,BUNDA,315,MUGETA,31513,SANZATI,KORONG'WE
MARA,31,BUNDA,315,MUGETA,31513,SANZATI,KAWANGARA
MARA,31,BUNDA,315,MUGETA,31513,SANZATI,SENTA
MARA,31,BUNDA,315,MUGETA,31513,RAKANA,RAKANA
MARA,31,BUNDA,315,MUGETA,31513,RAKANA,WASUGA
MARA,31,BUNDA,315,MUGETA,31513,RAKANA,WESALILO
MARA,31,BUNDA,315,MUGETA,31513,RAKANA,WAKEMEGA
MARA,31,BUNDA,315,MUGETA,31513,NYANG'ARANGA,BIAFRA KATI
MARA,31,BUNDA,315,MUGETA,31513,NYANG'ARANGA,MACHINJIONI
MARA,31,BUNDA,315,MUGETA,31513,NYANG'ARANGA,MADUKANI
MARA,31,BUNDA,315,MUGETA,31513,NYANG'ARANGA,MERENGA
MARA,31,BUNDA,315,MUGETA,31513,NYANG'ARANGA,GOGEYA
MARA,31,BUNDA,315,MIHINGO,31514,MIHINGO,SENTA
MARA,31,BUNDA,315,MIHINGO,31514,MIHINGO,MERAMA
MARA,31,BUNDA,315,MIHINGO,31514,MIHINGO,SIRITI
MARA,31,BUNDA,315,MIHINGO,31514,MIHINGO,RAMBONI
MARA,31,BUNDA,315,MIHINGO,31514,MIHINGO,KYANDOBO
MARA,31,BUNDA,315,MIHINGO,31514,MIHINGO,WERYA
MARA,31,BUNDA,315,MIHINGO,31514,MEKOMARIRO,SENTA
MARA,31,BUNDA,315,MIHINGO,31514,MEKOMARIRO,GUTA A
MARA,31,BUNDA,315,MIHINGO,31514,MEKOMARIRO,GUTA B
MARA,31,BUNDA,315,MIHINGO,31514,MEKOMARIRO,NYAMUSWA
MARA,31,BUNDA,315,MIHINGO,31514,MEKOMARIRO,NYANSIRORI
MARA,31,BUNDA,315,MIHINGO,31514,MANCHIMWERU,NYAKYEGI
MARA,31,BUNDA,315,MIHINGO,31514,MANCHIMWERU,NYANUNGU
MARA,31,BUNDA,315,MIHINGO,31514,MANCHIMWERU,NYANG'OMBE
MARA,31,BUNDA,315,MIHINGO,31514,MANCHIMWERU,MISUTO
MARA,31,BUNDA,315,MIHINGO,31514,MANCHIMWERU,SENTA A
MARA,31,BUNDA,315,MIHINGO,31514,MANCHIMWERU,SENTA B
MARA,31,BUNDA,315,MIHINGO,31514,MAHANGA,MAHANGA A
MARA,31,BUNDA,315,MIHINGO,31514,MAHANGA,MAHANGA B
MARA,31,BUNDA,315,MIHINGO,31514,MAHANGA,NYAMOKO A
MARA,31,BUNDA,315,MIHINGO,31514,MAHANGA,NYAMOKO B
MARA,31,BUNDA,315,MIHINGO,31514,MAHANGA,SONGAMBELE
MARA,31,BUNDA,315,SALAMA,31515,SALAMA KATI,KUBIHANGA
MARA,31,BUNDA,315,SALAMA,31515,SALAMA KATI,CHABANA
MARA,31,BUNDA,315,SALAMA,31515,SALAMA KATI,NYABUNYORO
MARA,31,BUNDA,315,SALAMA,31515,SALAMA KATI,WITIRINA
MARA,31,BUNDA,315,SALAMA,31515,KURUSANGA,KWIMANGE
MARA,31,BUNDA,315,SALAMA,31515,KURUSANGA,MLANGO MMOJA
MARA,31,BUNDA,315,SALAMA,31515,KURUSANGA,NYABANGE
MARA,31,BUNDA,315,SALAMA,31515,KURUSANGA,RYAMANG'ARI
MARA,31,BUNDA,315,SALAMA,31515,KURUSANGA,SURULA
MARA,31,BUNDA,315,SALAMA,31515,KURUSANGA,WACHOGE
MARA,31,BUNDA,315,SALAMA,31515,SARAMA  'A',GABARAWE
MARA,31,BUNDA,315,SALAMA,31515,SARAMA  'A',NZARYA
MARA,31,BUNDA,315,SALAMA,31515,SARAMA  'A',KESABO
MARA,31,BUNDA,315,SALAMA,31515,SARAMA  'A',MOKEGARA
MARA,31,BUNDA,315,SALAMA,31515,SARAMA  'A',MUMWALO
MARA,31,BUNDA,315,SALAMA,31515,SARAMA  'A',KONGORO
MARA,31,BUNDA,315,SALAMA,31515,SARAMA  'A',NYABESAWA
MARA,31,BUNDA,315,SALAMA,31515,SARAMA  'A',MAJENGO
MARA,31,BUNDA,315,BUTIMBA,31516,BULAMBA,MTAKUJA
MARA,31,BUNDA,315,BUTIMBA,31516,BULAMBA,MAMWALONI
MARA,31,BUNDA,315,BUTIMBA,31516,BULAMBA,MJINI
MARA,31,BUNDA,315,BUTIMBA,31516,BULAMBA,KAGEE
MARA,31,BUNDA,315,BUTIMBA,31516,BULAMBA,NYABERANGI
MARA,31,BUNDA,315,BUTIMBA,31516,BUZIMBWE,BUTIAMA
MARA,31,BUNDA,315,BUTIMBA,31516,BUZIMBWE,MREMA
MARA,31,BUNDA,315,BUTIMBA,31516,BUZIMBWE,KATI
MARA,31,BUNDA,315,BUTIMBA,31516,BUZIMBWE,MAJENGO
MARA,31,BUNDA,315,BUTIMBA,31516,BUZIMBWE,KAMLEBYA
MARA,31,BUNDA,315,BUTIMBA,31516,MWISENI,SENTA
MARA,31,BUNDA,315,BUTIMBA,31516,MWISENI,BUSOGA
MARA,31,BUNDA,315,BUTIMBA,31516,MWISENI,BUGEGA
MARA,31,BUNDA,315,BUTIMBA,31516,MWISENI,SONGAMBELE
MARA,31,BUNDA,315,NAMHULA,31517,MRANDA,SENTA
MARA,31,BUNDA,315,NAMHULA,31517,MRANDA,BUZIGE
MARA,31,BUNDA,315,NAMHULA,31517,MRANDA,STOO
MARA,31,BUNDA,315,NAMHULA,31517,MRANDA,KANDELEMA
MARA,31,BUNDA,315,NAMHULA,31517,CHINGURUBILA,KATI
MARA,31,BUNDA,315,NAMHULA,31517,CHINGURUBILA,CHINGURUBILA
MARA,31,BUNDA,315,NAMHULA,31517,CHINGURUBILA,KUMRUMO
MARA,31,BUNDA,315,NAMHULA,31517,CHINGURUBILA,KURUGONGO
MARA,31,BUNDA,315,NAMHULA,31517,NAMHULA,NYAKAYUMBA
MARA,31,BUNDA,315,NAMHULA,31517,NAMHULA,STOONI
MARA,31,BUNDA,315,NAMHULA,31517,NAMHULA,MADUKANI
MARA,31,BUNDA,315,NAMHULA,31517,NAMHULA,NYAKASERO
MARA,31,BUNDA,315,NAMHULA,31517,NAMHULA,KWIJUA
MARA,31,BUNDA,315,NAMHULA,31517,NAMHULA,KUKAKEREGE
MARA,31,BUNDA,315,NAMHULA,31517,KARUKEKERE,NYAMAGUSU
MARA,31,BUNDA,315,NAMHULA,31517,KARUKEKERE,HARUZARE
MARA,31,BUNDA,315,NAMHULA,31517,KARUKEKERE,AFRIKA KATI
MARA,31,BUNDA,315,NAMHULA,31517,KARUKEKERE,PANDI
MARA,31,BUNDA,315,NAMHULA,31517,KARUKEKERE,GHATUNDU
MARA,31,BUNDA,315,NERUMA,31518,KASAHUNGA,SENTA
MARA,31,BUNDA,315,NERUMA,31518,KASAHUNGA,STOONI
MARA,31,BUNDA,315,NERUMA,31518,KASAHUNGA,KISIWANI
MARA,31,BUNDA,315,NERUMA,31518,KASAHUNGA,CHANG'OMBE
MARA,31,BUNDA,315,NERUMA,31518,KASAHUNGA,SONGAMBELE
MARA,31,BUNDA,315,NERUMA,31518,KASAHUNGA,PIDA
MARA,31,BUNDA,315,NERUMA,31518,MMAGUNGA,TARIME
MARA,31,BUNDA,315,NERUMA,31518,MMAGUNGA,MAGOMENI
MARA,31,BUNDA,315,NERUMA,31518,MMAGUNGA,ARUSHA
MARA,31,BUNDA,315,NERUMA,31518,MMAGUNGA,TABORA
MARA,31,BUNDA,315,NERUMA,31518,MMAGUNGA,KIJIWENI
MARA,31,BUNDA,315,NERUMA,31518,NAMIBU,"MIEMBENI, LWIGA"
MARA,31,BUNDA,315,NERUMA,31518,NAMIBU,KAGEE
MARA,31,BUNDA,315,NERUMA,31518,NAMIBU,KAHAMA
MARA,31,BUNDA,315,NERUMA,31518,NAMIBU,MABATINI
MARA,31,BUNDA,315,NERUMA,31518,NAMIBU,CHANG'OMBE
MARA,31,BUNDA,315,NERUMA,31518,NERUMA,CHAMAKAPO
MARA,31,BUNDA,315,NERUMA,31518,NERUMA,NALUSULYA
MARA,31,BUNDA,315,NERUMA,31518,NERUMA,MADUKANI
MARA,31,BUNDA,315,NERUMA,31518,NERUMA,NASEGWE
MARA,31,BUNDA,315,NERUMA,31518,NERUMA,STOONI
MARA,31,BUNDA,315,NERUMA,31518,NERUMA,CHANG'OMBE
MARA,31,BUNDA,315,IRAMBA,31519,ISANJU,MANISPAA
MARA,31,BUNDA,315,IRAMBA,31519,ISANJU,KUMURUMO
MARA,31,BUNDA,315,IRAMBA,31519,ISANJU,MLIMANI
MARA,31,BUNDA,315,IRAMBA,31519,ISANJU,SOROTOLA
MARA,31,BUNDA,315,IRAMBA,31519,ISANJU,NYANTAFULAMIRWA
MARA,31,BUNDA,315,IRAMBA,31519,ISANJU,NYALWALA
MARA,31,BUNDA,315,IRAMBA,31519,MUGARA,NYALINA
MARA,31,BUNDA,315,IRAMBA,31519,MUGARA,MTAKUJA
MARA,31,BUNDA,315,IRAMBA,31519,MUGARA,MAJENGO
MARA,31,BUNDA,315,IRAMBA,31519,MUGARA,MADUKANI
MARA,31,BUNDA,315,IRAMBA,31519,MWIRURUMA,CHANG'OMBE
MARA,31,BUNDA,315,IRAMBA,31519,MWIRURUMA,MUMAYALE
MARA,31,BUNDA,315,IRAMBA,31519,MWIRURUMA,MASHUJAA
MARA,31,BUNDA,315,IRAMBA,31519,MWIRURUMA,MWIRURUMA
MARA,31,BUNDA,315,IRAMBA,31519,SIKIRO,KUMUSENYI
MARA,31,BUNDA,315,IRAMBA,31519,SIKIRO,NYARINA
MARA,31,BUNDA,315,IRAMBA,31519,SIKIRO,MUMAYALE
MARA,31,BUNDA,315,IRAMBA,31519,NYARUGOMA,KWIVUNGULI
MARA,31,BUNDA,315,IRAMBA,31519,NYARUGOMA,NYARUGOMA
MARA,31,BUNDA,315,IRAMBA,31519,NYARUGOMA,KASTAMU
MARA,31,BUNDA,315,KIBARA,31520,KIBARA 'A',KIBARA KATI
MARA,31,BUNDA,315,KIBARA,31520,KIBARA 'A',UKUMBINI
MARA,31,BUNDA,315,KIBARA,31520,KIBARA 'A',MAJENGO
MARA,31,BUNDA,315,KIBARA,31520,KIBARA 'A',TANESCO
MARA,31,BUNDA,315,KIBARA,31520,KIBARA 'B',MIEMBENI
MARA,31,BUNDA,315,KIBARA,31520,KIBARA 'B',SOKONI
MARA,31,BUNDA,315,KIBARA,31520,KIBARA 'B',BOMANI
MARA,31,BUNDA,315,KIBARA,31520,KIBARA 'B',SHULENI
MARA,31,BUNDA,315,KIBARA,31520,KIBARA STOO,HOSPITALI
MARA,31,BUNDA,315,KIBARA,31520,KIBARA STOO,MFUGAJI
MARA,31,BUNDA,315,KIBARA,31520,KIBARA STOO,KANISANI
MARA,31,BUNDA,315,KIBARA,31520,KIBARA STOO,KISIMANI
MARA,31,BUNDA,315,KIBARA,31520,MWIBARA,KISIWANI
MARA,31,BUNDA,315,KIBARA,31520,MWIBARA,BWAWANI
MARA,31,BUNDA,315,KIBARA,31520,MWIBARA,SENTA
MARA,31,BUNDA,315,KIBARA,31520,MWIBARA,KASKAZINI
MARA,31,BUNDA,315,NANSIMO,31521,NANSIMO,LEGEZA
MARA,31,BUNDA,315,NANSIMO,31521,NANSIMO,KAMCHECHE
MARA,31,BUNDA,315,NANSIMO,31521,NANSIMO,KALUMO
MARA,31,BUNDA,315,NANSIMO,31521,NANSIMO,KULYANDE
MARA,31,BUNDA,315,NANSIMO,31521,NANSIMO,BARAZANI
MARA,31,BUNDA,315,NANSIMO,31521,NAMBAZA,STOONI
MARA,31,BUNDA,315,NANSIMO,31521,NAMBAZA,LEGEZA
MARA,31,BUNDA,315,NANSIMO,31521,NAMBAZA,SHULENI
MARA,31,BUNDA,315,NANSIMO,31521,NAMBAZA,MAGUNGE
MARA,31,BUNDA,315,NANSIMO,31521,NAMBAZA,DODOMA
MARA,31,BUNDA,315,NANSIMO,31521,NAFUBA,IHITA
MARA,31,BUNDA,315,NANSIMO,31521,NAFUBA,NALINA
MARA,31,BUNDA,315,NANSIMO,31521,NAFUBA,KIRONGO
MARA,31,BUNDA,315,NANSIMO,31521,MWITENDE,MLIMANI
MARA,31,BUNDA,315,NANSIMO,31521,MWITENDE,MWITENDE STANDI
MARA,31,BUNDA,315,NANSIMO,31521,MWITENDE,GENGE STENDI
MARA,31,BUNDA,315,NANSIMO,31521,MWITENDE,NAMBIRO
MARA,31,BUNDA,315,NANSIMO,31521,KIGAGA,MWANZA
MARA,31,BUNDA,315,NANSIMO,31521,KIGAGA,SHULENI
MARA,31,BUNDA,315,NANSIMO,31521,KIGAGA,MIFUBE
MARA,31,BUNDA,315,NANSIMO,31521,KIGAGA,KILWILWI
MARA,31,BUNDA,315,IGUNDU,31522,IGUNDU,KABARONGO
MARA,31,BUNDA,315,IGUNDU,31522,IGUNDU,MWIBARA
MARA,31,BUNDA,315,IGUNDU,31522,IGUNDU,MANGIRE
MARA,31,BUNDA,315,IGUNDU,31522,IGUNDU,BUWERA
MARA,31,BUNDA,315,IGUNDU,31522,IGUNDU,BULOMBA
MARA,31,BUNDA,315,IGUNDU,31522,IGUNDU,KEMIANO
MARA,31,BUNDA,315,IGUNDU,31522,NAMALAMA,NAMALAMA
MARA,31,BUNDA,315,IGUNDU,31522,NAMALAMA,MUHULULA
MARA,31,BUNDA,315,IGUNDU,31522,NAMALAMA,BULEGEA
MARA,31,BUNDA,315,IGUNDU,31522,BULENDABUFWE,BOMANI
MARA,31,BUNDA,315,IGUNDU,31522,BULENDABUFWE,SONGE
MARA,31,BUNDA,315,IGUNDU,31522,BULENDABUFWE,KUMULUMO
MARA,31,BUNDA,315,IGUNDU,31522,BULENDABUFWE,KARUKEKERE
MARA,31,BUNDA,315,IGUNDU,31522,BULENDABUFWE,KUMUYENJE
MARA,31,BUNDA,315,IGUNDU,31522,MCHIGONDO,MCHIGONDO
MARA,31,BUNDA,315,IGUNDU,31522,MCHIGONDO,MWIYESERO
MARA,31,BUNDA,315,IGUNDU,31522,MCHIGONDO,BUGUMA
MARA,31,BUNDA,315,IGUNDU,31522,MCHIGONDO,MULUSENYI
MARA,31,BUNDA,315,IGUNDU,31522,MCHIGONDO,MEKALA
MARA,31,BUNDA,315,KISORYA,31523,MASAHUNGA,SONGAMBELE A
MARA,31,BUNDA,315,KISORYA,31523,MASAHUNGA,SONGAMBELE B
MARA,31,BUNDA,315,KISORYA,31523,MASAHUNGA,MWILINDI
MARA,31,BUNDA,315,KISORYA,31523,MASAHUNGA,CCM
MARA,31,BUNDA,315,KISORYA,31523,NAMPANGALA,MCHAI
MARA,31,BUNDA,315,KISORYA,31523,NAMPANGALA,BWEZA
MARA,31,BUNDA,315,KISORYA,31523,NAMPANGALA,PARISHI
MARA,31,BUNDA,315,KISORYA,31523,NAMBUBU,BUHOLO
MARA,31,BUNDA,315,KISORYA,31523,NAMBUBU,KALUMO
MARA,31,BUNDA,315,KISORYA,31523,NAMBUBU,BUSHOLA
MARA,31,BUNDA,315,KISORYA,31523,NAMBUBU,KAGERA
MARA,31,BUNDA,315,KISORYA,31523,NAMBUBU,MTUZU
MARA,31,BUNDA,315,KISORYA,31523,KISORYA,KIVUKONI
MARA,31,BUNDA,315,KISORYA,31523,KISORYA,MADUKANI A
MARA,31,BUNDA,315,KISORYA,31523,KISORYA,MADUKANI B
MARA,31,BUNDA,315,NYAMANG'UTA,31524,KILOLELI,NYIGOGO
MARA,31,BUNDA,315,NYAMANG'UTA,31524,KILOLELI,MWIRAGAZA
MARA,31,BUNDA,315,NYAMANG'UTA,31524,KILOLELI,KOWA
MARA,31,BUNDA,315,NYAMANG'UTA,31524,KILOLELI,KIJIWENI
MARA,31,BUNDA,315,NYAMANG'UTA,31524,KILOLELI,SUGUTI
MARA,31,BUNDA,315,NYAMANG'UTA,31524,SARAWE,MWINYAKI
MARA,31,BUNDA,315,NYAMANG'UTA,31524,SARAWE,CHAMTIRO
MARA,31,BUNDA,315,NYAMANG'UTA,31524,SARAWE,MIEMBENI
MARA,31,BUNDA,315,NYAMANG'UTA,31524,SARAWE,NYAMONDE
MARA,31,BUNDA,315,NYAMANG'UTA,31524,SARAWE,KIJIWENI
MARA,31,BUNDA,315,NYAMANG'UTA,31524,SARAWE,BWIGASI
MARA,31,BUNDA,315,NYAMANG'UTA,31524,KAMBUBU,KIRORELI
MARA,31,BUNDA,315,NYAMANG'UTA,31524,KAMBUBU,KAMBUBU
MARA,31,BUNDA,315,NYAMANG'UTA,31524,KAMBUBU,NYAMIRI
MARA,31,BUNDA,315,NYAMANG'UTA,31524,KAMBUBU,NYAKWIGAMBILA
MARA,31,BUNDA,315,NYAMANG'UTA,31524,KAMBUBU,SENTA
MARA,31,BUNDA,315,NYAMANG'UTA,31524,KAMBUBU,SANGERA
MARA,31,BUNDA,315,NYAMANG'UTA,31524,NYANGERE,MENG'WE
MARA,31,BUNDA,315,NYAMANG'UTA,31524,NYANGERE,BETOBE
MARA,31,BUNDA,315,NYAMANG'UTA,31524,NYANGERE,RWABADAMU
MARA,31,BUNDA,315,NYAMANG'UTA,31524,NYANGERE,KIZOMU
MARA,31,BUNDA,315,NYAMANG'UTA,31524,NYANGERE,IMARIRO
MARA,31,BUNDA,315,NYAMANG'UTA,31524,NYANGERE,KOROSORO
MARA,31,BUNDA,315,NYAMANG'UTA,31524,NYABUZUME,MLIMANI
MARA,31,BUNDA,315,NYAMANG'UTA,31524,NYABUZUME,SENTA
MARA,31,BUNDA,315,NYAMANG'UTA,31524,NYABUZUME,MAJENGO
MARA,31,BUNDA,315,KETARE,31525,MARAMBEKA,WARUBINI
MARA,31,BUNDA,315,KETARE,31525,MARAMBEKA,KOROMOLE
MARA,31,BUNDA,315,KETARE,31525,MARAMBEKA,CHAKUNDI
MARA,31,BUNDA,315,KETARE,31525,MARAMBEKA,KETARE
MARA,31,BUNDA,315,KETARE,31525,NYABURUNDU,BURUGARILA
MARA,31,BUNDA,315,KETARE,31525,NYABURUNDU,KIBERENGE
MARA,31,BUNDA,315,KETARE,31525,NYABURUNDU,NYAMITABURO
MARA,31,BUNDA,315,KETARE,31525,NYABURUNDU,NYASAGA
MARA,31,BUNDA,315,KETARE,31525,NYABURUNDU,KUNGURUKAKA
MARA,31,BUNDA,315,KETARE,31525,NYABURUNDU,CHESABI
MARA,31,BUNDA,315,KETARE,31525,BIGEGU,BIGEGU A
MARA,31,BUNDA,315,KETARE,31525,BIGEGU,BIGEGU B
MARA,31,BUNDA,315,KETARE,31525,BIGEGU,SENTA
MARA,31,BUNDA,315,KETARE,31525,BIGEGU,KYARANO
MARA,31,BUNDA,315,KETARE,31525,TIRING'ATI,NYARUKUKUBI
MARA,31,BUNDA,315,KETARE,31525,TIRING'ATI,NYAMINOZI
MARA,31,BUNDA,315,KETARE,31525,TIRING'ATI,KATI
MARA,31,BUNDA,315,KETARE,31525,TIRING'ATI,MASANZERI
MARA,31,BUNDA,315,KETARE,31525,TIRING'ATI,NYAMITITA
MARA,31,BUNDA,315,KASUGUTI,31526,KABAINJA,LAMBO
MARA,31,BUNDA,315,KASUGUTI,31526,KABAINJA,NYAMISISI
MARA,31,BUNDA,315,KASUGUTI,31526,KABAINJA,KAMNYONGE
MARA,31,BUNDA,315,KASUGUTI,31526,KABAINJA,NAFUBA
MARA,31,BUNDA,315,KASUGUTI,31526,KABAINJA,SONGAMBELE
MARA,31,BUNDA,315,KASUGUTI,31526,KASUGUTI,NYARUSAWA
MARA,31,BUNDA,315,KASUGUTI,31526,KASUGUTI,BUGEGA
MARA,31,BUNDA,315,KASUGUTI,31526,KASUGUTI,BUSOGA
MARA,31,BUNDA,315,KASUGUTI,31526,KASUGUTI,STOONI
MARA,31,BUNDA,315,KASUGUTI,31526,KASUGUTI,KATI
MARA,31,BUNDA,315,KASUGUTI,31526,KASUGUTI,MADUKANI
MARA,31,BUNDA,315,KASUGUTI,31526,RAGATA,MWIRURUMA
MARA,31,BUNDA,315,KASUGUTI,31526,RAGATA,CHANG'OMBE
MARA,31,BUNDA,315,KASUGUTI,31526,RAGATA,MAKUNDUSI
MARA,31,BUNDA,315,KASUGUTI,31526,RAGATA,KAGEREGE
MARA,31,BUNDA,315,KASUGUTI,31526,RAGATA,SENTA
MARA,31,BUNDA,315,CHITENGULE,31527,BUNERE,KASENI
MARA,31,BUNDA,315,CHITENGULE,31527,BUNERE,KATI
MARA,31,BUNDA,315,CHITENGULE,31527,BUNERE,IBUNDE
MARA,31,BUNDA,315,CHITENGULE,31527,BUNERE,CHANG'OMBE
MARA,31,BUNDA,315,CHITENGULE,31527,BUSAMBARA,STOONI
MARA,31,BUNDA,315,CHITENGULE,31527,BUSAMBARA,NARULUMU
MARA,31,BUNDA,315,CHITENGULE,31527,BUSAMBARA,BUSAMBARA
MARA,31,BUNDA,315,CHITENGULE,31527,BUSAMBARA,MCHANGANI
MARA,31,BUNDA,315,CHITENGULE,31527,NAKATUBA,MADUKANI
MARA,31,BUNDA,315,CHITENGULE,31527,NAKATUBA,NAKATUBA-STOONI
MARA,31,BUNDA,315,CHITENGULE,31527,NAKATUBA,NANSURULI
MARA,31,BUNDA,315,CHITENGULE,31527,NAMALEBE,IBWAGALILO
MARA,31,BUNDA,315,CHITENGULE,31527,NAMALEBE,SHULENI
MARA,31,BUNDA,315,CHITENGULE,31527,NAMALEBE,MADUKANI
MARA,31,BUNDA,315,CHITENGULE,31527,CHITENGULE,KITENGULE
MARA,31,BUNDA,315,CHITENGULE,31527,CHITENGULE,BUGANDO A
MARA,31,BUNDA,315,CHITENGULE,31527,CHITENGULE,BUGANDO B
MARA,31,BUNDA,315,CHITENGULE,31527,CHITENGULE,NEGONGO A
MARA,31,BUNDA,315,CHITENGULE,31527,CHITENGULE,NEGONGO B
MARA,31,BUNDA,315,NAMPINDI,31528,BWANZA,MIEMBENI
MARA,31,BUNDA,315,NAMPINDI,31528,BWANZA,HARWEGO
MARA,31,BUNDA,315,NAMPINDI,31528,BWANZA,MWALONI
MARA,31,BUNDA,315,NAMPINDI,31528,BWANZA,MIKUYUNI
MARA,31,BUNDA,315,NAMPINDI,31528,BWANZA,KAGERA
MARA,31,BUNDA,315,NAMPINDI,31528,BWANZA,MLIMANI
MARA,31,BUNDA,315,NAMPINDI,31528,SUNSI,SENTA
MARA,31,BUNDA,315,NAMPINDI,31528,SUNSI,MLIMANI
MARA,31,BUNDA,315,NAMPINDI,31528,SUNSI,MUMULUMO
MARA,31,BUNDA,315,NAMPINDI,31528,SUNSI,ZIWA
MARA,31,BUNDA,315,NAMPINDI,31528,BUSAMBU,MIEMBENI
MARA,31,BUNDA,315,NAMPINDI,31528,BUSAMBU,KATI
MARA,31,BUNDA,315,NAMPINDI,31528,BUSAMBU,BUSAMBU B
MARA,31,BUNDA,315,NAMPINDI,31528,BUSAMBU,BUSAMBU SENTA
MARA,31,BUNDA,315,NAMPINDI,31528,MAKWA,KABIRIZI
MARA,31,BUNDA,315,NAMPINDI,31528,MAKWA,KATEKEZYO
MARA,31,BUNDA,315,NAMPINDI,31528,MAKWA,MAKWA A
MARA,31,BUNDA,315,NAMPINDI,31528,MAKWA,MAKWA B
MARA,31,BUNDA,315,NYAMIHORO,31529,NYAMITWEBILI,SENTA
MARA,31,BUNDA,315,NYAMIHORO,31529,NYAMITWEBILI,MAJI
MARA,31,BUNDA,315,NYAMIHORO,31529,NYAMITWEBILI,KABIBI
MARA,31,BUNDA,315,NYAMIHORO,31529,NYAMITWEBILI,NYAMATERELE
MARA,31,BUNDA,315,NYAMIHORO,31529,HARUZALE,STOONI
MARA,31,BUNDA,315,NYAMIHORO,31529,HARUZALE,BUYALAMBE
MARA,31,BUNDA,315,NYAMIHORO,31529,HARUZALE,LUJORORA
MARA,31,BUNDA,315,NYAMIHORO,31529,MAHYORO,KABIDI
MARA,31,BUNDA,315,NYAMIHORO,31529,MAHYORO,MLIMANI
MARA,31,BUNDA,315,NYAMIHORO,31529,MAHYORO,BBC
MARA,31,BUNDA,315,NYAMIHORO,31529,MAHYORO,NYAKAYONGA
MARA,31,BUNDA,315,NYAMIHORO,31529,MAHYORO,BUGEGA
MARA,31,BUNDA,315,KABARIMU,31530,SARANGA,
MARA,31,BUNDA,315,KABARIMU,31530,MAJENGO,
MARA,31,BUNDA,315,KABARIMU,31530,MAPINDUZI,
MARA,31,BUNDA,315,KABARIMU,31530,KABARIMU,
MARA,31,BUNDA,315,NYAMAKOKOTO,31531,KABUSULE,
MARA,31,BUNDA,315,NYAMAKOKOTO,31531,UKEREWE ROAD,
MARA,31,BUNDA,315,NYAMAKOKOTO,31531,NYAMAKOKOTO,
MARA,31,BUNDA,315,NYAMAKOKOTO,31531,MAJENGO MAPYA,
MARA,31,BUNDA,315,NYAMAKOKOTO,31531,MBULUMATALE,
MARA,31,BUNDA,315,NYAMAKOKOTO,31531,MBUGANI,
MARA,31,BUNDA,315,MANYAMANYAMA,31532,MBUGANI,MBUGANI
MARA,31,BUNDA,315,MANYAMANYAMA,31532,MBUGANI,MIEMBENI
MARA,31,BUNDA,315,MANYAMANYAMA,31532,MBUGANI,KATORIKI
MARA,31,BUNDA,315,MANYAMANYAMA,31532,MBUGANI,SHULENI
MARA,31,BUNDA,315,MANYAMANYAMA,31532,MBUGANI,KATI
MARA,31,SERENGETI,316,MUGUMU,31602,,MCU
MARA,31,SERENGETI,316,MUGUMU,31602,,NHC
MARA,31,SERENGETI,316,MUGUMU,31602,,SEDECO
MARA,31,SERENGETI,316,MUGUMU,31602,,STENDI MPYA
MARA,31,SERENGETI,316,STENDI KUU,31603,,KYABAKARI
MARA,31,SERENGETI,316,STENDI KUU,31603,,CHAMOTO
MARA,31,SERENGETI,316,STENDI KUU,31603,,BOMANI
MARA,31,SERENGETI,316,GEITASAMO,31604,,KERENERO
MARA,31,SERENGETI,316,GEITASAMO,31604,,NYAMOKO
MARA,31,SERENGETI,316,GEITASAMO,31604,,NYAMERAMO
MARA,31,SERENGETI,316,MOROTONGA,31605,,SERONGA
MARA,31,SERENGETI,316,MOROTONGA,31605,,MUTUKURA
MARA,31,SERENGETI,316,MOROTONGA,31605,,ROMAKENDO
MARA,31,SERENGETI,316,UWANJA WA NDEGE,31606,,BURUNGA
MARA,31,SERENGETI,316,UWANJA WA NDEGE,31606,,KYAMBAHI
MARA,31,SERENGETI,316,UWANJA WA NDEGE,31606,,NGARAWANI
MARA,31,SERENGETI,316,UWANJA WA NDEGE,31606,,MARURU
MARA,31,SERENGETI,316,NYAMOKO,31607,KWITETE,KWITETE
MARA,31,SERENGETI,316,NYAMOKO,31607,KWITETE,GETAGASEMBE
MARA,31,SERENGETI,316,NYAMOKO,31607,KWITETE,MIFUGO
MARA,31,SERENGETI,316,NYAMOKO,31607,KWITETE,KWIRAMBO
MARA,31,SERENGETI,316,NYAMOKO,31607,KWITETE,NYAMAKENDO
MARA,31,SERENGETI,316,NYAMOKO,31607,KWITETE,NYANGWE
MARA,31,SERENGETI,316,NYAMOKO,31607,ITUNUNU,KICHONGO
MARA,31,SERENGETI,316,NYAMOKO,31607,ITUNUNU,BUTIAMA
MARA,31,SERENGETI,316,NYAMOKO,31607,ITUNUNU,MANYATA
MARA,31,SERENGETI,316,NYAMOKO,31607,ITUNUNU,MLIMANI
MARA,31,SERENGETI,316,NYAMOKO,31607,MASANGURA,MASANGURA SENTA
MARA,31,SERENGETI,316,NYAMOKO,31607,MASANGURA,BUTIAMA B
MARA,31,SERENGETI,316,KYAMBAHI,31608,NYICHOKA,STOONI
MARA,31,SERENGETI,316,KYAMBAHI,31608,NYICHOKA,SONGAMBELE
MARA,31,SERENGETI,316,KYAMBAHI,31608,NYICHOKA,MANYAGO
MARA,31,SERENGETI,316,KYAMBAHI,31608,NYANUNGU,NYANUNGU
MARA,31,SERENGETI,316,KYAMBAHI,31608,NYANUNGU,NYAMERAMA
MARA,31,SERENGETI,316,KYAMBAHI,31608,NYANUNGU,NYAMBARO
MARA,31,SERENGETI,316,KYAMBAHI,31608,BOKORE,BOKORE
MARA,31,SERENGETI,316,KYAMBAHI,31608,BOKORE,BARABARANI
MARA,31,SERENGETI,316,KYAMBAHI,31608,BOKORE,NYIGOTI
MARA,31,SERENGETI,316,KYAMBAHI,31608,BOKORE,MARURU
MARA,31,SERENGETI,316,MANCHIRA,31609,RWAMCHANGA,KILIMO A
MARA,31,SERENGETI,316,MANCHIRA,31609,RWAMCHANGA,KILIMO B
MARA,31,SERENGETI,316,MANCHIRA,31609,RWAMCHANGA,NYANSIRORI
MARA,31,SERENGETI,316,MANCHIRA,31609,RWAMCHANGA,MAENDELEO
MARA,31,SERENGETI,316,MANCHIRA,31609,KAZI,CHAKAZI
MARA,31,SERENGETI,316,MANCHIRA,31609,KAZI,MANCHIRA
MARA,31,SERENGETI,316,MANCHIRA,31609,KAZI,MAJENGO
MARA,31,SERENGETI,316,MANCHIRA,31609,MISEKE,MAJENGO
MARA,31,SERENGETI,316,MANCHIRA,31609,MISEKE,SENTA
MARA,31,SERENGETI,316,MANCHIRA,31609,MISEKE,NTAMIO
MARA,31,SERENGETI,316,MANCHIRA,31609,MISEKE,MATUMAINI
MARA,31,SERENGETI,316,MANCHIRA,31609,MISEKE,BIAFRA
MARA,31,SERENGETI,316,MANCHIRA,31609,MISEKE,KAZAROHO
MARA,31,SERENGETI,316,MANCHIRA,31609,MISEKE,MISERERE
MARA,31,SERENGETI,316,MANCHIRA,31609,BWITENGI,NYAMBIRI
MARA,31,SERENGETI,316,MANCHIRA,31609,BWITENGI,NYASHO
MARA,31,SERENGETI,316,MANCHIRA,31609,BWITENGI,MTAKUJA
MARA,31,SERENGETI,316,MANCHIRA,31609,BWITENGI,MEWALA
MARA,31,SERENGETI,316,MANCHIRA,31609,BWITENGI,MAJENGO
MARA,31,SERENGETI,316,MANCHIRA,31609,BWITENGI,SENTA
MARA,31,SERENGETI,316,KISANGURA,31610,BWITENGI,KISANGURA
MARA,31,SERENGETI,316,KISANGURA,31610,BWITENGI,KIBEYO
MARA,31,SERENGETI,316,KISANGURA,31610,BWITENGI,KEBOSONGO
MARA,31,SERENGETI,316,MACHOCHWE,31611,MACHOCHWE,MAGUHA
MARA,31,SERENGETI,316,MACHOCHWE,31611,MACHOCHWE,MABATINI
MARA,31,SERENGETI,316,MACHOCHWE,31611,MACHOCHWE,JERMAN
MARA,31,SERENGETI,316,MACHOCHWE,31611,MACHOCHWE,NYANGOTO
MARA,31,SERENGETI,316,MACHOCHWE,31611,MACHOCHWE,GICHONGO
MARA,31,SERENGETI,316,MACHOCHWE,31611,MACHOCHWE,MOTURYO
MARA,31,SERENGETI,316,MACHOCHWE,31611,NYAMAKENDO,GWITEMBE
MARA,31,SERENGETI,316,MACHOCHWE,31611,NYAMAKENDO,NYAMITURUMWA
MARA,31,SERENGETI,316,MACHOCHWE,31611,NYAMAKENDO,KERENERO
MARA,31,SERENGETI,316,MACHOCHWE,31611,NYAMAKENDO,BUSABOKA
MARA,31,SERENGETI,316,MACHOCHWE,31611,MANYATA,MGONGO WA TEMBO
MARA,31,SERENGETI,316,MACHOCHWE,31611,MANYATA,NYAMIRI
MARA,31,SERENGETI,316,MACHOCHWE,31611,MANYATA,AMANI
MARA,31,SERENGETI,316,MACHOCHWE,31611,MANYATA,NYAMONGWE
MARA,31,SERENGETI,316,RUNG'ABURE,31612,RUNG’ABURE,NYAMEMBA
MARA,31,SERENGETI,316,RUNG'ABURE,31612,RUNG’ABURE,MACHOKA
MARA,31,SERENGETI,316,RUNG'ABURE,31612,RUNG’ABURE,KWANINA
MARA,31,SERENGETI,316,RUNG'ABURE,31612,RUNG’ABURE,RUKUBO
MARA,31,SERENGETI,316,RUNG'ABURE,31612,RUNG’ABURE,NYAROKONGO
MARA,31,SERENGETI,316,RUNG'ABURE,31612,RUNG’ABURE,KONGERO
MARA,31,SERENGETI,316,RUNG'ABURE,31612,RUNG’ABURE,MNAZI MMOJA
MARA,31,SERENGETI,316,RUNG'ABURE,31612,RUNG’ABURE,SENTA
MARA,31,SERENGETI,316,RUNG'ABURE,31612,GESARYA,NYAMASISI
MARA,31,SERENGETI,316,RUNG'ABURE,31612,GESARYA,KOKEREGE
MARA,31,SERENGETI,316,RUNG'ABURE,31612,GESARYA,SENTA NDOGO
MARA,31,SERENGETI,316,RUNG'ABURE,31612,GESARYA,GESARYA
MARA,31,SERENGETI,316,RUNG'ABURE,31612,NYAMERAMA,NYAMERAMA
MARA,31,SERENGETI,316,RUNG'ABURE,31612,NYAMERAMA,GOKEMANGE
MARA,31,SERENGETI,316,RUNG'ABURE,31612,NYAMERAMA,KUNUNGU
MARA,31,SERENGETI,316,RUNG'ABURE,31612,NYAMERAMA,BOHEMBA
MARA,31,SERENGETI,316,RUNG'ABURE,31612,NYAMERAMA,GETARUNGU
MARA,31,SERENGETI,316,KEBANCHABANCHA,31613,KEBANCHEBANCHE,GETENGA
MARA,31,SERENGETI,316,KEBANCHABANCHA,31613,KEBANCHEBANCHE,NYAROKONGO
MARA,31,SERENGETI,316,KEBANCHABANCHA,31613,KEBANCHEBANCHE,REMRUNGU
MARA,31,SERENGETI,316,KEBANCHABANCHA,31613,KEBANCHEBANCHE,SALAMA
MARA,31,SERENGETI,316,KEBANCHABANCHA,31613,KEBANCHEBANCHE,MADUKANI
MARA,31,SERENGETI,316,KEBANCHABANCHA,31613,MUSATI,SENTA
MARA,31,SERENGETI,316,KEBANCHABANCHA,31613,MUSATI,MCHURI
MARA,31,SERENGETI,316,KEBANCHABANCHA,31613,MUSATI,MASANGURA
MARA,31,SERENGETI,316,KEBANCHABANCHA,31613,MUSATI,NYAROKONGO
MARA,31,SERENGETI,316,KEBANCHABANCHA,31613,SOGOTI,MANYUNI
MARA,31,SERENGETI,316,KEBANCHABANCHA,31613,SOGOTI,KOHEWA
MARA,31,SERENGETI,316,KEBANCHABANCHA,31613,SOGOTI,KEMARONGE
MARA,31,SERENGETI,316,KEBANCHABANCHA,31613,SOGOTI,NYAMBICHURE
MARA,31,SERENGETI,316,KEBANCHABANCHA,31613,SOGOTI,MRIBA
MARA,31,SERENGETI,316,KEBANCHABANCHA,31613,SOGOTI,MORISYAOSANGAI
MARA,31,SERENGETI,316,RING'WANI,31614,KENYANA,KENYANA B
MARA,31,SERENGETI,316,RING'WANI,31614,KENYANA,MOCHURI
MARA,31,SERENGETI,316,RING'WANI,31614,KENYANA,MOKEHOGO
MARA,31,SERENGETI,316,RING'WANI,31614,RING’WANI,MARURU
MARA,31,SERENGETI,316,RING'WANI,31614,RING’WANI,MACHEBE
MARA,31,SERENGETI,316,RING'WANI,31614,RING’WANI,MAGANGE
MARA,31,SERENGETI,316,RING'WANI,31614,NYAMITITA,NYAMITITA
MARA,31,SERENGETI,316,RING'WANI,31614,NYAMITITA,KEBUSE
MARA,31,SERENGETI,316,RING'WANI,31614,NYAMITITA,GEBASUKA
MARA,31,SERENGETI,316,RING'WANI,31614,NYAMITITA,NYANTARE
MARA,31,SERENGETI,316,RING'WANI,31614,NYAMITITA,BUCHORA
MARA,31,SERENGETI,316,NYAMATARE,31615,NYAMATARE,KEMGESI
MARA,31,SERENGETI,316,NYAMATARE,31615,NYAMATARE,SANG’ANGA
MARA,31,SERENGETI,316,NYAMATARE,31615,KEMUGESI,KEMGONGO ‘A’
MARA,31,SERENGETI,316,NYAMATARE,31615,KEMUGESI,KEMGONGO ‘B’
MARA,31,SERENGETI,316,NYAMATARE,31615,KEMUGESI,INYETERO
MARA,31,SERENGETI,316,NYAMATARE,31615,KEMUGESI,MAKONDOSE
MARA,31,SERENGETI,316,NYAMATARE,31615,KEMUGESI,NYAMATARE
MARA,31,SERENGETI,316,NYAMATARE,31615,KEMUGESI,NYIRONGO
MARA,31,SERENGETI,316,NATTA,31616,NATTA- MBISO,MAJENGO
MARA,31,SERENGETI,316,NATTA,31616,NATTA- MBISO,MABEBONDA
MARA,31,SERENGETI,316,NATTA,31616,NATTA- MBISO,MAMBASWE
MARA,31,SERENGETI,316,NATTA,31616,NATTA- MBISO,MCHANG’ORO
MARA,31,SERENGETI,316,NATTA,31616,NATTA- MBISO,BUGERERA
MARA,31,SERENGETI,316,NATTA,31616,MOTUKERI,BIGO
MARA,31,SERENGETI,316,NATTA,31616,MOTUKERI,MAGERIGA
MARA,31,SERENGETI,316,NATTA,31616,MOTUKERI,KING’WE
MARA,31,SERENGETI,316,NATTA,31616,MOTUKERI,MBUGANI
MARA,31,SERENGETI,316,NATTA,31616,KONO,SHULENI
MARA,31,SERENGETI,316,NATTA,31616,KONO,MANAWA
MARA,31,SERENGETI,316,NATTA,31616,KONO,MAKOROBOI
MARA,31,SERENGETI,316,NATTA,31616,MAKUNDUSI,MAKUNDUSI
MARA,31,SERENGETI,316,NATTA,31616,MAKUNDUSI,NYAKITONO
MARA,31,SERENGETI,316,NATTA,31616,MAKUNDUSI,NYARUGUSU
MARA,31,SERENGETI,316,ISSENYE,31617,NYIBEREKERA,STOONI
MARA,31,SERENGETI,316,ISSENYE,31617,NYIBEREKERA,MADUKANI
MARA,31,SERENGETI,316,ISSENYE,31617,NYIBEREKERA,MARIWA
MARA,31,SERENGETI,316,ISSENYE,31617,NYIBEREKERA,MTAKUJA
MARA,31,SERENGETI,316,ISSENYE,31617,NYIBEREKERA,MAWASILIANO
MARA,31,SERENGETI,316,ISSENYE,31617,NYIBEREKERA,MTUKULA
MARA,31,SERENGETI,316,ISSENYE,31617,NYAMISINGISI,MTAKUJA
MARA,31,SERENGETI,316,ISSENYE,31617,NYAMISINGISI,SHULENI
MARA,31,SERENGETI,316,ISSENYE,31617,NYAMISINGISI,MWINYOSHI
MARA,31,SERENGETI,316,ISSENYE,31617,NYAMISINGISI,KYAWIHUKI
MARA,31,SERENGETI,316,RIGICHA,31618,RIGICHA,MKONO WA TEMBO
MARA,31,SERENGETI,316,RIGICHA,31618,RIGICHA,NYANDEREMA
MARA,31,SERENGETI,316,RIGICHA,31618,RIGICHA,STOONI
MARA,31,SERENGETI,316,RIGICHA,31618,RIGICHA,KYAMABOHE
MARA,31,SERENGETI,316,RIGICHA,31618,RIGICHA,BUNGOMA
MARA,31,SERENGETI,316,RIGICHA,31618,RIGICHA,SOKONI
MARA,31,SERENGETI,316,RIGICHA,31618,NYANKOMOGO,ZANZIBAR
MARA,31,SERENGETI,316,RIGICHA,31618,NYANKOMOGO,MWAMBANI
MARA,31,SERENGETI,316,RIGICHA,31618,NYANKOMOGO,ISASA
MARA,31,SERENGETI,316,RIGICHA,31618,NYANKOMOGO,KONGWA
MARA,31,SERENGETI,316,RIGICHA,31618,KITEMBERE,MTUKULA
MARA,31,SERENGETI,316,RIGICHA,31618,KITEMBERE,SHULENI
MARA,31,SERENGETI,316,RIGICHA,31618,KITEMBERE,NYABISAGA
MARA,31,SERENGETI,316,RIGICHA,31618,KITEMBERE,NGAYANI
MARA,31,SERENGETI,316,RIGICHA,31618,KITEMBERE,MABATINI
MARA,31,SERENGETI,316,RIGICHA,31618,KITEMBERE,BIAFRA
MARA,31,SERENGETI,316,RIGICHA,31618,WAGETE,MABATINI
MARA,31,SERENGETI,316,RIGICHA,31618,WAGETE,MAJENGO
MARA,31,SERENGETI,316,RIGICHA,31618,WAGETE,BONDENI
MARA,31,SERENGETI,316,RIGICHA,31618,WAGETE,NGAYANI
MARA,31,SERENGETI,316,RIGICHA,31618,WAGETE,MWANAMOTA
MARA,31,SERENGETI,316,NYAMBURETI,31619,NYAMBURETI,NYAMITEMBE
MARA,31,SERENGETI,316,NYAMBURETI,31619,NYAMBURETI,NYAMISINGISI
MARA,31,SERENGETI,316,NYAMBURETI,31619,NYAMBURETI,NYAMBURETI
MARA,31,SERENGETI,316,NYAMBURETI,31619,GUSUHI,TEREMA
MARA,31,SERENGETI,316,NYAMBURETI,31619,GUSUHI,KENYAMIGA
MARA,31,SERENGETI,316,NYAMBURETI,31619,GUSUHI,NYAKERAGENI
MARA,31,SERENGETI,316,NYAMBURETI,31619,GUSUHI,KEMAKOYO
MARA,31,SERENGETI,316,NYAMBURETI,31619,GUSUHI,MGENDASIRORI
MARA,31,SERENGETI,316,NYAMBURETI,31619,GUSUHI,MAGANANA
MARA,31,SERENGETI,316,NYAMBURETI,31619,MABURI,NYAKERURUMO
MARA,31,SERENGETI,316,NYAMBURETI,31619,MABURI,GIKARA
MARA,31,SERENGETI,316,NYAMBURETI,31619,MABURI,MONINGORI
MARA,31,SERENGETI,316,NYAMBURETI,31619,KERUKEREGE,SENTA
MARA,31,SERENGETI,316,NYAMBURETI,31619,KERUKEREGE,BUTANGA
MARA,31,SERENGETI,316,NYAMBURETI,31619,KERUKEREGE,KEMAROSERETA
MARA,31,SERENGETI,316,NYAMBURETI,31619,KERUKEREGE,MWIHORERO
MARA,31,SERENGETI,316,NYAMBURETI,31619,KERUKEREGE,GEROMBE
MARA,31,SERENGETI,316,NYAMBURETI,31619,MONUNA,NDIBAMATEBA
MARA,31,SERENGETI,316,NYAMBURETI,31619,MONUNA,MONUNA KATI
MARA,31,SERENGETI,316,NYAMBURETI,31619,MONUNA,NYAGATWA
MARA,31,SERENGETI,316,NYAMBURETI,31619,MONUNA,BYASUMA
MARA,31,SERENGETI,316,KENYAMONTA,31620,NYAGASENSE,TAHURU
MARA,31,SERENGETI,316,KENYAMONTA,31620,NYAGASENSE,MAGATINI
MARA,31,SERENGETI,316,KENYAMONTA,31620,NYAGASENSE,KIBAONI
MARA,31,SERENGETI,316,KENYAMONTA,31620,NYAGASENSE,KEMAGAMBO
MARA,31,SERENGETI,316,KENYAMONTA,31620,NYAGASENSE,BOMWEMWE
MARA,31,SERENGETI,316,KENYAMONTA,31620,NYAGASENSE,GOSI
MARA,31,SERENGETI,316,KENYAMONTA,31620,KENYAMONTA,NYABOCHEGECHE
MARA,31,SERENGETI,316,KENYAMONTA,31620,KENYAMONTA,KENYAMONTA KATI
MARA,31,SERENGETI,316,KENYAMONTA,31620,KENYAMONTA,NKONGORE
MARA,31,SERENGETI,316,KENYAMONTA,31620,KENYAMONTA,BITEREE
MARA,31,SERENGETI,316,KENYAMONTA,31620,KENYAMONTA,GHETEBA
MARA,31,SERENGETI,316,KENYAMONTA,31620,HEKWE,KUBITERE A
MARA,31,SERENGETI,316,KENYAMONTA,31620,HEKWE,BUGIRANCHOKE
MARA,31,SERENGETI,316,KENYAMONTA,31620,HEKWE,KEMRESI
MARA,31,SERENGETI,316,KENYAMONTA,31620,MESAGA,NYANUGU
MARA,31,SERENGETI,316,KENYAMONTA,31620,MESAGA,MATUTU
MARA,31,SERENGETI,316,KENYAMONTA,31620,MESAGA,NYANKONGO
MARA,31,SERENGETI,316,KENYAMONTA,31620,MESAGA,SENTA
MARA,31,SERENGETI,316,KENYAMONTA,31620,MESAGA,KINYARIRI
MARA,31,SERENGETI,316,KENYAMONTA,31620,MAGATINI,KEMAIRI
MARA,31,SERENGETI,316,KENYAMONTA,31620,MAGATINI,KUBITERE B
MARA,31,SERENGETI,316,KENYAMONTA,31620,MAGATINI,NYAMAKARAKARA
MARA,31,SERENGETI,316,BUSAWE,31621,GANTAMOME,NYABIHORE
MARA,31,SERENGETI,316,BUSAWE,31621,GANTAMOME,MHARE
MARA,31,SERENGETI,316,BUSAWE,31621,BUSAWE,KONSORO
MARA,31,SERENGETI,316,BUSAWE,31621,BUSAWE,NYAMBUNANO
MARA,31,SERENGETI,316,BUSAWE,31621,BUSAWE,KEBUNI
MARA,31,SERENGETI,316,BUSAWE,31621,NYAMIHURU,NYAMEHURU
MARA,31,SERENGETI,316,BUSAWE,31621,NYAMIHURU,REMASE
MARA,31,SERENGETI,316,KISAKA,31622,BUCHANCHARI,IKOMA
MARA,31,SERENGETI,316,KISAKA,31622,BUCHANCHARI,NYAMUMA
MARA,31,SERENGETI,316,KISAKA,31622,BUCHANCHARI,GENTEMI
MARA,31,SERENGETI,316,KISAKA,31622,MAREMBETA,MASURURA
MARA,31,SERENGETI,316,KISAKA,31622,MAREMBETA,KOMAKWE
MARA,31,SERENGETI,316,KISAKA,31622,MAREMBETA,GANGA
MARA,31,SERENGETI,316,KISAKA,31622,NYANSURUMUNTI,KOBETIMO
MARA,31,SERENGETI,316,KISAKA,31622,NYANSURUMUNTI,KOBIROGA
MARA,31,SERENGETI,316,KISAKA,31622,NYANSURUMUNTI,MACHEGECHEGE
MARA,31,SERENGETI,316,KISAKA,31622,NYANSURUMUNTI,SENTA
MARA,31,SERENGETI,316,KISAKA,31622,NYANSURUMUNTI,KENYANGABO
MARA,31,SERENGETI,316,IKOMA,31623,ROBANDA,SENTA
MARA,31,SERENGETI,316,IKOMA,31623,ROBANDA,BURARANYOTA
MARA,31,SERENGETI,316,IKOMA,31623,ROBANDA,MACHENGERE
MARA,31,SERENGETI,316,IKOMA,31623,ROBANDA,MERESHI
MARA,31,SERENGETI,316,IKOMA,31623,ROBANDA,NYAMARA
MARA,31,SERENGETI,316,IKOMA,31623,ROBANDA,MOMOROGORO
MARA,31,SERENGETI,316,IKOMA,31623,PARK NYIGOTI,MARURU
MARA,31,SERENGETI,316,IKOMA,31623,PARK NYIGOTI,PARK A
MARA,31,SERENGETI,316,IKOMA,31623,PARK NYIGOTI,PARK B
MARA,31,SERENGETI,316,IKOMA,31623,PARK NYIGOTI,MANCHIRA
MARA,31,SERENGETI,316,MBALIBALI,31624,KORERI,SENTA
MARA,31,SERENGETI,316,MBALIBALI,31624,KORERI,KISIWANI
MARA,31,SERENGETI,316,MBALIBALI,31624,KORERI,BIAFRA
MARA,31,SERENGETI,316,MBALIBALI,31624,MBALIBALI,SENTA
MARA,31,SERENGETI,316,MBALIBALI,31624,MBALIBALI,NYAISEBA
MARA,31,SERENGETI,316,MBALIBALI,31624,MBALIBALI,KOWALE
MARA,31,SERENGETI,316,MBALIBALI,31624,MBALIBALI,MKONO WA MARA
MARA,31,SERENGETI,316,MBALIBALI,31624,MBALIBALI,KITUNGURUMA
MARA,31,SERENGETI,316,MBALIBALI,31624,GWIKONGO,MATANKE
MARA,31,SERENGETI,316,MBALIBALI,31624,GWIKONGO,NYAMIRAMA
MARA,31,SERENGETI,316,MBALIBALI,31624,GWIKONGO,GWIKONGO
MARA,31,SERENGETI,316,MBALIBALI,31624,KITUNGURUMA,GOKYONYO
MARA,31,SERENGETI,316,MBALIBALI,31624,KITUNGURUMA,KOWATE
MARA,31,SERENGETI,316,MBALIBALI,31624,KITUNGURUMA,TOBORA
MARA,31,SERENGETI,316,MBALIBALI,31624,KITUNGURUMA,NYAIGENA
MARA,31,SERENGETI,316,MBALIBALI,31624,TAMKERI,TAMKERI
MARA,31,SERENGETI,316,MBALIBALI,31624,TAMKERI,MASEBE
MARA,31,SERENGETI,316,MBALIBALI,31624,TAMKERI,GICHONGO
MARA,31,SERENGETI,316,SEDECO,31625,BONCHUGU,KWIRENGO
MARA,31,SERENGETI,316,SEDECO,31625,BONCHUGU,KWIRAMBO
MARA,31,SERENGETI,316,SEDECO,31625,BONCHUGU,KUBIHA
MARA,31,SERENGETI,316,SEDECO,31625,BONCHUGU,CHABISI
MARA,31,SERENGETI,316,SEDECO,31625,BONCHUGU,KORAMBO
MARA,31,SERENGETI,316,SEDECO,31625,BONCHUGU,KOMEKA
MARA,31,SERENGETI,316,SEDECO,31625,MBIRIKIRI,SHULENI
MARA,31,SERENGETI,316,SEDECO,31625,MBIRIKIRI,SENTA
MARA,31,SERENGETI,316,SEDECO,31625,BISARARA,CHINATO
MARA,31,SERENGETI,316,SEDECO,31625,BISARARA,KORAMBO
MARA,31,SERENGETI,316,SEDECO,31625,BISARARA,SHAURI YAKO
MARA,31,SERENGETI,316,SEDECO,31625,BISARARA,SENTA
MARA,31,SERENGETI,316,SEDECO,31625,NYAMBURI,SIRIGANDA
MARA,31,SERENGETI,316,SEDECO,31625,NYAMBURI,MAHEMBU
MARA,31,SERENGETI,316,SEDECO,31625,NYAMBURI,KYABAKARI
MARA,31,SERENGETI,316,NYANSURURA,31626,NYANSURURA,MTO MARA
MARA,31,SERENGETI,316,NYANSURURA,31626,NYANSURURA,MATANKA
MARA,31,SERENGETI,316,NYANSURURA,31626,NYANSURURA,NYABICHINE
MARA,31,SERENGETI,316,NYANSURURA,31626,MARASOMOCHE,BUHUNYO
MARA,31,SERENGETI,316,NYANSURURA,31626,MARASOMOCHE,NYAMBENGO
MARA,31,SERENGETI,316,NYANSURURA,31626,MARASOMOCHE,KOBOGWE
MARA,31,SERENGETI,316,NYANSURURA,31626,MARASOMOCHE,NYABICHUNE
MARA,31,SERENGETI,316,NYANSURURA,31626,GETARUNGU,GETARUNGU
MARA,31,SERENGETI,316,NYANSURURA,31626,GETARUNGU,NYAHENDE
MARA,31,SERENGETI,316,NYANSURURA,31626,GETARUNGU,NYAMEHURU
MARA,31,SERENGETI,316,NYANSURURA,31626,MERENGA,SONGAMBELE
MARA,31,SERENGETI,316,NYANSURURA,31626,MERENGA,MAFYEKO
MARA,31,SERENGETI,316,NYANSURURA,31626,MERENGA,NYAMIERI
MARA,31,SERENGETI,316,NYANSURURA,31626,MERENGA,SENTA
MARA,31,SERENGETI,316,NYANSURURA,31626,MERENGA,KIVUKONI
MARA,31,SERENGETI,316,MAGANGE,31627,MASINKI,SENTA
MARA,31,SERENGETI,316,MAGANGE,31627,MASINKI,KWINYANKI
MARA,31,SERENGETI,316,MAGANGE,31627,MASINKI,NYANSARARI
MARA,31,SERENGETI,316,MAGANGE,31627,MASINKI,NYABOSONGO
MARA,31,SERENGETI,316,MAGANGE,31627,REMUNG’ORORI,BIKAIRI
MARA,31,SERENGETI,316,MAGANGE,31627,REMUNG’ORORI,KWIGARI
MARA,31,SERENGETI,316,MAGANGE,31627,REMUNG’ORORI,NKONGORE
MARA,31,SERENGETI,316,MAGANGE,31627,REMUNG’ORORI,KOBHAGA
MARA,31,SERENGETI,316,MAGANGE,31627,REMUNG’ORORI,NYABOCHEGECHE
MARA,31,SERENGETI,316,MAGANGE,31627,MAGANGE,MAGANGE
MARA,31,SERENGETI,316,MAGANGE,31627,MAGANGE,WASIGWE
MARA,31,SERENGETI,316,MAGANGE,31627,MAGANGE,KIRABARI
MARA,31,SERENGETI,316,MAGANGE,31627,MAGANGE,MASANCHAWA
MARA,31,SERENGETI,316,MOSONGO,31628,KENOKWE,NYAMIRAMA
MARA,31,SERENGETI,316,MOSONGO,31628,KENOKWE,NYINSENSE
MARA,31,SERENGETI,316,MOSONGO,31628,KENOKWE,NYABIRORE
MARA,31,SERENGETI,316,MOSONGO,31628,KENOKWE,KOSEBE
MARA,31,SERENGETI,316,MOSONGO,31628,KENOKWE,KENOKWE
MARA,31,SERENGETI,316,MOSONGO,31628,MOSONGO,SONGAMBELE
MARA,31,SERENGETI,316,MOSONGO,31628,MOSONGO,MANAWA
MARA,31,SERENGETI,316,MOSONGO,31628,MOSONGO,SENTA SHULENI
MARA,31,SERENGETI,316,MOSONGO,31628,MOSONGO,KOMOKO
MARA,31,SERENGETI,316,MOSONGO,31628,MOSONGO,NDIBAMATEBA
MARA,31,SERENGETI,316,MOSONGO,31628,MOSONGO,NYIBUMA
MARA,31,SERENGETI,316,MOSONGO,31628,MOSONGO,MSHAGIHIRU
MARA,31,SERENGETI,316,MOSONGO,31628,NYAMATOKE,KANG’USA
MARA,31,SERENGETI,316,MOSONGO,31628,NYAMATOKE,MWIGARI
MARA,31,SERENGETI,316,MOSONGO,31628,NYAMATOKE,KEMELI
MARA,31,SERENGETI,316,MOSONGO,31628,NYAMATOKE,NYAMOSO
MARA,31,SERENGETI,316,MOSONGO,31628,NYAMATOKE,NYAMAGONGO
MARA,31,SERENGETI,316,MAJIMOTO,31629,MAJIMOTO,SENTA
MARA,31,SERENGETI,316,MAJIMOTO,31629,MAJIMOTO,NYAMONO
MARA,31,SERENGETI,316,MAJIMOTO,31629,MAJIMOTO,NYIRONGORO
MARA,31,SERENGETI,316,MAJIMOTO,31629,MAJIMOTO,NYAMOROGORO
MARA,31,SERENGETI,316,MAJIMOTO,31629,MAJIMOTO,NYAGANCHARE
MARA,31,SERENGETI,316,MAJIMOTO,31629,MAJIMOTO,NYAMOTOMWE
MARA,31,SERENGETI,316,MAJIMOTO,31629,NYAMAKOBITI,KITARAHOTA ‘A’
MARA,31,SERENGETI,316,MAJIMOTO,31629,NYAMAKOBITI,KITARAHOTA ‘B’
MARA,31,SERENGETI,316,MAJIMOTO,31629,NYAMAKOBITI,MIKOMA
MARA,31,SERENGETI,316,MAJIMOTO,31629,NYAMAKOBITI,GABANDE
MARA,31,SERENGETI,316,MAJIMOTO,31629,NYAMAKOBITI,NYAMAITAGI
MARA,31,SERENGETI,316,MAJIMOTO,31629,NYAMAKOBITI,GEBOSI
MARA,31,SERENGETI,316,MAJIMOTO,31629,ISERESERE,SENGO
MARA,31,SERENGETI,316,MAJIMOTO,31629,ISERESERE,BESURURA
MARA,31,SERENGETI,316,MAJIMOTO,31629,ISERESERE,GETENGE
MARA,31,SERENGETI,316,NAGUSI,31630,SINGISI,HURERA
MARA,31,SERENGETI,316,NAGUSI,31630,SINGISI,SENTA NDOGO
MARA,31,SERENGETI,316,NAGUSI,31630,SINGISI,NYARUGUSU
MARA,31,SERENGETI,316,NAGUSI,31630,SINGISI,STOONI
MARA,31,SERENGETI,316,NAGUSI,31630,IHARARA,NAGUSI
MARA,31,SERENGETI,316,NAGUSI,31630,IHARARA,NYAMISISI
MARA,31,SERENGETI,316,NAGUSI,31630,IHARARA,KYEWASUBUGU
MARA,31,SERENGETI,316,NAGUSI,31630,IHARARA,MUHACHI
MARA,31,SERENGETI,316,MOGUTENI,31631,BORENGA,NTIMARO
MARA,31,SERENGETI,316,MOGUTENI,31631,BORENGA,BYASUMA
MARA,31,SERENGETI,316,MOGUTENI,31631,BORENGA,CHANCHATE
MARA,31,SERENGETI,316,MOGUTENI,31631,BORENGA,KOBESISI
MARA,31,SERENGETI,316,MOGUTENI,31631,NYIBOKO,MKUYUNI
MARA,31,SERENGETI,316,MOGUTENI,31631,NYIBOKO,KISUMU
MARA,31,SERENGETI,316,MOGUTENI,31631,NYIBOKO,MTAKUJA
MARA,31,SERENGETI,316,MOGUTENI,31631,NYIBOKO,SENTA
MARA,31,SERENGETI,316,MOGUTENI,31631,NYIBOKO,KENYIGABO
MARA,31,SERENGETI,316,MATARE,31632,NYIBOKO,KEGONGA
MARA,31,SERENGETI,316,MATARE,31632,NYIBOKO,MANYUNYI
MARA,31,SERENGETI,316,MATARE,31632,NYIBOKO,KANISANI
