REGION,POSTCODE,DISTRICT,POSTCODE,WARD,POSTCODE,STREET,PLACES
MBEYA,53,MBEYA CBD,531,MBALIZI ROAD,53101,SABASABA,
MBEYA,53,MBEYA CBD,531,MBALIZI ROAD,53101,KABISA,
MBEYA,53,MBEYA CBD,531,MBALIZI ROAD,53101,KISOKI,
MBEYA,53,MBEYA CBD,531,MBALIZI ROAD,53101,MWASYOGE,
MBEYA,53,MBEYA CBD,531,MABATINI,53102,SENJELE,
MBEYA,53,MBEYA CBD,531,MABATINI,53102,MABATINI,
MBEYA,53,MBEYA CBD,531,MABATINI,53102,MIANZINI,
MBEYA,53,MBEYA CBD,531,MABATINI,53102,KAJIGILI,
MBEYA,53,MBEYA CBD,531,MABATINI,53102,KISUNGA,
MBEYA,53,MBEYA CBD,531,MABATINI,53102,SIMIKE,
MBEYA,53,MBEYA CBD,531,FOREST,53103,META,
MBEYA,53,MBEYA CBD,531,FOREST,53103,KADEGE,
MBEYA,53,MBEYA CBD,531,FOREST,53103,MUUNGANO,
MBEYA,53,MBEYA CBD,531,FOREST,53103,MAKANISANI,
MBEYA,53,MBEYA CBD,531,FOREST,53103,BENKI KUU,
MBEYA,53,MBEYA CBD,531,FOREST,53103,MAGHOROFANI,
MBEYA,53,MBEYA CBD,531,FOREST,53103,FOREST MPYA,
MBEYA,53,MBEYA CBD,531,MAANGA,53104,MAANGA A,
MBEYA,53,MBEYA CBD,531,MAANGA,53104,MAANGA B,
MBEYA,53,MBEYA CBD,531,MAANGA,53104,MAENDELEO,
MBEYA,53,MBEYA CBD,531,MAANGA,53104,MAFIAT,
MBEYA,53,MBEYA CBD,531,MAANGA,53104,NDONGOLE,
MBEYA,53,MBEYA CBD,531,MAANGA,53104,SINDE,
MBEYA,53,MBEYA CBD,531,MAANGA,53104,MWAMFUPE,
MBEYA,53,MBEYA CBD,531,SINDE,53105,KAGWINA,
MBEYA,53,MBEYA CBD,531,SINDE,53105,ILOLO KATI,
MBEYA,53,MBEYA CBD,531,SINDE,53105,JANIBICHI,
MBEYA,53,MBEYA CBD,531,SINDE,53105,SINDE A,
MBEYA,53,MBEYA CBD,531,ISANGA,53106,ISANGA KATI,
MBEYA,53,MBEYA CBD,531,ISANGA,53106,ILOLO,
MBEYA,53,MBEYA CBD,531,ISANGA,53106,WIGAMBA,
MBEYA,53,MBEYA CBD,531,ISANGA,53106,MKUJU,
MBEYA,53,MBEYA CBD,531,ISANGA,53106,IGOMA ILOLO A,
MBEYA,53,MBEYA CBD,531,ISANGA,53106,IGOMA ILOLO B,
MBEYA,53,MBEYA CBD,531,ISANGA,53106,MMITA,
MBEYA,53,MBEYA CBD,531,SISIMBA,53107,UZUNGUNI A,
MBEYA,53,MBEYA CBD,531,SISIMBA,53107,SOKO KUU,
MBEYA,53,MBEYA CBD,531,SISIMBA,53107,UZUNGUNI B,
MBEYA,53,MBEYA CBD,531,SISIMBA,53107,JAKARANDA B,
MBEYA,53,MBEYA CBD,531,SISIMBA,53107,TANESCO,
MBEYA,53,MBEYA CBD,531,SISIMBA,53107,JAKARANDA A,
MBEYA,53,MBEYA CBD,531,ITIJI,53108,MWASANGA,
MBEYA,53,MBEYA CBD,531,ITIJI,53108,MBWILE,
MBEYA,53,MBEYA CBD,531,ITIJI,53108,ITIJI,
MBEYA,53,MBEYA CBD,531,ITIJI,53108,MAKABURINI,
MBEYA,53,MBEYA CBD,531,MAENDELEO,53109,"COMMUNITY
CENTRE",
MBEYA,53,MBEYA CBD,531,MAENDELEO,53109,KIWANJA NGOMA,
MBEYA,53,MBEYA CBD,531,MAENDELEO,53109,SOKO MATOLA,
MBEYA,53,MBEYA CBD,531,MAENDELEO,53109,KIWANJA MPAKA,
MBEYA,53,MBEYA CBD,531,MAENDELEO,53109,KATI,
MBEYA,53,MBEYA CBD,531,MAJENGO,53110,"MAJENGO
KASKAZINI",
MBEYA,53,MBEYA CBD,531,MAJENGO,53110,MAJENGO KUSINI,
MBEYA,53,MBEYA CBD,531,GHANA,53111,MBATA,
MBEYA,53,MBEYA CBD,531,GHANA,53111,GHANA MASHARIKI,
MBEYA,53,MBEYA CBD,531,GHANA,53111,"GHANA
MAGHARIBI",
MBEYA,53,MBEYA CBD,531,NONDE,53112,MWALINGO,
MBEYA,53,MBEYA CBD,531,NONDE,53112,MBWILE B,
MBEYA,53,MBEYA CBD,531,NONDE,53112,MBWILE A,
MBEYA,53,MBEYA CBD,531,NONDE,53112,NONDE,
MBEYA,53,MBEYA CBD,531,ILEMI,53113,MWAFUTE,
MBEYA,53,MBEYA CBD,531,ILEMI,53113,MASEWE,
MBEYA,53,MBEYA CBD,531,ILEMI,53113,MAPELELE,
MBEYA,53,MBEYA CBD,531,ILEMI,53113,MAANGA VETA,
MBEYA,53,MBEYA CBD,531,ILEMI,53113,ILINDI,
MBEYA,53,MBEYA CBD,531,ILEMI,53113,ILEMI,
MBEYA,53,MBEYA CBD,531,RUANDA,53114,SOKO,
MBEYA,53,MBEYA CBD,531,RUANDA,53114,ILOLO,
MBEYA,53,MBEYA CBD,531,RUANDA,53114,MKOMBOZI,
MBEYA,53,MBEYA CBD,531,RUANDA,53114,KATI,
MBEYA,53,MBEYA CBD,531,RUANDA,53114,KABWE,
MBEYA,53,MBEYA CBD,531,RUANDA,53114,MAKUNGURU,
MBEYA,53,MBEYA CBD,531,RUANDA,53114,SOWETO,
MBEYA,53,MBEYA CBD,531,RUANDA,53114,BENKI,
MBEYA,53,MBEYA CBD,531,RUANDA,53114,MWENGE,
MBEYA,53,MBEYA CBD,531,RUANDA,53114,WAKULIMA,
MBEYA,53,MBEYA CBD,531,RUANDA,53114,MTONI,
MBEYA,53,MBEYA CBD,531,IYELA,53115,ILEMBO,
MBEYA,53,MBEYA CBD,531,IYELA,53115,PAMBOGO,
MBEYA,53,MBEYA CBD,531,IYELA,53115,MAPAMBANO,
MBEYA,53,MBEYA CBD,531,IYELA,53115,BLOCK   T,
MBEYA,53,MBEYA CBD,531,IYELA,53115,IYELA NAMBA 1,
MBEYA,53,MBEYA CBD,531,IYELA,53115,NYIBUKO,
MBEYA,53,MBEYA CBD,531,IYELA,53115,IYELA NAMBA 2,
MBEYA,53,MBEYA CBD,531,IYELA,53115,AIRPORT,
MBEYA,53,MBEYA CBD,531,NZOVWE,53116,NDANYELA,
MBEYA,53,MBEYA CBD,531,NZOVWE,53116,KILIMAHEWA,
MBEYA,53,MBEYA CBD,531,NZOVWE,53116,HALENGO,
MBEYA,53,MBEYA CBD,531,NZOVWE,53116,NZOVWE,
MBEYA,53,MBEYA CBD,531,ITENDE,53117,ISONTA,
MBEYA,53,MBEYA CBD,531,ITENDE,53117,ITENDE KATI,
MBEYA,53,MBEYA CBD,531,ITENDE,53117,GOMBE,
MBEYA,53,MBEYA CBD,531,ITENDE,53117,INYALA,
MBEYA,53,MBEYA CBD,531,ITENDE,53117,LUSUNGO,
MBEYA,53,MBEYA CBD,531,ITENDE,53117,ITETE,
MBEYA,53,MBEYA CBD,531,KALOBE,53118,MAJENGO A,
MBEYA,53,MBEYA CBD,531,KALOBE,53118,MAJENGO MAPYA,
MBEYA,53,MBEYA CBD,531,KALOBE,53118,MAENDELEO A,
MBEYA,53,MBEYA CBD,531,KALOBE,53118,MAENDELEO B,
MBEYA,53,MBEYA CBD,531,KALOBE,53118,KALOBE,
MBEYA,53,MBEYA CBD,531,KALOBE,53118,DDC,
MBEYA,53,MBEYA CBD,531,IYUNGA,53119,MAENDELEO,
MBEYA,53,MBEYA CBD,531,IYUNGA,53119,INYALA,
MBEYA,53,MBEYA CBD,531,IYUNGA,53119,SISINTILA,
MBEYA,53,MBEYA CBD,531,IYUNGA,53119,IGALE,
MBEYA,53,MBEYA CBD,531,IYUNGA,53119,IKUTI,
MBEYA,53,MBEYA CBD,531,IWAMBI,53120,UTULIVU,
MBEYA,53,MBEYA CBD,531,IWAMBI,53120,LUMBILA,
MBEYA,53,MBEYA CBD,531,IWAMBI,53120,ILEMBO,
MBEYA,53,MBEYA CBD,531,IWAMBI,53120,IVWANGA,
MBEYA,53,MBEYA CBD,531,IWAMBI,53120,KANDETE,
MBEYA,53,MBEYA CBD,531,IWAMBI,53120,NDEJE,
MBEYA,53,MBEYA CBD,531,IWAMBI,53120,MAYOMBO,
MBEYA,53,MBEYA CBD,531,ILOMBA,53121,KAGERA,
MBEYA,53,MBEYA CBD,531,ILOMBA,53121,TONYA,
MBEYA,53,MBEYA CBD,531,ILOMBA,53121,ITUHA,
MBEYA,53,MBEYA CBD,531,ILOMBA,53121,HAYANGA,
MBEYA,53,MBEYA CBD,531,ILOMBA,53121,SAE,
MBEYA,53,MBEYA CBD,531,ILOMBA,53121,ILOMBA,
MBEYA,53,MBEYA CBD,531,ILOMBA,53121,IHANGA,
MBEYA,53,MBEYA CBD,531,MWAKIBETE,53122,NG'OSI,
MBEYA,53,MBEYA CBD,531,MWAKIBETE,53122,NYIBUKO,
MBEYA,53,MBEYA CBD,531,MWAKIBETE,53122,IVUMWE,
MBEYA,53,MBEYA CBD,531,MWAKIBETE,53122,SHEWA,
MBEYA,53,MBEYA CBD,531,MWAKIBETE,53122,VIWANDANI,
MBEYA,53,MBEYA CBD,531,MWAKIBETE,53122,ITONGO,
MBEYA,53,MBEYA CBD,531,MWAKIBETE,53122,BOMBA MBILI,
MBEYA,53,MBEYA CBD,531,TEMBELA,53123,RELI,
MBEYA,53,MBEYA CBD,531,TEMBELA,53123,TEMBELA,
MBEYA,53,MBEYA CBD,531,MWANSANGA,53124,NDUGUYA,
MBEYA,53,MBEYA CBD,531,MWANSANGA,53124,ISOSO,
MBEYA,53,MBEYA CBD,531,IGANZO,53125,IGANZO,
MBEYA,53,MBEYA CBD,531,IGANZO,53125,NKUYU,
MBEYA,53,MBEYA CBD,531,IGANZO,53125,MWAMBENJA,
MBEYA,53,MBEYA CBD,531,IGANZO,53125,IGODIMA,
MBEYA,53,MBEYA CBD,531,UYOLE,53126,HASANGA,
MBEYA,53,MBEYA CBD,531,UYOLE,53126,IBARA,
MBEYA,53,MBEYA CBD,531,UYOLE,53126,IWAMBALA,
MBEYA,53,MBEYA CBD,531,UYOLE,53126,UTUKUYU,
MBEYA,53,MBEYA CBD,531,ISYESYE,53127,MWANTENGULE,
MBEYA,53,MBEYA CBD,531,ISYESYE,53127,VINGUNGUTI,
MBEYA,53,MBEYA CBD,531,ISYESYE,53127,RRM,
MBEYA,53,MBEYA CBD,531,ITEZI,53128,ITEZI MAGHARIBI,
MBEYA,53,MBEYA CBD,531,ITEZI,53128,MWASOTE,
MBEYA,53,MBEYA CBD,531,ITEZI,53128,GOMBE KASKAZINI,
MBEYA,53,MBEYA CBD,531,ITEZI,53128,GOMBE KUSINI,
MBEYA,53,MBEYA CBD,531,MWANSENKWA,53129,LUWALA,
MBEYA,53,MBEYA CBD,531,MWANSENKWA,53129,MENGO,
MBEYA,53,MBEYA CBD,531,MWANSENKWA,53129,MWANZUMBO,
MBEYA,53,MBEYA CBD,531,MWANSENKWA,53129,ILEMBO,
MBEYA,53,MBEYA CBD,531,ITAGANO,53130,IPOMBO,
MBEYA,53,MBEYA CBD,531,ITAGANO,53130,ITAGANO,
MBEYA,53,MBEYA CBD,531,NSOHO,53131,NSOHO,
MBEYA,53,MBEYA CBD,531,NSOHO,53131,KILABUNI,
MBEYA,53,MBEYA CBD,531,NSOHO,53131,IDUNDA,
MBEYA,53,MBEYA CBD,531,NSOHO,53131,MBEYA PEAK,
MBEYA,53,MBEYA CBD,531,IZIWA,53132,ISUMBI,
MBEYA,53,MBEYA CBD,531,IZIWA,53132,ISENGO,
MBEYA,53,MBEYA CBD,531,IZIWA,53132,IDUDA,
MBEYA,53,MBEYA CBD,531,IZIWA,53132,ILUNGU,
MBEYA,53,MBEYA CBD,531,IZIWA,53132,IMBEGA,
MBEYA,53,MBEYA CBD,531,NSALAGA,53133,NSALAGA,
MBEYA,53,MBEYA CBD,531,NSALAGA,53133,NTUNDU,
MBEYA,53,MBEYA CBD,531,NSALAGA,53133,ITEZI MASHARIKI,
MBEYA,53,MBEYA CBD,531,NSALAGA,53133,ITEZI MLIMANI,
MBEYA,53,MBEYA CBD,531,NSALAGA,53133,MAJENGO MAPYA,
MBEYA,53,MBEYA CBD,531,NSALAGA,53133,KIBONDE NYASI,
MBEYA,53,MBEYA CBD,531,NSALAGA,53133,IGAMBA,
MBEYA,53,MBEYA CBD,531,IGAWILO,53134,SOKONI,
MBEYA,53,MBEYA CBD,531,IGAWILO,53134,CHEMCHEM,
MBEYA,53,MBEYA CBD,531,IGAWILO,53134,MWANYANJE,
MBEYA,53,MBEYA CBD,531,IGAWILO,53134,MPONJA,
MBEYA,53,MBEYA CBD,531,IGANJO,53135,MTAKUJA,
MBEYA,53,MBEYA CBD,531,IGANJO,53135,ILOWE,
MBEYA,53,MBEYA CBD,531,IGANJO,53135,ISHINGA,
MBEYA,53,MBEYA CBD,531,IGANJO,53135,MWANYANJE,
MBEYA,53,MBEYA CBD,531,IGANJO,53135,IKHANGA,
MBEYA,53,MBEYA CBD,531,IGANJO,53135,ITANJI,
MBEYA,53,MBEYA CBD,531,IDUDA,53136,KANDA YA CHINI,
MBEYA,53,MBEYA CBD,531,IDUDA,53136,KANDA YA KATI,
MBEYA,53,MBEYA CBD,531,IDUDA,53136,KANDA YA JUU,
MBEYA,53,MBEYA CBD,531,IDUDA,53136,MWAHALA,
MBEYA,53,MBEYA,532,IJOMBE,53201,IWALANJE,MAJENGO
MBEYA,53,MBEYA,532,IJOMBE,53201,IWALANJE,IBOWOLA
MBEYA,53,MBEYA,532,IJOMBE,53201,IWALANJE,ILEMBO
MBEYA,53,MBEYA,532,IJOMBE,53201,IWALANJE,SOGEZA
MBEYA,53,MBEYA,532,IJOMBE,53201,IWALANJE,NJOHOLE
MBEYA,53,MBEYA,532,IJOMBE,53201,IWALANJE,ISYEMA
MBEYA,53,MBEYA,532,IJOMBE,53201,IWALANJE,IWANGWA
MBEYA,53,MBEYA,532,IJOMBE,53201,IFIGA,ILANJI A
MBEYA,53,MBEYA,532,IJOMBE,53201,IFIGA,ILANJI B
MBEYA,53,MBEYA,532,IJOMBE,53201,IFIGA,MAFYEKO
MBEYA,53,MBEYA,532,IJOMBE,53201,IFIGA,ILOWE A
MBEYA,53,MBEYA,532,IJOMBE,53201,IFIGA,ILOWE B
MBEYA,53,MBEYA,532,IJOMBE,53201,IFIGA,MAWE
MBEYA,53,MBEYA,532,IJOMBE,53201,IFIGA,SHILONGO
MBEYA,53,MBEYA,532,IJOMBE,53201,"IJOMBE
NTANGANO",NSHETO A
MBEYA,53,MBEYA,532,IJOMBE,53201,"IJOMBE
NTANGANO",NSHETO B
MBEYA,53,MBEYA,532,IJOMBE,53201,"IJOMBE
NTANGANO",IKEKA
MBEYA,53,MBEYA,532,IJOMBE,53201,"IJOMBE
NTANGANO",IGALAMA
MBEYA,53,MBEYA,532,IJOMBE,53201,"IJOMBE
NTANGANO",MAJENGO
MBEYA,53,MBEYA,532,IJOMBE,53201,"IJOMBE
NTANGANO",IWANDA
MBEYA,53,MBEYA,532,IJOMBE,53201,"NSONGWI
MANTANJI",MECCO
MBEYA,53,MBEYA,532,IJOMBE,53201,"NSONGWI
MANTANJI",KIJIWENI
MBEYA,53,MBEYA,532,IJOMBE,53201,"NSONGWI
MANTANJI",IZUMBWE
MBEYA,53,MBEYA,532,IJOMBE,53201,"NSONGWI
MANTANJI",MPAKANI
MBEYA,53,MBEYA,532,IJOMBE,53201,"NSONGWI
MANTANJI",MOSHI
MBEYA,53,MBEYA,532,IJOMBE,53201,HATWELO,MANGOTO
MBEYA,53,MBEYA,532,IJOMBE,53201,HATWELO,MAHAMBI
MBEYA,53,MBEYA,532,IJOMBE,53201,HATWELO,ING'ANDA
MBEYA,53,MBEYA,532,IJOMBE,53201,HATWELO,MBOWE
MBEYA,53,MBEYA,532,IJOMBE,53201,HATWELO,HALEMBO
MBEYA,53,MBEYA,532,IJOMBE,53201,HATWELO,MASOKO
MBEYA,53,MBEYA,532,IJOMBE,53201,NSONGWI JUU,SOWETO
MBEYA,53,MBEYA,532,IJOMBE,53201,NSONGWI JUU,ILEMBO
MBEYA,53,MBEYA,532,IJOMBE,53201,NSONGWI JUU,ILANGALI
MBEYA,53,MBEYA,532,IJOMBE,53201,NSONGWI JUU,MWATEZI
MBEYA,53,MBEYA,532,IJOMBE,53201,NSONGWI JUU,SIMAMBWE
MBEYA,53,MBEYA,532,IJOMBE,53201,NSONGWI JUU,HALANZI
MBEYA,53,MBEYA,532,INYALA,53202,INYALA,SISIYUNJE
MBEYA,53,MBEYA,532,INYALA,53202,INYALA,RELINI
MBEYA,53,MBEYA,532,INYALA,53202,INYALA,INYALA
MBEYA,53,MBEYA,532,INYALA,53202,INYALA,HAMWENJE
MBEYA,53,MBEYA,532,INYALA,53202,INYALA,TUYOMBO
MBEYA,53,MBEYA,532,INYALA,53202,INYALA,KOLYA
MBEYA,53,MBEYA,532,INYALA,53202,INYALA,HAMWENJE B
MBEYA,53,MBEYA,532,INYALA,53202,SHAMWENGO,MYELA
MBEYA,53,MBEYA,532,INYALA,53202,SHAMWENGO,ITONDWE
MBEYA,53,MBEYA,532,INYALA,53202,SHAMWENGO,IPOGORO
MBEYA,53,MBEYA,532,INYALA,53202,SHAMWENGO,UTULIVU
MBEYA,53,MBEYA,532,INYALA,53202,IMEZU,ISANGA
MBEYA,53,MBEYA,532,INYALA,53202,IMEZU,MASYETO
MBEYA,53,MBEYA,532,INYALA,53202,IMEZU,MAGOYE
MBEYA,53,MBEYA,532,INYALA,53202,IMEZU,INZAWA
MBEYA,53,MBEYA,532,INYALA,53202,IMEZU,MASEMENTI
MBEYA,53,MBEYA,532,INYALA,53202,IMEZU,SAWA
MBEYA,53,MBEYA,532,INYALA,53202,IYAWAYA,MADIZINI
MBEYA,53,MBEYA,532,INYALA,53202,IYAWAYA,KIJIWENI
MBEYA,53,MBEYA,532,INYALA,53202,IYAWAYA,VIJANA
MBEYA,53,MBEYA,532,INYALA,53202,IYAWAYA,GALILAYA
MBEYA,53,MBEYA,532,INYALA,53202,IYAWAYA,GALIAYA B
MBEYA,53,MBEYA,532,INYALA,53202,MAKWENJE,MAKWENJE
MBEYA,53,MBEYA,532,INYALA,53202,MAKWENJE,IBOHOLA
MBEYA,53,MBEYA,532,INYALA,53202,MAKWENJE,SYITE
MBEYA,53,MBEYA,532,INYALA,53202,MAKWENJE,MLOWO
MBEYA,53,MBEYA,532,INYALA,53202,MAKWENJE,MAKWENJE B
MBEYA,53,MBEYA,532,INYALA,53202,MAKWENJE,MLOWO B
MBEYA,53,MBEYA,532,INYALA,53202,DARAJANI,IGANJO
MBEYA,53,MBEYA,532,INYALA,53202,DARAJANI,IDUDA
MBEYA,53,MBEYA,532,INYALA,53202,DARAJANI,DARAJANI
MBEYA,53,MBEYA,532,INYALA,53202,DARAJANI,IMEZU MJINI
MBEYA,53,MBEYA,532,INYALA,53202,DARAJANI,IWANGA
MBEYA,53,MBEYA,532,INYALA,53202,MWASHOMA,MWASHOMA
MBEYA,53,MBEYA,532,INYALA,53202,MWASHOMA,INOLO
MBEYA,53,MBEYA,532,TEMBELA,53203,GALIJEMBE,SILUNGWELA A
MBEYA,53,MBEYA,532,TEMBELA,53203,GALIJEMBE,SILUNGWELA B
MBEYA,53,MBEYA,532,TEMBELA,53203,GALIJEMBE,CCM
MBEYA,53,MBEYA,532,TEMBELA,53203,GALIJEMBE,ZUNYA A
MBEYA,53,MBEYA,532,TEMBELA,53203,GALIJEMBE,ZUNYA B
MBEYA,53,MBEYA,532,TEMBELA,53203,GALIJEMBE,HASALALA
MBEYA,53,MBEYA,532,TEMBELA,53203,GALIJEMBE,SHULENI
MBEYA,53,MBEYA,532,TEMBELA,53203,SIMAMBWE,KISALAWE A
MBEYA,53,MBEYA,532,TEMBELA,53203,SIMAMBWE,KISALAWE B
MBEYA,53,MBEYA,532,TEMBELA,53203,SIMAMBWE,BARABARANI
MBEYA,53,MBEYA,532,TEMBELA,53203,SIMAMBWE,SHULENI
MBEYA,53,MBEYA,532,TEMBELA,53203,SIMAMBWE,IWAWA A
MBEYA,53,MBEYA,532,TEMBELA,53203,SIMAMBWE,IWAWA B
MBEYA,53,MBEYA,532,TEMBELA,53203,SIMAMBWE,MAJENGO A
MBEYA,53,MBEYA,532,TEMBELA,53203,SIMAMBWE,MAJENGO B
MBEYA,53,MBEYA,532,TEMBELA,53203,SIMAMBWE,MAJENGO C
MBEYA,53,MBEYA,532,TEMBELA,53203,SIMAMBWE,ISYABANO
MBEYA,53,MBEYA,532,TEMBELA,53203,SIMAMBWE,KILOMBERO
MBEYA,53,MBEYA,532,TEMBELA,53203,"USOHA
NJIAPANDA",MAGOGO
MBEYA,53,MBEYA,532,TEMBELA,53203,"USOHA
NJIAPANDA",MUUNGANO
MBEYA,53,MBEYA,532,TEMBELA,53203,"USOHA
NJIAPANDA",ITAGANO
MBEYA,53,MBEYA,532,TEMBELA,53203,"USOHA
NJIAPANDA",USOHA NJIAPANDA A
MBEYA,53,MBEYA,532,TEMBELA,53203,"USOHA
NJIAPANDA",USOHA NJIAPANDA B
MBEYA,53,MBEYA,532,TEMBELA,53203,"USOHA
NJIAPANDA",HOHOLA
MBEYA,53,MBEYA,532,TEMBELA,53203,"USOHA
NJIAPANDA",NSABANO
MBEYA,53,MBEYA,532,TEMBELA,53203,"USOHA
NJIAPANDA",WITE
MBEYA,53,MBEYA,532,TEMBELA,53203,SHIBOLYA,KULILA
MBEYA,53,MBEYA,532,TEMBELA,53203,SHIBOLYA,NYANGA
MBEYA,53,MBEYA,532,TEMBELA,53203,SHIBOLYA,MAENDELEO
MBEYA,53,MBEYA,532,TEMBELA,53203,SHIBOLYA,PILE
MBEYA,53,MBEYA,532,TEMBELA,53203,SHIBOLYA,MWABULI
MBEYA,53,MBEYA,532,TEMBELA,53203,SHIBOLYA,NTOJO
MBEYA,53,MBEYA,532,TEMBELA,53203,SHIBOLYA,HASENGO
MBEYA,53,MBEYA,532,TEMBELA,53203,SHIBOLYA,MBABA
MBEYA,53,MBEYA,532,TEMBELA,53203,SHIBOLYA,ITENDE
MBEYA,53,MBEYA,532,TEMBELA,53203,ILEMBO/ USAFWA,WITE
MBEYA,53,MBEYA,532,TEMBELA,53203,ILEMBO/ USAFWA,WITE A
MBEYA,53,MBEYA,532,TEMBELA,53203,ILEMBO/ USAFWA,WITE B
MBEYA,53,MBEYA,532,TEMBELA,53203,ILEMBO/ USAFWA,NGUMBULU
MBEYA,53,MBEYA,532,TEMBELA,53203,ILEMBO/ USAFWA,ISOSO
MBEYA,53,MBEYA,532,TEMBELA,53203,ILEMBO/ USAFWA,ILEMBO
MBEYA,53,MBEYA,532,TEMBELA,53203,NGOHA,MAPOMBO
MBEYA,53,MBEYA,532,TEMBELA,53203,NGOHA,STENDI
MBEYA,53,MBEYA,532,TEMBELA,53203,NGOHA,MATOPE
MBEYA,53,MBEYA,532,TEMBELA,53203,NGOHA,NTEBELA
MBEYA,53,MBEYA,532,TEMBELA,53203,NGOHA,SHULENI
MBEYA,53,MBEYA,532,TEMBELA,53203,NGOHA,MATWALANI
MBEYA,53,MBEYA,532,TEMBELA,53203,NGOHA,TEGEMEA JEMBE
MBEYA,53,MBEYA,532,TEMBELA,53203,NGOHA,ISOLOLA A
MBEYA,53,MBEYA,532,TEMBELA,53203,NGOHA,ISOLOLA B
MBEYA,53,MBEYA,532,TEMBELA,53203,NGOHA,JEREMANI
MBEYA,53,MBEYA,532,TEMBELA,53203,NGOHA,DUDE
MBEYA,53,MBEYA,532,ULENJE,53204,ULENJE,KIWANJANI
MBEYA,53,MBEYA,532,ULENJE,53204,ULENJE,ISYONJE
MBEYA,53,MBEYA,532,ULENJE,53204,ULENJE,BARAZANI
MBEYA,53,MBEYA,532,ULENJE,53204,ULENJE,MANSAMU
MBEYA,53,MBEYA,532,ULENJE,53204,ULENJE,MAKABICHI
MBEYA,53,MBEYA,532,ULENJE,53204,ULENJE,IKEKA A
MBEYA,53,MBEYA,532,ULENJE,53204,ULENJE,IKEKA B
MBEYA,53,MBEYA,532,ULENJE,53204,ULENJE,MAGHARIBI A
MBEYA,53,MBEYA,532,ULENJE,53204,ULENJE,MAGHARIBI B
MBEYA,53,MBEYA,532,ULENJE,53204,ULENJE,IMAJI
MBEYA,53,MBEYA,532,ULENJE,53204,ITALA,ITANDU A
MBEYA,53,MBEYA,532,ULENJE,53204,ITALA,ITANDU B
MBEYA,53,MBEYA,532,ULENJE,53204,ITALA,NYETA A
MBEYA,53,MBEYA,532,ULENJE,53204,ITALA,ITALA A
MBEYA,53,MBEYA,532,ULENJE,53204,ITALA,ITALA B
MBEYA,53,MBEYA,532,ULENJE,53204,ITALA,NYETA B
MBEYA,53,MBEYA,532,ULENJE,53204,ITALA,KAGERA
MBEYA,53,MBEYA,532,ULENJE,53204,ITALA,IBULA
MBEYA,53,MBEYA,532,ULENJE,53204,ITALA,IGWILA
MBEYA,53,MBEYA,532,ULENJE,53204,ITALA,MAJENGO
MBEYA,53,MBEYA,532,ULENJE,53204,MKUYUNI,IGALA
MBEYA,53,MBEYA,532,ULENJE,53204,MKUYUNI,MKUYUNI
MBEYA,53,MBEYA,532,ULENJE,53204,MKUYUNI,WANGING'OMBE
MBEYA,53,MBEYA,532,ULENJE,53204,MKUYUNI,MDWADWA
MBEYA,53,MBEYA,532,ULENJE,53204,MKUYUNI,NATELA
MBEYA,53,MBEYA,532,ULENJE,53204,MBONILE,MWAKIBETE
MBEYA,53,MBEYA,532,ULENJE,53204,MBONILE,NYAKONDE
MBEYA,53,MBEYA,532,ULENJE,53204,MBONILE,TEGELA
MBEYA,53,MBEYA,532,ULENJE,53204,MBONILE,KAMFICHENI
MBEYA,53,MBEYA,532,ULENJE,53204,MBONILE,ILALA
MBEYA,53,MBEYA,532,ULENJE,53204,MBONILE,KALAJA
MBEYA,53,MBEYA,532,ULENJE,53204,MBONILE,TOGWA
MBEYA,53,MBEYA,532,ULENJE,53204,WAMBISHE,IKULILA A
MBEYA,53,MBEYA,532,ULENJE,53204,WAMBISHE,IKULILA B
MBEYA,53,MBEYA,532,ULENJE,53204,WAMBISHE,IKULILA C
MBEYA,53,MBEYA,532,ULENJE,53204,WAMBISHE,NSONYA
MBEYA,53,MBEYA,532,ULENJE,53204,WAMBISHE,HAFURWE
MBEYA,53,MBEYA,532,ULENJE,53204,WAMBISHE,SHIPINGA
MBEYA,53,MBEYA,532,ULENJE,53204,WAMBISHE,MAGOYE
MBEYA,53,MBEYA,532,ULENJE,53204,WAMBISHE,WAMBISHE
MBEYA,53,MBEYA,532,ULENJE,53204,IHANGO,TOGWA
MBEYA,53,MBEYA,532,ULENJE,53204,IHANGO,ILEMBO
MBEYA,53,MBEYA,532,ULENJE,53204,IHANGO,IHANGO
MBEYA,53,MBEYA,532,ULENJE,53204,IHANGO,MALONJI
MBEYA,53,MBEYA,532,ILUNGU,53205,KIKONDO,NDWILA
MBEYA,53,MBEYA,532,ILUNGU,53205,KIKONDO,MPAKANI
MBEYA,53,MBEYA,532,ILUNGU,53205,KIKONDO,CCM
MBEYA,53,MBEYA,532,ILUNGU,53205,KIKONDO,DODOMA
MBEYA,53,MBEYA,532,ILUNGU,53205,KIKONDO,MJIMWEMA
MBEYA,53,MBEYA,532,ILUNGU,53205,KIKONDO,PAMBAMOTO
MBEYA,53,MBEYA,532,ILUNGU,53205,SHANGO,SHANGO
MBEYA,53,MBEYA,532,ILUNGU,53205,SHANGO,MNYINGA
MBEYA,53,MBEYA,532,ILUNGU,53205,SHANGO,MJIMWEMA
MBEYA,53,MBEYA,532,ILUNGU,53205,SHANGO,CHAMASENGO
MBEYA,53,MBEYA,532,ILUNGU,53205,SHANGO,ILANGALI
MBEYA,53,MBEYA,532,ILUNGU,53205,SHANGO,ITIWA
MBEYA,53,MBEYA,532,ILUNGU,53205,NYALWELA,MWANJEMBE
MBEYA,53,MBEYA,532,ILUNGU,53205,NYALWELA,LOLEZA
MBEYA,53,MBEYA,532,ILUNGU,53205,NYALWELA,ISANGA
MBEYA,53,MBEYA,532,ILUNGU,53205,NYALWELA,KATUMBA
MBEYA,53,MBEYA,532,ILUNGU,53205,NYALWELA,ISYONJE A
MBEYA,53,MBEYA,532,ILUNGU,53205,NYALWELA,ISYONJE B
MBEYA,53,MBEYA,532,ILUNGU,53205,NYALWELA,IKUHA
MBEYA,53,MBEYA,532,ILUNGU,53205,NYALWELA,NYALWELA
MBEYA,53,MBEYA,532,ILUNGU,53205,NYALWELA,ITETE
MBEYA,53,MBEYA,532,ILUNGU,53205,NYALWELA,KUMBULU
MBEYA,53,MBEYA,532,ILUNGU,53205,NGOLE,NZUMBA A
MBEYA,53,MBEYA,532,ILUNGU,53205,NGOLE,NZUMBA B
MBEYA,53,MBEYA,532,ILUNGU,53205,NGOLE,IGALAMA
MBEYA,53,MBEYA,532,ILUNGU,53205,NGOLE,NGOLE JUU
MBEYA,53,MBEYA,532,ILUNGU,53205,NGOLE,NGOLE CHINI
MBEYA,53,MBEYA,532,ILUNGU,53205,NGOLE,MABANDE
MBEYA,53,MBEYA,532,ILUNGU,53205,NGOLE,MUUNGANO
MBEYA,53,MBEYA,532,ILUNGU,53205,NGOLE,MWAMBANGA
MBEYA,53,MBEYA,532,ILUNGU,53205,MWELA,KITULO
MBEYA,53,MBEYA,532,ILUNGU,53205,MWELA,ISONGOLE
MBEYA,53,MBEYA,532,ILUNGU,53205,MWELA,KAMFICHENI
MBEYA,53,MBEYA,532,ILUNGU,53205,MWELA,KILIMANI
MBEYA,53,MBEYA,532,ILUNGU,53205,MWELA,IDUMBWE
MBEYA,53,MBEYA,532,ILUNGU,53205,MWELA,NSENGO
MBEYA,53,MBEYA,532,ILUNGU,53205,IFUPA,LOLEZA A
MBEYA,53,MBEYA,532,ILUNGU,53205,IFUPA,LOLEZA B
MBEYA,53,MBEYA,532,ILUNGU,53205,IFUPA,MATWITWI
MBEYA,53,MBEYA,532,ILUNGU,53205,IFUPA,NGWENYU
MBEYA,53,MBEYA,532,ILUNGU,53205,IFUPA,IFUPA A
MBEYA,53,MBEYA,532,ILUNGU,53205,IFUPA,IFUPA B
MBEYA,53,MBEYA,532,ILUNGU,53205,IFUPA,LOLEZA KATI
MBEYA,53,MBEYA,532,ILUNGU,53205,IFUPA,MAENDELEO
MBEYA,53,MBEYA,532,ILUNGU,53205,IFUPA,VOYA
MBEYA,53,MBEYA,532,ILUNGU,53205,IFUPA,MAJENJE
MBEYA,53,MBEYA,532,ILUNGU,53205,MASHESE,MAGOMBATI
MBEYA,53,MBEYA,532,ILUNGU,53205,MASHESE,MASHESE KATI
MBEYA,53,MBEYA,532,ILUNGU,53205,MASHESE,MAKUNGURU
MBEYA,53,MBEYA,532,ILUNGU,53205,MASHESE,ISANGA
MBEYA,53,MBEYA,532,ILUNGU,53205,MASHESE,MJI MWEMA
MBEYA,53,MBEYA,532,ILUNGU,53205,MASHESE,ILEJE
MBEYA,53,MBEYA,532,IYUNGA MAPINDUZI,53206,ISANGATI,NDYEKI
MBEYA,53,MBEYA,532,IYUNGA MAPINDUZI,53206,ISANGATI,ISANGATI A
MBEYA,53,MBEYA,532,IYUNGA MAPINDUZI,53206,ISANGATI,ISANGATI B
MBEYA,53,MBEYA,532,IYUNGA MAPINDUZI,53206,ISANGATI,ISANGATI C
MBEYA,53,MBEYA,532,IYUNGA MAPINDUZI,53206,IZUO,IZUO A
MBEYA,53,MBEYA,532,IYUNGA MAPINDUZI,53206,IZUO,IZUO B
MBEYA,53,MBEYA,532,IYUNGA MAPINDUZI,53206,IZUO,MPENYE
MBEYA,53,MBEYA,532,IYUNGA MAPINDUZI,53206,IZUO,NTUMBA
MBEYA,53,MBEYA,532,IYUNGA MAPINDUZI,53206,IZUO,IZUO C
MBEYA,53,MBEYA,532,IYUNGA MAPINDUZI,53206,IGOWE,ISONGANYA
MBEYA,53,MBEYA,532,IYUNGA MAPINDUZI,53206,IGOWE,IGOWE
MBEYA,53,MBEYA,532,IYUNGA MAPINDUZI,53206,IGOWE,LUSUNGO
MBEYA,53,MBEYA,532,IYUNGA MAPINDUZI,53206,"IYUNGA
MAPINDUZI",IYUNGA A
MBEYA,53,MBEYA,532,IYUNGA MAPINDUZI,53206,"IYUNGA
MAPINDUZI",IYUNGA B
MBEYA,53,MBEYA,532,IYUNGA MAPINDUZI,53206,"IYUNGA
MAPINDUZI",MPANDE A
MBEYA,53,MBEYA,532,IYUNGA MAPINDUZI,53206,"IYUNGA
MAPINDUZI",MPANDE B
MBEYA,53,MBEYA,532,IYUNGA MAPINDUZI,53206,"IYUNGA
MAPINDUZI",MWASANGA A
MBEYA,53,MBEYA,532,IYUNGA MAPINDUZI,53206,"IYUNGA
MAPINDUZI",MWASANGA B
MBEYA,53,MBEYA,532,IYUNGA MAPINDUZI,53206,"IYUNGA
MAPINDUZI",MATENGA
MBEYA,53,MBEYA,532,IYUNGA MAPINDUZI,53206,"IYUNGA
MAPINDUZI",NTYANYA
MBEYA,53,MBEYA,532,IYUNGA MAPINDUZI,53206,SHUWA,SHUWA A
MBEYA,53,MBEYA,532,IYUNGA MAPINDUZI,53206,SHUWA,SHUWA B
MBEYA,53,MBEYA,532,IYUNGA MAPINDUZI,53206,SHUWA,ILANGA A
MBEYA,53,MBEYA,532,IYUNGA MAPINDUZI,53206,SHUWA,ILANGA B
MBEYA,53,MBEYA,532,IYUNGA MAPINDUZI,53206,SHUWA,NSANGANO
MBEYA,53,MBEYA,532,IYUNGA MAPINDUZI,53206,SHUWA,LUPEMBE
MBEYA,53,MBEYA,532,IYUNGA MAPINDUZI,53206,SHUWA,IGAGU
MBEYA,53,MBEYA,532,IYUNGA MAPINDUZI,53206,SHUWA,SHUWA C
MBEYA,53,MBEYA,532,IYUNGA MAPINDUZI,53206,SHUWA,ISONSO
MBEYA,53,MBEYA,532,IYUNGA MAPINDUZI,53206,SHUWA,ILANGA C
MBEYA,53,MBEYA,532,IYUNGA MAPINDUZI,53206,MADUGU,"MADUGU ""A"""
MBEYA,53,MBEYA,532,IYUNGA MAPINDUZI,53206,MADUGU,"MADUGU ""B"""
MBEYA,53,MBEYA,532,IYUNGA MAPINDUZI,53206,MADUGU,"ZOLA ""A"""
MBEYA,53,MBEYA,532,IYUNGA MAPINDUZI,53206,MADUGU,"ZOLA ""B"""
MBEYA,53,MBEYA,532,IYUNGA MAPINDUZI,53206,MADUGU,"SHIWELE ""A"""
MBEYA,53,MBEYA,532,IYUNGA MAPINDUZI,53206,MADUGU,"SHIWELE ""B"""
MBEYA,53,MBEYA,532,IWINDI,53207,IWINDI,IGAWILO
MBEYA,53,MBEYA,532,IWINDI,53207,IWINDI,NSHALA
MBEYA,53,MBEYA,532,IWINDI,53207,IWINDI,IJOMBE
MBEYA,53,MBEYA,532,IWINDI,53207,IWINDI,ISANGA
MBEYA,53,MBEYA,532,IWINDI,53207,IWINDI,IPIPA
MBEYA,53,MBEYA,532,IWINDI,53207,IWINDI,IHOBHA
MBEYA,53,MBEYA,532,IWINDI,53207,IWINDI,USAHANDESHE
MBEYA,53,MBEYA,532,IWINDI,53207,IWINDI,IWINDI
MBEYA,53,MBEYA,532,IWINDI,53207,MAGANJO,BARABARANI
MBEYA,53,MBEYA,532,IWINDI,53207,MAGANJO,MJIMWEMA
MBEYA,53,MBEYA,532,IWINDI,53207,MAGANJO,MLIMANI
MBEYA,53,MBEYA,532,IWINDI,53207,MAGANJO,MBILWA
MBEYA,53,MBEYA,532,IWINDI,53207,MAGANJO,MAKATANI
MBEYA,53,MBEYA,532,IWINDI,53207,MAGANJO,MAGANJO
MBEYA,53,MBEYA,532,IWINDI,53207,IGONYAMU,IGONYAMU
MBEYA,53,MBEYA,532,IWINDI,53207,IGONYAMU,MAZOHA
MBEYA,53,MBEYA,532,IWINDI,53207,IGONYAMU,LYANDA MPALALA
MBEYA,53,MBEYA,532,IWINDI,53207,IGONYAMU,NSEGA
MBEYA,53,MBEYA,532,IWINDI,53207,IGONYAMU,SAHANDESHE
MBEYA,53,MBEYA,532,IWINDI,53207,IGONYAMU,GEZATULOLANE
MBEYA,53,MBEYA,532,IWINDI,53207,IGONYAMU,NSALAFU
MBEYA,53,MBEYA,532,IWINDI,53207,MWAMPALALA,NSENGA
MBEYA,53,MBEYA,532,IWINDI,53207,MWAMPALALA,SIBUDWA
MBEYA,53,MBEYA,532,IWINDI,53207,MWAMPALALA,MASEBE
MBEYA,53,MBEYA,532,IWINDI,53207,MWAMPALALA,MWAMBALE
MBEYA,53,MBEYA,532,IWINDI,53207,MWAMPALALA,IWUZI
MBEYA,53,MBEYA,532,IWINDI,53207,MWAMPALALA,MAJENGO
MBEYA,53,MBEYA,532,IWINDI,53207,MWAMPALALA,LUSUNGO
MBEYA,53,MBEYA,532,IWINDI,53207,ITIMU,ITIMU
MBEYA,53,MBEYA,532,IWINDI,53207,ITIMU,MWANSITA
MBEYA,53,MBEYA,532,IWINDI,53207,ITIMU,MWAMBALE
MBEYA,53,MBEYA,532,IWINDI,53207,ITIMU,MSITUNI
MBEYA,53,MBEYA,532,IWINDI,53207,ITIMU,IGOMBE
MBEYA,53,MBEYA,532,IWINDI,53207,ITIMU,NJIAPANDA
MBEYA,53,MBEYA,532,IWINDI,53207,MWASELELA,IWANGA
MBEYA,53,MBEYA,532,IWINDI,53207,MWASELELA,MWASELELA
MBEYA,53,MBEYA,532,IWINDI,53207,MWASELELA,3.TAZAMA
MBEYA,53,MBEYA,532,IWINDI,53207,MWASELELA,ISANGA B
MBEYA,53,MBEYA,532,IWINDI,53207,MWASELELA,SHIZI
MBEYA,53,MBEYA,532,IWINDI,53207,MWASHIWAWALA,MWASHIWAWALA
MBEYA,53,MBEYA,532,IWINDI,53207,MWASHIWAWALA,2MINA
MBEYA,53,MBEYA,532,IWINDI,53207,MWASHIWAWALA,RELINI
MBEYA,53,MBEYA,532,IWINDI,53207,MWASHIWAWALA,NSONGOLE
MBEYA,53,MBEYA,532,IWINDI,53207,MWASHIWAWALA,LUSUNGO
MBEYA,53,MBEYA,532,IWINDI,53207,ISANGALA,MANDE
MBEYA,53,MBEYA,532,IWINDI,53207,ISANGALA,IGOSA
MBEYA,53,MBEYA,532,IWINDI,53207,ISANGALA,NZINGA
MBEYA,53,MBEYA,532,IWINDI,53207,ISANGALA,ISANGALA KATI
MBEYA,53,MBEYA,532,IWINDI,53207,ISANGALA,MADINDIKA
MBEYA,53,MBEYA,532,IWINDI,53207,ISANGALA,IWE
MBEYA,53,MBEYA,532,IWINDI,53207,ISANGALA,IGAGU
MBEYA,53,MBEYA,532,IWINDI,53207,NSAMBYA,NSAMBYA
MBEYA,53,MBEYA,532,IWINDI,53207,NSAMBYA,ILINDI A
MBEYA,53,MBEYA,532,IWINDI,53207,NSAMBYA,ILINDI B
MBEYA,53,MBEYA,532,IWINDI,53207,INOLO,INOLO
MBEYA,53,MBEYA,532,IWINDI,53207,INOLO,IDUJI
MBEYA,53,MBEYA,532,IWINDI,53207,INOLO,KASALIA
MBEYA,53,MBEYA,532,UTENGULE /USONGWE,53208,INOLO,MBALIZI
MBEYA,53,MBEYA,532,UTENGULE /USONGWE,53208,INOLO,UTENGULE USONGWE
MBEYA,53,MBEYA,532,UTENGULE /USONGWE,53208,INOLO,IWALA
MBEYA,53,MBEYA,532,UTENGULE /USONGWE,53208,INOLO,IDUGUMBI
MBEYA,53,MBEYA,532,UTENGULE /USONGWE,53208,INOLO,IHOMBE
MBEYA,53,MBEYA,532,UTENGULE /USONGWE,53208,INOLO,ITIMBA
MBEYA,53,MBEYA,532,BONDE LA SONGWE,53209,MALOWE,IWEJELE
MBEYA,53,MBEYA,532,BONDE LA SONGWE,53209,MALOWE,MALOWE KATI
MBEYA,53,MBEYA,532,BONDE LA SONGWE,53209,MALOWE,ILAMA
MBEYA,53,MBEYA,532,BONDE LA SONGWE,53209,MALOWE,UJUNJULU A
MBEYA,53,MBEYA,532,BONDE LA SONGWE,53209,MALOWE,ISENGA
MBEYA,53,MBEYA,532,BONDE LA SONGWE,53209,MALOWE,MASOKO
MBEYA,53,MBEYA,532,BONDE LA SONGWE,53209,MALOWE,UJUNJULU B
MBEYA,53,MBEYA,532,BONDE LA SONGWE,53209,MALOWE,MAJENGO
MBEYA,53,MBEYA,532,BONDE LA SONGWE,53209,MALOWE,SHIFINGO
MBEYA,53,MBEYA,532,BONDE LA SONGWE,53209,MALOWE,INTAKE
MBEYA,53,MBEYA,532,BONDE LA SONGWE,53209,LUSUNGO,MANYALA
MBEYA,53,MBEYA,532,BONDE LA SONGWE,53209,LUSUNGO,INDOLO
MBEYA,53,MBEYA,532,BONDE LA SONGWE,53209,LUSUNGO,NSANYILA
MBEYA,53,MBEYA,532,BONDE LA SONGWE,53209,LUSUNGO,SOKONI
MBEYA,53,MBEYA,532,BONDE LA SONGWE,53209,LUSUNGO,KINONDONI
MBEYA,53,MBEYA,532,BONDE LA SONGWE,53209,LUSUNGO,LUSUNGO
MBEYA,53,MBEYA,532,BONDE LA SONGWE,53209,LUSUNGO,NGUVU KAZI
MBEYA,53,MBEYA,532,BONDE LA SONGWE,53209,IDIGA,KASALE
MBEYA,53,MBEYA,532,BONDE LA SONGWE,53209,IDIGA,SIGODIMWA
MBEYA,53,MBEYA,532,BONDE LA SONGWE,53209,IDIGA,MBALE
MBEYA,53,MBEYA,532,BONDE LA SONGWE,53209,IDIGA,TAZARA
MBEYA,53,MBEYA,532,BONDE LA SONGWE,53209,IDIGA,MIEMBENI
MBEYA,53,MBEYA,532,BONDE LA SONGWE,53209,IDIGA,NANSABILA
MBEYA,53,MBEYA,532,BONDE LA SONGWE,53209,IDIGA,MAJENGO
MBEYA,53,MBEYA,532,BONDE LA SONGWE,53209,IDIGA,NSUNGWE
MBEYA,53,MBEYA,532,BONDE LA SONGWE,53209,"SONGWE
VIWANDANI",KALOLENI
MBEYA,53,MBEYA,532,BONDE LA SONGWE,53209,"SONGWE
VIWANDANI",KAKUTI
MBEYA,53,MBEYA,532,BONDE LA SONGWE,53209,"SONGWE
VIWANDANI",NSUNGWE
MBEYA,53,MBEYA,532,BONDE LA SONGWE,53209,"SONGWE
VIWANDANI",MKOLA
MBEYA,53,MBEYA,532,BONDE LA SONGWE,53209,"SONGWE
VIWANDANI",SOKONI
MBEYA,53,MBEYA,532,BONDE LA SONGWE,53209,"SONGWE
VIWANDANI",IWEJELE
MBEYA,53,MBEYA,532,BONDE LA SONGWE,53209,"SONGWE
VIWANDANI",LUGANO
MBEYA,53,MBEYA,532,BONDE LA SONGWE,53209,"SONGWE
VIWANDANI",IJUNGU
MBEYA,53,MBEYA,532,BONDE LA SONGWE,53209,"SONGWE
VIWANDANI",DARAJANI
MBEYA,53,MBEYA,532,BONDE LA SONGWE,53209,"SONGWE
VIWANDANI",TAMBUKA RELI
MBEYA,53,MBEYA,532,BONDE LA SONGWE,53209,"SONGWE
VIWANDANI",KANISANI
MBEYA,53,MBEYA,532,BONDE LA SONGWE,53209,"SONGWE
VIWANDANI",ESTATE
MBEYA,53,MBEYA,532,BONDE LA SONGWE,53209,IKUMBI,IFISI
MBEYA,53,MBEYA,532,BONDE LA SONGWE,53209,IKUMBI,MBALE
MBEYA,53,MBEYA,532,BONDE LA SONGWE,53209,IKUMBI,MGOWELA
MBEYA,53,MBEYA,532,BONDE LA SONGWE,53209,IKUMBI,IVUMU
MBEYA,53,MBEYA,532,BONDE LA SONGWE,53209,IKUMBI,IGAWILO
MBEYA,53,MBEYA,532,BONDE LA SONGWE,53209,IKUMBI,MALANGALI
MBEYA,53,MBEYA,532,BONDE LA SONGWE,53209,IKUMBI,MFINDI
MBEYA,53,MBEYA,532,BONDE LA SONGWE,53209,SONGWE,IGALULA
MBEYA,53,MBEYA,532,BONDE LA SONGWE,53209,SONGWE,MAKONDEKO
MBEYA,53,MBEYA,532,BONDE LA SONGWE,53209,SONGWE,ILEYA
MBEYA,53,MBEYA,532,BONDE LA SONGWE,53209,SONGWE,ZAHANATI
MBEYA,53,MBEYA,532,BONDE LA SONGWE,53209,SONGWE,MUUNGANO
MBEYA,53,MBEYA,532,BONDE LA SONGWE,53209,SONGWE,MAENDELEO
MBEYA,53,MBEYA,532,BONDE LA SONGWE,53209,SONGWE,NTETI
MBEYA,53,MBEYA,532,BONDE LA SONGWE,53209,SONGWE,MAPOROMOKO
MBEYA,53,MBEYA,532,BONDE LA SONGWE,53209,SONGWE,TAGABANA
MBEYA,53,MBEYA,532,BONDE LA SONGWE,53209,SONGWE,KILOSA
MBEYA,53,MBEYA,532,ISUTO,53210,MLOWO,MLOWO A
MBEYA,53,MBEYA,532,ISUTO,53210,MLOWO,MLOWO B
MBEYA,53,MBEYA,532,ISUTO,53210,MLOWO,TOZI A
MBEYA,53,MBEYA,532,ISUTO,53210,MLOWO,TOZI B
MBEYA,53,MBEYA,532,ISUTO,53210,MLOWO,NYONDO
MBEYA,53,MBEYA,532,ISUTO,53210,MLOWO,IHANDA
MBEYA,53,MBEYA,532,ISUTO,53210,MLOWO,MBUGA
MBEYA,53,MBEYA,532,ISUTO,53210,MLOWO,MLOWO C
MBEYA,53,MBEYA,532,ISUTO,53210,MLOWO,INGANZO
MBEYA,53,MBEYA,532,ISUTO,53210,MLOWO,SAMORA
MBEYA,53,MBEYA,532,ISUTO,53210,ITETE,ITETE A
MBEYA,53,MBEYA,532,ISUTO,53210,ITETE,ITETE B
MBEYA,53,MBEYA,532,ISUTO,53210,ITETE,IGAGALA
MBEYA,53,MBEYA,532,ISUTO,53210,ITETE,CHOMBEZI
MBEYA,53,MBEYA,532,ISUTO,53210,ITETE,NSONGA
MBEYA,53,MBEYA,532,ISUTO,53210,ITETE,MWANJELWA A
MBEYA,53,MBEYA,532,ISUTO,53210,ITETE,MWANJELWA B
MBEYA,53,MBEYA,532,ISUTO,53210,ITETE,MWANJELWA C
MBEYA,53,MBEYA,532,ISUTO,53210,ITETE,ITETE C
MBEYA,53,MBEYA,532,ISUTO,53210,SHINZINGO,NSALALA
MBEYA,53,MBEYA,532,ISUTO,53210,SHINZINGO,SHELELA
MBEYA,53,MBEYA,532,ISUTO,53210,SHINZINGO,MJELE
MBEYA,53,MBEYA,532,ISUTO,53210,SHINZINGO,MLIMA NYUNDU
MBEYA,53,MBEYA,532,ISUTO,53210,SHINZINGO,IWALANJE
MBEYA,53,MBEYA,532,ISUTO,53210,SHINZINGO,IWAGA
MBEYA,53,MBEYA,532,ISUTO,53210,SHINZINGO,MASOKO
MBEYA,53,MBEYA,532,ISUTO,53210,SHINZINGO,MKUYUNI
MBEYA,53,MBEYA,532,ISUTO,53210,SHINZINGO,NGALA
MBEYA,53,MBEYA,532,ISUTO,53210,SHINZINGO,MWENDO
MBEYA,53,MBEYA,532,ISUTO,53210,IDIWILI,IDIWILI A
MBEYA,53,MBEYA,532,ISUTO,53210,IDIWILI,IDIWILI B
MBEYA,53,MBEYA,532,ISUTO,53210,IDIWILI,AZIMIO
MBEYA,53,MBEYA,532,ISUTO,53210,IDIWILI,SHILUNGU A
MBEYA,53,MBEYA,532,ISUTO,53210,IDIWILI,SHILUNGU B
MBEYA,53,MBEYA,532,ISUTO,53210,IDIWILI,ITAGA
MBEYA,53,MBEYA,532,ISUTO,53210,IDIWILI,MTAKUJA
MBEYA,53,MBEYA,532,ISUTO,53210,IDIWILI,LUTENGANO
MBEYA,53,MBEYA,532,ISUTO,53210,SHISONTA,SHISONTA A
MBEYA,53,MBEYA,532,ISUTO,53210,SHISONTA,SHISONTA B
MBEYA,53,MBEYA,532,ISUTO,53210,SHISONTA,SHISONTA C
MBEYA,53,MBEYA,532,ISUTO,53210,SHISONTA,MWANJELWA
MBEYA,53,MBEYA,532,ISUTO,53210,SHISONTA,ILEYA KATI
MBEYA,53,MBEYA,532,ISUTO,53210,SHISONTA,MATIPU
MBEYA,53,MBEYA,532,ISUTO,53210,SHISONTA,ILEYA
MBEYA,53,MBEYA,532,ISUTO,53210,SHISONTA,KALOLENI
MBEYA,53,MBEYA,532,ISUTO,53210,SHISONTA,MKUYUNI
MBEYA,53,MBEYA,532,ISUTO,53210,SHISONTA,MUUNGANO
MBEYA,53,MBEYA,532,ISUTO,53210,ISUTO,ISUTO A
MBEYA,53,MBEYA,532,ISUTO,53210,ISUTO,ISUTO B
MBEYA,53,MBEYA,532,ISUTO,53210,ISUTO,IHENGA A
MBEYA,53,MBEYA,532,ISUTO,53210,ISUTO,IHENGA B
MBEYA,53,MBEYA,532,ISUTO,53210,ISUTO,MAPINDUZI A
MBEYA,53,MBEYA,532,ISUTO,53210,ISUTO,MAPINDUZI B
MBEYA,53,MBEYA,532,ISUTO,53210,ISUTO,LYWAYO
MBEYA,53,MBEYA,532,ISUTO,53210,ISUTO,MTAKUJA
MBEYA,53,MBEYA,532,ISUTO,53210,ISUTO,MPOROTO
MBEYA,53,MBEYA,532,ISUTO,53210,ISUTO,IGOSYA
MBEYA,53,MBEYA,532,ISUTO,53210,ISUTO,ILIZYA
MBEYA,53,MBEYA,532,ISUTO,53210,ISUTO,NJIAPANDA
MBEYA,53,MBEYA,532,ISUTO,53210,SHITETE,SHITETE A
MBEYA,53,MBEYA,532,ISUTO,53210,SHITETE,SHITETE B
MBEYA,53,MBEYA,532,ISUTO,53210,SHITETE,YONA A
MBEYA,53,MBEYA,532,ISUTO,53210,SHITETE,YONA B
MBEYA,53,MBEYA,532,ISUTO,53210,SHITETE,YONA C
MBEYA,53,MBEYA,532,ISUTO,53210,SHITETE,ILANGA
MBEYA,53,MBEYA,532,ISUTO,53210,SHITETE,HALUNGU
MBEYA,53,MBEYA,532,ISUTO,53210,ILINDI,MKUYUNI
MBEYA,53,MBEYA,532,ISUTO,53210,ILINDI,SHILUNGU
MBEYA,53,MBEYA,532,ISUTO,53210,ILINDI,IGUNDA
MBEYA,53,MBEYA,532,ISUTO,53210,ILINDI,HONDE
MBEYA,53,MBEYA,532,ISUTO,53210,ILINDI,ILINDI A
MBEYA,53,MBEYA,532,ISUTO,53210,ILINDI,ILINDI B
MBEYA,53,MBEYA,532,ISUTO,53210,ILINDI,MLINGOTINI
MBEYA,53,MBEYA,532,ISUTO,53210,ILINDI,SOGEA ILALA
MBEYA,53,MBEYA,532,ISUTO,53210,ILINDI,SANYESYA
MBEYA,53,MBEYA,532,SANTILYA,53211,SANTILYA,IVUGULA
MBEYA,53,MBEYA,532,SANTILYA,53211,SANTILYA,IBUNGU
MBEYA,53,MBEYA,532,SANTILYA,53211,SANTILYA,IZOSYA
MBEYA,53,MBEYA,532,SANTILYA,53211,SANTILYA,SOWETO
MBEYA,53,MBEYA,532,SANTILYA,53211,SANTILYA,MTYETI
MBEYA,53,MBEYA,532,SANTILYA,53211,SANTILYA,IYUNGWE
MBEYA,53,MBEYA,532,SANTILYA,53211,SANTILYA,MANTANJI
MBEYA,53,MBEYA,532,SANTILYA,53211,SANJE,SANJE A
MBEYA,53,MBEYA,532,SANTILYA,53211,SANJE,SANJE B
MBEYA,53,MBEYA,532,SANTILYA,53211,SANJE,MANTENGA
MBEYA,53,MBEYA,532,SANTILYA,53211,SANJE,SWAYA
MBEYA,53,MBEYA,532,SANTILYA,53211,SANJE,ILINDI
MBEYA,53,MBEYA,532,SANTILYA,53211,SANJE,MAGAO
MBEYA,53,MBEYA,532,SANTILYA,53211,SANJE,SANTWINJI
MBEYA,53,MBEYA,532,SANTILYA,53211,ISWAGO,NTETE
MBEYA,53,MBEYA,532,SANTILYA,53211,ISWAGO,SHIKULUSI
MBEYA,53,MBEYA,532,SANTILYA,53211,ISWAGO,SINDYANGA
MBEYA,53,MBEYA,532,SANTILYA,53211,ISWAGO,HAZUMBI
MBEYA,53,MBEYA,532,SANTILYA,53211,ISWAGO,INYALA A
MBEYA,53,MBEYA,532,SANTILYA,53211,ISWAGO,INYALA B
MBEYA,53,MBEYA,532,SANTILYA,53211,ISWAGO,NTENGA
MBEYA,53,MBEYA,532,SANTILYA,53211,ISWAGO,ITAMBILA
MBEYA,53,MBEYA,532,SANTILYA,53211,ISWAGO,LUSUNGO
MBEYA,53,MBEYA,532,SANTILYA,53211,ISWAGO,NSONGOLE
MBEYA,53,MBEYA,532,SANTILYA,53211,MPANDE,MPANDE A
MBEYA,53,MBEYA,532,SANTILYA,53211,MPANDE,MPANDE B
MBEYA,53,MBEYA,532,SANTILYA,53211,MPANDE,IDUNDA A
MBEYA,53,MBEYA,532,SANTILYA,53211,MPANDE,IDUNDA B
MBEYA,53,MBEYA,532,SANTILYA,53211,JOJO,JOJO
MBEYA,53,MBEYA,532,SANTILYA,53211,JOJO,HORONGO
MBEYA,53,MBEYA,532,SANTILYA,53211,JOJO,ILOMBA
MBEYA,53,MBEYA,532,SANTILYA,53211,JOJO,ITUNDU A
MBEYA,53,MBEYA,532,SANTILYA,53211,JOJO,ITUNDU B
MBEYA,53,MBEYA,532,SANTILYA,53211,JOJO,MWANJELWA
MBEYA,53,MBEYA,532,SANTILYA,53211,JOJO,IVUGULA
MBEYA,53,MBEYA,532,SANTILYA,53211,JOJO,ILEWE A
MBEYA,53,MBEYA,532,SANTILYA,53211,JOJO,ILEWE B
MBEYA,53,MBEYA,532,SANTILYA,53211,JOJO,IWALE
MBEYA,53,MBEYA,532,SANTILYA,53211,NSHEHA,NSHEHA
MBEYA,53,MBEYA,532,SANTILYA,53211,NSHEHA,ILEMBO
MBEYA,53,MBEYA,532,SANTILYA,53211,NSHEHA,SUKAMAWELA
MBEYA,53,MBEYA,532,SANTILYA,53211,ITIZI,"ITIZI ""A"""
MBEYA,53,MBEYA,532,SANTILYA,53211,ITIZI,"ITIZI ""B"""
MBEYA,53,MBEYA,532,SANTILYA,53211,ITIZI,"ITIZI ""C"""
MBEYA,53,MBEYA,532,SANTILYA,53211,RUANDA,SHIPONGO A
MBEYA,53,MBEYA,532,SANTILYA,53211,RUANDA,SHIPONGO B
MBEYA,53,MBEYA,532,SANTILYA,53211,RUANDA,ISUWA
MBEYA,53,MBEYA,532,SANTILYA,53211,RUANDA,NTOLE
MBEYA,53,MBEYA,532,SANTILYA,53211,RUANDA,IVIMBIZYA A
MBEYA,53,MBEYA,532,SANTILYA,53211,RUANDA,IVIMBIZYA B
MBEYA,53,MBEYA,532,SANTILYA,53211,MPANDE,MPANDE A
MBEYA,53,MBEYA,532,SANTILYA,53211,MPANDE,MPANDE B
MBEYA,53,MBEYA,532,SANTILYA,53211,MPANDE,IDUNDA A
MBEYA,53,MBEYA,532,SANTILYA,53211,MPANDE,IDUNDA B
MBEYA,53,MBEYA,532,SANTILYA,53211,ISONGOLE,UGAYA A
MBEYA,53,MBEYA,532,SANTILYA,53211,ISONGOLE,UGAYA B
MBEYA,53,MBEYA,532,SANTILYA,53211,ISONGOLE,ISONGOLE A
MBEYA,53,MBEYA,532,SANTILYA,53211,ISONGOLE,ISONGOLE B
MBEYA,53,MBEYA,532,SANTILYA,53211,ISONGOLE,SHIZYANGULE
MBEYA,53,MBEYA,532,SANTILYA,53211,MASYETA,"MASYETA ""A"""
MBEYA,53,MBEYA,532,SANTILYA,53211,MASYETA,"MASYETA ""B"""
MBEYA,53,MBEYA,532,SANTILYA,53211,MASYETA,"MASYETA ""C"""
MBEYA,53,MBEYA,532,ILEMBO,53212,ILEMBO,ILEMBO MADUKANI
MBEYA,53,MBEYA,532,ILEMBO,53212,ILEMBO,ITALA
MBEYA,53,MBEYA,532,ILEMBO,53212,ILEMBO,MANZIGULA
MBEYA,53,MBEYA,532,ILEMBO,53212,ILEMBO,MASANGATI
MBEYA,53,MBEYA,532,ILEMBO,53212,ILEMBO,MAFUNE
MBEYA,53,MBEYA,532,ILEMBO,53212,ILEMBO,IJEMBE
MBEYA,53,MBEYA,532,ILEMBO,53212,ILEMBO,IGWILA
MBEYA,53,MBEYA,532,ILEMBO,53212,DIMBWE,IHOMBE
MBEYA,53,MBEYA,532,ILEMBO,53212,DIMBWE,NSALALA
MBEYA,53,MBEYA,532,ILEMBO,53212,DIMBWE,ISUMBI
MBEYA,53,MBEYA,532,ILEMBO,53212,DIMBWE,SHEYO
MBEYA,53,MBEYA,532,ILEMBO,53212,MWALA,MWALA SHULENI
MBEYA,53,MBEYA,532,ILEMBO,53212,MWALA,IYULI
MBEYA,53,MBEYA,532,ILEMBO,53212,MWALA,PIKWI
MBEYA,53,MBEYA,532,ILEMBO,53212,MWALA,HALONJE
MBEYA,53,MBEYA,532,ILEMBO,53212,MWALA,IRINGA
MBEYA,53,MBEYA,532,ILEMBO,53212,MWALA,NDANGA
MBEYA,53,MBEYA,532,ILEMBO,53212,MWALA,ISYASYA
MBEYA,53,MBEYA,532,ILEMBO,53212,MBAWI,ISELA
MBEYA,53,MBEYA,532,ILEMBO,53212,MBAWI,MBAWI
MBEYA,53,MBEYA,532,ILEMBO,53212,MBAWI,IGAMBA
MBEYA,53,MBEYA,532,ILEMBO,53212,MBAGALA,KESALIA
MBEYA,53,MBEYA,532,ILEMBO,53212,MBAGALA,IWONDE
MBEYA,53,MBEYA,532,ILEMBO,53212,MBAGALA,UJUNJULU
MBEYA,53,MBEYA,532,ILEMBO,53212,MBAGALA,ITEWE
MBEYA,53,MBEYA,532,ILEMBO,53212,IYUNGA,MBOZI
MBEYA,53,MBEYA,532,ILEMBO,53212,IYUNGA,"IYUNGA ""A"""
MBEYA,53,MBEYA,532,ILEMBO,53212,IYUNGA,"IYUNGA ""B"""
MBEYA,53,MBEYA,532,ILEMBO,53212,IYUNGA,MSENA
MBEYA,53,MBEYA,532,ILEMBO,53212,ITALAZYA,MBANA
MBEYA,53,MBEYA,532,ILEMBO,53212,ITALAZYA,IBULA
MBEYA,53,MBEYA,532,ILEMBO,53212,ITALAZYA,LYOTO
MBEYA,53,MBEYA,532,ILEMBO,53212,ITALAZYA,KANONA
MBEYA,53,MBEYA,532,ILEMBO,53212,ITALAZYA,ILAGA
MBEYA,53,MBEYA,532,ILEMBO,53212,SHIGAMBA II,SHIGAMBA
MBEYA,53,MBEYA,532,ILEMBO,53212,SHIGAMBA II,ITALE
MBEYA,53,MBEYA,532,ILEMBO,53212,SHIGAMBA II,MSIMISHE
MBEYA,53,MBEYA,532,ILEMBO,53212,SHIGAMBA II,MPAZA
MBEYA,53,MBEYA,532,ILEMBO,53212,MWAKASITA,NG'AMBI
MBEYA,53,MBEYA,532,ILEMBO,53212,MWAKASITA,MWAKASITA
MBEYA,53,MBEYA,532,ILEMBO,53212,MWAKASITA,MANTENGA
MBEYA,53,MBEYA,532,ILEMBO,53212,MWAKASITA,SHILUNGWE
MBEYA,53,MBEYA,532,ILEMBO,53212,SHILANGA,LUSWAYA
MBEYA,53,MBEYA,532,ILEMBO,53212,SHILANGA,IGAMBO SHULENI
MBEYA,53,MBEYA,532,ILEMBO,53212,SHILANGA,MWANDA
MBEYA,53,MBEYA,532,ILEMBO,53212,SHILANGA,MAJENGO
MBEYA,53,MBEYA,532,ILEMBO,53212,SHILANGA,SHILANGA OFISINI
MBEYA,53,MBEYA,532,ILEMBO,53212,SHILANGA,ITIGI
MBEYA,53,MBEYA,532,IWIJI,53213,IWIJI,VIMETU
MBEYA,53,MBEYA,532,IWIJI,53213,IWIJI,NTINGA
MBEYA,53,MBEYA,532,IWIJI,53213,IWIJI,MAGOLE
MBEYA,53,MBEYA,532,IWIJI,53213,IWIJI,IWIJI
MBEYA,53,MBEYA,532,IWIJI,53213,IWIJI,MABULA
MBEYA,53,MBEYA,532,IWIJI,53213,IWIJI,SOWETO
MBEYA,53,MBEYA,532,IWIJI,53213,IWIJI,MTUKULA
MBEYA,53,MBEYA,532,IWIJI,53213,ISENDE,ISENDE
MBEYA,53,MBEYA,532,IWIJI,53213,ISENDE,NACHINGWENGWE
MBEYA,53,MBEYA,532,IWIJI,53213,ISENDE,LUHUMA
MBEYA,53,MBEYA,532,IWIJI,53213,ISENDE,SHIHOLA
MBEYA,53,MBEYA,532,IWIJI,53213,ISENDE,SHINANDALA
MBEYA,53,MBEYA,532,IWIJI,53213,ISENDE,MASALA
MBEYA,53,MBEYA,532,IWIJI,53213,ISENDE,KALASHI
MBEYA,53,MBEYA,532,IWIJI,53213,IZUMBWE II,ILEYA A
MBEYA,53,MBEYA,532,IWIJI,53213,IZUMBWE II,ILEYA B
MBEYA,53,MBEYA,532,IWIJI,53213,IZUMBWE II,CHAWAMA
MBEYA,53,MBEYA,532,IWIJI,53213,IZUMBWE II,LUPAMBA
MBEYA,53,MBEYA,532,IWIJI,53213,IZUMBWE II,IKESE
MBEYA,53,MBEYA,532,IWIJI,53213,IZUMBWE II,SAYUMA
MBEYA,53,MBEYA,532,IWIJI,53213,IZUMBWE II,KAFULE
MBEYA,53,MBEYA,532,IWIJI,53213,IZUMBWE II,SONGWE
MBEYA,53,MBEYA,532,IWIJI,53213,IZUMBWE II,HAYENDE
MBEYA,53,MBEYA,532,IWIJI,53213,IZUMBWE II,CHILANZI
MBEYA,53,MBEYA,532,IHANGO,53214,HAPOROTO,IBOMANI
MBEYA,53,MBEYA,532,IHANGO,53214,HAPOROTO,FIKENI
MBEYA,53,MBEYA,532,IHANGO,53214,HAPOROTO,GEZAULOLE
MBEYA,53,MBEYA,532,IHANGO,53214,HAPOROTO,SOWETO
MBEYA,53,MBEYA,532,IHANGO,53214,HAPOROTO,IGOMA
MBEYA,53,MBEYA,532,IHANGO,53214,HAPOROTO,ITILIWINDI
MBEYA,53,MBEYA,532,IHANGO,53214,HAPOROTO,SHIHOKWA
MBEYA,53,MBEYA,532,IHANGO,53214,HAPOROTO,MWAWAYO
MBEYA,53,MBEYA,532,IHANGO,53214,HAPOROTO,SOKOLO
MBEYA,53,MBEYA,532,IHANGO,53214,IDIMI,ISANGA A
MBEYA,53,MBEYA,532,IHANGO,53214,IDIMI,FATAHILO
MBEYA,53,MBEYA,532,IHANGO,53214,IDIMI,UZUNGUNI
MBEYA,53,MBEYA,532,IHANGO,53214,IDIMI,MAKUNGULU
MBEYA,53,MBEYA,532,IHANGO,53214,IDIMI,MAJENGO
MBEYA,53,MBEYA,532,IHANGO,53214,IDIMI,INYALA
MBEYA,53,MBEYA,532,IHANGO,53214,IDIMI,KIJIWENI
MBEYA,53,MBEYA,532,IHANGO,53214,IDIMI,KIDUNGU
MBEYA,53,MBEYA,532,IHANGO,53214,IDIMI,ISENGO
MBEYA,53,MBEYA,532,IHANGO,53214,IDIMI,JANGWANI
MBEYA,53,MBEYA,532,IHANGO,53214,MWABOWO,NONDE
MBEYA,53,MBEYA,532,IHANGO,53214,MWABOWO,ISYAGUNGA
MBEYA,53,MBEYA,532,IHANGO,53214,MWABOWO,IYUNGA
MBEYA,53,MBEYA,532,IHANGO,53214,MWABOWO,ITIGI
MBEYA,53,MBEYA,532,IHANGO,53214,MWABOWO,ITUTA
MBEYA,53,MBEYA,532,IHANGO,53214,MWABOWO,GALILAYA
MBEYA,53,MBEYA,532,IHANGO,53214,IMPOMU,MALAGALA
MBEYA,53,MBEYA,532,IHANGO,53214,IMPOMU,SHIWE
MBEYA,53,MBEYA,532,IHANGO,53214,IMPOMU,IMPOMBOMBO
MBEYA,53,MBEYA,532,IHANGO,53214,IMPOMU,ILAMBO
MBEYA,53,MBEYA,532,IHANGO,53214,IMPOMU,LINGA
MBEYA,53,MBEYA,532,IHANGO,53214,IWANZA,SONGAMBELE
MBEYA,53,MBEYA,532,IHANGO,53214,IWANZA,NTANGANO
MBEYA,53,MBEYA,532,IHANGO,53214,IWANZA,ITETE '
MBEYA,53,MBEYA,532,IHANGO,53214,IWANZA,ILOLEZYA
MBEYA,53,MBEYA,532,IHANGO,53214,IWANZA,ITETE 'B'
MBEYA,53,MBEYA,532,IHANGO,53214,ILEYA,ITAKA
MBEYA,53,MBEYA,532,IHANGO,53214,ILEYA,ITILIWINDI
MBEYA,53,MBEYA,532,IHANGO,53214,ILEYA,UZUNGUNI A
MBEYA,53,MBEYA,532,IHANGO,53214,ILEYA,UZUNGUNI B
MBEYA,53,MBEYA,532,IHANGO,53214,ILEYA,ISANGATI A
MBEYA,53,MBEYA,532,IHANGO,53214,ILEYA,ISANGATI B
MBEYA,53,MBEYA,532,IHANGO,53214,ILEYA,IZAGATI
MBEYA,53,MBEYA,532,IHANGO,53214,ILEYA,MBEYE
MBEYA,53,MBEYA,532,IHANGO,53214,ILEYA,ISHINDA
MBEYA,53,MBEYA,532,IHANGO,53214,ILEYA,SIBEMPE
MBEYA,53,MBEYA,532,IHANGO,53214,ILEYA,IWINDI
MBEYA,53,MBEYA,532,IHANGO,53214,IPINDA,IPINDA
MBEYA,53,MBEYA,532,IHANGO,53214,IPINDA,SIMWAMBALAFU
MBEYA,53,MBEYA,532,IHANGO,53214,IPINDA,NJENJE
MBEYA,53,MBEYA,532,IKUKWA,53215,IKUKWA,IKUKWA
MBEYA,53,MBEYA,532,IKUKWA,53215,IKUKWA,JUA KALI
MBEYA,53,MBEYA,532,IKUKWA,53215,IKUKWA,KARIAKOO
MBEYA,53,MBEYA,532,IKUKWA,53215,IKUKWA,MDONYA
MBEYA,53,MBEYA,532,IKUKWA,53215,IKUKWA,KIWANJA
MBEYA,53,MBEYA,532,IKUKWA,53215,IKUKWA,UJAMAA
MBEYA,53,MBEYA,532,IKUKWA,53215,IKUKWA,UNGUJA
MBEYA,53,MBEYA,532,IKUKWA,53215,IKUKWA,MBUWI
MBEYA,53,MBEYA,532,IKUKWA,53215,IKUKWA,UKWAHERI
MBEYA,53,MBEYA,532,IKUKWA,53215,IKUKWA,ITENDE JUU
MBEYA,53,MBEYA,532,IKUKWA,53215,IKUKWA,SHONGO
MBEYA,53,MBEYA,532,IKUKWA,53215,IKUKWA,ZONGO
MBEYA,53,MBEYA,532,IKUKWA,53215,IKUKWA,ITENDE KATI
MBEYA,53,MBEYA,532,IKUKWA,53215,IKUKWA,MAHONZA
MBEYA,53,MBEYA,532,IKUKWA,53215,SIMBOYA,INYALA
MBEYA,53,MBEYA,532,IKUKWA,53215,SIMBOYA,SHOKWA
MBEYA,53,MBEYA,532,IKUKWA,53215,SIMBOYA,MAGOMENI
MBEYA,53,MBEYA,532,IKUKWA,53215,SIMBOYA,MANZESE
MBEYA,53,MBEYA,532,IKUKWA,53215,SIMBOYA,OSTABAY
MBEYA,53,MBEYA,532,IKUKWA,53215,SIMBOYA,KULASINI
MBEYA,53,MBEYA,532,IKUKWA,53215,SIMBOYA,MAJI MOTO
MBEYA,53,MBEYA,532,IKUKWA,53215,SIMBOYA,WANGA
MBEYA,53,MBEYA,532,IKUKWA,53215,SIMBOYA,SIMBOYA
MBEYA,53,MBEYA,532,IKUKWA,53215,SIMBOYA,ITOMBI
MBEYA,53,MBEYA,532,MSHEWE,53216,MSHEWE,MSHEWAJE
MBEYA,53,MBEYA,532,MSHEWE,53216,MSHEWE,MPALULE
MBEYA,53,MBEYA,532,MSHEWE,53216,MSHEWE,IJOMBE
MBEYA,53,MBEYA,532,MSHEWE,53216,MSHEWE,IHANGA
MBEYA,53,MBEYA,532,MSHEWE,53216,MSHEWE,IHANGA MPAKANI
MBEYA,53,MBEYA,532,MSHEWE,53216,MSHEWE,CHANG'OMBE
MBEYA,53,MBEYA,532,MSHEWE,53216,MSHEWE,MAULA
MBEYA,53,MBEYA,532,MSHEWE,53216,MSHEWE,ITOTOWE
MBEYA,53,MBEYA,532,MSHEWE,53216,MSHEWE,MSHEWE KATI
MBEYA,53,MBEYA,532,MSHEWE,53216,MSHEWE,CHAPAULENJE
MBEYA,53,MBEYA,532,MSHEWE,53216,ILOTA,ILOTA
MBEYA,53,MBEYA,532,MSHEWE,53216,ILOTA,MPONA A
MBEYA,53,MBEYA,532,MSHEWE,53216,ILOTA,MPONA B
MBEYA,53,MBEYA,532,MSHEWE,53216,ILOTA,MAPOROMOKO
MBEYA,53,MBEYA,532,MSHEWE,53216,MUVWA,TONONOKA
MBEYA,53,MBEYA,532,MSHEWE,53216,MUVWA,KAFUPA
MBEYA,53,MBEYA,532,MSHEWE,53216,MUVWA,MWEMBESONGWA
MBEYA,53,MBEYA,532,MSHEWE,53216,MUVWA,CHANG'OMBE
MBEYA,53,MBEYA,532,MSHEWE,53216,MUVWA,IJOMBE
MBEYA,53,MBEYA,532,MSHEWE,53216,MUVWA,LUTENGANO
MBEYA,53,MBEYA,532,MSHEWE,53216,MUVWA,MTAKUJA
MBEYA,53,MBEYA,532,MSHEWE,53216,MUVWA,KAGERA
MBEYA,53,MBEYA,532,MSHEWE,53216,MUVWA,IVOMO
MBEYA,53,MBEYA,532,MSHEWE,53216,MUVWA,FOREST
MBEYA,53,MBEYA,532,MSHEWE,53216,MUVWA,MWEMBENI
MBEYA,53,MBEYA,532,MSHEWE,53216,NJELENJE,MPINZA
MBEYA,53,MBEYA,532,MSHEWE,53216,NJELENJE,ILOLO
MBEYA,53,MBEYA,532,MSHEWE,53216,NJELENJE,KIZOTA
MBEYA,53,MBEYA,532,MSHEWE,53216,NJELENJE,MPUNGURUMA
MBEYA,53,MBEYA,532,MSHEWE,53216,NJELENJE,NJELA
MBEYA,53,MBEYA,532,MSHEWE,53216,NJELENJE,IWOLA
MBEYA,53,MBEYA,532,MSHEWE,53216,NJELENJE,ILEYA
MBEYA,53,MBEYA,532,MSHEWE,53216,NJELENJE,UJOMBE
MBEYA,53,MBEYA,532,MSHEWE,53216,MAPOGORO,MBUYUNI
MBEYA,53,MBEYA,532,MSHEWE,53216,MAPOGORO,MAJENGO
MBEYA,53,MBEYA,532,MSHEWE,53216,MAPOGORO,MKONGE
MBEYA,53,MBEYA,532,MSHEWE,53216,MAPOGORO,SOWETO
MBEYA,53,MBEYA,532,MSHEWE,53216,MAPOGORO,NANDALA
MBEYA,53,MBEYA,532,MSHEWE,53216,MAPOGORO,IBOJO
MBEYA,53,MBEYA,532,MSHEWE,53216,MAPOGORO,FOREST
MBEYA,53,MBEYA,532,MAENDELEO,53217,ISEBE,MAGOGO
MBEYA,53,MBEYA,532,MAENDELEO,53217,ISEBE,MAZIGINYA
MBEYA,53,MBEYA,532,MAENDELEO,53217,ISEBE,MPULO
MBEYA,53,MBEYA,532,MAENDELEO,53217,ISEBE,LOLEZA
MBEYA,53,MBEYA,532,MAENDELEO,53217,ITAMBALILA,MASEBE
MBEYA,53,MBEYA,532,MAENDELEO,53217,ITAMBALILA,MUUNGANO
MBEYA,53,MBEYA,532,MAENDELEO,53217,ITAMBALILA,SOWETO
MBEYA,53,MBEYA,532,MAENDELEO,53217,ITAMBALILA,MOROGORO
MBEYA,53,MBEYA,532,MAENDELEO,53217,IKHOHO,ILEYA
MBEYA,53,MBEYA,532,MAENDELEO,53217,IKHOHO,MAPINDUZI
MBEYA,53,MBEYA,532,MAENDELEO,53217,IKHOHO,MABANDE A
MBEYA,53,MBEYA,532,MAENDELEO,53217,IKHOHO,MABANDE B
MBEYA,53,MBEYA,532,MAENDELEO,53217,IKHOHO,ISYASYA
MBEYA,53,MBEYA,532,MAENDELEO,53217,"IZUMBWE/
USAFWA",IZUMBWE
MBEYA,53,MBEYA,532,MAENDELEO,53217,"IZUMBWE/
USAFWA",NTANGANO
MBEYA,53,MBEYA,532,MAENDELEO,53217,"IZUMBWE/
USAFWA",NTEWELA
MBEYA,53,MBEYA,532,MAENDELEO,53217,"USOHA
MUUNGANO",BAGAMOYO
MBEYA,53,MBEYA,532,MAENDELEO,53217,"USOHA
MUUNGANO",MBEJELE
MBEYA,53,MBEYA,532,MAENDELEO,53217,"USOHA
MUUNGANO",MASOKO
MBEYA,53,MBEYA,532,MAENDELEO,53217,"USOHA
MUUNGANO",IPENJA
MBEYA,53,MBEYA,532,MAENDELEO,53217,"USOHA
MUUNGANO",NAMBA MOJA
MBEYA,53,MBEYA,532,MAENDELEO,53217,"USOHA
MUUNGANO",BONDENI
MBEYA,53,MBEYA,532,MAENDELEO,53217,"USOHA
MUUNGANO",NJIA PANDA
MBEYA,53,MBEYA,532,MAENDELEO,53217,"USOHA
MUUNGANO",KIBAONI
MBEYA,53,MBEYA,532,ITEWE,53218,ITEWE,MSIMBAZI
MBEYA,53,MBEYA,532,ITEWE,53218,ITEWE,IKULU
MBEYA,53,MBEYA,532,ITEWE,53218,ITEWE,SAWA
MBEYA,53,MBEYA,532,ITEWE,53218,ITEWE,MAENDELEO
MBEYA,53,MBEYA,532,ITEWE,53218,ITEWE,MTAA NO. 8
MBEYA,53,MBEYA,532,ITEWE,53218,ITEWE,IGALAKO
MBEYA,53,MBEYA,532,ITEWE,53218,ITEWE,MWAMBALIZI
MBEYA,53,MBEYA,532,ITEWE,53218,ITEWE,BARABARANI
MBEYA,53,MBEYA,532,ITEWE,53218,TEMBELA,"TEMBELA  ""A"""
MBEYA,53,MBEYA,532,ITEWE,53218,TEMBELA,"TEMBELA  ""B"""
MBEYA,53,MBEYA,532,ITEWE,53218,IYELANYALA,JERICHO
MBEYA,53,MBEYA,532,ITEWE,53218,IYELANYALA,LUTUNDU
MBEYA,53,MBEYA,532,ITEWE,53218,IDUNDA,MAPINDUZI A
MBEYA,53,MBEYA,532,ITEWE,53218,IDUNDA,MAPINDUZI B
MBEYA,53,MBEYA,532,ITEWE,53218,IDUNDA,MAPINDUZI C
MBEYA,53,MBEYA,532,ITEWE,53218,IDUNDA,MAPINDUZI D
MBEYA,53,MBEYA,532,ITEWE,53218,ISONGWA,"ISONGWA ""A"""
MBEYA,53,MBEYA,532,ITEWE,53218,ISONGWA,"ISONGWA ""B"""
MBEYA,53,MBEYA,532,ITEWE,53218,ISONGWA,"ISONGWA ""C"""
MBEYA,53,MBEYA,532,ITEWE,53218,ISONGWA,"ISONGWA ""D"""
MBEYA,53,MBEYA,532,ITEWE,53218,ISONGWA,ISONGWA E
MBEYA,53,MBEYA,532,LWANJIRO,53219,LWANJIRO,SOWETO
MBEYA,53,MBEYA,532,LWANJIRO,53219,LWANJIRO,NSIJIJI
MBEYA,53,MBEYA,532,LWANJIRO,53219,LWANJIRO,MATULA
MBEYA,53,MBEYA,532,LWANJIRO,53219,LWANJIRO,NDOLA
MBEYA,53,MBEYA,532,LWANJIRO,53219,LWANJIRO,NSALAGA
MBEYA,53,MBEYA,532,LWANJIRO,53219,LWANJIRO,MBILWA
MBEYA,53,MBEYA,532,LWANJIRO,53219,LWANJIRO,GUBISHE
MBEYA,53,MBEYA,532,LWANJIRO,53219,LWANJIRO,MAJULA
MBEYA,53,MBEYA,532,LWANJIRO,53219,ILOWELO,ILOWELO
MBEYA,53,MBEYA,532,LWANJIRO,53219,ILOWELO,IGUBISHE
MBEYA,53,MBEYA,532,LWANJIRO,53219,ILOWELO,IVWEMBELA
MBEYA,53,MBEYA,532,LWANJIRO,53219,ILOWELO,IGAWILO
MBEYA,53,MBEYA,532,NSALALA,53220,ILOWELO,MAGEUZI
MBEYA,53,MBEYA,532,NSALALA,53220,ILOWELO,MAPINDUZI
MBEYA,53,MBEYA,532,NSALALA,53220,ILOWELO,NSALALA
MBEYA,53,MBEYA,532,NSALALA,53220,ILOWELO,MSHIKAMANO
MBEYA,53,MBEYA,532,NSALALA,53220,ILOWELO,NDOLA
MBEYA,53,MBEYA,532,NSALALA,53220,ILOWELO,TUNDUMAROAD
MBEYA,53,MBEYA,532,SWAYA,53222,SWAYA,ILEYA
MBEYA,53,MBEYA,532,SWAYA,53222,SWAYA,SHILONGO
MBEYA,53,MBEYA,532,SWAYA,53222,SWAYA,MWANTANGA
MBEYA,53,MBEYA,532,SWAYA,53222,SWAYA,IBOWOLA
MBEYA,53,MBEYA,532,SWAYA,53222,SWAYA,IVWANGA
MBEYA,53,MBEYA,532,SWAYA,53222,SWAYA,ILUNGU
MBEYA,53,MBEYA,532,SWAYA,53222,SWAYA,MPEJELE
MBEYA,53,MBEYA,532,SWAYA,53222,SWAYA,IGAWILO
MBEYA,53,MBEYA,532,SWAYA,53222,SWAYA,HAPYO
MBEYA,53,MBEYA,532,SWAYA,53222,SWAYA,MWANKOBO
MBEYA,53,MBEYA,532,SWAYA,53222,NSENGA,IDUDA
MBEYA,53,MBEYA,532,SWAYA,53222,NSENGA,IBOWOLA
MBEYA,53,MBEYA,532,SWAYA,53222,NSENGA,ILEMBO
MBEYA,53,MBEYA,532,SWAYA,53222,NSENGA,MASYETO
MBEYA,53,MBEYA,532,SWAYA,53222,NSENGA,MASOKO
MBEYA,53,MBEYA,532,SWAYA,53222,NSENGA,IGALAMA
MBEYA,53,MBEYA,532,SWAYA,53222,NSENGA,MAJEMBE
MBEYA,53,MBEYA,532,SWAYA,53222,NSENGA,ILANGALE
MBEYA,53,MBEYA,532,SWAYA,53222,NSENGA,ITALI
MBEYA,53,MBEYA,532,SWAYA,53222,NSENGA,HONDE
MBEYA,53,MBEYA,532,SWAYA,53222,LUPETA,ILINGA
MBEYA,53,MBEYA,532,SWAYA,53222,LUPETA,MWANJANGA
MBEYA,53,MBEYA,532,SWAYA,53222,LUPETA,IBANGA
MBEYA,53,MBEYA,532,SWAYA,53222,LUPETA,LUPETA
MBEYA,53,MBEYA,532,SWAYA,53222,LUPETA,NYINA
MBEYA,53,MBEYA,532,SWAYA,53222,WIMBA,ISASA
MBEYA,53,MBEYA,532,SWAYA,53222,WIMBA,MWATAMALI
MBEYA,53,MBEYA,532,SWAYA,53222,WIMBA,MWANKWALE
MBEYA,53,MBEYA,532,SWAYA,53222,WIMBA,IGALA
MBEYA,53,MBEYA,532,SWAYA,53222,WIMBA,IBENA
MBEYA,53,MBEYA,532,MASOKO,53223,MUMBA,ISAGAMA
MBEYA,53,MBEYA,532,MASOKO,53223,MUMBA,MUMBA
MBEYA,53,MBEYA,532,MASOKO,53223,MUMBA,MOTOMOTO
MBEYA,53,MBEYA,532,MASOKO,53223,MUMBA,SONGAMBELE
MBEYA,53,MBEYA,532,MASOKO,53223,MASOKO,MAPINDUZI
MBEYA,53,MBEYA,532,MASOKO,53223,MASOKO,MWONGOZO
MBEYA,53,MBEYA,532,MASOKO,53223,MASOKO,SASYAKA
MBEYA,53,MBEYA,532,MASOKO,53223,MASOKO,IWANGA
MBEYA,53,MBEYA,532,MASOKO,53223,MASOKO,HEZYA
MBEYA,53,MBEYA,532,MASOKO,53223,ILOMBA,ILOMBA
MBEYA,53,MBEYA,532,MASOKO,53223,ILOMBA,MBEMBE
MBEYA,53,MBEYA,532,MASOKO,53223,ILOMBA,MASEBE
MBEYA,53,MBEYA,532,ITAWA,53224,IWOWO,IWOWO A
MBEYA,53,MBEYA,532,ITAWA,53224,IWOWO,IWOWO B
MBEYA,53,MBEYA,532,ITAWA,53224,IWOWO,MPESU A
MBEYA,53,MBEYA,532,ITAWA,53224,IWOWO,MPESU B
MBEYA,53,MBEYA,532,ITAWA,53224,IWOWO,ITAWA A
MBEYA,53,MBEYA,532,ITAWA,53224,IWOWO,ITAWA B
MBEYA,53,MBEYA,532,ITAWA,53224,IWOWO,LUKASAMO
MBEYA,53,MBEYA,532,ITAWA,53224,IWOWO,NKEKE
MBEYA,53,MBEYA,532,ITAWA,53224,IWOWO,MADUGU
MBEYA,53,MBEYA,532,ITAWA,53224,IWOWO,SONGWE
MBEYA,53,MBEYA,532,ITAWA,53224,PASHUNGU,PASHUNGU
MBEYA,53,MBEYA,532,ITAWA,53224,PASHUNGU,SAKUKWA
MBEYA,53,MBEYA,532,ITAWA,53224,PASHUNGU,MWONGOZO
MBEYA,53,MBEYA,532,ITAWA,53224,PASHUNGU,MWANZA
MBEYA,53,MBEYA,532,ITAWA,53224,PASHUNGU,IDUNDA
MBEYA,53,MBEYA,532,ITAWA,53224,PASHUNGU,KWAMBILA
MBEYA,53,MBEYA,532,ITAWA,53224,IGALUKWA,"IGALUKWA ""A"""
MBEYA,53,MBEYA,532,ITAWA,53224,IGALUKWA,"IGALUKWA ""B"""
MBEYA,53,MBEYA,532,ITAWA,53224,IGALUKWA,MONDWE
MBEYA,53,MBEYA,532,ITAWA,53224,IGALUKWA,IWANGA
MBEYA,53,MBEYA,532,ITAWA,53224,IGALUKWA,"ITEGA ""A"""
MBEYA,53,MBEYA,532,ITAWA,53224,IGALUKWA,"ITEGA ""B"""
MBEYA,53,MBEYA,532,ITAWA,53224,IGALUKWA,NSUSU
MBEYA,53,MBEYA,532,ITAWA,53224,SHIGAMBA,SHIGAMBA A
MBEYA,53,MBEYA,532,ITAWA,53224,SHIGAMBA,SHIGAMBA B
MBEYA,53,MBEYA,532,ITAWA,53224,SHIGAMBA,MUUNGANO
MBEYA,53,MBEYA,532,ITAWA,53224,SHIGAMBA,IYANZA
MBEYA,53,MBEYA,532,IGOMA,53225,IGOMA,NZUMBA
MBEYA,53,MBEYA,532,IGOMA,53225,IGOMA,MAENDELEO
MBEYA,53,MBEYA,532,IGOMA,53225,IGOMA,IGOMA KATI
MBEYA,53,MBEYA,532,IGOMA,53225,IGOMA,IKEKA
MBEYA,53,MBEYA,532,IGOMA,53225,IGOMA,MATWALANI
MBEYA,53,MBEYA,532,IGOMA,53225,IGOMA,MJIMWEMA
MBEYA,53,MBEYA,532,IGOMA,53225,KIMONDO,RAMANI
MBEYA,53,MBEYA,532,IGOMA,53225,KIMONDO,MLANGONI
MBEYA,53,MBEYA,532,IGOMA,53225,KIMONDO,MWASINGA
MBEYA,53,MBEYA,532,IGOMA,53225,KIMONDO,MWANDENGA
MBEYA,53,MBEYA,532,IGOMA,53225,KIMONDO,OFISINI
MBEYA,53,MBEYA,532,IGOMA,53225,MWANZAZI,TUNYANYINE
MBEYA,53,MBEYA,532,IGOMA,53225,MWANZAZI,LUNDALAWE
MBEYA,53,MBEYA,532,IGOMA,53225,MWANZAZI,MWANGANGA
MBEYA,53,MBEYA,532,IGALE,53226,SHONGO,NKUYU
MBEYA,53,MBEYA,532,IGALE,53226,SHONGO,MBUSHI
MBEYA,53,MBEYA,532,IGALE,53226,SHONGO,IKEJA
MBEYA,53,MBEYA,532,IGALE,53226,SHONGO,KAWETELE
MBEYA,53,MBEYA,532,IGALE,53226,SHONGO,MATULA
MBEYA,53,MBEYA,532,IGALE,53226,SHONGO,ISELA
MBEYA,53,MBEYA,532,IGALE,53226,IGALE,ITETE
MBEYA,53,MBEYA,532,IGALE,53226,IGALE,ISYESYE
MBEYA,53,MBEYA,532,IGALE,53226,IGALE,IHOVA
MBEYA,53,MBEYA,532,IGALE,53226,IGALE,ILINDI
MBEYA,53,MBEYA,532,IGALE,53226,IGALE,IPEMBATI
MBEYA,53,MBEYA,532,IGALE,53226,IGALE,IYUNGA
MBEYA,53,MBEYA,532,IGALE,53226,IGALE,ING'OLI
MBEYA,53,MBEYA,532,IGALE,53226,IGALE,ISONSO
MBEYA,53,MBEYA,532,IGALE,53226,HORONGO,ISUSA
MBEYA,53,MBEYA,532,IGALE,53226,HORONGO,ILEYA
MBEYA,53,MBEYA,532,IGALE,53226,HORONGO,KIWANJANI
MBEYA,53,MBEYA,532,IGALE,53226,HORONGO,LAINI
MBEYA,53,MBEYA,532,IGALE,53226,HORONGO,IBOLELO
MBEYA,53,MBEYA,532,IGALE,53226,HORONGO,LUTALI
MBEYA,53,MBEYA,532,IGALE,53226,HORONGO,NSONGOLE
MBEYA,53,MBEYA,532,IGALE,53226,HORONGO,NJOMBO
MBEYA,53,MBEYA,532,IGALE,53226,IZUMBWE I,MLIMA BARUTI
MBEYA,53,MBEYA,532,IGALE,53226,IZUMBWE I,MWASHALA
MBEYA,53,MBEYA,532,IGALE,53226,IZUMBWE I,LUSUNGO
MBEYA,53,MBEYA,532,IGALE,53226,IZUMBWE I,UJAMAA
MBEYA,53,MBEYA,532,IGALE,53226,IZUMBWE I,SEGELA
MBEYA,53,MBEYA,532,IGALE,53226,IZUMBWE I,ITALA
MBEYA,53,MBEYA,532,IGALE,53226,IZUMBWE I,KIWIGA
MBEYA,53,MBEYA,532,IGALE,53226,IZUMBWE I,NYULA
MBEYA,53,MBEYA,532,IGALE,53226,IZUMBWE I,KILAMBO
MBEYA,53,MBEYA,532,IGALE,53226,IZUMBWE I,LUZWIWI
MBEYA,53,MBEYA,532,IGALE,53226,ITAGA,KIWANJANI
MBEYA,53,MBEYA,532,IGALE,53226,ITAGA,ISANZI A
MBEYA,53,MBEYA,532,IGALE,53226,ITAGA,ISANZI B
MBEYA,53,MBEYA,532,IGALE,53226,ITAGA,YERIKO
MBEYA,53,MBEYA,532,IGALE,53226,ITAGA,MPONGOTA
MBEYA,53,MBEYA,532,IGALE,53226,ITAGA,IZUO
MBEYA,53,MBEYA,532,IGALE,53226,ITAGA,MBIBI
MBEYA,53,MBEYA,532,IGALE,53226,ITAGA,IVUMO
MBEYA,53,MBEYA,532,MJELE,53227,IPWIZI,MABATINI
MBEYA,53,MBEYA,532,MJELE,53227,IPWIZI,NGELELA
MBEYA,53,MBEYA,532,MJELE,53227,IPWIZI,MALWILO
MBEYA,53,MBEYA,532,MJELE,53227,IPWIZI,IPWIZI JUU
MBEYA,53,MBEYA,532,MJELE,53227,IPWIZI,IPWIZI KATI
MBEYA,53,MBEYA,532,MJELE,53227,IPWIZI,NINDO
MBEYA,53,MBEYA,532,MJELE,53227,IPWIZI,MAPOGORO
MBEYA,53,MBEYA,532,MJELE,53227,CHANG'OMBE,NDOWELA
MBEYA,53,MBEYA,532,MJELE,53227,CHANG'OMBE,IPOROTO
MBEYA,53,MBEYA,532,MJELE,53227,CHANG'OMBE,IVUNZA
MBEYA,53,MBEYA,532,MJELE,53227,MJELE,MJELE A
MBEYA,53,MBEYA,532,MJELE,53227,MJELE,MJELE B
MBEYA,53,MBEYA,532,MJELE,53227,MJELE,MAYELA
MBEYA,53,MBEYA,532,MJELE,53227,MJELE,ILANGALI
MBEYA,53,MBEYA,532,MJELE,53227,MJELE,KITUSI
MBEYA,53,MBEYA,532,MJELE,53227,MJELE,IYANGA
MBEYA,53,MBEYA,532,MJELE,53227,MJELE,MTAKUJA
MBEYA,53,MBEYA,532,SHIZUVI,53228,SHISYETE,MABEYA
MBEYA,53,MBEYA,532,SHIZUVI,53228,SHISYETE,SHISYETE
MBEYA,53,MBEYA,532,SHIZUVI,53228,SHISYETE,ITETE
MBEYA,53,MBEYA,532,SHIZUVI,53228,SHISYETE,MBANDE
MBEYA,53,MBEYA,532,SHIZUVI,53228,ISONSO,ISONSO
MBEYA,53,MBEYA,532,SHIZUVI,53228,ISONSO,MABATA
MBEYA,53,MBEYA,532,SHIZUVI,53228,ISONSO,MKUMBI
MBEYA,53,MBEYA,532,SHIZUVI,53228,ISONSO,MAGAMBO
MBEYA,53,MBEYA,532,SHIZUVI,53228,INYALA ILEMBO,SHIPI
MBEYA,53,MBEYA,532,SHIZUVI,53228,INYALA ILEMBO,ILINDI
MBEYA,53,MBEYA,532,SHIZUVI,53228,INYALA ILEMBO,TUNDUMA
MBEYA,53,MBEYA,532,SHIZUVI,53228,INYALA ILEMBO,SHIUGU
MBEYA,53,MBEYA,532,SHIZUVI,53228,INYALA ILEMBO,ILAMBALALA
MBEYA,53,MBEYA,532,SHIZUVI,53228,INYALA ILEMBO,SHULENI
MBEYA,53,MBEYA,532,SHIZUVI,53228,INYALA ILEMBO,NEEMA A
MBEYA,53,MBEYA,532,SHIZUVI,53228,INYALA ILEMBO,NEEMA BAPTISTI
MBEYA,53,MBEYA,532,SHIZUVI,53228,INYALA ILEMBO,UWANJANI
MBEYA,53,MBEYA,532,SHIZUVI,53228,INYALA ILEMBO,MOROVIANI
MBEYA,53,MBEYA,532,IZYRA,53229,IZYIRA,MAWELO
MBEYA,53,MBEYA,532,IZYRA,53229,IZYIRA,IZYIRA
MBEYA,53,MBEYA,532,IZYRA,53229,IZYIRA,BAHATI
MBEYA,53,MBEYA,532,IZYRA,53229,IZYIRA,MWENGE
MBEYA,53,MBEYA,532,IZYRA,53229,IZYIRA,MAFUMBO
MBEYA,53,MBEYA,532,IZYRA,53229,MASEWE,MASEWE
MBEYA,53,MBEYA,532,IZYRA,53229,MASEWE,IGULILO
MBEYA,53,MBEYA,532,IZYRA,53229,MASEWE,MABULA
MBEYA,53,MBEYA,532,IZYRA,53229,MASEWE,MANG'ONGA
MBEYA,53,MBEYA,532,IZYRA,53229,MASEWE,IGULILO
MBEYA,53,MBEYA,532,IZYRA,53229,INUKA,ITAGA
MBEYA,53,MBEYA,532,IZYRA,53229,INUKA,KAWATA
MBEYA,53,MBEYA,532,IZYRA,53229,INUKA,MAGOLE
MBEYA,53,MBEYA,532,IZYRA,53229,INUKA,MASANGATI
MBEYA,53,MBEYA,532,IZYRA,53229,MAPITA,IKOMELA
MBEYA,53,MBEYA,532,IZYRA,53229,MAPITA,NEEMA
MBEYA,53,MBEYA,532,IZYRA,53229,MAPITA,IGALILA
MBEYA,53,MBEYA,532,IZYRA,53229,MAPITA,VWELE
MBEYA,53,MBEYA,532,IZYRA,53229,MAPITA,MAPITA
MBEYA,53,RUNGWE,535,BULYAGA,53501,MPINDO,
MBEYA,53,RUNGWE,535,BULYAGA,53501,BULYAGA JUU,
MBEYA,53,RUNGWE,535,BULYAGA,53501,BULYAGA KATI,
MBEYA,53,RUNGWE,535,BULYAGA,53501,IGAMBA,
MBEYA,53,RUNGWE,535,BAGAMOYO,53502,BUJINGA,
MBEYA,53,RUNGWE,535,BAGAMOYO,53502,BATINI,
MBEYA,53,RUNGWE,535,BAGAMOYO,53502,BAGAMOYO,
MBEYA,53,RUNGWE,535,BAGAMOYO,53502,KANISA,
MBEYA,53,RUNGWE,535,MAKANDANA,53503,MAKANDANA,
MBEYA,53,RUNGWE,535,MAKANDANA,53503,NDEMBELA,
MBEYA,53,RUNGWE,535,MSASANI,53504,KASYETO,
MBEYA,53,RUNGWE,535,MSASANI,53504,BULONGWE,
MBEYA,53,RUNGWE,535,MSASANI,53504,MSASANI,
MBEYA,53,RUNGWE,535,MSASANI,53504,MABONDE,
MBEYA,53,RUNGWE,535,KAWETELE,53505,IGOGWE,
MBEYA,53,RUNGWE,535,KAWETELE,53505,KAWETELE CHINI,
MBEYA,53,RUNGWE,535,KAWETELE,53505,KAWETELE JUU,
MBEYA,53,RUNGWE,535,ITAGATA,53506,ITAGATA,
MBEYA,53,RUNGWE,535,ITAGATA,53506,IKAMA,
MBEYA,53,RUNGWE,535,IBIGI,53507,KATUMBA,
MBEYA,53,RUNGWE,535,IBIGI,53507,ILINGA,
MBEYA,53,RUNGWE,535,KYIMO,53509,KYIMO,
MBEYA,53,RUNGWE,535,KYIMO,53509,ILENGE,
MBEYA,53,RUNGWE,535,KYIMO,53509,SYUKULA,
MBEYA,53,RUNGWE,535,KYIMO,53509,KATABE,
MBEYA,53,RUNGWE,535,KYIMO,53509,KIBISI,
MBEYA,53,RUNGWE,535,SUMA,53510,SUMA,BUJESI
MBEYA,53,RUNGWE,535,SUMA,53510,SUMA,KABULI
MBEYA,53,RUNGWE,535,SUMA,53510,SUMA,IPONJOLA
MBEYA,53,RUNGWE,535,SUMA,53510,BUSONA,NKISI
MBEYA,53,RUNGWE,535,SUMA,53510,BUSONA,BULYAGA
MBEYA,53,RUNGWE,535,SUMA,53510,BUSONA,NDOBO
MBEYA,53,RUNGWE,535,SUMA,53510,BUSONA,ILOTO
MBEYA,53,RUNGWE,535,SUMA,53510,MALAMBA,KISALANO
MBEYA,53,RUNGWE,535,SUMA,53510,MALAMBA,BUNYAMPETA
MBEYA,53,RUNGWE,535,SUMA,53510,MALAMBA,MBANDE
MBEYA,53,RUNGWE,535,SUMA,53510,NDITU,LUKINGI
MBEYA,53,RUNGWE,535,SUMA,53510,NDITU,MPOMBO
MBEYA,53,RUNGWE,535,SUMA,53510,NDITU,KIBUMBA
MBEYA,53,RUNGWE,535,SUMA,53510,NDITU,BULONGWE
MBEYA,53,RUNGWE,535,SUMA,53510,NDITU,MAASA CHINI
MBEYA,53,RUNGWE,535,SUMA,53510,NDITU,MAASA JUU
MBEYA,53,RUNGWE,535,SUMA,53510,KABALE,BUNYAKYOLO
MBEYA,53,RUNGWE,535,SUMA,53510,KABALE,IGIRIMO
MBEYA,53,RUNGWE,535,SUMA,53510,KABALE,KAFWANDILO
MBEYA,53,RUNGWE,535,SUMA,53510,KABALE,IFUKILO
MBEYA,53,RUNGWE,535,MASOKO,53511,NSASYA,MALEMA
MBEYA,53,RUNGWE,535,MASOKO,53511,NSASYA,NSYASYA
MBEYA,53,RUNGWE,535,MASOKO,53511,NSASYA,NDWANGA
MBEYA,53,RUNGWE,535,MASOKO,53511,NSASYA,MAGOJE
MBEYA,53,RUNGWE,535,MASOKO,53511,NSASYA,ITIMBA
MBEYA,53,RUNGWE,535,MASOKO,53511,NSASYA,KANYEGENYE
MBEYA,53,RUNGWE,535,MASOKO,53511,BUJESI,MPUNGUTI
MBEYA,53,RUNGWE,535,MASOKO,53511,BUJESI,KALUMBULU
MBEYA,53,RUNGWE,535,MASOKO,53511,BUJESI,BUJINGA
MBEYA,53,RUNGWE,535,MASOKO,53511,LUFUMBI,NDOBO
MBEYA,53,RUNGWE,535,MASOKO,53511,LUFUMBI,MISEBE
MBEYA,53,RUNGWE,535,MASOKO,53511,LUFUMBI,NJISI
MBEYA,53,RUNGWE,535,MASOKO,53511,LUFUMBI,NTALIKO
MBEYA,53,RUNGWE,535,MASOKO,53511,LUFUMBI,LUFUMBI
MBEYA,53,RUNGWE,535,MASOKO,53511,LUFUMBI,LAINI
MBEYA,53,RUNGWE,535,MASOKO,53511,NGASEKE,NGASEKE
MBEYA,53,RUNGWE,535,MASOKO,53511,NGASEKE,KATUMBA
MBEYA,53,RUNGWE,535,MASOKO,53511,NGASEKE,MBUSI
MBEYA,53,RUNGWE,535,MASOKO,53511,NTANDABALA,NTANDABALA
MBEYA,53,RUNGWE,535,MASOKO,53511,NTANDABALA,MPEGELE
MBEYA,53,RUNGWE,535,MASOKO,53511,NTANDABALA,SEGELA
MBEYA,53,RUNGWE,535,MASOKO,53511,NTANDABALA,KATUSYO
MBEYA,53,RUNGWE,535,MASOKO,53511,LUPANDO,NDINGALA
MBEYA,53,RUNGWE,535,MASOKO,53511,LUPANDO,LUPANDO
MBEYA,53,RUNGWE,535,MASOKO,53511,LUPANDO,NGASEKE
MBEYA,53,RUNGWE,535,MASOKO,53511,IGEMBE,IGEMBE
MBEYA,53,RUNGWE,535,MASOKO,53511,IGEMBE,LUKOBO
MBEYA,53,RUNGWE,535,MASOKO,53511,IGEMBE,NGASYA
MBEYA,53,RUNGWE,535,MPUGUSO,53512,ISAJILO,KISINDILE
MBEYA,53,RUNGWE,535,MPUGUSO,53512,ISAJILO,IGEMBE
MBEYA,53,RUNGWE,535,MPUGUSO,53512,ISAJILO,KATUMBA
MBEYA,53,RUNGWE,535,MPUGUSO,53512,ISAJILO,NKUYU
MBEYA,53,RUNGWE,535,MPUGUSO,53512,ISAJILO,MBYANGA
MBEYA,53,RUNGWE,535,MPUGUSO,53512,ISAJILO,KILONGANONGWA
MBEYA,53,RUNGWE,535,MPUGUSO,53512,ISAJILO,ISAJILO
MBEYA,53,RUNGWE,535,MPUGUSO,53512,MPUMBULI,KIBANJA
MBEYA,53,RUNGWE,535,MPUGUSO,53512,MPUMBULI,MPUMBULI
MBEYA,53,RUNGWE,535,MPUGUSO,53512,MIBULA,KINELA
MBEYA,53,RUNGWE,535,MPUGUSO,53512,MIBULA,IGEMBE
MBEYA,53,RUNGWE,535,MPUGUSO,53512,MIBULA,MIBULA
MBEYA,53,RUNGWE,535,MPUGUSO,53512,MPUGUSO,KATUMBA
MBEYA,53,RUNGWE,535,MPUGUSO,53512,MPUGUSO,USHIRIKA
MBEYA,53,RUNGWE,535,MPUGUSO,53512,MPUGUSO,MPUGUSO
MBEYA,53,RUNGWE,535,MALINDO,53513,KAPUGI,IMOMO
MBEYA,53,RUNGWE,535,MALINDO,53513,KAPUGI,KIBABALA
MBEYA,53,RUNGWE,535,MALINDO,53513,KAPUGI,KAPOLWE
MBEYA,53,RUNGWE,535,MALINDO,53513,KAPUGI,MBOSI
MBEYA,53,RUNGWE,535,MALINDO,53513,KAPUGI,BUNYAKAPETA
MBEYA,53,RUNGWE,535,MALINDO,53513,KAPUGI,NGAMANGA
MBEYA,53,RUNGWE,535,MALINDO,53513,IBUNGILA,MALINDO CHINI
MBEYA,53,RUNGWE,535,MALINDO,53513,IBUNGILA,MALINDO JUU
MBEYA,53,RUNGWE,535,MALINDO,53513,IBUNGILA,MPUNGUTI
MBEYA,53,RUNGWE,535,MALINDO,53513,IBUNGILA,KAGWINA
MBEYA,53,RUNGWE,535,MALINDO,53513,IBUNGILA,KABEMBE
MBEYA,53,RUNGWE,535,MALINDO,53513,IBUNGILA,IBUNGILA
MBEYA,53,RUNGWE,535,MALINDO,53513,IBUNGILA,MIBANGA
MBEYA,53,RUNGWE,535,MALINDO,53513,IGALAMU,LUKINGI
MBEYA,53,RUNGWE,535,MALINDO,53513,IGALAMU,ITEBE
MBEYA,53,RUNGWE,535,MALINDO,53513,IGALAMU,SEGELA
MBEYA,53,RUNGWE,535,MALINDO,53513,IGALAMU,IGALAMU
MBEYA,53,RUNGWE,535,MALINDO,53513,IGALAMU,MIBANGA
MBEYA,53,RUNGWE,535,LUFINGO,53514,ITETE,LUFINGO
MBEYA,53,RUNGWE,535,LUFINGO,53514,ITETE,ITETE
MBEYA,53,RUNGWE,535,LUFINGO,53514,ITETE,MBANGANYIGALE
MBEYA,53,RUNGWE,535,LUFINGO,53514,ITETE,BUJONDE
MBEYA,53,RUNGWE,535,LUFINGO,53514,ITETE,KASANDA
MBEYA,53,RUNGWE,535,LUFINGO,53514,KALALO,IGEMBE
MBEYA,53,RUNGWE,535,LUFINGO,53514,KALALO,BUJINGA
MBEYA,53,RUNGWE,535,LUFINGO,53514,KALALO,BUSANGO
MBEYA,53,RUNGWE,535,LUFINGO,53514,KALALO,KATUMBA
MBEYA,53,RUNGWE,535,LUFINGO,53514,KALALO,KALALO
MBEYA,53,RUNGWE,535,LUFINGO,53514,KAGWINA,LUMBILA
MBEYA,53,RUNGWE,535,LUFINGO,53514,KAGWINA,MASEBE
MBEYA,53,RUNGWE,535,LUFINGO,53514,KAGWINA,KANDETE
MBEYA,53,RUNGWE,535,LUFINGO,53514,KAGWINA,SOWETO
MBEYA,53,RUNGWE,535,LUFINGO,53514,KAGWINA,KAGWINA
MBEYA,53,RUNGWE,535,LUFINGO,53514,SIMIKE,IBABU
MBEYA,53,RUNGWE,535,LUFINGO,53514,SIMIKE,IPYANA
MBEYA,53,RUNGWE,535,LUFINGO,53514,SIMIKE,ITEBE
MBEYA,53,RUNGWE,535,LUFINGO,53514,SIMIKE,KAKUYU
MBEYA,53,RUNGWE,535,LUFINGO,53514,SIMIKE,MALIBILA
MBEYA,53,RUNGWE,535,LUFINGO,53514,SIMIKE,MAJOMBO
MBEYA,53,RUNGWE,535,LUFINGO,53514,SIMIKE,KASANGA
MBEYA,53,RUNGWE,535,KIWIRA,53515,MPANDAPANDA,IPOMA
MBEYA,53,RUNGWE,535,KIWIRA,53515,MPANDAPANDA,KIWIRA KATI
MBEYA,53,RUNGWE,535,KIWIRA,53515,MPANDAPANDA,MPANDAPANDA
MBEYA,53,RUNGWE,535,KIWIRA,53515,MPANDAPANDA,ILONGOBOTO
MBEYA,53,RUNGWE,535,KIWIRA,53515,MPANDAPANDA,ISANGE
MBEYA,53,RUNGWE,535,KIWIRA,53515,KIKOTA,LUKWEGO
MBEYA,53,RUNGWE,535,KIWIRA,53515,KIKOTA,LUBWE
MBEYA,53,RUNGWE,535,KIWIRA,53515,KIKOTA,KANG'ENG'E
MBEYA,53,RUNGWE,535,KIWIRA,53515,KIKOTA,ILAMBA
MBEYA,53,RUNGWE,535,KIWIRA,53515,KIKOTA,KIKOTA
MBEYA,53,RUNGWE,535,KIWIRA,53515,KIKOTA,IPANDE
MBEYA,53,RUNGWE,535,KIWIRA,53515,IBULA,KIBUMBE
MBEYA,53,RUNGWE,535,KIWIRA,53515,IBULA,IBULA
MBEYA,53,RUNGWE,535,KIWIRA,53515,IBULA,KANYEGELE
MBEYA,53,RUNGWE,535,KIWIRA,53515,IBULA,SANU - SALALA KALONGO
MBEYA,53,RUNGWE,535,KIWIRA,53515,IBULA,KATELA
MBEYA,53,RUNGWE,535,KIWIRA,53515,ILUNDO,BUJINGA
MBEYA,53,RUNGWE,535,KIWIRA,53515,ILUNDO,IBAGHA A
MBEYA,53,RUNGWE,535,KIWIRA,53515,ILUNDO,BUSWEMA
MBEYA,53,RUNGWE,535,KIWIRA,53515,ILUNDO,IBAGHA B
MBEYA,53,RUNGWE,535,KIWIRA,53515,ILUNDO,KANYAMBALA
MBEYA,53,RUNGWE,535,KIWIRA,53515,ILUNDO,LUSUNGO
MBEYA,53,RUNGWE,535,KIWIRA,53515,ILOLO,IBIGI
MBEYA,53,RUNGWE,535,KIWIRA,53515,ILOLO,ILOLO
MBEYA,53,RUNGWE,535,KIWIRA,53515,ILOLO,ITEKELE
MBEYA,53,RUNGWE,535,KIWIRA,53515,ILOLO,MASEBE
MBEYA,53,RUNGWE,535,KIWIRA,53515,ILOLO,MASUGWA
MBEYA,53,RUNGWE,535,KIWIRA,53515,ILOLO,KISUNGU
MBEYA,53,RUNGWE,535,NKUNGA,53516,NKUNGA,NKUNGA
MBEYA,53,RUNGWE,535,NKUNGA,53516,NKUNGA,IKAMA
MBEYA,53,RUNGWE,535,NKUNGA,53516,NKUNGA,KITUMBA
MBEYA,53,RUNGWE,535,NKUNGA,53516,NKUNGA,MASUGWA
MBEYA,53,RUNGWE,535,NKUNGA,53516,NKUNGA,IBOLELO
MBEYA,53,RUNGWE,535,NKUNGA,53516,NKUNGA,LUGOMBO
MBEYA,53,RUNGWE,535,NKUNGA,53516,ISAKA,ISAKA
MBEYA,53,RUNGWE,535,NKUNGA,53516,ISAKA,IJUNGWE
MBEYA,53,RUNGWE,535,NKUNGA,53516,ISAKA,ILOTO
MBEYA,53,RUNGWE,535,NKUNGA,53516,ISAKA,ITOLIKA
MBEYA,53,RUNGWE,535,NKUNGA,53516,ISAKA,KASEFUKA
MBEYA,53,RUNGWE,535,NKUNGA,53516,ISAKA,MATALE
MBEYA,53,RUNGWE,535,NKUNGA,53516,IBILILO,BULALE
MBEYA,53,RUNGWE,535,NKUNGA,53516,IBILILO,LUBATI
MBEYA,53,RUNGWE,535,NKUNGA,53516,IBILILO,IBILILO
MBEYA,53,RUNGWE,535,NKUNGA,53516,IBILILO,MAHENGE
MBEYA,53,RUNGWE,535,NKUNGA,53516,IBILILO,NSANGA
MBEYA,53,RUNGWE,535,NKUNGA,53516,IBILILO,IKUTI
MBEYA,53,RUNGWE,535,NKUNGA,53516,IBILILO,LUKULE
MBEYA,53,RUNGWE,535,NKUNGA,53516,IBILILO,KABELELE
MBEYA,53,RUNGWE,535,NKUNGA,53516,IBILILO,IBAMBALA
MBEYA,53,RUNGWE,535,NKUNGA,53516,IBILILO,MATWELI
MBEYA,53,RUNGWE,535,IKUTI,53517,LYENJE,LYENJE
MBEYA,53,RUNGWE,535,IKUTI,53517,LYENJE,IJUGWE
MBEYA,53,RUNGWE,535,IKUTI,53517,LYENJE,KEZALIA
MBEYA,53,RUNGWE,535,IKUTI,53517,LYENJE,MWANTONDO
MBEYA,53,RUNGWE,535,IKUTI,53517,LYENJE,KIMOMO
MBEYA,53,RUNGWE,535,IKUTI,53517,LYENJE,KITAPWA
MBEYA,53,RUNGWE,535,IKUTI,53517,IBUNGU,KIPYA
MBEYA,53,RUNGWE,535,IKUTI,53517,IBUNGU,IBUNGU
MBEYA,53,RUNGWE,535,IKUTI,53517,IBUNGU,MAKATA
MBEYA,53,RUNGWE,535,IKUTI,53517,IBUNGU,MEEGA
MBEYA,53,RUNGWE,535,IKUTI,53517,IKUTI,IKUTI
MBEYA,53,RUNGWE,535,IKUTI,53517,IKUTI,KINYIKA
MBEYA,53,RUNGWE,535,IKUTI,53517,IKUTI,BUTONGA
MBEYA,53,RUNGWE,535,IKUTI,53517,IKUTI,LUPUPU
MBEYA,53,RUNGWE,535,IKUTI,53517,IKUTI,MABALE
MBEYA,53,RUNGWE,535,IKUTI,53517,IKUTI,BUTUMBA
MBEYA,53,RUNGWE,535,IKUTI,53517,IKUTI,IBULA
MBEYA,53,RUNGWE,535,IKUTI,53517,IKUTI,KAGISA
MBEYA,53,RUNGWE,535,IKUTI,53517,LUMBE,LUMBE
MBEYA,53,RUNGWE,535,IKUTI,53517,LUMBE,NSANGA
MBEYA,53,RUNGWE,535,IKUTI,53517,KYOBO,MATALE
MBEYA,53,RUNGWE,535,IKUTI,53517,KYOBO,IGEMBE
MBEYA,53,RUNGWE,535,IKUTI,53517,KYOBO,KYOBO CHINI
MBEYA,53,RUNGWE,535,IKUTI,53517,KYOBO,ISUGA
MBEYA,53,RUNGWE,535,IKUTI,53517,KYOBO,KITOLO
MBEYA,53,RUNGWE,535,IKUTI,53517,KYOBO,NG'ENGE
MBEYA,53,RUNGWE,535,IKUTI,53517,KYOBO JUU,KYOBO KATI
MBEYA,53,RUNGWE,535,IKUTI,53517,KYOBO JUU,KYOBO JUU
MBEYA,53,RUNGWE,535,IKUTI,53517,KYOBO JUU,LUBEMBA
MBEYA,53,RUNGWE,535,KISONDELA,53518,ISUBA,ISUBA
MBEYA,53,RUNGWE,535,KISONDELA,53518,ISUBA,KATUMBA
MBEYA,53,RUNGWE,535,KISONDELA,53518,ISUBA,SESO
MBEYA,53,RUNGWE,535,KISONDELA,53518,ISUBA,ILULWE
MBEYA,53,RUNGWE,535,KISONDELA,53518,ISUBA,IPONJOLA
MBEYA,53,RUNGWE,535,KISONDELA,53518,KIBATATA,IPYANA
MBEYA,53,RUNGWE,535,KISONDELA,53518,KIBATATA,KISONDELA
MBEYA,53,RUNGWE,535,KISONDELA,53518,KIBATATA,MWANJELWA
MBEYA,53,RUNGWE,535,KISONDELA,53518,NDUBI,NDUBI
MBEYA,53,RUNGWE,535,KISONDELA,53518,NDUBI,KILILILA
MBEYA,53,RUNGWE,535,KISONDELA,53518,NDUBI,LUSUNGO II
MBEYA,53,RUNGWE,535,KISONDELA,53518,MPUGA,MPUGA
MBEYA,53,RUNGWE,535,KISONDELA,53518,MPUGA,NSYAMBA
MBEYA,53,RUNGWE,535,KISONDELA,53518,MPUGA,NGOPYOLO
MBEYA,53,RUNGWE,535,KISONDELA,53518,LUTETE,BUJESI
MBEYA,53,RUNGWE,535,KISONDELA,53518,LUTETE,NJELA
MBEYA,53,RUNGWE,535,KISONDELA,53518,LUTETE,LUGOMBO
MBEYA,53,RUNGWE,535,KISONDELA,53518,LUTETE,ISUMBA
MBEYA,53,RUNGWE,535,KISONDELA,53518,LUTETE,MAJENGO
MBEYA,53,RUNGWE,535,KISONDELA,53518,LUTETE,NGUBATI
MBEYA,53,RUNGWE,535,KISONDELA,53518,LUTETE,NNYAMISI
MBEYA,53,RUNGWE,535,KISONDELA,53518,BUGOBA,BUGOBA
MBEYA,53,RUNGWE,535,KISONDELA,53518,BUGOBA,IGEMBE
MBEYA,53,RUNGWE,535,KISONDELA,53518,BUGOBA,MASEBE
MBEYA,53,RUNGWE,535,KISONDELA,53518,BUGOBA,LUSUNGO JUU
MBEYA,53,RUNGWE,535,KISONDELA,53518,BUGOBA,LUSUNGO CHINI
MBEYA,53,RUNGWE,535,ILIMA,53519,NGUJUBWAJE 'A',KAYUKI
MBEYA,53,RUNGWE,535,ILIMA,53519,NGUJUBWAJE 'A',LUGOMBO
MBEYA,53,RUNGWE,535,ILIMA,53519,KATUNDULU,LUGOMBO
MBEYA,53,RUNGWE,535,ILIMA,53519,KATUNDULU,SEGELA
MBEYA,53,RUNGWE,535,ILIMA,53519,KATUNDULU,KATUNDULU
MBEYA,53,RUNGWE,535,ILIMA,53519,ITULA,IBOLELA A
MBEYA,53,RUNGWE,535,ILIMA,53519,ITULA,IBOLELA B
MBEYA,53,RUNGWE,535,ILIMA,53519,ITULA,ITULA A
MBEYA,53,RUNGWE,535,ILIMA,53519,ITULA,ITULA B
MBEYA,53,RUNGWE,535,ILIMA,53519,LUBANDA,LUBANDA
MBEYA,53,RUNGWE,535,ILIMA,53519,LUBANDA,KAGINDWA
MBEYA,53,RUNGWE,535,ILIMA,53519,ILIMA,IBOLELO
MBEYA,53,RUNGWE,535,ILIMA,53519,ILIMA,ILIMA
MBEYA,53,RUNGWE,535,ILIMA,53519,NGUJUBWAJE 'B',NTUSO
MBEYA,53,RUNGWE,535,ILIMA,53519,NGUJUBWAJE 'B',LANDANI
MBEYA,53,RUNGWE,535,ILIMA,53519,NGUJUBWAJE 'B',BUJESI
MBEYA,53,RUNGWE,535,BUJELA,53520,MPOMBO,MPOMBO
MBEYA,53,RUNGWE,535,BUJELA,53520,MPOMBO,SALIMA
MBEYA,53,RUNGWE,535,BUJELA,53520,KYAMBAMBEMBE,MAKINA
MBEYA,53,RUNGWE,535,BUJELA,53520,KYAMBAMBEMBE,MAKUYU
MBEYA,53,RUNGWE,535,BUJELA,53520,NSONGOLA,NSONGOLA
MBEYA,53,RUNGWE,535,BUJELA,53520,NSONGOLA,NKUYU
MBEYA,53,RUNGWE,535,BUJELA,53520,NSONGOLA,LUPILA
MBEYA,53,RUNGWE,535,BUJELA,53520,NSONGOLA,KILANGE
MBEYA,53,RUNGWE,535,BUJELA,53520,BUJELA,BUJELA
MBEYA,53,RUNGWE,535,BUJELA,53520,BUJELA,NTUSO
MBEYA,53,RUNGWE,535,BUJELA,53520,BUJELA,BUJEGE
MBEYA,53,RUNGWE,535,BUJELA,53520,BUJELA,BUSYALA
MBEYA,53,RUNGWE,535,BUJELA,53520,SEGELA,SEGELA
MBEYA,53,RUNGWE,535,BUJELA,53520,SEGELA,KATONYA
MBEYA,53,RUNGWE,535,BUJELA,53520,SEGELA,IPYANA
MBEYA,53,RUNGWE,535,BUJELA,53520,SEGELA,BRAZIL
MBEYA,53,RUNGWE,535,MASUKULU,53521,NJUGILO,MIBULA
MBEYA,53,RUNGWE,535,MASUKULU,53521,NJUGILO,NJUGILO
MBEYA,53,RUNGWE,535,MASUKULU,53521,NJUGILO,LANDANI
MBEYA,53,RUNGWE,535,MASUKULU,53521,NJUGILO,KATUMBA
MBEYA,53,RUNGWE,535,MASUKULU,53521,MASUKULU,MASUKULU
MBEYA,53,RUNGWE,535,MASUKULU,53521,MASUKULU,MISRI
MBEYA,53,RUNGWE,535,MASUKULU,53521,MASUKULU,IPOJOLO
MBEYA,53,RUNGWE,535,MASUKULU,53521,MASUKULU,SESE
MBEYA,53,RUNGWE,535,MASUKULU,53521,MASUKULU,ITWATWA
MBEYA,53,RUNGWE,535,MASUKULU,53521,LYEBE,LYEBE CHINI
MBEYA,53,RUNGWE,535,MASUKULU,53521,LYEBE,KABULA
MBEYA,53,RUNGWE,535,MASUKULU,53521,LYEBE,LYEBE
MBEYA,53,RUNGWE,535,MASUKULU,53521,KILOBA,KILOBA MJINI
MBEYA,53,RUNGWE,535,MASUKULU,53521,KILOBA,NAZARETI
MBEYA,53,RUNGWE,535,MASUKULU,53521,KILOBA,ILEJE
MBEYA,53,RUNGWE,535,MASUKULU,53521,IJIGHA,NGEKE
MBEYA,53,RUNGWE,535,MASUKULU,53521,IJIGHA,NGAPOKE
MBEYA,53,RUNGWE,535,MASUKULU,53521,IJIGHA,MBANGALA
MBEYA,53,RUNGWE,535,MASUKULU,53521,IJIGHA,IJIGHA
MBEYA,53,RUNGWE,535,KISIBA,53522,ISABULA,IKOMELO
MBEYA,53,RUNGWE,535,KISIBA,53522,ISABULA,IKAMA
MBEYA,53,RUNGWE,535,KISIBA,53522,ISABULA,ISABULA JUU
MBEYA,53,RUNGWE,535,KISIBA,53522,ISABULA,ISABULA CHINI
MBEYA,53,RUNGWE,535,KISIBA,53522,ISABULA,ISESELO
MBEYA,53,RUNGWE,535,KISIBA,53522,BUSISYA,BUSISYA
MBEYA,53,RUNGWE,535,KISIBA,53522,BUSISYA,BUSILYA
MBEYA,53,RUNGWE,535,KISIBA,53522,BUSISYA,BUTUMBA
MBEYA,53,RUNGWE,535,KISIBA,53522,MBAKA,LANDANI
MBEYA,53,RUNGWE,535,KISIBA,53522,MBAKA,MIBULA
MBEYA,53,RUNGWE,535,KISIBA,53522,MBAKA,KIBUNDUGULU
MBEYA,53,RUNGWE,535,KISIBA,53522,LWIFWA,LWIFWA
MBEYA,53,RUNGWE,535,KISIBA,53522,LWIFWA,LUGOMBO
MBEYA,53,RUNGWE,535,KISIBA,53522,LWIFWA,ISESELO JUU
MBEYA,53,RUNGWE,535,KABULA,53523,KITEMA,IPYASYO
MBEYA,53,RUNGWE,535,KABULA,53523,KITEMA,LWALE
MBEYA,53,RUNGWE,535,KABULA,53523,KITEMA,LUBAGA
MBEYA,53,RUNGWE,535,KABULA,53523,KITEMA,NGULU
MBEYA,53,RUNGWE,535,KABULA,53523,KAPYU,MBEGELE
MBEYA,53,RUNGWE,535,KABULA,53523,KAPYU,KIKOTA
MBEYA,53,RUNGWE,535,KABULA,53523,KAPYU,KAPYU CHINI
MBEYA,53,RUNGWE,535,KABULA,53523,KANYELELE,KANYELELE
MBEYA,53,RUNGWE,535,KABULA,53523,KANYELELE,NTANGASALE
MBEYA,53,RUNGWE,535,KABULA,53523,KANYELELE,KASEBE
MBEYA,53,RUNGWE,535,KABULA,53523,NDEMBO,ITETE
MBEYA,53,RUNGWE,535,KABULA,53523,NDEMBO,NDEMBO
MBEYA,53,RUNGWE,535,KABULA,53523,NDEMBO,MALAMBO
MBEYA,53,RUNGWE,535,KABULA,53523,NDEMBO,KAGWINA
MBEYA,53,RUNGWE,535,KABULA,53523,NDEMBO,IKAMBAKU
MBEYA,53,RUNGWE,535,KABULA,53523,NDEMBO,IKOMBE
MBEYA,53,RUNGWE,535,LUPATA,53524,BWIBUKA,BWIBUKA
MBEYA,53,RUNGWE,535,LUPATA,53524,BWIBUKA,IPONJOLA
MBEYA,53,RUNGWE,535,LUPATA,53524,BWIBUKA,MBONGOLO
MBEYA,53,RUNGWE,535,LUPATA,53524,BWIBUKA,MALEMA
MBEYA,53,RUNGWE,535,LUPATA,53524,LUPATA,ISUBA
MBEYA,53,RUNGWE,535,LUPATA,53524,LUPATA,IPOMA
MBEYA,53,RUNGWE,535,LUPATA,53524,LUPATA,NJISI
MBEYA,53,RUNGWE,535,LUPATA,53524,LUPATA,IGEMBE
MBEYA,53,RUNGWE,535,LUPATA,53524,LUPATA,KIBONDE
MBEYA,53,RUNGWE,535,LUPATA,53524,LUPATA,KITULI
MBEYA,53,RUNGWE,535,LUPATA,53524,MPANDA,KILOSI
MBEYA,53,RUNGWE,535,LUPATA,53524,MPANDA,KABULA
MBEYA,53,RUNGWE,535,LUPATA,53524,MPANDA,ISUMBA
MBEYA,53,RUNGWE,535,LUPATA,53524,MPANDA,MPANDA
MBEYA,53,RUNGWE,535,LUPATA,53524,MPANDA,MPOMBO
MBEYA,53,RUNGWE,535,LUPATA,53524,MPANDA,KASANGALI
MBEYA,53,RUNGWE,535,LUPATA,53524,NTAPISI,NTAPISI KATI
MBEYA,53,RUNGWE,535,LUPATA,53524,NTAPISI,MWAKIPIKO
MBEYA,53,RUNGWE,535,LUPATA,53524,NTAPISI,LEMBUKA
MBEYA,53,RUNGWE,535,LUPATA,53524,NSONSO,BUJESI
MBEYA,53,RUNGWE,535,LUPATA,53524,NSONSO,KIKULUMBA
MBEYA,53,RUNGWE,535,LUPATA,53524,NSONSO,KIKUSYA
MBEYA,53,RUNGWE,535,KAMBASEGELA,53525,MBAMBO,IKAPU
MBEYA,53,RUNGWE,535,KAMBASEGELA,53525,MBAMBO,IGUNGA
MBEYA,53,RUNGWE,535,KAMBASEGELA,53525,MBAMBO,ISYETO
MBEYA,53,RUNGWE,535,KAMBASEGELA,53525,MBAMBO,MBAMBO KATI
MBEYA,53,RUNGWE,535,KAMBASEGELA,53525,KAMBASEGELA,MWANGUMBE
MBEYA,53,RUNGWE,535,KAMBASEGELA,53525,KAMBASEGELA,NKUJU
MBEYA,53,RUNGWE,535,KAMBASEGELA,53525,KAMBASEGELA,KANISANI
MBEYA,53,RUNGWE,535,KAMBASEGELA,53525,KAMBASEGELA,IPONJOLA
MBEYA,53,RUNGWE,535,KAMBASEGELA,53525,KAMBASEGELA,MPANDA
MBEYA,53,RUNGWE,535,KAMBASEGELA,53525,KATELA,ILOPA
MBEYA,53,RUNGWE,535,KAMBASEGELA,53525,KATELA,KATELA
MBEYA,53,RUNGWE,535,KAMBASEGELA,53525,KATELA,MPATA
MBEYA,53,RUNGWE,535,KISEGESE,53526,KISEGESE,KISEGESE
MBEYA,53,RUNGWE,535,KISEGESE,53526,KISEGESE,LUFILYO
MBEYA,53,RUNGWE,535,KISEGESE,53526,KISEGESE,MBININGU
MBEYA,53,RUNGWE,535,KISEGESE,53526,KISEGESE,KIBANJA
MBEYA,53,RUNGWE,535,KISEGESE,53526,NGELEKA,MBUYU
MBEYA,53,RUNGWE,535,KISEGESE,53526,NGELEKA,ISALA
MBEYA,53,RUNGWE,535,KISEGESE,53526,NGELEKA,MWALISI
MBEYA,53,RUNGWE,535,KISEGESE,53526,NGELEKA,NGELEKA  A
MBEYA,53,RUNGWE,535,KISEGESE,53526,NGELEKA,NGELEKA  B
MBEYA,53,RUNGWE,535,KISEGESE,53526,KASYABONE,KASYABONE
MBEYA,53,RUNGWE,535,KISEGESE,53526,KASYABONE,NDOBO
MBEYA,53,RUNGWE,535,KISEGESE,53526,KASYABONE,KILOBA
MBEYA,53,RUNGWE,535,ITETE,53527,KABEMBE,MPUGUSO
MBEYA,53,RUNGWE,535,ITETE,53527,KABEMBE,LWAMBI
MBEYA,53,RUNGWE,535,ITETE,53527,KABEMBE,IKAMA
MBEYA,53,RUNGWE,535,ITETE,53527,KABEMBE,KITIMA
MBEYA,53,RUNGWE,535,ITETE,53527,KABEMBE,MPANDA
MBEYA,53,RUNGWE,535,ITETE,53527,SELYA,BUSEKELE
MBEYA,53,RUNGWE,535,ITETE,53527,SELYA,BUJESI
MBEYA,53,RUNGWE,535,ITETE,53527,SELYA,MBUSANIA
MBEYA,53,RUNGWE,535,ITETE,53527,SELYA,NGANA
MBEYA,53,RUNGWE,535,ITETE,53527,BUSOKA,MPANDA
MBEYA,53,RUNGWE,535,ITETE,53527,BUSOKA,KATILU
MBEYA,53,RUNGWE,535,ITETE,53527,BUSOKA,MBONJA
MBEYA,53,RUNGWE,535,ITETE,53527,BUSOKA,MBEGELE
MBEYA,53,RUNGWE,535,ITETE,53527,BUSOKA,JUAKALI
MBEYA,53,RUNGWE,535,ITETE,53527,BUSOKA,SARU
MBEYA,53,RUNGWE,535,ITETE,53527,BUSOKA,KANDETE
MBEYA,53,RUNGWE,535,ITETE,53527,BUSOKA,HEDIKOTA
MBEYA,53,RUNGWE,535,ITETE,53527,BUSOKA,BUTOLA
MBEYA,53,RUNGWE,535,ITETE,53527,KILUGU,LUSUNGO
MBEYA,53,RUNGWE,535,ITETE,53527,KILUGU,MPANDA
MBEYA,53,RUNGWE,535,ITETE,53527,KILUGU,NGAMANGA
MBEYA,53,RUNGWE,535,ITETE,53527,KILUGU,LUKWEGO
MBEYA,53,RUNGWE,535,ITETE,53527,KILUGU,LUPASO
MBEYA,53,RUNGWE,535,ITETE,53527,KILUGU,IPYANA
MBEYA,53,RUNGWE,535,ITETE,53527,KIBOLE,KIBOLE KATI
MBEYA,53,RUNGWE,535,ITETE,53527,KIBOLE,IPYASYO
MBEYA,53,RUNGWE,535,ITETE,53527,KIBOLE,NKUYU
MBEYA,53,RUNGWE,535,ITETE,53527,KIBOLE,ILOPA
MBEYA,53,RUNGWE,535,ITETE,53527,KIBOLE,NGUTI
MBEYA,53,RUNGWE,535,LUFILYO,53528,KIPAPA,SANU
MBEYA,53,RUNGWE,535,LUFILYO,53528,KIPAPA,NDOLA
MBEYA,53,RUNGWE,535,LUFILYO,53528,KIPAPA,KATETE
MBEYA,53,RUNGWE,535,LUFILYO,53528,KIPAPA,MPULO
MBEYA,53,RUNGWE,535,LUFILYO,53528,KIPAPA,LUPANDO
MBEYA,53,RUNGWE,535,LUFILYO,53528,KIKUBA,KATUMBA
MBEYA,53,RUNGWE,535,LUFILYO,53528,KIKUBA,KINELA
MBEYA,53,RUNGWE,535,LUFILYO,53528,KIKUBA,BUSIKALI
MBEYA,53,RUNGWE,535,LUFILYO,53528,KIKUBA,NDUBI
MBEYA,53,RUNGWE,535,LUFILYO,53528,KIKUBA,BUJONDE
MBEYA,53,RUNGWE,535,LUFILYO,53528,KIKUBA,KIPANGAMANSI
MBEYA,53,RUNGWE,535,LUFILYO,53528,KIFUNDA,LANDANI
MBEYA,53,RUNGWE,535,LUFILYO,53528,KIFUNDA,NDUMBATI
MBEYA,53,RUNGWE,535,LUFILYO,53528,KIFUNDA,NSANGA
MBEYA,53,RUNGWE,535,LUFILYO,53528,KIFUNDA,KIFUNDA
MBEYA,53,RUNGWE,535,LUFILYO,53528,LUSUNGO,NJISI
MBEYA,53,RUNGWE,535,LUFILYO,53528,LUSUNGO,LUSUNGO
MBEYA,53,RUNGWE,535,LUFILYO,53528,LUSUNGO,LANDANI
MBEYA,53,RUNGWE,535,LUFILYO,53528,KIPYOLA,KALENGO
MBEYA,53,RUNGWE,535,LUFILYO,53528,KIPYOLA,SOTA
MBEYA,53,RUNGWE,535,LUFILYO,53528,KIPYOLA,NTALULA
MBEYA,53,RUNGWE,535,LWANGWA,53529,MBIGILI,MBIGILI
MBEYA,53,RUNGWE,535,LWANGWA,53529,MBIGILI,NGELENGE
MBEYA,53,RUNGWE,535,LWANGWA,53529,MBIGILI,ILOBOKO
MBEYA,53,RUNGWE,535,LWANGWA,53529,MBIGILI,MBISA
MBEYA,53,RUNGWE,535,LWANGWA,53529,MBIGILI,BUNYAKASEGE
MBEYA,53,RUNGWE,535,LWANGWA,53529,MBIGILI,BUSILYA
MBEYA,53,RUNGWE,535,LWANGWA,53529,LUKASI,KISONDELA
MBEYA,53,RUNGWE,535,LWANGWA,53529,LUKASI,LUKASI
MBEYA,53,RUNGWE,535,LWANGWA,53529,LUKASI,KIPUTA
MBEYA,53,RUNGWE,535,LWANGWA,53529,KITALI,LUPASO
MBEYA,53,RUNGWE,535,LWANGWA,53529,KITALI,KITALI
MBEYA,53,RUNGWE,535,LWANGWA,53529,KITALI,ITIKI
MBEYA,53,RUNGWE,535,LWANGWA,53529,IKAMAMBANDE,KITUNGWA
MBEYA,53,RUNGWE,535,LWANGWA,53529,IKAMAMBANDE,BUTUMBA
MBEYA,53,RUNGWE,535,LWANGWA,53529,IKAMAMBANDE,MBANDE
MBEYA,53,RUNGWE,535,MPOMBO,53530,LUSANJE,ITETE
MBEYA,53,RUNGWE,535,MPOMBO,53530,LUSANJE,NDAMBA
MBEYA,53,RUNGWE,535,MPOMBO,53530,LUSANJE,IPOMA
MBEYA,53,RUNGWE,535,MPOMBO,53530,LUSANJE,IPOGOLO
MBEYA,53,RUNGWE,535,MPOMBO,53530,LUSANJE,MASEBE
MBEYA,53,RUNGWE,535,MPOMBO,53530,KASANGA,KASANGA
MBEYA,53,RUNGWE,535,MPOMBO,53530,KASANGA,IGEMBE
MBEYA,53,RUNGWE,535,MPOMBO,53530,KASANGA,KYEJO
MBEYA,53,RUNGWE,535,MPOMBO,53530,KASANGA,KALAMBO
MBEYA,53,RUNGWE,535,MPOMBO,53530,IJOKA,NGUNJWA
MBEYA,53,RUNGWE,535,MPOMBO,53530,IJOKA,IPOMA
MBEYA,53,RUNGWE,535,MPOMBO,53530,IJOKA,ILUNDO
MBEYA,53,RUNGWE,535,MPOMBO,53530,IJOKA,NSONGOLA
MBEYA,53,RUNGWE,535,MPOMBO,53530,IJOKA,MPAFWA
MBEYA,53,RUNGWE,535,MPOMBO,53530,LULASI,ITONGOLUGULU
MBEYA,53,RUNGWE,535,MPOMBO,53530,LULASI,LULASI
MBEYA,53,RUNGWE,535,MPOMBO,53530,LULASI,LUKATA
MBEYA,53,RUNGWE,535,MPOMBO,53530,BWILANDO,BWILANDO
MBEYA,53,RUNGWE,535,MPOMBO,53530,BWILANDO,IKUBO
MBEYA,53,RUNGWE,535,ISANGE,53531,ISANGE,SOTA
MBEYA,53,RUNGWE,535,ISANGE,53531,ISANGE,IPONJOLA
MBEYA,53,RUNGWE,535,ISANGE,53531,ISANGE,ISANU
MBEYA,53,RUNGWE,535,ISANGE,53531,ISANGE,NDAMBA
MBEYA,53,RUNGWE,535,ISANGE,53531,ISANGE,ISABULA
MBEYA,53,RUNGWE,535,ISANGE,53531,ISANGE,MPUNGA
MBEYA,53,RUNGWE,535,ISANGE,53531,ISANGE,IPYELA
MBEYA,53,RUNGWE,535,ISANGE,53531,ISANGE,LUGOMBO
MBEYA,53,RUNGWE,535,ISANGE,53531,NKALISI,KIKUBA
MBEYA,53,RUNGWE,535,ISANGE,53531,NKALISI,IPYANA
MBEYA,53,RUNGWE,535,ISANGE,53531,NKALISI,NKALISI
MBEYA,53,RUNGWE,535,ISANGE,53531,MATAMBA,ILONDO
MBEYA,53,RUNGWE,535,ISANGE,53531,MATAMBA,MATAMBA CHINI
MBEYA,53,RUNGWE,535,ISANGE,53531,MATAMBA,MATAMBA JUU
MBEYA,53,RUNGWE,535,ISANGE,53531,MATAMBA,IBUNGU
MBEYA,53,RUNGWE,535,ISANGE,53531,MATAMBA,LUMBILA
MBEYA,53,RUNGWE,535,ISANGE,53531,BUMBIGI,NGUKA
MBEYA,53,RUNGWE,535,ISANGE,53531,BUMBIGI,ILOBA
MBEYA,53,RUNGWE,535,ISANGE,53531,BUMBIGI,NSANGA
MBEYA,53,RUNGWE,535,ISANGE,53531,BUMBIGI,LWANGILO  A
MBEYA,53,RUNGWE,535,ISANGE,53531,BUMBIGI,LWANGILO B
MBEYA,53,RUNGWE,535,ISANGE,53531,BUMBIGI,KITITU
MBEYA,53,RUNGWE,535,KANDETE,53532,KANDETE,KALULU
MBEYA,53,RUNGWE,535,KANDETE,53532,KANDETE,LUPANGA
MBEYA,53,RUNGWE,535,KANDETE,53532,KANDETE,MAJENGO
MBEYA,53,RUNGWE,535,KANDETE,53532,IPELO,NSIKA
MBEYA,53,RUNGWE,535,KANDETE,53532,IPELO,LUGOMBO
MBEYA,53,RUNGWE,535,KANDETE,53532,IPELO,KABULA
MBEYA,53,RUNGWE,535,KANDETE,53532,IPELO,IPYANA
MBEYA,53,RUNGWE,535,KANDETE,53532,MWELA,SOKONI
MBEYA,53,RUNGWE,535,KANDETE,53532,MWELA,LUSUNGO
MBEYA,53,RUNGWE,535,KANDETE,53532,MWELA,MWELA
MBEYA,53,RUNGWE,535,KANDETE,53532,MWELA,KISIBA
MBEYA,53,RUNGWE,535,KANDETE,53532,NDALA,MASEBE
MBEYA,53,RUNGWE,535,KANDETE,53532,NDALA,KATUMBA
MBEYA,53,RUNGWE,535,KANDETE,53532,NDALA,IPYELA
MBEYA,53,RUNGWE,535,KANDETE,53532,NDALA,NTETE
MBEYA,53,RUNGWE,535,KANDETE,53532,NDALA,KISIMBA
MBEYA,53,RUNGWE,535,KANDETE,53532,LUGOMBO,IKAMA
MBEYA,53,RUNGWE,535,KANDETE,53532,LUGOMBO,ITETE
MBEYA,53,RUNGWE,535,KANDETE,53532,LUGOMBO,LUGOMBO
MBEYA,53,RUNGWE,535,KANDETE,53532,BUJINGIJILA,MALAMBO
MBEYA,53,RUNGWE,535,KANDETE,53532,BUJINGIJILA,IHOBE
MBEYA,53,RUNGWE,535,KANDETE,53532,BUJINGIJILA,BUJINGIJILA
MBEYA,53,RUNGWE,535,LUTEBA,53533,MPUNGUTI,KABULA
MBEYA,53,RUNGWE,535,LUTEBA,53533,MPUNGUTI,IBWE
MBEYA,53,RUNGWE,535,LUTEBA,53533,MPUNGUTI,ITETE
MBEYA,53,RUNGWE,535,LUTEBA,53533,MPUNGUTI,KAMASULU
MBEYA,53,RUNGWE,535,LUTEBA,53533,MPUNGUTI,MWAKALELI
MBEYA,53,RUNGWE,535,LUTEBA,53533,LUTEBA,MAJWESI
MBEYA,53,RUNGWE,535,LUTEBA,53533,LUTEBA,KASANGA
MBEYA,53,RUNGWE,535,LUTEBA,53533,LUTEBA,NDAMBA
MBEYA,53,RUNGWE,535,LUTEBA,53533,KILASI,NGELA
MBEYA,53,RUNGWE,535,LUTEBA,53533,KILASI,LUTEBA
MBEYA,53,RUNGWE,535,LUTEBA,53533,KILASI,KILASI
MBEYA,53,RUNGWE,535,LUTEBA,53533,IPUGUSO,IPUGUSO
MBEYA,53,RUNGWE,535,LUTEBA,53533,IPUGUSO,NSEBO
MBEYA,53,RUNGWE,535,LUTEBA,53533,IPUGUSO,KISONDELA
MBEYA,53,RUNGWE,535,LUTEBA,53533,IPUGUSO,LUSOKO
MBEYA,53,RUNGWE,535,LUTEBA,53533,IPUGUSO,IKANO
MBEYA,53,RUNGWE,535,LUTEBA,53533,IKUBO,IKUBO
MBEYA,53,RUNGWE,535,LUTEBA,53533,IKUBO,ITEBE
MBEYA,53,RUNGWE,535,LUTEBA,53533,IKUBO,KIKWEGO
MBEYA,53,RUNGWE,535,LUTEBA,53533,IKUBO,IGEMBE
MBEYA,53,RUNGWE,535,LUTEBA,53533,IKUBO,IBUNGU
MBEYA,53,RUNGWE,535,LUTEBA,53533,ISALE,IPYELA
MBEYA,53,RUNGWE,535,LUTEBA,53533,ISALE,ITIMBO
MBEYA,53,RUNGWE,535,ISONGOLE,53534,IDWELI,SOGEZA
MBEYA,53,RUNGWE,535,ISONGOLE,53534,IDWELI,ITENKI
MBEYA,53,RUNGWE,535,ISONGOLE,53534,IDWELI,IJELA
MBEYA,53,RUNGWE,535,ISONGOLE,53534,IDWELI,KATUMBA
MBEYA,53,RUNGWE,535,ISONGOLE,53534,IDWELI,IWAWA
MBEYA,53,RUNGWE,535,ISONGOLE,53534,NGUMBULU,IPYELA A
MBEYA,53,RUNGWE,535,ISONGOLE,53534,NGUMBULU,IPYELA B
MBEYA,53,RUNGWE,535,ISONGOLE,53534,NGUMBULU,NSANGA
MBEYA,53,RUNGWE,535,ISONGOLE,53534,NGUMBULU,IKAMBAKU
MBEYA,53,RUNGWE,535,ISONGOLE,53534,NGUMBULU,MUUNGANO
MBEYA,53,RUNGWE,535,ISONGOLE,53534,ISYONJE,ISYONJE A
MBEYA,53,RUNGWE,535,ISONGOLE,53534,ISYONJE,ISYONJE B
MBEYA,53,RUNGWE,535,ISONGOLE,53534,ISYONJE,KENYA
MBEYA,53,RUNGWE,535,ISONGOLE,53534,ISYONJE,MBWIGA
MBEYA,53,RUNGWE,535,ISONGOLE,53534,UNYAMWANGA,UHOLO
MBEYA,53,RUNGWE,535,ISONGOLE,53534,UNYAMWANGA,NGUGA
MBEYA,53,RUNGWE,535,ISONGOLE,53534,UNYAMWANGA,SHOGA
MBEYA,53,RUNGWE,535,ISONGOLE,53534,NDWATI,IGALULA
MBEYA,53,RUNGWE,535,ISONGOLE,53534,NDWATI,NDOWELA
MBEYA,53,RUNGWE,535,ISONGOLE,53534,NDWATI,BWAWANI
MBEYA,53,RUNGWE,535,ISONGOLE,53534,MBEYE 1,NYAGA
MBEYA,53,RUNGWE,535,ISONGOLE,53534,MBEYE 2,TEMBELA
MBEYA,53,RUNGWE,535,KINYALA,53535,LUKATA,MPOMBO
MBEYA,53,RUNGWE,535,KINYALA,53535,LUKATA,NKEBE
MBEYA,53,RUNGWE,535,KINYALA,53535,LUKATA,KIBANJA
MBEYA,53,RUNGWE,535,KINYALA,53535,LUKATA,IPUGU
MBEYA,53,RUNGWE,535,KINYALA,53535,LUKATA,NDOLA
MBEYA,53,RUNGWE,535,KINYALA,53535,LUKATA,NGOLOGO
MBEYA,53,RUNGWE,535,KINYALA,53535,LUKATA,IKOGA
MBEYA,53,RUNGWE,535,KINYALA,53535,LUKATA,LUBALA
MBEYA,53,RUNGWE,535,KINYALA,53535,LUKATA,KATUMBA
MBEYA,53,RUNGWE,535,KINYALA,53535,LUKATA,ITETE
MBEYA,53,RUNGWE,535,KINYALA,53535,ISUMBA,ISUMBA
MBEYA,53,RUNGWE,535,KINYALA,53535,ISUMBA,KIBOLE
MBEYA,53,RUNGWE,535,KINYALA,53535,ISUMBA,ITEBE
MBEYA,53,RUNGWE,535,KINYALA,53535,ISUMBA,KIKUYU
MBEYA,53,RUNGWE,535,KINYALA,53535,ISUMBA,IGEMBE
MBEYA,53,RUNGWE,535,KINYALA,53535,KIPANDE,ILALA
MBEYA,53,RUNGWE,535,KINYALA,53535,KIPANDE,CHUNYA
MBEYA,53,RUNGWE,535,KINYALA,53535,KIPANDE,KIPANDE
MBEYA,53,RUNGWE,535,KINYALA,53535,KIPANDE,IGWILA
MBEYA,53,RUNGWE,535,KINYALA,53535,KIPANDE,MBESWE
MBEYA,53,RUNGWE,535,KINYALA,53535,KIPANDE,KILAMBO
MBEYA,53,RUNGWE,535,KINYALA,53535,KISOKO,NGEKE
MBEYA,53,RUNGWE,535,KINYALA,53535,KISOKO,METE
MBEYA,53,RUNGWE,535,KINYALA,53535,KISOKO,KISOKO
MBEYA,53,RUNGWE,535,KINYALA,53535,KISOKO,NJOLE
MBEYA,53,RUNGWE,535,KINYALA,53535,KISOKO,ILUNGA
MBEYA,53,RUNGWE,535,KINYALA,53535,KISOKO,SALIMA
MBEYA,53,RUNGWE,535,KINYALA,53535,IGEMBE,KATUMBA
MBEYA,53,RUNGWE,535,KINYALA,53535,IGEMBE,IGEMBE
MBEYA,53,RUNGWE,535,KINYALA,53535,IGEMBE,KIPILI
MBEYA,53,RUNGWE,535,KINYALA,53535,IGEMBE,IKUTI A
MBEYA,53,RUNGWE,535,KINYALA,53535,IGEMBE,IKUTI B
MBEYA,53,RUNGWE,535,KINYALA,53535,IGEMBE,SONGWE
MBEYA,53,RUNGWE,535,KINYALA,53535,LUBIGI,MAGAMBA
MBEYA,53,RUNGWE,535,KINYALA,53535,LUBIGI,ITETE
MBEYA,53,RUNGWE,535,KINYALA,53535,LUBIGI,IKUKISYA
MBEYA,53,RUNGWE,535,KINYALA,53535,LUBIGI,KAKINDO
MBEYA,53,RUNGWE,535,KINYALA,53535,LUBIGI,MBEGELE
MBEYA,53,RUNGWE,535,KINYALA,53535,LUBIGI,LUBIGI
MBEYA,53,RUNGWE,535,KINYALA,53535,LUBIGI,MOTO
MBEYA,53,RUNGWE,535,MATWEBE,53536,MPELANGWASI,MPERANGWASI
MBEYA,53,RUNGWE,535,MATWEBE,53536,MPELANGWASI,MBUGUJO
MBEYA,53,RUNGWE,535,MATWEBE,53536,MPAKANI,LUSUNGO
MBEYA,53,RUNGWE,535,MATWEBE,53536,MPAKANI,BUJOLE
MBEYA,53,RUNGWE,535,MATWEBE,53536,MPAKANI,KANUNGA
MBEYA,53,RUNGWE,535,MATWEBE,53536,MPAKANI,NDAPATA
MBEYA,53,RUNGWE,535,MATWEBE,53536,MPAKANI,NSIGE
MBEYA,53,RUNGWE,535,MATWEBE,53536,KIKOLE,KIKOLE KASKAZINI
MBEYA,53,RUNGWE,535,MATWEBE,53536,KIKOLE,KIKOLE KUSINI
MBEYA,53,RUNGWE,535,MATWEBE,53536,MATWEBE,MATWEBE A
MBEYA,53,RUNGWE,535,MATWEBE,53536,MATWEBE,MATWEBE B
MBEYA,53,RUNGWE,535,MATWEBE,53536,MATWEBE,KINANASI
MBEYA,53,RUNGWE,535,MATWEBE,53536,MATWEBE,MWAKIPALE
MBEYA,53,RUNGWE,535,MASEBE,53537,MASEBE,MASEBE
MBEYA,53,RUNGWE,535,MASEBE,53537,MASEBE,KILALO
MBEYA,53,RUNGWE,535,MASEBE,53537,MASEBE,KAKONDO
MBEYA,53,RUNGWE,535,MASEBE,53537,MASEBE,KATUMBA
MBEYA,53,RUNGWE,535,MASEBE,53537,BUNYAKIKOSI,MWALE
MBEYA,53,RUNGWE,535,MASEBE,53537,BUNYAKIKOSI,KAGOJE
MBEYA,53,RUNGWE,535,MASEBE,53537,BUNYAKIKOSI,IBUNGU
MBEYA,53,RUNGWE,535,MASEBE,53537,BUNYAKIKOSI,IKAMA
MBEYA,53,RUNGWE,535,MASEBE,53537,IBUMBA,LUSUNGO
MBEYA,53,RUNGWE,535,MASEBE,53537,IBUMBA,NSITU
MBEYA,53,RUNGWE,535,MASEBE,53537,IBUMBA,NDOBO
MBEYA,53,RUNGWE,535,MASEBE,53537,KITULI,KITULI
MBEYA,53,RUNGWE,535,MASEBE,53537,KITULI,IKOMBE
MBEYA,53,RUNGWE,535,MASEBE,53537,KITULI,LOTA
MBEYA,53,RUNGWE,535,MASEBE,53537,KITULI,LUPASO
MBEYA,53,RUNGWE,535,SWAYA,53538,ISEBELO,IPANDANYE
MBEYA,53,RUNGWE,535,SWAYA,53538,ISEBELO,NYAYOLA
MBEYA,53,RUNGWE,535,SWAYA,53538,ISEBELO,NYASANGA
MBEYA,53,RUNGWE,535,SWAYA,53538,ISEBELO,ITENDE
MBEYA,53,RUNGWE,535,SWAYA,53538,SWAYA,MBEGELE
MBEYA,53,RUNGWE,535,SWAYA,53538,SWAYA,ITALA
MBEYA,53,RUNGWE,535,SWAYA,53538,SWAYA,IPOGOLO
MBEYA,53,RUNGWE,535,SWAYA,53538,SWAYA,MAGOMA
MBEYA,53,RUNGWE,535,SWAYA,53538,ISHINGA,IDUDA
MBEYA,53,RUNGWE,535,SWAYA,53538,ISHINGA,IVANGA
MBEYA,53,RUNGWE,535,SWAYA,53538,ISHINGA,ISHINGA
MBEYA,53,RUNGWE,535,SWAYA,53538,ISHINGA,MBINZA
MBEYA,53,RUNGWE,535,SWAYA,53538,MALANGALI,TANGA
MBEYA,53,RUNGWE,535,SWAYA,53538,MALANGALI,NYASELE
MBEYA,53,RUNGWE,535,SWAYA,53538,MALANGALI,NSITA
MBEYA,53,RUNGWE,535,SWAYA,53538,MALANGALI,TAKANYAMBI
MBEYA,53,RUNGWE,535,IPONJOLA,53539,IPONJOLA,IPONJOLA
MBEYA,53,RUNGWE,535,IPONJOLA,53539,IPONJOLA,NJELENJE
MBEYA,53,RUNGWE,535,IPONJOLA,53539,IPONJOLA,NGENA
MBEYA,53,RUNGWE,535,IPONJOLA,53539,ILALABWE,BUJESI
MBEYA,53,RUNGWE,535,IPONJOLA,53539,ILALABWE,ILALABWE
MBEYA,53,RUNGWE,535,IPONJOLA,53539,ILALABWE,IGISA
MBEYA,53,RUNGWE,535,IPONJOLA,53539,ILALABWE,IPANGALWIGI
MBEYA,53,RUNGWE,535,IPONJOLA,53539,LUGOMBO,IPANDE
MBEYA,53,RUNGWE,535,IPONJOLA,53539,LUGOMBO,LUPASO
MBEYA,53,RUNGWE,535,IPONJOLA,53539,LUGOMBO,BUJELA
MBEYA,53,RUNGWE,535,IPONJOLA,53539,LUGOMBO,LUGOMBO
MBEYA,53,RUNGWE,535,IPONJOLA,53539,NGANA,NGANA
MBEYA,53,RUNGWE,535,IPONJOLA,53539,NGANA,IBAGHA
MBEYA,53,RUNGWE,535,LUPEPO,53540,LUPEPO,KIGUGU
MBEYA,53,RUNGWE,535,LUPEPO,53540,LUPEPO,LUPEPO
MBEYA,53,RUNGWE,535,LUPEPO,53540,LUPEPO,MABWE
MBEYA,53,RUNGWE,535,LUPEPO,53540,LUPEPO,LYALE
MBEYA,53,RUNGWE,535,LUPEPO,53540,LUPEPO,LUSUNGO
MBEYA,53,RUNGWE,535,LUPEPO,53540,LUPEPO,MINDOLO
MBEYA,53,RUNGWE,535,LUPEPO,53540,LUPEPO,IBUNJE
MBEYA,53,RUNGWE,535,LUPEPO,53540,LUPEPO,KAKINDU
MBEYA,53,RUNGWE,535,LUPEPO,53540,LUPEPO,KIFUMO
MBEYA,53,RUNGWE,535,LUPEPO,53540,MBOYO,MBOYO
MBEYA,53,RUNGWE,535,LUPEPO,53540,MBOYO,KIKUYU
MBEYA,53,RUNGWE,535,LUPEPO,53540,MBOYO,BUTOLO
MBEYA,53,RUNGWE,535,LUPEPO,53540,MBOYO,MAKANDANA
MBEYA,53,RUNGWE,535,LUPEPO,53540,MPOMBO,MPOMBO
MBEYA,53,RUNGWE,535,LUPEPO,53540,MPOMBO,KAPIKI
MBEYA,53,RUNGWE,535,LUPEPO,53540,MPOMBO,MINYALA
MBEYA,53,RUNGWE,535,LUPEPO,53540,MPOMBO,MIANGA
MBEYA,53,RUNGWE,535,LUPEPO,53540,KYOSA,KYOSA
MBEYA,53,RUNGWE,535,LUPEPO,53540,KYOSA,KIKANDO
MBEYA,53,RUNGWE,535,LUPEPO,53540,KYOSA,IKUTI
MBEYA,53,RUNGWE,535,NDANTO,53541,NTOKELA,MSASANI
MBEYA,53,RUNGWE,535,NDANTO,53541,NTOKELA,MAPINDUZI
MBEYA,53,RUNGWE,535,NDANTO,53541,NTOKELA,MJI MWEMA
MBEYA,53,RUNGWE,535,NDANTO,53541,NTOKELA,KILULU
MBEYA,53,RUNGWE,535,NDANTO,53541,NZUNDA,NZUNDA
MBEYA,53,RUNGWE,535,NDANTO,53541,NZUNDA,HALANZI
MBEYA,53,RUNGWE,535,NDANTO,53541,NZUNDA,SWEBO
MBEYA,53,RUNGWE,535,NDANTO,53541,NZUNDA,SWILA
MBEYA,53,RUNGWE,535,NDANTO,53541,NDAGA,SHILA
MBEYA,53,RUNGWE,535,NDANTO,53541,NDAGA,SWEBO
MBEYA,53,RUNGWE,535,NDANTO,53541,NDAGA,NDAGA
MBEYA,53,RUNGWE,535,NDANTO,53541,NDAGA,IWINDI
MBEYA,53,RUNGWE,535,NDANTO,53541,GOYE,GOYE
MBEYA,53,RUNGWE,535,NDANTO,53541,GOYE,SHEJE
MBEYA,53,RUNGWE,535,NDANTO,53541,GOYE,MBEYE 2
MBEYA,53,RUNGWE,535,NDANTO,53541,GOYE,MAENDELEO
MBEYA,53,RUNGWE,535,NTABA,53542,KAPULAMPUNGUTI,MPUNGUTI
MBEYA,53,RUNGWE,535,NTABA,53542,KAPULAMPUNGUTI,NDOLA
MBEYA,53,RUNGWE,535,NTABA,53542,KAPULAMPUNGUTI,KATAGO
MBEYA,53,RUNGWE,535,NTABA,53542,KAPULAMPUNGUTI,KAPULA
MBEYA,53,RUNGWE,535,NTABA,53542,KAPULAMPUNGUTI,NDENGELE
MBEYA,53,RUNGWE,535,NTABA,53542,NSANGA,LUSUNGO
MBEYA,53,RUNGWE,535,NTABA,53542,NSANGA,KAPALI
MBEYA,53,RUNGWE,535,NTABA,53542,NSANGA,NSANGA
MBEYA,53,RUNGWE,535,NTABA,53542,NSANGA,NJOMBE
MBEYA,53,RUNGWE,535,NTABA,53542,ILAMBA,MASUNDO
MBEYA,53,RUNGWE,535,NTABA,53542,ILAMBA,KATILU
MBEYA,53,RUNGWE,535,NTABA,53542,ILAMBA,LUPANDO
MBEYA,53,RUNGWE,535,NTABA,53542,ILAMBA,KILAMBO
MBEYA,53,RUNGWE,535,MPATA,53543,MPATA,LUPANDO
MBEYA,53,RUNGWE,535,MPATA,53543,MPATA,BUJINGA
MBEYA,53,RUNGWE,535,MPATA,53543,MPATA,IKAMA
MBEYA,53,RUNGWE,535,MPATA,53543,IPAGIKA,NDOLA
MBEYA,53,RUNGWE,535,MPATA,53543,IPAGIKA,IGEMBE
MBEYA,53,RUNGWE,535,MPATA,53543,IPAGIKA,LUGOMBO
MBEYA,53,RUNGWE,535,MPATA,53543,KILIMANSANGA,NSANGA
MBEYA,53,RUNGWE,535,MPATA,53543,KILIMANSANGA,IPINDA
MBEYA,53,RUNGWE,535,MPATA,53543,KILIMANSANGA,ISIBA
MBEYA,53,RUNGWE,535,MPATA,53543,KILIMANSANGA,KIKUYU
MBEYA,53,RUNGWE,535,MPATA,53543,KILIMANSANGA,IPEMBE
MBEYA,53,MBARALI,536,RUJEWA,53601,KILIMANSANGA,CCM
MBEYA,53,MBARALI,536,RUJEWA,53601,KILIMANSANGA,CHANG'OMBE
MBEYA,53,MBARALI,536,RUJEWA,53601,KILIMANSANGA,IBARA  A
MBEYA,53,MBARALI,536,RUJEWA,53601,KILIMANSANGA,IBARA  B
MBEYA,53,MBARALI,536,RUJEWA,53601,KILIMANSANGA,IHANGA KILABUNI
MBEYA,53,MBARALI,536,RUJEWA,53601,KILIMANSANGA,IHANGA OFISINI
MBEYA,53,MBARALI,536,RUJEWA,53601,KILIMANSANGA,ISISI
MBEYA,53,MBARALI,536,RUJEWA,53601,KILIMANSANGA,JANGURUTU
MBEYA,53,MBARALI,536,RUJEWA,53601,KILIMANSANGA,KANISANI
MBEYA,53,MBARALI,536,RUJEWA,53601,KILIMANSANGA,KANISANI
MBEYA,53,MBARALI,536,RUJEWA,53601,KILIMANSANGA,KAPUNGA
MBEYA,53,MBARALI,536,RUJEWA,53601,KILIMANSANGA,KATI
MBEYA,53,MBARALI,536,RUJEWA,53601,KILIMANSANGA,KICHANGANI
MBEYA,53,MBARALI,536,RUJEWA,53601,KILIMANSANGA,LUWILINDI  BARABARANI
MBEYA,53,MBARALI,536,RUJEWA,53601,KILIMANSANGA,LUWILINDI KANISANI
MBEYA,53,MBARALI,536,RUJEWA,53601,KILIMANSANGA,LYAHAMILE
MBEYA,53,MBARALI,536,RUJEWA,53601,KILIMANSANGA,MABANDA  A
MBEYA,53,MBARALI,536,RUJEWA,53601,KILIMANSANGA,MABANDA  B
MBEYA,53,MBARALI,536,RUJEWA,53601,KILIMANSANGA,MAFURIKO
MBEYA,53,MBARALI,536,RUJEWA,53601,KILIMANSANGA,MAGEA
MBEYA,53,MBARALI,536,RUJEWA,53601,KILIMANSANGA,MAGWALISI
MBEYA,53,MBARALI,536,RUJEWA,53601,KILIMANSANGA,MAHANGO.
MBEYA,53,MBARALI,536,RUJEWA,53601,KILIMANSANGA,MAJENGO
MBEYA,53,MBARALI,536,RUJEWA,53601,KILIMANSANGA,MAJENGO
MBEYA,53,MBARALI,536,RUJEWA,53601,KILIMANSANGA,MAJENGO
MBEYA,53,MBARALI,536,RUJEWA,53601,KILIMANSANGA,MAJENGO BARABARANI
MBEYA,53,MBARALI,536,RUJEWA,53601,KILIMANSANGA,MAJENGO MTONI
MBEYA,53,MBARALI,536,RUJEWA,53601,KILIMANSANGA,MBUYUNI
MBEYA,53,MBARALI,536,RUJEWA,53601,KILIMANSANGA,MBUYUNI
MBEYA,53,MBARALI,536,RUJEWA,53601,KILIMANSANGA,MDODELA
MBEYA,53,MBARALI,536,RUJEWA,53601,KILIMANSANGA,MFEREJINI
MBEYA,53,MBARALI,536,RUJEWA,53601,KILIMANSANGA,MIEMBENI
MBEYA,53,MBARALI,536,RUJEWA,53601,KILIMANSANGA,MPAKANI
MBEYA,53,MBARALI,536,RUJEWA,53601,KILIMANSANGA,MUSANGA
MBEYA,53,MBARALI,536,RUJEWA,53601,KILIMANSANGA,MTONI
MBEYA,53,MBARALI,536,RUJEWA,53601,KILIMANSANGA,MKWAJUNI
MBEYA,53,MBARALI,536,RUJEWA,53601,KILIMANSANGA,MTAKUJA
MBEYA,53,MBARALI,536,RUJEWA,53601,KILIMANSANGA,OFISINI
MBEYA,53,MBARALI,536,RUJEWA,53601,KILIMANSANGA,MUUNGANO
MBEYA,53,MBARALI,536,RUJEWA,53601,KILIMANSANGA,MKANYAGENI
MBEYA,53,MBARALI,536,RUJEWA,53601,KILIMANSANGA,MLIMANI
MBEYA,53,MBARALI,536,RUJEWA,53601,KILIMANSANGA,MOGELA
MBEYA,53,MBARALI,536,RUJEWA,53601,KILIMANSANGA,WAMELI
MBEYA,53,MBARALI,536,RUJEWA,53601,KILIMANSANGA,TENKINI 'A'
MBEYA,53,MBARALI,536,RUJEWA,53601,KILIMANSANGA,TENKINI 'B'
MBEYA,53,MBARALI,536,RUJEWA,53601,KILIMANSANGA,UKINGA 'A'
MBEYA,53,MBARALI,536,RUJEWA,53601,KILIMANSANGA,UKINGA 'B'
MBEYA,53,MBARALI,536,RUJEWA,53601,KILIMANSANGA,UKINGA 'C'
MBEYA,53,MBARALI,536,RUJEWA,53601,KILIMANSANGA,MKWAJUNI
MBEYA,53,MBARALI,536,RUJEWA,53601,KILIMANSANGA,MJIMWEMA
MBEYA,53,MBARALI,536,RUJEWA,53601,KILIMANSANGA,MSIMBAZI
MBEYA,53,MBARALI,536,RUJEWA,53601,KILIMANSANGA,MOGELO
MBEYA,53,MBARALI,536,RUJEWA,53601,KILIMANSANGA,TEMBO 'A'
MBEYA,53,MBARALI,536,RUJEWA,53601,KILIMANSANGA,TEMBO 'B'
MBEYA,53,MBARALI,536,RUJEWA,53601,KILIMANSANGA,SIMBA
MBEYA,53,MBARALI,536,RUJEWA,53601,KILIMANSANGA,NYATI
MBEYA,53,MBARALI,536,RUJEWA,53601,KILIMANSANGA,NYALUHANGA 'A'
MBEYA,53,MBARALI,536,RUJEWA,53601,KILIMANSANGA,NYALUHANGA 'B'
MBEYA,53,MBARALI,536,RUJEWA,53601,KILIMANSANGA,NYAMTOWO
MBEYA,53,MBARALI,536,RUJEWA,53601,KILIMANSANGA,MKANYAGENI
MBEYA,53,MBARALI,536,UBARUKU,53602,IBOHORA,MIEMBENI
MBEYA,53,MBARALI,536,UBARUKU,53602,IBOHORA,LONDON 'A'
MBEYA,53,MBARALI,536,UBARUKU,53602,IBOHORA,LONDON 'B'
MBEYA,53,MBARALI,536,UBARUKU,53602,IBOHORA,IHUVILO 'A'
MBEYA,53,MBARALI,536,UBARUKU,53602,IBOHORA,IHUVILO 'B'
MBEYA,53,MBARALI,536,UBARUKU,53602,IBOHORA,MAJENGO
MBEYA,53,MBARALI,536,UBARUKU,53602,IBOHORA,LUHANGA
MBEYA,53,MBARALI,536,UBARUKU,53602,MAJENGO,NG'AMBO MFEREJI 'A'
MBEYA,53,MBARALI,536,UBARUKU,53602,MAJENGO,MALAMBA 'A'
MBEYA,53,MBARALI,536,UBARUKU,53602,MAJENGO,MALAMBA 'B'
MBEYA,53,MBARALI,536,UBARUKU,53602,MAJENGO,MAHANGO
MBEYA,53,MBARALI,536,UBARUKU,53602,MAJENGO,STENDI
MBEYA,53,MBARALI,536,UBARUKU,53602,MBARALI,TAGAMENDA 'A'
MBEYA,53,MBARALI,536,UBARUKU,53602,MBARALI,TAGAMENDA 'B'
MBEYA,53,MBARALI,536,UBARUKU,53602,MBARALI,MTAKUJA
MBEYA,53,MBARALI,536,UBARUKU,53602,MBARALI,KIFARU
MBEYA,53,MBARALI,536,UBARUKU,53602,MBARALI,UZUNGUNI
MBEYA,53,MBARALI,536,UBARUKU,53602,MKOMBWE,MTAMBANI
MBEYA,53,MBARALI,536,UBARUKU,53602,MKOMBWE,MKOMBWE 'A'
MBEYA,53,MBARALI,536,UBARUKU,53602,MKOMBWE,MKOMBWE 'B'
MBEYA,53,MBARALI,536,UBARUKU,53602,MKOMBWE,MKONDOGAVILI
MBEYA,53,MBARALI,536,UBARUKU,53602,MKOMBWE,MTEGISALA
MBEYA,53,MBARALI,536,UBARUKU,53602,MKOMBWE,DAILY
MBEYA,53,MBARALI,536,UBARUKU,53602,MKOMBWE,MSUFINI
MBEYA,53,MBARALI,536,UBARUKU,53602,MKOMBWE,MJIMWEMA
MBEYA,53,MBARALI,536,UBARUKU,53602,MPAKANI,MPAKANI
MBEYA,53,MBARALI,536,UBARUKU,53602,MPAKANI,MAJENGO
MBEYA,53,MBARALI,536,UBARUKU,53602,MPAKANI,MJIMWEMA
MBEYA,53,MBARALI,536,UBARUKU,53602,MPAKANI,MBUYUNI
MBEYA,53,MBARALI,536,UBARUKU,53602,MPAKANI,MSIKITINI
MBEYA,53,MBARALI,536,UBARUKU,53602,MWAKAGANGA,SANTAMARIA 'A'
MBEYA,53,MBARALI,536,UBARUKU,53602,MWAKAGANGA,SANTAMARIA 'B'
MBEYA,53,MBARALI,536,UBARUKU,53602,MWAKAGANGA,NG'AMBO MFEREJI 'B'
MBEYA,53,MBARALI,536,UBARUKU,53602,MWAKAGANGA,KIBAONI KATI 'A'
MBEYA,53,MBARALI,536,UBARUKU,53602,MWAKAGANGA,KIBAONI KATI 'B'
MBEYA,53,MBARALI,536,UBARUKU,53602,MWAKAGANGA,KIBAONI KATI 'C'
MBEYA,53,MBARALI,536,UBARUKU,53602,MWAKAGANGA,MDODELA 'A'
MBEYA,53,MBARALI,536,UBARUKU,53602,MWAKAGANGA,MDODELA 'B'
MBEYA,53,MBARALI,536,UBARUKU,53602,MWAKAGANGA,MDODELA 'C'
MBEYA,53,MBARALI,536,UBARUKU,53602,UBARUKU,SOKONI
MBEYA,53,MBARALI,536,UBARUKU,53602,UBARUKU,MAPEREMEHE
MBEYA,53,MBARALI,536,UBARUKU,53602,UBARUKU,MATONO
MBEYA,53,MBARALI,536,UBARUKU,53602,UBARUKU,STENDI
MBEYA,53,MBARALI,536,UBARUKU,53602,UTYEGO,UHURU
MBEYA,53,MBARALI,536,UBARUKU,53602,UTYEGO,TUPENDANE
MBEYA,53,MBARALI,536,UBARUKU,53602,UTYEGO,USALAMA
MBEYA,53,MBARALI,536,UBARUKU,53602,UTYEGO,FOREST
MBEYA,53,MBARALI,536,UBARUKU,53602,UTYEGO,MOTOMOTO
MBEYA,53,MBARALI,536,UBARUKU,53602,UTYEGO,MJIMWEMA
MBEYA,53,MBARALI,536,UBARUKU,53602,UTYEGO,UJAMAA
MBEYA,53,MBARALI,536,MAPOGORO,53603,ITAMBA,MTAKUJA
MBEYA,53,MBARALI,536,MAPOGORO,53603,ITAMBA,MLANGALI
MBEYA,53,MBARALI,536,MAPOGORO,53603,ITAMBA,MAPOGORO
MBEYA,53,MBARALI,536,MAPOGORO,53603,ITAMBA,MBUNGU
MBEYA,53,MBARALI,536,MAPOGORO,53603,ITAMBA,MAHANGO
MBEYA,53,MBARALI,536,MAPOGORO,53603,ITAMBA,MAPANGALA
MBEYA,53,MBARALI,536,MAPOGORO,53603,MABADAGA,MWANJELWA
MBEYA,53,MBARALI,536,MAPOGORO,53603,MABADAGA,UTAGE
MBEYA,53,MBARALI,536,MAPOGORO,53603,MABADAGA,MUNYURUNYURU 'A'
MBEYA,53,MBARALI,536,MAPOGORO,53603,MABADAGA,MANYORO 'A'
MBEYA,53,MBARALI,536,MAPOGORO,53603,MABADAGA,MNYURUNYURU 'B'
MBEYA,53,MBARALI,536,MAPOGORO,53603,MABADAGA,MANYORO 'B'
MBEYA,53,MBARALI,536,MAPOGORO,53603,NYANGULU,NYANGULU 'A'
MBEYA,53,MBARALI,536,MAPOGORO,53603,NYANGULU,NYANGULU 'B'
MBEYA,53,MBARALI,536,MAPOGORO,53603,NYANGULU,BOGORO
MBEYA,53,MBARALI,536,MAPOGORO,53603,NYANGULU,TAMBUKALELI
MBEYA,53,MBARALI,536,MAPOGORO,53603,MBUYUNI,MKOLA
MBEYA,53,MBARALI,536,MAPOGORO,53603,MBUYUNI,MADULI
MBEYA,53,MBARALI,536,MAPOGORO,53603,MBUYUNI,MAKONDO
MBEYA,53,MBARALI,536,MAPOGORO,53603,MBUYUNI,MLIMANI
MBEYA,53,MBARALI,536,MAPOGORO,53603,MBUYUNI,MAGOMENI
MBEYA,53,MBARALI,536,MAPOGORO,53603,MBUYUNI,MUUNGANO
MBEYA,53,MBARALI,536,MAPOGORO,53603,MBUYUNI,KINAWAGA
MBEYA,53,MBARALI,536,MAPOGORO,53603,MBUYUNI,UVANGA
MBEYA,53,MBARALI,536,MAPOGORO,53603,MSESULE,NJOLA
MBEYA,53,MBARALI,536,MAPOGORO,53603,MSESULE,MATENKINI
MBEYA,53,MBARALI,536,MAPOGORO,53603,MSESULE,MTAMBANI
MBEYA,53,MBARALI,536,MAPOGORO,53603,MTAMBA,MTAMBA 'A'
MBEYA,53,MBARALI,536,MAPOGORO,53603,MTAMBA,MTAMBA 'B'
MBEYA,53,MBARALI,536,MAPOGORO,53603,MTAMBA,KILAMBO
MBEYA,53,MBARALI,536,MAPOGORO,53603,MTAMBA,MLANGALI 'A'
MBEYA,53,MBARALI,536,MAPOGORO,53603,MTAMBA,MLANGALI 'B'
MBEYA,53,MBARALI,536,MAPOGORO,53603,UKWAMA,UKWAMA 'A'
MBEYA,53,MBARALI,536,MAPOGORO,53603,UKWAMA,IDEGE
MBEYA,53,MBARALI,536,MAPOGORO,53603,UKWAMA,MBUYUNI
MBEYA,53,MBARALI,536,MAPOGORO,53603,UKWAMA,LAMBITALI
MBEYA,53,MBARALI,536,MAPOGORO,53603,UKWAMA,UKWAMA 'B'
MBEYA,53,MBARALI,536,MAPOGORO,53603,UKWAVILA,MSUMBIJI
MBEYA,53,MBARALI,536,MAPOGORO,53603,UKWAVILA,IBOHORA
MBEYA,53,MBARALI,536,MAPOGORO,53603,UKWAVILA,IVAJI
MBEYA,53,MBARALI,536,MAPOGORO,53603,UKWAVILA,CHANG'OMBE
MBEYA,53,MBARALI,536,MAPOGORO,53603,UKWAVILA,TAMBALAGOSI
MBEYA,53,MBARALI,536,MAPOGORO,53603,UKWAVILA,IFUSHILO
MBEYA,53,MBARALI,536,MAPOGORO,53603,UTURO,"MABAMBILA ""B'"
MBEYA,53,MBARALI,536,MAPOGORO,53603,UTURO,KILAMBO 'A'
MBEYA,53,MBARALI,536,MAPOGORO,53603,UTURO,MAHANGO
MBEYA,53,MBARALI,536,MAPOGORO,53603,UTURO,UTURO 'A'
MBEYA,53,MBARALI,536,MAPOGORO,53603,UTURO,UTURO 'B'
MBEYA,53,MBARALI,536,MAPOGORO,53603,UTURO,MABAMBILA 'A'
MBEYA,53,MBARALI,536,MAWINDI,53604,ITIPINGI,ITIPINDI 'A'
MBEYA,53,MBARALI,536,MAWINDI,53604,ITIPINGI,ITIPINDI 'B'
MBEYA,53,MBARALI,536,MAWINDI,53604,ITIPINGI,MAJENGO 'A'
MBEYA,53,MBARALI,536,MAWINDI,53604,ITIPINGI,MAJENGO 'B'
MBEYA,53,MBARALI,536,MAWINDI,53604,ITIPINGI,NYAMATWIGA
MBEYA,53,MBARALI,536,MAWINDI,53604,ITIPINGI,MJOJA
MBEYA,53,MBARALI,536,MAWINDI,53604,ITIPINGI,MAHANGO
MBEYA,53,MBARALI,536,MAWINDI,53604,KANGAGA,CHANG'OMBE
MBEYA,53,MBARALI,536,MAWINDI,53604,KANGAGA,MKONDO
MBEYA,53,MBARALI,536,MAWINDI,53604,KANGAGA,IMALAYA
MBEYA,53,MBARALI,536,MAWINDI,53604,KANGAGA,ANGOLA
MBEYA,53,MBARALI,536,MAWINDI,53604,KANGAGA,NYAMAHELELA
MBEYA,53,MBARALI,536,MAWINDI,53604,KANGAGA,BIMBI
MBEYA,53,MBARALI,536,MAWINDI,53604,KANGAGA,MAJOMBE
MBEYA,53,MBARALI,536,MAWINDI,53604,KANGAGA,TAMBUKALELI
MBEYA,53,MBARALI,536,MAWINDI,53604,KANGAGA,MJI MWEMA
MBEYA,53,MBARALI,536,MAWINDI,53604,KANGAGA,USWAHILINI
MBEYA,53,MBARALI,536,MAWINDI,53604,MANIENGA,CHABEGENJA
MBEYA,53,MBARALI,536,MAWINDI,53604,MANIENGA,MABANDA 'A'
MBEYA,53,MBARALI,536,MAWINDI,53604,MANIENGA,DARAJANI
MBEYA,53,MBARALI,536,MAWINDI,53604,MANIENGA,MABAMBILA
MBEYA,53,MBARALI,536,MAWINDI,53604,MANIENGA,MABANDA 'B'
MBEYA,53,MBARALI,536,MAWINDI,53604,MANIENGA,MAKONDO 'B'
MBEYA,53,MBARALI,536,MAWINDI,53604,MANIENGA,MAKONDO 'A'
MBEYA,53,MBARALI,536,MAWINDI,53604,MANIENGA,KANISANI
MBEYA,53,MBARALI,536,MAWINDI,53604,MKANDAMI,MKANDAMI 'A'
MBEYA,53,MBARALI,536,MAWINDI,53604,MKANDAMI,MKANDAMI 'B'
MBEYA,53,MBARALI,536,MAWINDI,53604,MKANDAMI,NYAKASIMA
MBEYA,53,MBARALI,536,MAWINDI,53604,MKANDAMI,NYALUNDUNG'U
MBEYA,53,MBARALI,536,MAWINDI,53604,ISUNURA,NYANGASADA
MBEYA,53,MBARALI,536,MAWINDI,53604,ISUNURA,UZUNGUNI
MBEYA,53,MBARALI,536,MAWINDI,53604,ISUNURA,LUVALANDE
MBEYA,53,MBARALI,536,MAWINDI,53604,ISUNURA,LUPULULU
MBEYA,53,MBARALI,536,MAWINDI,53604,ISUNURA,KATI
MBEYA,53,MBARALI,536,CHIMALA,53605,CHIMALA,STENDI
MBEYA,53,MBARALI,536,CHIMALA,53605,CHIMALA,MTONI
MBEYA,53,MBARALI,536,CHIMALA,53605,CHIMALA,MFEREJINI
MBEYA,53,MBARALI,536,CHIMALA,53605,CHIMALA,KILABUNI
MBEYA,53,MBARALI,536,CHIMALA,53605,CHIMALA,RELINI
MBEYA,53,MBARALI,536,CHIMALA,53605,CHIMALA,KAJIMA
MBEYA,53,MBARALI,536,CHIMALA,53605,IGUMBILO,MAPINDUZI
MBEYA,53,MBARALI,536,CHIMALA,53605,IGUMBILO,IGUMBILO SHAMBA
MBEYA,53,MBARALI,536,CHIMALA,53605,IGUMBILO,DANIDA
MBEYA,53,MBARALI,536,CHIMALA,53605,IGUMBILO,KISIMANI
MBEYA,53,MBARALI,536,CHIMALA,53605,IGUMBILO,MWENGE
MBEYA,53,MBARALI,536,CHIMALA,53605,IGUMBILO,MASHINENI
MBEYA,53,MBARALI,536,CHIMALA,53605,IGUMBILO,ELIMU
MBEYA,53,MBARALI,536,CHIMALA,53605,IGUMBILO,OFISINI
MBEYA,53,MBARALI,536,CHIMALA,53605,ISITU,AZIMIO
MBEYA,53,MBARALI,536,CHIMALA,53605,ISITU,ISITU MJINI
MBEYA,53,MBARALI,536,CHIMALA,53605,ISITU,MAHAKAMANI
MBEYA,53,MBARALI,536,CHIMALA,53605,ISITU,POSTA
MBEYA,53,MBARALI,536,CHIMALA,53605,ISITU,KOLONGONI
MBEYA,53,MBARALI,536,CHIMALA,53605,ISITU,OFISINI
MBEYA,53,MBARALI,536,CHIMALA,53605,LYAMBOGO,CHAMSALAKA
MBEYA,53,MBARALI,536,CHIMALA,53605,LYAMBOGO,SHULENI
MBEYA,53,MBARALI,536,CHIMALA,53605,LYAMBOGO,LYAMBOGO
MBEYA,53,MBARALI,536,CHIMALA,53605,LYAMBOGO,TAZARA
MBEYA,53,MBARALI,536,CHIMALA,53605,LYAMBOGO,MJI MWEMA
MBEYA,53,MBARALI,536,CHIMALA,53605,LYAMBOGO,LEMBUKA
MBEYA,53,MBARALI,536,CHIMALA,53605,MENGELE,TENKINI
MBEYA,53,MBARALI,536,CHIMALA,53605,MENGELE,MENGELE
MBEYA,53,MBARALI,536,CHIMALA,53605,MENGELE,MUUNGANO
MBEYA,53,MBARALI,536,CHIMALA,53605,MENGELE,NJIA PANDA
MBEYA,53,MBARALI,536,CHIMALA,53605,MUWALE,MTONI
MBEYA,53,MBARALI,536,CHIMALA,53605,MUWALE,OFISINI
MBEYA,53,MBARALI,536,CHIMALA,53605,MUWALE,KANISANI
MBEYA,53,MBARALI,536,CHIMALA,53605,MUWALE,MBEMBE
MBEYA,53,MBARALI,536,CHIMALA,53605,MUWALE,MWAKADAMA
MBEYA,53,MBARALI,536,IGURUSI,53606,CHAMOTO,KIBAONI
MBEYA,53,MBARALI,536,IGURUSI,53606,CHAMOTO,GODAUNI
MBEYA,53,MBARALI,536,IGURUSI,53606,CHAMOTO,BETANIA
MBEYA,53,MBARALI,536,IGURUSI,53606,CHAMOTO,MPAKANI
MBEYA,53,MBARALI,536,IGURUSI,53606,CHAMOTO,MAJIMAJI
MBEYA,53,MBARALI,536,IGURUSI,53606,CHAMOTO,MKUYUNI
MBEYA,53,MBARALI,536,IGURUSI,53606,IGURUSI,ZAHANATI 'A'
MBEYA,53,MBARALI,536,IGURUSI,53606,IGURUSI,ZAHANATI 'B'
MBEYA,53,MBARALI,536,IGURUSI,53606,IGURUSI,MUUNGANO 'A'
MBEYA,53,MBARALI,536,IGURUSI,53606,IGURUSI,MUUNGANO 'B'
MBEYA,53,MBARALI,536,IGURUSI,53606,IGURUSI,KABWE
MBEYA,53,MBARALI,536,IGURUSI,53606,ILOLO,ILOLO 'A'
MBEYA,53,MBARALI,536,IGURUSI,53606,ILOLO,ILOLO 'B'
MBEYA,53,MBARALI,536,IGURUSI,53606,ILOLO,MATI
MBEYA,53,MBARALI,536,IGURUSI,53606,ILOLO,MACHINJIONI
MBEYA,53,MBARALI,536,IGURUSI,53606,ILOLO,MBUYUNI
MBEYA,53,MBARALI,536,IGURUSI,53606,LUSESE,MAJENGO MAPYA 'A'
MBEYA,53,MBARALI,536,IGURUSI,53606,LUSESE,MAJENGO MAPYA 'B'
MBEYA,53,MBARALI,536,IGURUSI,53606,LUSESE,LUSESE
MBEYA,53,MBARALI,536,IGURUSI,53606,LUSESE,MASISTA
MBEYA,53,MBARALI,536,IGURUSI,53606,LUSESE,KANISANI
MBEYA,53,MBARALI,536,IGURUSI,53606,MAENDELEO,MAENDELEO 'A'
MBEYA,53,MBARALI,536,IGURUSI,53606,MAENDELEO,MAENDELEO 'B'
MBEYA,53,MBARALI,536,IGURUSI,53606,MAENDELEO,JUHUDI
MBEYA,53,MBARALI,536,IGURUSI,53606,MAENDELEO,CHEMICHEMI
MBEYA,53,MBARALI,536,IGURUSI,53606,MAENDELEO,MAHAKAMANI
MBEYA,53,MBARALI,536,IGURUSI,53606,MAJENJE,MAJENJE JUU 'A'
MBEYA,53,MBARALI,536,IGURUSI,53606,MAJENJE,MAJENJE JUU 'B'
MBEYA,53,MBARALI,536,IGURUSI,53606,MAJENJE,MJI MWEMA
MBEYA,53,MBARALI,536,IGURUSI,53606,MAJENJE,KIWANJANI
MBEYA,53,MBARALI,536,IGURUSI,53606,MAJENJE,JIPEMOYO
MBEYA,53,MBARALI,536,IGURUSI,53606,RUNWA,KANARUNWA
MBEYA,53,MBARALI,536,IGURUSI,53606,RUNWA,RUNWA
MBEYA,53,MBARALI,536,IGURUSI,53606,RUNWA,MASHALA
MBEYA,53,MBARALI,536,IGURUSI,53606,RUNWA,MAPUNGA
MBEYA,53,MBARALI,536,IGURUSI,53606,RUNWA,CHANGUNGWE
MBEYA,53,MBARALI,536,IGURUSI,53606,RWANYO,JANGWANI 'A'
MBEYA,53,MBARALI,536,IGURUSI,53606,RWANYO,JANGWANI 'B'
MBEYA,53,MBARALI,536,IGURUSI,53606,RWANYO,AMKENI 'A'
MBEYA,53,MBARALI,536,IGURUSI,53606,RWANYO,AMKENI 'B'
MBEYA,53,MBARALI,536,IGURUSI,53606,RWANYO,RUANDA
MBEYA,53,MBARALI,536,IGURUSI,53606,UHAMBULE,NGANGA
MBEYA,53,MBARALI,536,IGURUSI,53606,UHAMBULE,KIBAONI
MBEYA,53,MBARALI,536,IGURUSI,53606,UHAMBULE,LYOVELA
MBEYA,53,MBARALI,536,IGURUSI,53606,UHAMBULE,MGANGA
MBEYA,53,MBARALI,536,IGURUSI,53606,UHAMBULE,LYAMASOKO
MBEYA,53,MBARALI,536,IGURUSI,53606,UHAMBULE,MPOGORO
MBEYA,53,MBARALI,536,IGURUSI,53606,UHAMBULE,MATOWO
MBEYA,53,MBARALI,536,IGURUSI,53606,UHAMBULE,MKWAJUNI
MBEYA,53,MBARALI,536,IGURUSI,53606,UHAMBULE,GOMOSHELO
MBEYA,53,MBARALI,536,UTENGULE USANGU,53607,MPOLO,MAHANGO 'A'
MBEYA,53,MBARALI,536,UTENGULE USANGU,53607,MPOLO,MAHANGO 'B'
MBEYA,53,MBARALI,536,UTENGULE USANGU,53607,MPOLO,MAHANGO 'C'
MBEYA,53,MBARALI,536,UTENGULE USANGU,53607,MPOLO,IHANGA 'A'
MBEYA,53,MBARALI,536,UTENGULE USANGU,53607,MPOLO,IHANGA 'B'
MBEYA,53,MBARALI,536,UTENGULE USANGU,53607,MPOLO,IHANGA 'C'
MBEYA,53,MBARALI,536,UTENGULE USANGU,53607,MUUNGANO,ITAMBO MPOLO
MBEYA,53,MBARALI,536,UTENGULE USANGU,53607,MUUNGANO,UGANDILWA
MBEYA,53,MBARALI,536,UTENGULE USANGU,53607,MUUNGANO,LYANUMBUSI
MBEYA,53,MBARALI,536,UTENGULE USANGU,53607,MUUNGANO,SENGANINJALA
MBEYA,53,MBARALI,536,UTENGULE USANGU,53607,"MAHANGO
MSWISWI",MAJOJOLO
MBEYA,53,MBARALI,536,UTENGULE USANGU,53607,"MAHANGO
MSWISWI",MISUFINI
MBEYA,53,MBARALI,536,UTENGULE USANGU,53607,"MAHANGO
MSWISWI",IJUMBI
MBEYA,53,MBARALI,536,UTENGULE USANGU,53607,"MAHANGO
MSWISWI",SHULENI
MBEYA,53,MBARALI,536,UTENGULE USANGU,53607,"MAHANGO
MSWISWI",KAJUNJUMELE
MBEYA,53,MBARALI,536,UTENGULE USANGU,53607,"MAHANGO
MSWISWI",MARAWATU
MBEYA,53,MBARALI,536,UTENGULE USANGU,53607,MAGULULA,MFINGA
MBEYA,53,MBARALI,536,UTENGULE USANGU,53607,MAGULULA,ILONJELO
MBEYA,53,MBARALI,536,UTENGULE USANGU,53607,MAGULULA,NENGELESA
MBEYA,53,MBARALI,536,UTENGULE USANGU,53607,MAGULULA,MUUNGANO
MBEYA,53,MBARALI,536,UTENGULE USANGU,53607,MAGULULA,UJORA
MBEYA,53,MBARALI,536,UTENGULE USANGU,53607,MAGULULA,LENA - MTAKUJA
MBEYA,53,MBARALI,536,UTENGULE USANGU,53607,SIMIKE,SHULENI
MBEYA,53,MBARALI,536,UTENGULE USANGU,53607,SIMIKE,MIAMBENI
MBEYA,53,MBARALI,536,UTENGULE USANGU,53607,SIMIKE,MIANZINI
MBEYA,53,MBARALI,536,UTENGULE USANGU,53607,SIMIKE,TENGATENGA
MBEYA,53,MBARALI,536,UTENGULE USANGU,53607,SIMIKE,MAPULA 'A'
MBEYA,53,MBARALI,536,UTENGULE USANGU,53607,SIMIKE,MAPULA 'B'
MBEYA,53,MBARALI,536,UTENGULE USANGU,53607,SIMIKE,WAMBILO
MBEYA,53,MBARALI,536,UTENGULE USANGU,53607,SIMIKE,MAPULULU
MBEYA,53,MBARALI,536,UTENGULE USANGU,53607,"UTENGULE
USANGU",JEMEDARI
MBEYA,53,MBARALI,536,UTENGULE USANGU,53607,"UTENGULE
USANGU",UBAJULIE - MBELA
MBEYA,53,MBARALI,536,UTENGULE USANGU,53607,"UTENGULE
USANGU",ULYANKHA
MBEYA,53,MBARALI,536,UTENGULE USANGU,53607,"UTENGULE
USANGU",WIMBWA
MBEYA,53,MBARALI,536,UTENGULE USANGU,53607,"UTENGULE
USANGU",IDUYA A
MBEYA,53,MBARALI,536,UTENGULE USANGU,53607,"UTENGULE
USANGU",IDUYA B
MBEYA,53,MBARALI,536,UTENGULE USANGU,53607,"UTENGULE
USANGU",UJOLA
MBEYA,53,MBARALI,536,MAHONGOLE,53608,ILAJI,MSIKITINI 'A'
MBEYA,53,MBARALI,536,MAHONGOLE,53608,ILAJI,MSIKITINI 'B'
MBEYA,53,MBARALI,536,MAHONGOLE,53608,ILAJI,ILAJI
MBEYA,53,MBARALI,536,MAHONGOLE,53608,ILAJI,MLOWO
MBEYA,53,MBARALI,536,MAHONGOLE,53608,ILAJI,ISENGO
MBEYA,53,MBARALI,536,MAHONGOLE,53608,ILONGO,IHANGO
MBEYA,53,MBARALI,536,MAHONGOLE,53608,ILONGO,MPAKANI
MBEYA,53,MBARALI,536,MAHONGOLE,53608,ILONGO,IJUMBI
MBEYA,53,MBARALI,536,MAHONGOLE,53608,ILONGO,MWAFWAKA
MBEYA,53,MBARALI,536,MAHONGOLE,53608,ILONGO,ILONGO
MBEYA,53,MBARALI,536,MAHONGOLE,53608,KAPYO,KAPYO 'A'
MBEYA,53,MBARALI,536,MAHONGOLE,53608,KAPYO,KAPYO 'B'
MBEYA,53,MBARALI,536,MAHONGOLE,53608,KAPYO,KAPYO 'C'
MBEYA,53,MBARALI,536,MAHONGOLE,53608,KAPYO,KAPYO 'D'
MBEYA,53,MBARALI,536,MAHONGOLE,53608,KAPYO,KAPYO 'E'
MBEYA,53,MBARALI,536,MAHONGOLE,53608,KAPYO,MPAKANI 'A'
MBEYA,53,MBARALI,536,MAHONGOLE,53608,KAPYO,MPAKANI 'B'
MBEYA,53,MBARALI,536,MAHONGOLE,53608,MAHONGOLE,KAGERA
MBEYA,53,MBARALI,536,MAHONGOLE,53608,MAHONGOLE,MSIKITINI
MBEYA,53,MBARALI,536,MAHONGOLE,53608,MAHONGOLE,CCM 'A'
MBEYA,53,MBARALI,536,MAHONGOLE,53608,MAHONGOLE,MASHALA
MBEYA,53,MBARALI,536,MAHONGOLE,53608,MAHONGOLE,KILABUNI
MBEYA,53,MBARALI,536,MAHONGOLE,53608,NSONYANGA,NSONYANGA 'A'
MBEYA,53,MBARALI,536,MAHONGOLE,53608,NSONYANGA,NSONYANGA 'B'
MBEYA,53,MBARALI,536,MAHONGOLE,53608,NSONYANGA,MBAGO
MBEYA,53,MBARALI,536,MAHONGOLE,53608,NSONYANGA,RWANDA 'A'
MBEYA,53,MBARALI,536,MAHONGOLE,53608,NSONYANGA,RWANDA 'B'
MBEYA,53,MBARALI,536,MAHONGOLE,53608,NSONYANGA,MKOJI
MBEYA,53,MBARALI,536,MAHONGOLE,53608,IGALAKO,MAJENGO
MBEYA,53,MBARALI,536,MAHONGOLE,53608,IGALAKO,MBANGE
MBEYA,53,MBARALI,536,MAHONGOLE,53608,IGALAKO,CCM 'B'
MBEYA,53,MBARALI,536,MAHONGOLE,53608,IGALAKO,UCHAGANI
MBEYA,53,MBARALI,536,MAHONGOLE,53608,IGALAKO,SOKONI
MBEYA,53,MBARALI,536,RUIWA,53609,IJUMBI,MBUYUNI
MBEYA,53,MBARALI,536,RUIWA,53609,IJUMBI,KILABUNI
MBEYA,53,MBARALI,536,RUIWA,53609,IJUMBI,MASHALA
MBEYA,53,MBARALI,536,RUIWA,53609,IJUMBI,MWAMBALISI
MBEYA,53,MBARALI,536,RUIWA,53609,IJUMBI,MBUGANI
MBEYA,53,MBARALI,536,RUIWA,53609,IJUMBI,MBALINO
MBEYA,53,MBARALI,536,RUIWA,53609,IJUMBI,MAJOJA
MBEYA,53,MBARALI,536,RUIWA,53609,IJUMBI,ISHUNGU
MBEYA,53,MBARALI,536,RUIWA,53609,IJUMBI,ILANJI
MBEYA,53,MBARALI,536,RUIWA,53609,MALAMBA,KALUMBULO
MBEYA,53,MBARALI,536,RUIWA,53609,MALAMBA,WIGOMA
MBEYA,53,MBARALI,536,RUIWA,53609,MALAMBA,MAGOMBOLE
MBEYA,53,MBARALI,536,RUIWA,53609,MALAMBA,MAJENGO
MBEYA,53,MBARALI,536,RUIWA,53609,MALAMBA,CCM
MBEYA,53,MBARALI,536,RUIWA,53609,MALAMBA,ZINGATIA
MBEYA,53,MBARALI,536,RUIWA,53609,MALAMBA,MTAKUJA
MBEYA,53,MBARALI,536,RUIWA,53609,MALAMBA,SOWETO
MBEYA,53,MBARALI,536,RUIWA,53609,MALAMBA,MUUNGANO
MBEYA,53,MBARALI,536,RUIWA,53609,MOTOMOTO,MOTOMOTO 'A'
MBEYA,53,MBARALI,536,RUIWA,53609,MOTOMOTO,MOTOMOTO 'B'
MBEYA,53,MBARALI,536,RUIWA,53609,MOTOMOTO,MWAMBALIZI 'C'
MBEYA,53,MBARALI,536,RUIWA,53609,MOTOMOTO,TAMBUKARELI
MBEYA,53,MBARALI,536,RUIWA,53609,MOTOMOTO,MISUFUNI
MBEYA,53,MBARALI,536,RUIWA,53609,MOTOMOTO,NDOLA
MBEYA,53,MBARALI,536,RUIWA,53609,MOTOMOTO,TINGATINGA
MBEYA,53,MBARALI,536,RUIWA,53609,MOTOMOTO,IYAWAYA
MBEYA,53,MBARALI,536,RUIWA,53609,RUIWA,MWAMBALISI
MBEYA,53,MBARALI,536,RUIWA,53609,RUIWA,FUNIKA
MBEYA,53,MBARALI,536,RUIWA,53609,RUIWA,MAMFWILA 'A'
MBEYA,53,MBARALI,536,RUIWA,53609,RUIWA,MTENGASHARI
MBEYA,53,MBARALI,536,RUIWA,53609,RUIWA,REJESTA
MBEYA,53,MBARALI,536,RUIWA,53609,RUIWA,KIBAONI
MBEYA,53,MBARALI,536,RUIWA,53609,UDINDILWA,MAPOGORO
MBEYA,53,MBARALI,536,RUIWA,53609,UDINDILWA,MAJI YA MOTO
MBEYA,53,MBARALI,536,RUIWA,53609,UDINDILWA,MWANJELWA
MBEYA,53,MBARALI,536,RUIWA,53609,UDINDILWA,KALABURE
MBEYA,53,MBARALI,536,RUIWA,53609,UDINDILWA,MBUGANI
MBEYA,53,MBARALI,536,RUIWA,53609,UDINDILWA,KOMOLE
MBEYA,53,MBARALI,536,RUIWA,53609,"WIMBA
MAHANGO",ILANJI 'A'
MBEYA,53,MBARALI,536,RUIWA,53609,"WIMBA
MAHANGO",ILANJI 'B'
MBEYA,53,MBARALI,536,RUIWA,53609,"WIMBA
MAHANGO",WIMBA 'A'
MBEYA,53,MBARALI,536,RUIWA,53609,"WIMBA
MAHANGO",WIMBA 'B'
MBEYA,53,MBARALI,536,RUIWA,53609,"WIMBA
MAHANGO",ILOLO
MBEYA,53,MBARALI,536,RUIWA,53609,"WIMBA
MAHANGO",DODOMA 'A'
MBEYA,53,MBARALI,536,RUIWA,53609,"WIMBA
MAHANGO",DODOMA 'B'
MBEYA,53,MBARALI,536,RUIWA,53609,"WIMBA
MAHANGO",KANINJOWO 'A'
MBEYA,53,MBARALI,536,RUIWA,53609,"WIMBA
MAHANGO",KANINJOWO 'B'
MBEYA,53,MBARALI,536,MADIBIRA,53610,IHEHA,MHEZA
MBEYA,53,MBARALI,536,MADIBIRA,53610,IHEHA,IKULU
MBEYA,53,MBARALI,536,MADIBIRA,53610,IHEHA,MJI MWEMA
MBEYA,53,MBARALI,536,MADIBIRA,53610,IHEHA,MBUYUNI
MBEYA,53,MBARALI,536,MADIBIRA,53610,IHEHA,KINYANGULU
MBEYA,53,MBARALI,536,MADIBIRA,53610,IKOGA,MBUYUNI
MBEYA,53,MBARALI,536,MADIBIRA,53610,IKOGA,MTAKUJA
MBEYA,53,MBARALI,536,MADIBIRA,53610,IKOGA,MADAWI
MBEYA,53,MBARALI,536,MADIBIRA,53610,"MAHANGO-
MADIBIRA",MAGUNGULI
MBEYA,53,MBARALI,536,MADIBIRA,53610,"MAHANGO-
MADIBIRA",IKULU
MBEYA,53,MBARALI,536,MADIBIRA,53610,"MAHANGO-
MADIBIRA",MAGUNGULI- LUTHERANI
MBEYA,53,MBARALI,536,MADIBIRA,53610,"MAHANGO-
MADIBIRA",AMANI
MBEYA,53,MBARALI,536,MADIBIRA,53610,"MAHANGO-
MADIBIRA",MAJENGO
MBEYA,53,MBARALI,536,MADIBIRA,53610,"MAHANGO-
MADIBIRA",MAPINDUZI
MBEYA,53,MBARALI,536,MADIBIRA,53610,CHALISUKA,MBUYUNI
MBEYA,53,MBARALI,536,MADIBIRA,53610,CHALISUKA,CHALISUKA
MBEYA,53,MBARALI,536,MADIBIRA,53610,CHALISUKA,GODOWN
MBEYA,53,MBARALI,536,MADIBIRA,53610,CHALISUKA,UPENDO
MBEYA,53,MBARALI,536,MADIBIRA,53610,CHALISUKA,MIKOROSHINI
MBEYA,53,MBARALI,536,MADIBIRA,53610,MKUNYWA,MAZOMBE
MBEYA,53,MBARALI,536,MADIBIRA,53610,MKUNYWA,MKUNYWA 'A'
MBEYA,53,MBARALI,536,MADIBIRA,53610,MKUNYWA,MKUNYWA 'B'
MBEYA,53,MBARALI,536,MADIBIRA,53610,MKUNYWA,LINGONDIME
MBEYA,53,MBARALI,536,MADIBIRA,53610,MKUNYWA,MLWASI
MBEYA,53,MBARALI,536,MADIBIRA,53610,MKUNYWA,KICHANGANI
MBEYA,53,MBARALI,536,MADIBIRA,53610,MKUNYWA,KANAMALENGA
MBEYA,53,MBARALI,536,MADIBIRA,53610,MKUNYWA,MLONGA
MBEYA,53,MBARALI,536,MADIBIRA,53610,MKUNYWA,KABETE
MBEYA,53,MBARALI,536,MADIBIRA,53610,NYAKADETE,SALIGONA
MBEYA,53,MBARALI,536,MADIBIRA,53610,NYAKADETE,UBAGULE
MBEYA,53,MBARALI,536,MADIBIRA,53610,NYAKADETE,MUUNGANO
MBEYA,53,MBARALI,536,MADIBIRA,53610,NYAKADETE,NYAKADETE
MBEYA,53,MBARALI,536,MADIBIRA,53610,NYAKADETE,MTIBWA
MBEYA,53,MBARALI,536,MADIBIRA,53610,NYAMAKUYU,UNYANYEMBE A
MBEYA,53,MBARALI,536,MADIBIRA,53610,NYAMAKUYU,IKULU
MBEYA,53,MBARALI,536,MADIBIRA,53610,NYAMAKUYU,UNYANYEMBE B
MBEYA,53,MBARALI,536,MADIBIRA,53610,NYAMAKUYU,MIEMBENI
MBEYA,53,MBARALI,536,MADIBIRA,53610,NYAMAKUYU,MBUYUNI
MBEYA,53,MBARALI,536,IMALILO SONGWE,53611,IBUMILA,MTAKUJA
MBEYA,53,MBARALI,536,IMALILO SONGWE,53611,IBUMILA,MNAZI
MBEYA,53,MBARALI,536,IMALILO SONGWE,53611,IBUMILA,MAVUMBINI
MBEYA,53,MBARALI,536,IMALILO SONGWE,53611,IBUMILA,CHANG'OMBE
MBEYA,53,MBARALI,536,IMALILO SONGWE,53611,IBUMILA,MAHONGOLE
MBEYA,53,MBARALI,536,IMALILO SONGWE,53611,IBUMILA,MJI MWEMA
MBEYA,53,MBARALI,536,IMALILO SONGWE,53611,IMALILO SONGWE,TEMBO
MBEYA,53,MBARALI,536,IMALILO SONGWE,53611,IMALILO SONGWE,MAPINDUZI
MBEYA,53,MBARALI,536,IMALILO SONGWE,53611,IMALILO SONGWE,MADAWI
MBEYA,53,MBARALI,536,IMALILO SONGWE,53611,IMALILO SONGWE,KUJITEGEMEA
MBEYA,53,MBARALI,536,IMALILO SONGWE,53611,IMALILO SONGWE,ZIMANIMOTO
MBEYA,53,MBARALI,536,IMALILO SONGWE,53611,IMALILO SONGWE,KIFARU
MBEYA,53,MBARALI,536,IMALILO SONGWE,53611,IMALILO SONGWE,UJAMAA
MBEYA,53,MBARALI,536,IMALILO SONGWE,53611,IMALILO SONGWE,AZIMIO
MBEYA,53,MBARALI,536,IMALILO SONGWE,53611,MWANAVALA,MAHANGO
MBEYA,53,MBARALI,536,IMALILO SONGWE,53611,MWANAVALA,MAPINDUZI
MBEYA,53,MBARALI,536,IMALILO SONGWE,53611,MWANAVALA,CHANG'OMBE
MBEYA,53,MBARALI,536,IMALILO SONGWE,53611,MWANAVALA,MWANIUNGU
MBEYA,53,MBARALI,536,IMALILO SONGWE,53611,MWANAVALA,MAHONGOLE
MBEYA,53,MBARALI,536,IMALILO SONGWE,53611,MWANAVALA,MAJENGO
MBEYA,53,MBARALI,536,IMALILO SONGWE,53611,MWANAVALA,NYAMATORORA
MBEYA,53,MBARALI,536,IMALILO SONGWE,53611,MWANAVALA,IHANGA
MBEYA,53,MBARALI,536,IMALILO SONGWE,53611,MWANAVALA,MTAKUJA
MBEYA,53,MBARALI,536,IMALILO SONGWE,53611,MWANAVALA,MNAZI
MBEYA,53,MBARALI,536,IMALILO SONGWE,53611,URUNDA,IKINGULA
MBEYA,53,MBARALI,536,IMALILO SONGWE,53611,URUNDA,KIZOTA
MBEYA,53,MBARALI,536,IMALILO SONGWE,53611,URUNDA,LUWANGI
MBEYA,53,MBARALI,536,IMALILO SONGWE,53611,URUNDA,TEMBO
MBEYA,53,MBARALI,536,IMALILO SONGWE,53611,URUNDA,IKULU
MBEYA,53,MBARALI,536,IMALILO SONGWE,53611,URUNDA,SIMBA
MBEYA,53,MBARALI,536,IMALILO SONGWE,53611,WARUMBA,MAPOGORO 'B'
MBEYA,53,MBARALI,536,IMALILO SONGWE,53611,WARUMBA,MAPOGORO 'A'
MBEYA,53,MBARALI,536,IMALILO SONGWE,53611,WARUMBA,LYAMBEALI 'B'
MBEYA,53,MBARALI,536,IMALILO SONGWE,53611,WARUMBA,LYAMBEALI 'A'
MBEYA,53,MBARALI,536,IMALILO SONGWE,53611,WARUMBA,KILIMATINDE
MBEYA,53,MBARALI,536,IMALILO SONGWE,53611,WARUMBA,NDONJELA
MBEYA,53,MBARALI,536,IMALILO SONGWE,53611,WARUMBA,BOMBANI
MBEYA,53,MBARALI,536,IPWANI,53612,IBEREGE,UMOJA
MBEYA,53,MBARALI,536,IPWANI,53612,IBEREGE,IBEREGE 'A'
MBEYA,53,MBARALI,536,IPWANI,53612,IBEREGE,IBEREGE 'B'
MBEYA,53,MBARALI,536,IPWANI,53612,IBEREGE,TUPENDANE
MBEYA,53,MBARALI,536,IPWANI,53612,IPWANI,ULELING'OMBE
MBEYA,53,MBARALI,536,IPWANI,53612,IPWANI,IGAWILO
MBEYA,53,MBARALI,536,IPWANI,53612,IPWANI,MAYOTA
MBEYA,53,MBARALI,536,IPWANI,53612,IPWANI,LYACHOGA
MBEYA,53,MBARALI,536,IPWANI,53612,IPWANI,IBOHORA
MBEYA,53,MBARALI,536,IPWANI,53612,IPWANI,KIMNGATE
MBEYA,53,MBARALI,536,IPWANI,53612,IPWANI,MAHANGO
MBEYA,53,MBARALI,536,IPWANI,53612,LIMSENI,NYAMAPALA
MBEYA,53,MBARALI,536,IPWANI,53612,LIMSENI,UGIMBANO
MBEYA,53,MBARALI,536,IPWANI,53612,LIMSENI,IHANGA 'A'
MBEYA,53,MBARALI,536,IPWANI,53612,LIMSENI,KINYANGESI
MBEYA,53,MBARALI,536,IPWANI,53612,LIMSENI,IHANGA 'B'
MBEYA,53,MBARALI,536,IPWANI,53612,LUWANGO,MLOWA
MBEYA,53,MBARALI,536,IPWANI,53612,LUWANGO,MAJOMBE
MBEYA,53,MBARALI,536,IPWANI,53612,LUWANGO,LUWANGO MLIMANI
MBEYA,53,MBARALI,536,IPWANI,53612,LUWANGO,MJOMBE
MBEYA,53,MBARALI,536,IPWANI,53612,LUWANGO,UKIMBO
MBEYA,53,MBARALI,536,IPWANI,53612,MATEMELA,IYUNGA
MBEYA,53,MBARALI,536,IPWANI,53612,MATEMELA,SHULENI
MBEYA,53,MBARALI,536,IPWANI,53612,MATEMELA,MBALIZI
MBEYA,53,MBARALI,536,IPWANI,53612,MATEMELA,MSASANI
MBEYA,53,MBARALI,536,IPWANI,53612,MATEMELA,ITULAHENZA
MBEYA,53,MBARALI,536,IPWANI,53612,MATEMELA,MALAMBA
MBEYA,53,MBARALI,536,IPWANI,53612,MATEMELA,KINYANGWILA
MBEYA,53,MBARALI,536,IPWANI,53612,MATEMELA,KIGUNGE
MBEYA,53,MBARALI,536,IGAVA,53613,IWALANJE,KINYILONGO
MBEYA,53,MBARALI,536,IGAVA,53613,IWALANJE,NDOLELA
MBEYA,53,MBARALI,536,IGAVA,53613,IWALANJE,MAPELEMEHE
MBEYA,53,MBARALI,536,IGAVA,53613,IWALANJE,SALIKOVA
MBEYA,53,MBARALI,536,IGAVA,53613,IWALANJE,MGONA
MBEYA,53,MBARALI,536,IGAVA,53613,IGAVA,KILOMBERO
MBEYA,53,MBARALI,536,IGAVA,53613,IGAVA,MKUTANO
MBEYA,53,MBARALI,536,IGAVA,53613,IGAVA,MAKONDO
MBEYA,53,MBARALI,536,IGAVA,53613,IGAVA,UTAULWA
MBEYA,53,MBARALI,536,IGAVA,53613,IGAVA,MAHAGASA
MBEYA,53,MBARALI,536,IGAVA,53613,"IGUNDA -
MUUNGANO",LEMBUKA
MBEYA,53,MBARALI,536,IGAVA,53613,"IGUNDA -
MUUNGANO",MWENGE
MBEYA,53,MBARALI,536,IGAVA,53613,"IGUNDA -
MUUNGANO",AZIMIO
MBEYA,53,MBARALI,536,IGAVA,53613,"IGUNDA -
MUUNGANO",MLANGALI
MBEYA,53,MBARALI,536,IGAVA,53613,"IGUNDA -
MUUNGANO",MSHIKAMANO
MBEYA,53,MBARALI,536,IGAVA,53613,"IGUNDA -
MUUNGANO",SHULENI
MBEYA,53,MBARALI,536,IGAVA,53613,"IGUNDA -
MUUNGANO",MANISPAA
MBEYA,53,MBARALI,536,IGAVA,53613,IKANUTWA,LYAMBOGOLO 'A'
MBEYA,53,MBARALI,536,IGAVA,53613,IKANUTWA,KICHANGANYI
MBEYA,53,MBARALI,536,IGAVA,53613,IKANUTWA,KIBONDEMAJI
MBEYA,53,MBARALI,536,IGAVA,53613,IKANUTWA,LYAMBOGOLO 'B'
MBEYA,53,MBARALI,536,IGAVA,53613,IKANUTWA,NYAMAJOJOLO
MBEYA,53,MBARALI,536,IGAVA,53613,VIKAYE,UKWAVA
MBEYA,53,MBARALI,536,IGAVA,53613,VIKAYE,MFWALULENGA
MBEYA,53,MBARALI,536,IGAVA,53613,VIKAYE,VIKAYE
MBEYA,53,MBARALI,536,IGAVA,53613,VIKAYE,KIPANGALA
MBEYA,53,MBARALI,536,IGAVA,53613,VIKAYE,MTAKUJA
MBEYA,53,MBARALI,536,MIYOMBWENI,53614,MAGIGIWE,MAGIGIWE 'A'
MBEYA,53,MBARALI,536,MIYOMBWENI,53614,MAGIGIWE,MAGIGIWE 'B'
MBEYA,53,MBARALI,536,MIYOMBWENI,53614,MAGIGIWE,MKINDI 'A'
MBEYA,53,MBARALI,536,MIYOMBWENI,53614,MAGIGIWE,MKINDI 'B'
MBEYA,53,MBARALI,536,MIYOMBWENI,53614,MAGIGIWE,MNYELELA
MBEYA,53,MBARALI,536,MIYOMBWENI,53614,MAPOGORO,IGUBIKE
MBEYA,53,MBARALI,536,MIYOMBWENI,53614,MAPOGORO,IKULU 'A'
MBEYA,53,MBARALI,536,MIYOMBWENI,53614,MAPOGORO,IKULU 'B'
MBEYA,53,MBARALI,536,MIYOMBWENI,53614,MAPOGORO,MAPOGORO 'A'
MBEYA,53,MBARALI,536,MIYOMBWENI,53614,MAPOGORO,MAPOGORO 'B'
MBEYA,53,MBARALI,536,MIYOMBWENI,53614,MLUNGU,MAWE SABA
MBEYA,53,MBARALI,536,MIYOMBWENI,53614,MLUNGU,MASANGALA
MBEYA,53,MBARALI,536,MIYOMBWENI,53614,MLUNGU,MLUNGU
MBEYA,53,MBARALI,536,MIYOMBWENI,53614,MYOMBWENI,AZIMIO
MBEYA,53,MBARALI,536,MIYOMBWENI,53614,MYOMBWENI,MABATINI
MBEYA,53,MBARALI,536,MIYOMBWENI,53614,MYOMBWENI,KICHANGANI
MBEYA,53,MBARALI,536,MIYOMBWENI,53614,NYAKAZOMBE,NYAKAZOMBE
MBEYA,53,MBARALI,536,MIYOMBWENI,53614,NYAKAZOMBE,NYAKAZOMBE KATI
MBEYA,53,MBARALI,536,MIYOMBWENI,53614,NYAKAZOMBE,KINYANGULU
MBEYA,53,MBARALI,536,IHAHI,53615,KIBAONI,KIBAONI 'A'
MBEYA,53,MBARALI,536,IHAHI,53615,KIBAONI,KIBAONI 'B'
MBEYA,53,MBARALI,536,IHAHI,53615,KIBAONI,KIBAONI 'C'
MBEYA,53,MBARALI,536,IHAHI,53615,KIBAONI,MNAZI MMOJA
MBEYA,53,MBARALI,536,IHAHI,53615,KIBAONI,ILOLO 'A'
MBEYA,53,MBARALI,536,IHAHI,53615,KIBAONI,ILOLO 'B'
MBEYA,53,MBARALI,536,IHAHI,53615,IHAHI,MAHANGO
MBEYA,53,MBARALI,536,IHAHI,53615,IHAHI,LUPANGA
MBEYA,53,MBARALI,536,IHAHI,53615,IHAHI,LUGELELE 'A'
MBEYA,53,MBARALI,536,IHAHI,53615,IHAHI,MAHELELA
MBEYA,53,MBARALI,536,IHAHI,53615,IHAHI,MAJENGO
MBEYA,53,MBARALI,536,IHAHI,53615,IHAHI,LUGELELE 'B'
MBEYA,53,MBARALI,536,IHAHI,53615,IHAHI,MNGOLONGOLO
MBEYA,53,MBARALI,536,IHAHI,53615,MWALUMA,MAJENGO MAPYA
MBEYA,53,MBARALI,536,IHAHI,53615,MWALUMA,MAPOGORO
MBEYA,53,MBARALI,536,IHAHI,53615,MWALUMA,OFISINI
MBEYA,53,MBARALI,536,IHAHI,53615,MWALUMA,SHULENI
MBEYA,53,MBARALI,536,IHAHI,53615,MWALUMA,MAHANGO
MBEYA,53,MBARALI,536,ITAMBOLEO,53616,MATEBETE,MSANGA
MBEYA,53,MBARALI,536,ITAMBOLEO,53616,MATEBETE,MAPANGALA
MBEYA,53,MBARALI,536,ITAMBOLEO,53616,MATEBETE,MALENGA MAKALI
MBEYA,53,MBARALI,536,ITAMBOLEO,53616,MATEBETE,MADUNGULU
MBEYA,53,MBARALI,536,ITAMBOLEO,53616,MATEBETE,MATEBETE
MBEYA,53,MBARALI,536,ITAMBOLEO,53616,ITAMBOLEO,TAMBUKALELI
MBEYA,53,MBARALI,536,ITAMBOLEO,53616,ITAMBOLEO,MAJOMBE 'A'
MBEYA,53,MBARALI,536,ITAMBOLEO,53616,ITAMBOLEO,MAJOMBE 'B'
MBEYA,53,MBARALI,536,ITAMBOLEO,53616,ITAMBOLEO,ITAMBO MJINI
MBEYA,53,MBARALI,536,ITAMBOLEO,53616,ITAMBOLEO,MTAKUJA
MBEYA,53,MBARALI,536,ITAMBOLEO,53616,ITAMBOLEO,MUUNGANO
MBEYA,53,MBARALI,536,ITAMBOLEO,53616,ITAMBOLEO,MAPUNGA
MBEYA,53,MBARALI,536,ITAMBOLEO,53616,KAPUNGA,SITE ONE
MBEYA,53,MBARALI,536,ITAMBOLEO,53616,KAPUNGA,MATOLEO
MBEYA,53,MBARALI,536,ITAMBOLEO,53616,KAPUNGA,OFISINI
MBEYA,53,MBARALI,536,ITAMBOLEO,53616,KAPUNGA,LWANJIRI
MBEYA,53,MBARALI,536,ITAMBOLEO,53616,KAPUNGA,MAPOGORO
MBEYA,53,MBARALI,536,ITAMBOLEO,53616,KAPUNGA,MKANADA
MBEYA,53,MBARALI,536,ITAMBOLEO,53616,KAPUNGA,TAMBARARE
MBEYA,53,MBARALI,536,ITAMBOLEO,53616,MBALINO,KANISANI
MBEYA,53,MBARALI,536,ITAMBOLEO,53616,MBALINO,MABATINI
MBEYA,53,MBARALI,536,ITAMBOLEO,53616,MBALINO,MAGANGANI
MBEYA,53,MBARALI,536,ITAMBOLEO,53616,MBALINO,ILAMBITALI
MBEYA,53,MBARALI,536,ITAMBOLEO,53616,MBALINO,MBUYUNI
MBEYA,53,MBARALI,536,MWATENGA,53617,KILAMBO,MATAMBA
MBEYA,53,MBARALI,536,MWATENGA,53617,KILAMBO,ILAJI
MBEYA,53,MBARALI,536,MWATENGA,53617,KILAMBO,MKOJI
MBEYA,53,MBARALI,536,MWATENGA,53617,KILAMBO,DAR ES SALAAM
MBEYA,53,MBARALI,536,MWATENGA,53617,KILAMBO,DODOMA 'A'
MBEYA,53,MBARALI,536,MWATENGA,53617,KILAMBO,DODOMA 'B'
MBEYA,53,MBARALI,536,MWATENGA,53617,KILAMBO,MANSEGA
MBEYA,53,MBARALI,536,MWATENGA,53617,KILAMBO,MAPALA
MBEYA,53,MBARALI,536,MWATENGA,53617,KILAMBO,MATEMELA
MBEYA,53,MBARALI,536,MWATENGA,53617,KILAMBO,MALAMA
MBEYA,53,MBARALI,536,MWATENGA,53617,MWATENGA,MJELELE
MBEYA,53,MBARALI,536,MWATENGA,53617,MWATENGA,MKWAJUNI
MBEYA,53,MBARALI,536,MWATENGA,53617,MWATENGA,MLEMBENI
MBEYA,53,MBARALI,536,MWATENGA,53617,MWATENGA,MDUNDU
MBEYA,53,MBARALI,536,MWATENGA,53617,MWATENGA,MBUYUNI
MBEYA,53,MBARALI,536,MWATENGA,53617,MWATENGA,MAYOTA
MBEYA,53,MBARALI,536,MWATENGA,53617,MHWELA,MTAKUJA 'A'
MBEYA,53,MBARALI,536,MWATENGA,53617,MHWELA,MTAKUJA 'B'
MBEYA,53,MBARALI,536,MWATENGA,53617,MHWELA,MASHAMBA
MBEYA,53,MBARALI,536,MWATENGA,53617,MHWELA,MAJENGO
MBEYA,53,MBARALI,536,MWATENGA,53617,MHWELA,MAGEREZA
MBEYA,53,MBARALI,536,MWATENGA,53617,MAPOGORO,ILINDI
MBEYA,53,MBARALI,536,MWATENGA,53617,MAPOGORO,MAPOGORO 'A'
MBEYA,53,MBARALI,536,MWATENGA,53617,MAPOGORO,MAPOGORO 'B'
MBEYA,53,MBARALI,536,MWATENGA,53617,MAPOGORO,MAHELELA
MBEYA,53,MBARALI,536,MWATENGA,53617,MAPOGORO,MASHALA
MBEYA,53,MBARALI,536,LUHANGA,53618,LUHANGA,SHATANDA
MBEYA,53,MBARALI,536,LUHANGA,53618,LUHANGA,UHANDO
MBEYA,53,MBARALI,536,LUHANGA,53618,LUHANGA,IGUMBILO
MBEYA,53,MBARALI,536,LUHANGA,53618,LUHANGA,MWANDUNDUMALE
MBEYA,53,MBARALI,536,LUHANGA,53618,LUHANGA,UDIMILO
MBEYA,53,MBARALI,536,LUHANGA,53618,LUHANGA,MATOTA
MBEYA,53,MBARALI,536,LUHANGA,53618,LUHANGA,MPALAMBA
MBEYA,53,MBARALI,536,LUHANGA,53618,LUHANGA,HOWELO
MBEYA,53,MBARALI,536,LUHANGA,53618,LUHANGA,LUHANGA
MBEYA,53,MBARALI,536,LUHANGA,53618,LUHANGA,MWIKA
MBEYA,53,MBARALI,536,LUHANGA,53618,LUHANGA,TAMBARARE
MBEYA,53,MBARALI,536,LUHANGA,53618,MADUNDASI,LYANANG'O
MBEYA,53,MBARALI,536,LUHANGA,53618,MADUNDASI,MATOWO
MBEYA,53,MBARALI,536,LUHANGA,53618,MADUNDASI,MWASHOTA
MBEYA,53,MBARALI,536,LUHANGA,53618,MADUNDASI,LYANKUNDA
MBEYA,53,MBARALI,536,LUHANGA,53618,MADUNDASI,MBWAWA
MBEYA,53,MBARALI,536,LUHANGA,53618,MADUNDASI,NZAWA
MBEYA,53,MBARALI,536,LUHANGA,53618,MADUNDASI,MALIMBO
MBEYA,53,MBARALI,536,LUHANGA,53618,MADUNDASI,MADUNDASI 'A'
MBEYA,53,MBARALI,536,LUHANGA,53618,MADUNDASI,MADUNDASI 'B'
MBEYA,53,MBARALI,536,LUHANGA,53618,MSANGA,ISENTE 'B'
MBEYA,53,MBARALI,536,LUHANGA,53618,MSANGA,MAPULI
MBEYA,53,MBARALI,536,LUHANGA,53618,MSANGA,MITUNDU
MBEYA,53,MBARALI,536,LUHANGA,53618,MSANGA,MBUYUNI
MBEYA,53,MBARALI,536,LUHANGA,53618,MSANGA,ISENTE 'A'
MBEYA,53,MBARALI,536,LUHANGA,53618,MSANGA,MSANGA 'A'
MBEYA,53,MBARALI,536,LUHANGA,53618,MSANGA,MATOWO
MBEYA,53,MBARALI,536,LUHANGA,53618,MSANGA,MSANGA 'B'
MBEYA,53,MBARALI,536,LUHANGA,53618,MSANGA,LYAMBOGO
MBEYA,53,MBARALI,536,LUHANGA,53618,YALA,MATONO
MBEYA,53,MBARALI,536,LUHANGA,53618,YALA,IYALA
MBEYA,53,MBARALI,536,LUHANGA,53618,YALA,UDUNGUSI
MBEYA,53,MBARALI,536,LUHANGA,53618,YALA,WANINYIKA
MBEYA,53,MBARALI,536,LUHANGA,53618,YALA,RUAHA
MBEYA,53,MBARALI,536,LUHANGA,53618,YALA,MTAKUJA
MBEYA,53,MBARALI,536,LUHANGA,53618,YALA,MWASHIKAMILE
MBEYA,53,MBARALI,536,KONGOLO,53619,AZIMIO MAPULA,MWALEMI 'A'
MBEYA,53,MBARALI,536,KONGOLO,53619,AZIMIO MAPULA,MWALEMI 'B'
MBEYA,53,MBARALI,536,KONGOLO,53619,AZIMIO MAPULA,KAPYO
MBEYA,53,MBARALI,536,KONGOLO,53619,AZIMIO MAPULA,MAJOJOLO
MBEYA,53,MBARALI,536,KONGOLO,53619,AZIMIO MAPULA,MAPULA
MBEYA,53,MBARALI,536,KONGOLO,53619,AZIMIO MSWISWI,MSUFINI
MBEYA,53,MBARALI,536,KONGOLO,53619,AZIMIO MSWISWI,SHULENI
MBEYA,53,MBARALI,536,KONGOLO,53619,AZIMIO MSWISWI,NJIA PANDA
MBEYA,53,MBARALI,536,KONGOLO,53619,AZIMIO MSWISWI,MKHAMI
MBEYA,53,MBARALI,536,KONGOLO,53619,AZIMIO MSWISWI,UZUNGUNI
MBEYA,53,MBARALI,536,KONGOLO,53619,KONGOLO MKOLA,TAZARA
MBEYA,53,MBARALI,536,KONGOLO,53619,KONGOLO MKOLA,USAFWA
MBEYA,53,MBARALI,536,KONGOLO,53619,KONGOLO MKOLA,DANIDA
MBEYA,53,MBARALI,536,KONGOLO,53619,KONGOLO MKOLA,KANISANI 'A'
MBEYA,53,MBARALI,536,KONGOLO,53619,KONGOLO MKOLA,KANISANI 'B'
MBEYA,53,MBARALI,536,KONGOLO,53619,"KONGOLO
MSWISWI",MAJENGO MAPYA
MBEYA,53,MBARALI,536,KONGOLO,53619,,MSWISWI
MBEYA,53,MBARALI,536,KONGOLO,53619,,MAPAMBAZUKO
MBEYA,53,MBARALI,536,KONGOLO,53619,,MSHIKAMANO
MBEYA,53,MBARALI,536,KONGOLO,53619,,MAENDELEO
MBEYA,53,MBARALI,536,KONGOLO,53619,MAMBI,MPELEKE
MBEYA,53,MBARALI,536,KONGOLO,53619,,MJI MWEMA
MBEYA,53,MBARALI,536,KONGOLO,53619,,MLANGALI
MBEYA,53,MBARALI,536,KONGOLO,53619,,MKOLA
MBEYA,53,MBARALI,536,KONGOLO,53619,,KALANZI
MBEYA,53,MBARALI,536,KONGOLO,53619,,SANKWELI
MBEYA,53,MBARALI,536,LUGELELE,53620,,LUGELELE
MBEYA,53,MBARALI,536,LUGELELE,53620,,RELINI
MBEYA,53,MBARALI,536,LUGELELE,53620,,IGOMAKINGA
MBEYA,53,MBARALI,536,LUGELELE,53620,,BARABARANI
MBEYA,53,MBARALI,536,LUGELELE,53620,,PARISH
MBEYA,53,MBARALI,536,LUGELELE,53620,,HALI YA HEWA
MBEYA,53,MBARALI,536,LUGELELE,53620,,MLOMBOJI
MBEYA,53,MBARALI,536,LUGELELE,53620,,MDAGALA
MBEYA,53,MBARALI,536,LUGELELE,53620,,MASELEMO
MBEYA,53,MBARALI,536,LUGELELE,53620,,MDANDU
MBEYA,53,MBARALI,536,LUGELELE,53620,,TEMEKE
MBEYA,53,MBARALI,536,LUGELELE,53620,,SANGU
MBEYA,53,MBARALI,536,LUGELELE,53620,,FARU
MBEYA,53,MBARALI,536,LUGELELE,53620,,NYUKI
MBEYA,53,MBARALI,536,LUGELELE,53620,,NYANYANJO
MBEYA,53,MBARALI,536,LUGELELE,53620,,KAMFICHENI
MBEYA,53,MBARALI,536,LUGELELE,53620,,MJIMWEMA
MBEYA,53,MBARALI,536,LUGELELE,53620,,KANISANI
MBEYA,53,MBARALI,536,LUGELELE,53620,,KILOLENI
MBEYA,53,MBARALI,536,LUGELELE,53620,,MPUNGA
MBEYA,53,MBARALI,536,LUGELELE,53620,,MBIGILI
MBEYA,53,MBARALI,536,LUGELELE,53620,,IHUMBI
MBEYA,53,MBARALI,536,LUGELELE,53620,,MAHANGO
MBEYA,53,MBARALI,536,LUGELELE,53620,,MAJENGO
MBEYA,53,MBARALI,536,LUGELELE,53620,,LYAMNYONGE
MBEYA,53,MBARALI,536,LUGELELE,53620,,MPANGA
MBEYA,53,MBARALI,536,LUGELELE,53620,,CHALIHUMBI
MBEYA,53,MBARALI,536,LUGELELE,53620,,IDOPE
MBEYA,53,MBARALI,536,LUGELELE,53620,,NYAWANGA
MBEYA,53,MBARALI,536,LUGELELE,53620,,IHEFU
MBEYA,53,MBARALI,536,LUGELELE,53620,,MADULI
MBEYA,53,MBARALI,536,LUGELELE,53620,,KANIOGA A
MBEYA,53,MBARALI,536,LUGELELE,53620,,KANIOGA B
MBEYA,53,MBARALI,536,LUGELELE,53620,,MAPOGORO A
MBEYA,53,MBARALI,536,LUGELELE,53620,,MAPOGORO B
MBEYA,53,MBARALI,536,LUGELELE,53620,,UDUMUKA
MBEYA,53,MBARALI,536,LUGELELE,53620,,ARUSHA
MBEYA,53,MBARALI,536,LUGELELE,53620,,MWANZA
MBEYA,53,KYELA,537,KYELA,53701,,KYELA KATI
MBEYA,53,KYELA,537,KYELA,53701,,KATI
MBEYA,53,KYELA,537,KYELA,53701,,KALUMBULU
MBEYA,53,KYELA,537,MWAYA,53702,ILONDO,IKUBO
MBEYA,53,KYELA,537,MWAYA,53702,ILONDO,ILONDO
MBEYA,53,KYELA,537,MWAYA,53702,ILONDO,MAINI
MBEYA,53,KYELA,537,MWAYA,53702,LUKUYU,LUKUYU
MBEYA,53,KYELA,537,MWAYA,53702,LUKUYU,MWANJABALA
MBEYA,53,KYELA,537,MWAYA,53702,LUGOMBO,LUBAGA
MBEYA,53,KYELA,537,MWAYA,53702,LUGOMBO,LUGOMBO
MBEYA,53,KYELA,537,MWAYA,53702,LUGOMBO,LUPANDO
MBEYA,53,KYELA,537,MWAYA,53702,LUGOMBO,MBAASI
MBEYA,53,KYELA,537,MWAYA,53702,LUGOMBO,MOTA
MBEYA,53,KYELA,537,MWAYA,53702,NDOLA,MBEGELE
MBEYA,53,KYELA,537,MWAYA,53702,NDOLA,SEKO
MBEYA,53,KYELA,537,MWAYA,53702,NDOLA,IPYASYO
MBEYA,53,KYELA,537,MWAYA,53702,NDOLA,LUPONDO
MBEYA,53,KYELA,537,MWAYA,53702,TENENDE,MBASI
MBEYA,53,KYELA,537,MWAYA,53702,TENENDE,TENENDE JUU
MBEYA,53,KYELA,537,MWAYA,53702,TENENDE,TENENDE CHINI
MBEYA,53,KYELA,537,MWAYA,53702,MWAYA,NJISI
MBEYA,53,KYELA,537,MWAYA,53702,MWAYA,MWAYA
MBEYA,53,KYELA,537,MWAYA,53702,MWAYA,ITAJANIA
MBEYA,53,KYELA,537,MWAYA,53702,MWAYA,KIPUTA
MBEYA,53,KYELA,537,MWAYA,53702,KASALA,KASALA A
MBEYA,53,KYELA,537,MWAYA,53702,KASALA,KASALA B
MBEYA,53,KYELA,537,MWAYA,53702,KASALA,KASALA C
MBEYA,53,KYELA,537,MWAYA,53702,MALUNGO,MALUNGO
MBEYA,53,KYELA,537,MWAYA,53702,MALUNGO,MTELA
MBEYA,53,KYELA,537,MWAYA,53702,MALUNGO,SERENGETI
MBEYA,53,KYELA,537,MWAYA,53702,MASEBE,LUGOJE
MBEYA,53,KYELA,537,MWAYA,53702,MASEBE,MASEBE KATI
MBEYA,53,KYELA,537,MWAYA,53702,MASEBE,ILEMBULA
MBEYA,53,KYELA,537,MWAYA,53702,KAPAMISYA,MAJENGO
MBEYA,53,KYELA,537,MWAYA,53702,KAPAMISYA,KAPAMISYA
MBEYA,53,KYELA,537,MWAYA,53702,KAPAMISYA,KABALE
MBEYA,53,KYELA,537,KAJUNJUMELE,53703,KAJUNJUMELE,KATYONGOLI
MBEYA,53,KYELA,537,KAJUNJUMELE,53703,KAJUNJUMELE,LUSYEMBE
MBEYA,53,KYELA,537,KAJUNJUMELE,53703,KAJUNJUMELE,NGANGANYILA
MBEYA,53,KYELA,537,KAJUNJUMELE,53703,KAJUNJUMELE,KANDETE
MBEYA,53,KYELA,537,KAJUNJUMELE,53703,BULOMA,BULOMA
MBEYA,53,KYELA,537,KAJUNJUMELE,53703,BULOMA,KAPUGI
MBEYA,53,KYELA,537,KAJUNJUMELE,53703,BULOMA,KIWIRA
MBEYA,53,KYELA,537,KAJUNJUMELE,53703,LUPASO,LUPASO
MBEYA,53,KYELA,537,KAJUNJUMELE,53703,LUPASO,MALAKA
MBEYA,53,KYELA,537,KAJUNJUMELE,53703,KILWA,LUKWEGO
MBEYA,53,KYELA,537,KAJUNJUMELE,53703,KILWA,MPANDA
MBEYA,53,KYELA,537,KAJUNJUMELE,53703,KILWA,NJISI
MBEYA,53,KYELA,537,KAJUNJUMELE,53703,KINGILA,BUJESI
MBEYA,53,KYELA,537,KAJUNJUMELE,53703,KINGILA,IPONJOLA
MBEYA,53,KYELA,537,IKOLO,53704,IKOLO,NYELELE
MBEYA,53,KYELA,537,IKOLO,53704,IKOLO,IBUNGU
MBEYA,53,KYELA,537,IKOLO,53704,IKOLO,NDOBO
MBEYA,53,KYELA,537,IKOLO,53704,IKOLO,LUPANDO
MBEYA,53,KYELA,537,IKOLO,53704,IKOLO,BUGOLOKA
MBEYA,53,KYELA,537,IKOLO,53704,IKOLO,BUSONA
MBEYA,53,KYELA,537,IKOLO,53704,IKOLO,MBIMBI
MBEYA,53,KYELA,537,IKOLO,53704,IKOLO,MBONDELA
MBEYA,53,KYELA,537,IKOLO,53704,LUPEMBE,LUGOMBO
MBEYA,53,KYELA,537,IKOLO,53704,LUPEMBE,LUPEMBE
MBEYA,53,KYELA,537,IKOLO,53704,MUUNGANO,KYIMO
MBEYA,53,KYELA,537,IKOLO,53704,MUUNGANO,NJIKULA
MBEYA,53,KYELA,537,IKOLO,53704,MUUNGANO,"BUNYONGALA ""A"""
MBEYA,53,KYELA,537,IKOLO,53704,MUUNGANO,"BUNYONGALA ""B"""
MBEYA,53,KYELA,537,IKOLO,53704,MUUNGANO,MWIGO
MBEYA,53,KYELA,537,IKOLO,53704,MUUNGANO,MASYABALA
MBEYA,53,KYELA,537,BUJONDE,53705,ISANGA,BUGOLOKA
MBEYA,53,KYELA,537,BUJONDE,53705,ISANGA,LUPASO
MBEYA,53,KYELA,537,BUJONDE,53705,ISANGA,MPANDA
MBEYA,53,KYELA,537,BUJONDE,53705,ISANGA,MPULO
MBEYA,53,KYELA,537,BUJONDE,53705,ISANGA,MPUNGUTI
MBEYA,53,KYELA,537,BUJONDE,53705,NNYELELE,KILOMBERO
MBEYA,53,KYELA,537,BUJONDE,53705,NNYELELE,KYIMBILA
MBEYA,53,KYELA,537,BUJONDE,53705,NNYELELE,MAHENGE
MBEYA,53,KYELA,537,BUJONDE,53705,NNYELELE,NDOLA
MBEYA,53,KYELA,537,BUJONDE,53705,ITOPE,BUSALE
MBEYA,53,KYELA,537,BUJONDE,53705,ITOPE,ITOPE
MBEYA,53,KYELA,537,BUJONDE,53705,ITOPE,NDOBO
MBEYA,53,KYELA,537,BUJONDE,53705,ITOPE,NGAMANGA
MBEYA,53,KYELA,537,BUJONDE,53705,LUBAGA,CHIKUBA
MBEYA,53,KYELA,537,BUJONDE,53705,LUBAGA,IKUMBO
MBEYA,53,KYELA,537,BUJONDE,53705,LUBAGA,MBANGAMOYO
MBEYA,53,KYELA,537,BUJONDE,53705,LUBAGA,MBYASYO
MBEYA,53,KYELA,537,BUJONDE,53705,LUBAGA,MPANDA
MBEYA,53,KYELA,537,NGONGA,53706,ITENYA,IJUMBE
MBEYA,53,KYELA,537,NGONGA,53706,ITENYA,ISUBA
MBEYA,53,KYELA,537,NGONGA,53706,ITENYA,ITENYA
MBEYA,53,KYELA,537,NGONGA,53706,ITENYA,MBANGALA
MBEYA,53,KYELA,537,NGONGA,53706,ITENYA,MPULO
MBEYA,53,KYELA,537,NGONGA,53706,ITETE,ISANGA
MBEYA,53,KYELA,537,NGONGA,53706,ITETE,LUSANGA
MBEYA,53,KYELA,537,NGONGA,53706,ITETE,MOTA
MBEYA,53,KYELA,537,NGONGA,53706,ITETE,MPANDA
MBEYA,53,KYELA,537,NGONGA,53706,LUGOMBO,BUTANGALI
MBEYA,53,KYELA,537,NGONGA,53706,LUGOMBO,KYIMBILA
MBEYA,53,KYELA,537,NGONGA,53706,LUGOMBO,LUGOMBO
MBEYA,53,KYELA,537,NGONGA,53706,LUGOMBO,MASUMBA
MBEYA,53,KYELA,537,NGONGA,53706,LUGOMBO,MPATA
MBEYA,53,KYELA,537,NGONGA,53706,LUGOMBO,NDOLA
MBEYA,53,KYELA,537,NGONGA,53706,NGONGA,IRINGA
MBEYA,53,KYELA,537,NGONGA,53706,NGONGA,KIPUTA
MBEYA,53,KYELA,537,NGONGA,53706,NGONGA,MAGEGE
MBEYA,53,KYELA,537,NGONGA,53706,NGONGA,MASOKO
MBEYA,53,KYELA,537,NGONGA,53706,NGONGA,MBANDE
MBEYA,53,KYELA,537,NGONGA,53706,NGONGA,MOTA
MBEYA,53,KYELA,537,NGONGA,53706,NGONGA,NJISI
MBEYA,53,KYELA,537,NGONGA,53706,NGONGA,MBYASYO
MBEYA,53,KYELA,537,NGONGA,53706,NSASA,BUJESI
MBEYA,53,KYELA,537,NGONGA,53706,NSASA,NDYALI
MBEYA,53,KYELA,537,NGONGA,53706,NSASA,NSASA
MBEYA,53,KYELA,537,KATUMBASONGWE,53707,KATUMBA,MBUGUJO
MBEYA,53,KYELA,537,KATUMBASONGWE,53707,KATUMBA,ILOPA
MBEYA,53,KYELA,537,KATUMBASONGWE,53707,KATUMBA,MASOKO I
MBEYA,53,KYELA,537,KATUMBASONGWE,53707,KATUMBA,MASOKO II
MBEYA,53,KYELA,537,KATUMBASONGWE,53707,KATUMBA,KATUMBA
MBEYA,53,KYELA,537,KATUMBASONGWE,53707,MPUNGUTI,MPUNGUTI A
MBEYA,53,KYELA,537,KATUMBASONGWE,53707,MPUNGUTI,MPUNGUTI B
MBEYA,53,KYELA,537,KATUMBASONGWE,53707,MPUNGUTI,"ITEKENYA ""A"""
MBEYA,53,KYELA,537,KATUMBASONGWE,53707,MPUNGUTI,"ITEKENYA ""B"""
MBEYA,53,KYELA,537,KATUMBASONGWE,53707,MPUNGUTI,LAMYA
MBEYA,53,KYELA,537,KATUMBASONGWE,53707,KABANGA,KABANGA
MBEYA,53,KYELA,537,KATUMBASONGWE,53707,KABANGA,LUSUNGO
MBEYA,53,KYELA,537,KATUMBASONGWE,53707,KABANGA,TENENDE
MBEYA,53,KYELA,537,KATUMBASONGWE,53707,NDWANGA,"NDWANGA ""A"""
MBEYA,53,KYELA,537,KATUMBASONGWE,53707,NDWANGA,"NDWANGA ""B"""
MBEYA,53,KYELA,537,KATUMBASONGWE,53707,NDWANGA,KATUMBATI
MBEYA,53,KYELA,537,KATUMBASONGWE,53707,NDWANGA,NDANGANYIKA
MBEYA,53,KYELA,537,KATUMBASONGWE,53707,NDWANGA,USALAMA
MBEYA,53,KYELA,537,KATUMBASONGWE,53707,ISAKI,ISAKI I
MBEYA,53,KYELA,537,KATUMBASONGWE,53707,ISAKI,ISAKI II
MBEYA,53,KYELA,537,NGANA,53708,KASUMULU,ILONDO
MBEYA,53,KYELA,537,NGANA,53708,KASUMULU,JUA KALI
MBEYA,53,KYELA,537,NGANA,53708,KASUMULU,KASUMULU
MBEYA,53,KYELA,537,NGANA,53708,KASUMULU,KASUMULU KATI
MBEYA,53,KYELA,537,NGANA,53708,KASUMULU,NGUMBULU
MBEYA,53,KYELA,537,NGANA,53708,MWALISI,BUJESI
MBEYA,53,KYELA,537,NGANA,53708,MWALISI,ITOPE
MBEYA,53,KYELA,537,NGANA,53708,MWALISI,KANI
MBEYA,53,KYELA,537,NGANA,53708,MWALISI,LUSUNGO
MBEYA,53,KYELA,537,NGANA,53708,MWALISI,MAKEJE
MBEYA,53,KYELA,537,NGANA,53708,MWALISI,NGONGA
MBEYA,53,KYELA,537,NGANA,53708,NGANA,KANDETE
MBEYA,53,KYELA,537,NGANA,53708,NGANA,MAJENGO
MBEYA,53,KYELA,537,NGANA,53708,NGANA,MALOLA
MBEYA,53,KYELA,537,NGANA,53708,NGANA,MBWATA
MBEYA,53,KYELA,537,NGANA,53708,NGANA,MWEGA
MBEYA,53,KYELA,537,NGANA,53708,NGANA,NDUKA
MBEYA,53,KYELA,537,NGANA,53708,USHIRIKA,KASYUNGUTI
MBEYA,53,KYELA,537,NGANA,53708,USHIRIKA,LUSUNGO
MBEYA,53,KYELA,537,NGANA,53708,USHIRIKA,MAKASU
MBEYA,53,KYELA,537,NGANA,53708,USHIRIKA,MPALAKATA
MBEYA,53,KYELA,537,NGANA,53708,USHIRIKA,IBWENGUBATI
MBEYA,53,KYELA,537,BUSALE,53709,BUSALE,BUSALE
MBEYA,53,KYELA,537,BUSALE,53709,BUSALE,KABALE
MBEYA,53,KYELA,537,BUSALE,53709,BUSALE,KANYASI
MBEYA,53,KYELA,537,BUSALE,53709,BUSALE,LUPAKANO
MBEYA,53,KYELA,537,BUSALE,53709,BUSALE,NYIBUKO
MBEYA,53,KYELA,537,BUSALE,53709,BUSALE,SUMBI
MBEYA,53,KYELA,537,BUSALE,53709,IKOMELO,ITEMBE
MBEYA,53,KYELA,537,BUSALE,53709,IKOMELO,IKOMBE
MBEYA,53,KYELA,537,BUSALE,53709,IKOMELO,MAHENGE
MBEYA,53,KYELA,537,BUSALE,53709,IKOMELO,BUSOKA
MBEYA,53,KYELA,537,BUSALE,53709,MASOKO,SANU
MBEYA,53,KYELA,537,BUSALE,53709,MASOKO,LWANGWA
MBEYA,53,KYELA,537,BUSALE,53709,MASOKO,MWATI
MBEYA,53,KYELA,537,BUSALE,53709,BUSOKA,BUSOKA
MBEYA,53,KYELA,537,BUSALE,53709,BUSOKA,NGOKOTO
MBEYA,53,KYELA,537,BUSALE,53709,BUSOKA,CHIVANJE
MBEYA,53,KYELA,537,BUSALE,53709,LEMA,KUBUGURU
MBEYA,53,KYELA,537,BUSALE,53709,LEMA,SOKONI
MBEYA,53,KYELA,537,BUSALE,53709,LEMA,KATYONGOLI
MBEYA,53,KYELA,537,BUSALE,53709,LEMA,MAFIGA
MBEYA,53,KYELA,537,IPANDE,53710,MBULA,BUGOBA
MBEYA,53,KYELA,537,IPANDE,53710,MBULA,ILINDI
MBEYA,53,KYELA,537,IPANDE,53710,NJUGILO,KASAMA A
MBEYA,53,KYELA,537,IPANDE,53710,NJUGILO,KASAMA B
MBEYA,53,KYELA,537,IPANDE,53710,NJUGILO,MALANGALI
MBEYA,53,KYELA,537,IPANDE,53710,KONJULA,KIPELA
MBEYA,53,KYELA,537,IPANDE,53710,KONJULA,NJUGILO
MBEYA,53,KYELA,537,IPANDE,53710,MAENDELEO,"KIKOLE ""A"""
MBEYA,53,KYELA,537,IPANDE,53710,MAENDELEO,"KIKOLE ""B"""
MBEYA,53,KYELA,537,IPINDA,53711,IKULU,IKULU KANISANI
MBEYA,53,KYELA,537,IPINDA,53711,IKULU,IKULU KUSINI
MBEYA,53,KYELA,537,IPINDA,53711,KAFUNDO,KAFUNDO KASKAZINI
MBEYA,53,KYELA,537,IPINDA,53711,KAFUNDO,KAFUNDO KATI
MBEYA,53,KYELA,537,IPINDA,53711,KAFUNDO,KAFUNDO KUSINI
MBEYA,53,KYELA,537,IPINDA,53711,IPINDA,IPINDA KASKAZINI
MBEYA,53,KYELA,537,IPINDA,53711,IPINDA,IPINDA KATI
MBEYA,53,KYELA,537,IPINDA,53711,IPINDA,IPINDA KUSINI
MBEYA,53,KYELA,537,IPINDA,53711,KANGA,KANGA A
MBEYA,53,KYELA,537,IPINDA,53711,KANGA,KANGA B
MBEYA,53,KYELA,537,IPINDA,53711,KANGA,MWANGULU
MBEYA,53,KYELA,537,IPINDA,53711,KIINGILI,KINGILI A
MBEYA,53,KYELA,537,IPINDA,53711,KIINGILI,KINGILI B
MBEYA,53,KYELA,537,IPINDA,53711,KIINGILI,LUKUJU
MBEYA,53,KYELA,537,IPINDA,53711,KIINGILI,MAHENGE
MBEYA,53,KYELA,537,IPINDA,53711,LUPASO,KANYELELE
MBEYA,53,KYELA,537,IPINDA,53711,LUPASO,LUPASO
MBEYA,53,KYELA,537,IPINDA,53711,IKUMBILO,IKUMBILO
MBEYA,53,KYELA,537,IPINDA,53711,IKUMBILO,KALULYA
MBEYA,53,KYELA,537,IPINDA,53711,NGAMANGA,MITUGUTU
MBEYA,53,KYELA,537,IPINDA,53711,NGAMANGA,NGAMANGA KATI
MBEYA,53,KYELA,537,IPINDA,53711,NGAMANGA,IBUNGU
MBEYA,53,KYELA,537,IPINDA,53711,KISALE,MBANGAMOYO
MBEYA,53,KYELA,537,IPINDA,53711,KISALE,IRINGA
MBEYA,53,KYELA,537,IPINDA,53711,BUJELA,BUJELA
MBEYA,53,KYELA,537,IPINDA,53711,BUJELA,LUPASO
MBEYA,53,KYELA,537,IPINDA,53711,MABUNGA,MBAMILA
MBEYA,53,KYELA,537,IPINDA,53711,MABUNGA,MPUNGUTI
MBEYA,53,KYELA,537,IPINDA,53711,MABUNGA,NSONGOLA
MBEYA,53,KYELA,537,MUUNGANO,53712,BUKINGA,KATOLA
MBEYA,53,KYELA,537,MUUNGANO,53712,BUKINGA,BUKINGA
MBEYA,53,KYELA,537,MUUNGANO,53712,BUKINGA,CUBA
MBEYA,53,KYELA,537,MUUNGANO,53712,BUKINGA,IRINGA
MBEYA,53,KYELA,537,MUUNGANO,53712,BUKINGA,GHANA
MBEYA,53,KYELA,537,MUUNGANO,53712,BUKINGA,ILUBI
MBEYA,53,KYELA,537,MUUNGANO,53712,MWAIGOGA,"IKULU ""A"""
MBEYA,53,KYELA,537,MUUNGANO,53712,MWAIGOGA,"IKULU ""B"""
MBEYA,53,KYELA,537,MUUNGANO,53712,LUTUSYO,"LUTUSYO ""A"""
MBEYA,53,KYELA,537,MUUNGANO,53712,LUTUSYO,"LUTUSYO ""B"""
MBEYA,53,KYELA,537,MUUNGANO,53712,LUTUSYO,"NDWANGA ""A"""
MBEYA,53,KYELA,537,MUUNGANO,53712,LUTUSYO,"NDWANGA ""B"""
MBEYA,53,KYELA,537,LUSUNGO,53713,KIKUBA,ISYETO
MBEYA,53,KYELA,537,LUSUNGO,53713,KIKUBA,LUFUMBI
MBEYA,53,KYELA,537,LUSUNGO,53713,KIKUBA,MALANGALI
MBEYA,53,KYELA,537,LUSUNGO,53713,LUKAMA,IGEMBE
MBEYA,53,KYELA,537,LUSUNGO,53713,LUKAMA,LUKAMA CHINI
MBEYA,53,KYELA,537,LUSUNGO,53713,LUKAMA,LUKAMA KATI
MBEYA,53,KYELA,537,LUSUNGO,53713,LUKWEGO,BULIMBWE
MBEYA,53,KYELA,537,LUSUNGO,53713,LUKWEGO,KAPOSO
MBEYA,53,KYELA,537,LUSUNGO,53713,LUKWEGO,LUKWEGO
MBEYA,53,KYELA,537,LUSUNGO,53713,LUSUNGO,BUGEMA
MBEYA,53,KYELA,537,LUSUNGO,53713,LUSUNGO,BUGOGO
MBEYA,53,KYELA,537,LUSUNGO,53713,LUSUNGO,LUSUNGO
MBEYA,53,KYELA,537,LUSUNGO,53713,LUSUNGO,MPULO
MBEYA,53,KYELA,537,LUSUNGO,53713,LUSUNGO,NTUNDUMANO
MBEYA,53,KYELA,537,LUSUNGO,53713,LUSUNGO,NTUNDUMBAKA
MBEYA,53,KYELA,537,LUSUNGO,53713,MPANDA,KAPUGI
MBEYA,53,KYELA,537,LUSUNGO,53713,MPANDA,MALEMA
MBEYA,53,KYELA,537,MAKWALE,53714,KATEELA,KATEELA
MBEYA,53,KYELA,537,MAKWALE,53714,KATEELA,MBUGUJO
MBEYA,53,KYELA,537,MAKWALE,53714,KATEELA,MWALISI
MBEYA,53,KYELA,537,MAKWALE,53714,KATEELA,MWAMBUNGULA
MBEYA,53,KYELA,537,MAKWALE,53714,IBALE,MAENDELEO
MBEYA,53,KYELA,537,MAKWALE,53714,IBALE,TUMAINI
MBEYA,53,KYELA,537,MAKWALE,53714,IBALE,KICHANGANI
MBEYA,53,KYELA,537,MAKWALE,53714,IBALE,IBALE
MBEYA,53,KYELA,537,MAKWALE,53714,MAHENGE,ILOPA
MBEYA,53,KYELA,537,MAKWALE,53714,MAHENGE,ISABULA
MBEYA,53,KYELA,537,MAKWALE,53714,MAHENGE,MAHENGE
MBEYA,53,KYELA,537,MAKWALE,53714,MAKWALE,MAKWALE A
MBEYA,53,KYELA,537,MAKWALE,53714,MAKWALE,MAKWALE B
MBEYA,53,KYELA,537,MAKWALE,53714,MAKWALE,ISIMBA
MBEYA,53,KYELA,537,MAKWALE,53714,MAKWALE,MWALISI
MBEYA,53,KYELA,537,MAKWALE,53714,MPUNGUTI,BULYAMBWA
MBEYA,53,KYELA,537,MAKWALE,53714,MPUNGUTI,KATETE
MBEYA,53,KYELA,537,MAKWALE,53714,MPUNGUTI,MAHANJI
MBEYA,53,KYELA,537,MAKWALE,53714,MPUNGUTI,MPUNGUTI
MBEYA,53,KYELA,537,MAKWALE,53714,NGELEKA,IPONJOLA
MBEYA,53,KYELA,537,MAKWALE,53714,NGELEKA,NGELEKA I
MBEYA,53,KYELA,537,MAKWALE,53714,NGELEKA,KATAGO
MBEYA,53,KYELA,537,MAKWALE,53714,NGELEKA,LUKUJU
MBEYA,53,KYELA,537,MAKWALE,53714,NGELEKA,MWALINGO
MBEYA,53,KYELA,537,MAKWALE,53714,MPEGELE,MPEGELE
MBEYA,53,KYELA,537,MAKWALE,53714,MPEGELE,MCHANGANI
MBEYA,53,KYELA,537,MAKWALE,53714,MPEGELE,KATAGO
MBEYA,53,KYELA,537,MATEMA,53715,IKOMBE,BUSISYA
MBEYA,53,KYELA,537,MATEMA,53715,IKOMBE,ISIMBA
MBEYA,53,KYELA,537,MATEMA,53715,IKOMBE,LYULILO
MBEYA,53,KYELA,537,MATEMA,53715,IKOMBE,NJISI
MBEYA,53,KYELA,537,MATEMA,53715,IKOMBE,IKUNDA
MBEYA,53,KYELA,537,MATEMA,53715,MATEMA,BULINDA
MBEYA,53,KYELA,537,MATEMA,53715,MATEMA,IBUNGU
MBEYA,53,KYELA,537,MATEMA,53715,MATEMA,ITUKISYO
MBEYA,53,KYELA,537,MATEMA,53715,MATEMA,MATEMA
MBEYA,53,KYELA,537,MATEMA,53715,KISYOSYO,KISYOSYO
MBEYA,53,KYELA,537,MATEMA,53715,KISYOSYO,BUSONA
MBEYA,53,KYELA,537,MATEMA,53715,KISYOSYO,LUSONJO
MBEYA,53,KYELA,537,IKAMA,53716,ILOPA,BUGOLOKA
MBEYA,53,KYELA,537,IKAMA,53716,ILOPA,ILOPA
MBEYA,53,KYELA,537,IKAMA,53716,ILOPA,KYIMO
MBEYA,53,KYELA,537,IKAMA,53716,ILOPA,NDWANGA
MBEYA,53,KYELA,537,IKAMA,53716,FUBU,FUBU
MBEYA,53,KYELA,537,IKAMA,53716,FUBU,LYONGO
MBEYA,53,KYELA,537,IKAMA,53716,FUBU,MBWATO
MBEYA,53,KYELA,537,IKAMA,53716,FUBU,NDONDOBYA
MBEYA,53,KYELA,537,IKAMA,53716,FUBU,SEKO
MBEYA,53,KYELA,537,IKAMA,53716,MPUNGUTI,IKAMA
MBEYA,53,KYELA,537,IKAMA,53716,MPUNGUTI,MPANGA
MBEYA,53,KYELA,537,IKAMA,53716,MPUNGUTI,MPUNGUTI A
MBEYA,53,KYELA,537,IKAMA,53716,MPUNGUTI,MPUNGUTI B
MBEYA,53,KYELA,537,IKAMA,53716,MWAMBUSYE,BUSALANO
MBEYA,53,KYELA,537,IKAMA,53716,MWAMBUSYE,ITIKI
MBEYA,53,KYELA,537,IKAMA,53716,MWAMBUSYE,NSELA
MBEYA,53,KYELA,537,NDOBO,53717,BWATO,ISUMBA
MBEYA,53,KYELA,537,NDOBO,53717,BWATO,LUPANDO
MBEYA,53,KYELA,537,NDOBO,53717,BWATO,KILIMBA
MBEYA,53,KYELA,537,NDOBO,53717,BWATO,MASOKO
MBEYA,53,KYELA,537,NDOBO,53717,ISUBA,ISUBA
MBEYA,53,KYELA,537,NDOBO,53717,ISUBA,NKUYU
MBEYA,53,KYELA,537,NDOBO,53717,ISUBA,BUJESI
MBEYA,53,KYELA,537,NDOBO,53717,ISUBA,MBANGAMOYO
MBEYA,53,KYELA,537,NDOBO,53717,NDOBO,KAPUNGI
MBEYA,53,KYELA,537,NDOBO,53717,NDOBO,LUGOMBO
MBEYA,53,KYELA,537,NDOBO,53717,NDOBO,BUSOBA
MBEYA,53,KYELA,537,NDOBO,53717,NDOBO,MAPE
MBEYA,53,KYELA,537,NDOBO,53717,SEBE,SEBE I
MBEYA,53,KYELA,537,NDOBO,53717,,SEBE II
MBEYA,53,KYELA,537,NDOBO,53717,,KINDINGO
MBEYA,53,KYELA,537,ITOPE,53718,,KANDETE
MBEYA,53,KYELA,537,ITOPE,53718,,KIKUSYA
MBEYA,53,KYELA,537,ITOPE,53718,,ITOPE
MBEYA,53,KYELA,537,IKIMBA,53719,,KILASILO
MBEYA,53,KYELA,537,IKIMBA,53719,,MBAKO
MBEYA,53,KYELA,537,IKIMBA,53719,,IBUNGU
MBEYA,53,KYELA,537,IKIMBA,53719,,LUBELE
MBEYA,53,KYELA,537,TALATALA,53720,KYANGALA,KASKAZINI
MBEYA,53,KYELA,537,TALATALA,53720,KYANGALA,KASKAZINI KATI
MBEYA,53,KYELA,537,TALATALA,53720,KYANGALA,KUSINI
MBEYA,53,KYELA,537,TALATALA,53720,KYANGALA,KUSINI KATI
MBEYA,53,KYELA,537,TALATALA,53720,NGOLELA,NGOLELA
MBEYA,53,KYELA,537,TALATALA,53720,NGOLELA,MNYANJA
MBEYA,53,KYELA,537,TALATALA,53720,NGOLELA,NDITU
MBEYA,53,KYELA,537,TALATALA,53720,NGOLELA,MBOBOLE
MBEYA,53,KYELA,537,TALATALA,53720,TALATALA,LYONGO
MBEYA,53,KYELA,537,TALATALA,53720,TALATALA,TALATALA KATI
MBEYA,53,KYELA,537,TALATALA,53720,TALATALA,NDOBELOBE
MBEYA,53,KYELA,537,TALATALA,53720,TALATALA,LUTUSYO
MBEYA,53,KYELA,537,TALATALA,53720,KAGOGO,MASUNDO
MBEYA,53,KYELA,537,TALATALA,53720,KAGOGO,NDIONGOLA
MBEYA,53,KYELA,537,TALATALA,53720,KAGOGO,MYELA
MBEYA,53,KYELA,537,NKOKWA,53721,BUPONELO,KABULA
MBEYA,53,KYELA,537,NKOKWA,53721,BUPONELO,LUSUNGO
MBEYA,53,KYELA,537,NKOKWA,53721,KYIJILA,IBONDE
MBEYA,53,KYELA,537,NKOKWA,53721,KYIJILA,KYIJILA
MBEYA,53,KYELA,537,NKOKWA,53721,KYIJILA,IGOMBANILE
MBEYA,53,KYELA,537,NKOKWA,53721,SHINYANGA,BULANGA
MBEYA,53,KYELA,537,NKOKWA,53721,SHINYANGA,ILOPA
MBEYA,53,KYELA,537,NKOKWA,53721,SHINYANGA,NKOKWA KANISANI
MBEYA,53,KYELA,537,NKOKWA,53721,SHINYANGA,NKOKWA SHULENI
MBEYA,53,KYELA,537,MABABU,53722,MABABU,"NKESO ""A"""
MBEYA,53,KYELA,537,MABABU,53722,MABABU,"NKESO ""B"""
MBEYA,53,KYELA,537,MABABU,53722,MABABU,"NKESO ""C"""
MBEYA,53,KYELA,537,MABABU,53722,MABABU,KATUMBA
MBEYA,53,KYELA,537,MABABU,53722,MABABU,MABABU
MBEYA,53,KYELA,537,MABABU,53722,NGYEKE,MAPINDUZI
MBEYA,53,KYELA,537,MABABU,53722,NGYEKE,KILAMBO
MBEYA,53,KYELA,537,MABABU,53722,NGYEKE,MAKUYU
MBEYA,53,KYELA,537,MABABU,53722,NGYEKE,NDWANGA
MBEYA,53,KYELA,537,MABABU,53722,NGYEKE,NGYEKE
MBEYA,53,KYELA,537,MABABU,53722,KILOMBELO,KILOMBELO
MBEYA,53,KYELA,537,MABABU,53722,KILOMBELO,KAPATA
MBEYA,53,KYELA,537,MABABU,53722,KILOMBELO,LUSONJO
MBEYA,53,KYELA,537,MIKOROSHONI,53723,,MIKOROSHONI
MBEYA,53,KYELA,537,MIKOROSHONI,53723,,UNYAKYUSA
MBEYA,53,KYELA,537,MIKOROSHONI,53723,,JONARD
MBEYA,53,KYELA,537,MBUGANI,53724,,ROMA
MBEYA,53,KYELA,537,MBUGANI,53724,,MBUGANI
MBEYA,53,KYELA,537,MBUGANI,53724,,BUTIAMA
MBEYA,53,KYELA,537,MWANGANYANGA,53725,,MWAIKAMBO
MBEYA,53,KYELA,537,MWANGANYANGA,53725,,MKOMBOZI
MBEYA,53,KYELA,537,MWANGANYANGA,53725,,OROFEA
MBEYA,53,KYELA,537,SERENGETI,53726,,NAZARETH
MBEYA,53,KYELA,537,SERENGETI,53726,,KEIFO
MBEYA,53,KYELA,537,SERENGETI,53726,,MANYALA
MBEYA,53,KYELA,537,ITUNGE,53727,,MUNDEKESYE
MBEYA,53,KYELA,537,ITUNGE,53727,,ITUNGE MASHARIKI
MBEYA,53,KYELA,537,ITUNGE,53727,,ITUNGE KASKAZINI
MBEYA,53,KYELA,537,ITUNGE,53727,,ITUNGE KATI
MBEYA,53,KYELA,537,NKUYU,53728,,NJISI
MBEYA,53,KYELA,537,NKUYU,53728,,BUSIKALI
MBEYA,53,KYELA,537,NKUYU,53728,,BUSILIKA
MBEYA,53,KYELA,537,NKUYU,53728,,IGOMBOLA
MBEYA,53,KYELA,537,NKUYU,53728,,BUTENGULE
MBEYA,53,KYELA,537,NDANDALO,53729,,MPAKANI
MBEYA,53,KYELA,537,NDANDALO,53729,,KYELA NDANDALO
MBEYA,53,KYELA,537,NDANDALO,53729,,MBOGELA
MBEYA,53,KYELA,537,NDANDALO,53729,,MAGEREZA
MBEYA,53,KYELA,537,NDANDALO,53729,,IDARA YA MAJI
MBEYA,53,KYELA,537,IPYANA,53730,,"IPYANA ""A"""
MBEYA,53,KYELA,537,IPYANA,53730,,"IPYANA ""B"""
MBEYA,53,KYELA,537,IPYANA,53730,,KIBUGUJO
MBEYA,53,KYELA,537,BONDENI,53731,,"BONDENI ""A"""
MBEYA,53,KYELA,537,BONDENI,53731,,"BONDENI ""B"""
MBEYA,53,KYELA,537,BONDENI,53731,,MIKUMI
MBEYA,53,KYELA,537,BONDENI,53731,,KAPWILI KATI
MBEYA,53,KYELA,537,BONDENI,53731,,KAPWILI KASKAZINI
MBEYA,53,KYELA,537,BONDENI,53731,,KAPWILI KUSINI
MBEYA,53,KYELA,537,BONDENI,53731,,NGORONGORO
MBEYA,53,KYELA,537,IBANDA,53732,,MBYASYO
MBEYA,53,KYELA,537,IBANDA,53732,,KAJWISYA
MBEYA,53,KYELA,537,IBANDA,53732,,"SAMA ""A"""
MBEYA,53,KYELA,537,IBANDA,53732,,"SAMA ""B"""
MBEYA,53,KYELA,537,IBANDA,53732,,"IKAMBI ""A"""
MBEYA,53,KYELA,537,IBANDA,53732,,"IKAMBI ""B"""
MBEYA,53,KYELA,537,NJISI,73733,,NJISI
MBEYA,53,KYELA,537,NJISI,73733,,SEKO
MBEYA,53,KYELA,537,NJISI,73733,,KILAMBO
MBEYA,53,CHUNYA,538,CHOKAA,53801,MAPOGORO,MAPOGORO  A
MBEYA,53,CHUNYA,538,CHOKAA,53801,MAPOGORO,MAPOGORO  B
MBEYA,53,CHUNYA,538,CHOKAA,53801,MAPOGORO,ASHISHILA
MBEYA,53,CHUNYA,538,CHOKAA,53801,MAPOGORO,MNYOLIMA
MBEYA,53,CHUNYA,538,CHOKAA,53801,MAPOGORO,WAFUGAJI
MBEYA,53,CHUNYA,538,CHOKAA,53801,KIBAONI,KIBAONI  A
MBEYA,53,CHUNYA,538,CHOKAA,53801,KIBAONI,KIBAONI  B
MBEYA,53,CHUNYA,538,CHOKAA,53801,KIBAONI,KIBAONI  C
MBEYA,53,CHUNYA,538,CHOKAA,53801,KIBAONI,SINZA
MBEYA,53,CHUNYA,538,CHOKAA,53801,KIBAONI,MAJENGO
MBEYA,53,CHUNYA,538,CHOKAA,53801,CHOKAA,CHOKAA  A
MBEYA,53,CHUNYA,538,CHOKAA,53801,CHOKAA,CHOKAA  B
MBEYA,53,CHUNYA,538,CHOKAA,53801,CHOKAA,LEGEZAMWENDO
MBEYA,53,CHUNYA,538,CHOKAA,53801,CHOKAA,SAMBILIMWAYA
MBEYA,53,CHUNYA,538,CHOKAA,53801,GODIMA,GODIMA
MBEYA,53,CHUNYA,538,CHOKAA,53801,GODIMA,IKAMASI
MBEYA,53,CHUNYA,538,CHOKAA,53801,GODIMA,MWANKONYONTO
MBEYA,53,CHUNYA,538,CHOKAA,53801,GODIMA,MAJENGO
MBEYA,53,CHUNYA,538,CHOKAA,53801,GODIMA,SAITUNDUMA
MBEYA,53,CHUNYA,538,ITEWE,53802,SINJILILI,SINJILILI  A
MBEYA,53,CHUNYA,538,ITEWE,53802,SINJILILI,SINJILILI  B
MBEYA,53,CHUNYA,538,ITEWE,53802,CHUNYA MJINI,CHUNYA MJINI  A
MBEYA,53,CHUNYA,538,ITEWE,53802,CHUNYA MJINI,CHUNYA MJINI  B
MBEYA,53,CHUNYA,538,ITEWE,53802,CHUNYA MJINI,CHUNYA MJINI  C
MBEYA,53,CHUNYA,538,ITEWE,53802,CHUNYA MJINI,CHUNYA MJINI  D
MBEYA,53,CHUNYA,538,MBUGANI,53803,MBUGANI,MBUGANI
MBEYA,53,CHUNYA,538,MBUGANI,53803,MBUGANI,MKOMBOZI
MBEYA,53,CHUNYA,538,MBUGANI,53803,MBUGANI,MUUNGANO
MBEYA,53,CHUNYA,538,MBUGANI,53803,MBUGANI,ISENYELA
MBEYA,53,CHUNYA,538,MBUGANI,53803,KIWANJA,KIWANJA
MBEYA,53,CHUNYA,538,MBUGANI,53803,KIWANJA,MSASANI
MBEYA,53,CHUNYA,538,MBUGANI,53803,KIWANJA,IHAWA
MBEYA,53,CHUNYA,538,MBUGANI,53803,KIWANJA,NYATULA
MBEYA,53,CHUNYA,538,MBUGANI,53803,KIWANJA,MWAKAMBONJA
MBEYA,53,CHUNYA,538,MBUGANI,53803,MLIMANJIWA,MLIMANJIWA  A
MBEYA,53,CHUNYA,538,MBUGANI,53803,MLIMANJIWA,MLIMANJIWA  B
MBEYA,53,CHUNYA,538,MBUGANI,53803,MLIMANJIWA,MLIMANJIWA  C
MBEYA,53,CHUNYA,538,CHALANGWA,53804,CHALANGWA,CHALANGWA  A
MBEYA,53,CHUNYA,538,CHALANGWA,53804,CHALANGWA,CHALANGWA  B
MBEYA,53,CHUNYA,538,CHALANGWA,53804,CHALANGWA,CHALANGWA  C.
MBEYA,53,CHUNYA,538,CHALANGWA,53804,CHALANGWA,CHEMICHEMI
MBEYA,53,CHUNYA,538,CHALANGWA,53804,CHALANGWA,WAZENGA
MBEYA,53,CHUNYA,538,CHALANGWA,53804,CHALANGWA,WAZENGA B
MBEYA,53,CHUNYA,538,CHALANGWA,53804,ITUMBA,ITUMBA
MBEYA,53,CHUNYA,538,CHALANGWA,53804,ITUMBA,SIMBALIVU
MBEYA,53,CHUNYA,538,CHALANGWA,53804,ITUMBA,NJIAPANDA
MBEYA,53,CHUNYA,538,CHALANGWA,53804,ITUMBA,KANJILINJI
MBEYA,53,CHUNYA,538,CHALANGWA,53804,ISEWE,ISEWE
MBEYA,53,CHUNYA,538,CHALANGWA,53804,ISEWE,IZUMBI
MBEYA,53,CHUNYA,538,CHALANGWA,53804,ISEWE,MBILWA
MBEYA,53,CHUNYA,538,CHALANGWA,53804,ISEWE,MBINGA
MBEYA,53,CHUNYA,538,IFUMBO,53805,IFUMBO,MWAMBAGALA
MBEYA,53,CHUNYA,538,IFUMBO,53805,IFUMBO,MBUYUNI
MBEYA,53,CHUNYA,538,IFUMBO,53805,IFUMBO,IHANGO
MBEYA,53,CHUNYA,538,IFUMBO,53805,IFUMBO,ITETE
MBEYA,53,CHUNYA,538,IFUMBO,53805,IFUMBO,SAWA  A
MBEYA,53,CHUNYA,538,IFUMBO,53805,IFUMBO,CHIKULA
MBEYA,53,CHUNYA,538,IFUMBO,53805,IFUMBO,MAJENGO
MBEYA,53,CHUNYA,538,IFUMBO,53805,LUPAMARKET,LUPAMARKET
MBEYA,53,CHUNYA,538,IFUMBO,53805,LUPAMARKET,MABOMBA
MBEYA,53,CHUNYA,538,IFUMBO,53805,LUPAMARKET,KASANGA
MBEYA,53,CHUNYA,538,MKOLA,53807,LUPAMARKET,MKOLA
MBEYA,53,CHUNYA,538,MKOLA,53807,LUPAMARKET,GEPU
MBEYA,53,CHUNYA,538,MKOLA,53807,LUPAMARKET,MALANGAMILO
MBEYA,53,CHUNYA,538,MKOLA,53807,LUPAMARKET,IRINGA
MBEYA,53,CHUNYA,538,MKOLA,53807,LUPAMARKET,UJERUMANI
MBEYA,53,CHUNYA,538,MATUNDASI,53809,,MATUNDASI  A
MBEYA,53,CHUNYA,538,MATUNDASI,53809,,MATUNDASI  B
MBEYA,53,CHUNYA,538,MATUNDASI,53809,,MATONDO
MBEYA,53,CHUNYA,538,MATUNDASI,53809,,KISIMANI
MBEYA,53,CHUNYA,538,MATUNDASI,53809,,ITUMBI
MBEYA,53,CHUNYA,538,MATUNDASI,53809,,MAKATANG’OMBE
MBEYA,53,CHUNYA,538,MATUNDASI,53809,,NANYUKI
MBEYA,53,CHUNYA,538,MATUNDASI,53809,,NZINGWA
MBEYA,53,CHUNYA,538,MAKONGOLOSI,53810,,MAKONGOLOSI
MBEYA,53,CHUNYA,538,MAKONGOLOSI,53810,,MPOGOLONI
MBEYA,53,CHUNYA,538,MAKONGOLOSI,53810,,SOKONI
MBEYA,53,CHUNYA,538,MAKONGOLOSI,53810,,TRM
MBEYA,53,CHUNYA,538,MAKONGOLOSI,53810,,TANKINI
MBEYA,53,CHUNYA,538,MAKONGOLOSI,53810,,MANYANYA
MBEYA,53,CHUNYA,538,MAKONGOLOSI,53810,,KALUNGU
MBEYA,53,CHUNYA,538,MAKONGOLOSI,53810,,UMOJA
MBEYA,53,CHUNYA,538,MAKONGOLOSI,53810,,KILOMBERO
MBEYA,53,CHUNYA,538,MAKONGOLOSI,53810,,MWAOGA KATI
MBEYA,53,CHUNYA,538,MAKONGOLOSI,53810,,SONGAMBELE
MBEYA,53,CHUNYA,538,MAKONGOLOSI,53810,,MACHINJIONI
MBEYA,53,CHUNYA,538,MAKONGOLOSI,53810,,MKUYUNI
MBEYA,53,CHUNYA,538,MAKONGOLOSI,53810,,ZAHANATI
MBEYA,53,CHUNYA,538,MAMBA,53811,MAMBA,MAMBA  A
MBEYA,53,CHUNYA,538,MAMBA,53811,MAMBA,MAMBA  B
MBEYA,53,CHUNYA,538,MAMBA,53811,MAMBA,MANDUMBWI
MBEYA,53,CHUNYA,538,MAMBA,53811,MAMBA,KISALASI  C
MBEYA,53,CHUNYA,538,MAMBA,53811,MAMBA,KISALASI  D
MBEYA,53,CHUNYA,538,MAMBA,53811,MTANDE,MAMBA  F
MBEYA,53,CHUNYA,538,MAMBA,53811,MTANDE,MAMBA  G
MBEYA,53,CHUNYA,538,MAMBA,53811,MTANDE,MAGUNGA
MBEYA,53,CHUNYA,538,MAMBA,53811,MTANDE,MABATINI
MBEYA,53,CHUNYA,538,MAMBA,53811,MTANDE,IJIWA
MBEYA,53,CHUNYA,538,MAMBA,53811,MAPINDUZI,NGWANGU
MBEYA,53,CHUNYA,538,MAMBA,53811,MAPINDUZI,MAMBA  E
MBEYA,53,CHUNYA,538,MAMBA,53811,MAPINDUZI,MAPINDUZI
MBEYA,53,CHUNYA,538,LUPA,53819,LYESELO,LYESELO
MBEYA,53,CHUNYA,538,LUPA,53819,LYESELO,NGONILIMA
MBEYA,53,CHUNYA,538,LUPA,53819,LYESELO,MAPAMBANO
MBEYA,53,CHUNYA,538,LUPA,53819,LYESELO,LEGEZA MWENDO
MBEYA,53,CHUNYA,538,LUPA,53819,LYESELO,SONGAMBELE.
MBEYA,53,CHUNYA,538,LUPA,53819,IFUMA,IFUMA
MBEYA,53,CHUNYA,538,LUPA,53819,IFUMA,KAZAROHO
MBEYA,53,CHUNYA,538,LUPA,53819,IFUMA,KAGERA
MBEYA,53,CHUNYA,538,LUPA,53819,IFUMA,CHEMICHEMI
MBEYA,53,CHUNYA,538,LUPA,53819,LUPATINGATINGA,LUPATINGATINGA
MBEYA,53,CHUNYA,538,LUPA,53819,LUPATINGATINGA,MAJENGO MAPYA
MBEYA,53,CHUNYA,538,LUPA,53819,LUPATINGATINGA,FOREST
MBEYA,53,CHUNYA,538,LUPA,53819,LUPATINGATINGA,MISSION
MBEYA,53,CHUNYA,538,LUPA,53819,LUPATINGATINGA,KIVUKONI
MBEYA,53,CHUNYA,538,LUPA,53819,LUPATINGATINGA,MTUKULA
MBEYA,53,CHUNYA,538,LUPA,53819,LUPATINGATINGA,VITUMBI
MBEYA,53,CHUNYA,538,MTANILA,53820,MTANILA,MTANILA C.
MBEYA,53,CHUNYA,538,MTANILA,53820,MTANILA,IGAMA
MBEYA,53,CHUNYA,538,MTANILA,53820,MTANILA,MANOLO
MBEYA,53,CHUNYA,538,MTANILA,53820,MTANILA,NKENA
MBEYA,53,CHUNYA,538,MTANILA,53820,MTANILA,MAPIMBI
MBEYA,53,CHUNYA,538,MTANILA,53820,MTANILA,IKOKOTELA
MBEYA,53,CHUNYA,538,MTANILA,53820,MTANILA,KAWISUNGE
MBEYA,53,CHUNYA,538,MTANILA,53820,IGANGWE,IGANGWE
MBEYA,53,CHUNYA,538,MTANILA,53820,IGANGWE,LUPUJU
MBEYA,53,CHUNYA,538,MTANILA,53820,IGANGWE,SOKOINE
MBEYA,53,CHUNYA,538,MTANILA,53820,IGANGWE,SHAURI MOYO
MBEYA,53,CHUNYA,538,MTANILA,53820,IGANGWE,MASIMBA
MBEYA,53,CHUNYA,538,MTANILA,53820,KALANGALI,ITIGI
MBEYA,53,CHUNYA,538,MTANILA,53820,KALANGALI,ILUMWA
MBEYA,53,CHUNYA,538,MTANILA,53820,KALANGALI,KONDE
MBEYA,53,CHUNYA,538,MTANILA,53820,KALANGALI,ILOLO
MBEYA,53,CHUNYA,538,MTANILA,53820,KALANGALI,MAJENGO
MBEYA,53,CHUNYA,538,MTANILA,53820,KALANGALI,KASASYA
MBEYA,53,CHUNYA,538,MTANILA,53820,KALANGALI,NDOLA
MBEYA,53,CHUNYA,538,MATWIGA,53821,MATWIGA,MAJENGO
MBEYA,53,CHUNYA,538,MATWIGA,53821,MATWIGA,KONDE
MBEYA,53,CHUNYA,538,MATWIGA,53821,MATWIGA,MAENDELEO
MBEYA,53,CHUNYA,538,MATWIGA,53821,MATWIGA,TANKINI
MBEYA,53,CHUNYA,538,MATWIGA,53821,MATWIGA,MOYO
MBEYA,53,CHUNYA,538,MATWIGA,53821,MATWIGA,MLIMANI.
MBEYA,53,CHUNYA,538,MATWIGA,53821,MATWIGA,ILINDI
MBEYA,53,CHUNYA,538,MATWIGA,53821,MAZIMBO,MAZIMBO
MBEYA,53,CHUNYA,538,MATWIGA,53821,MAZIMBO,KIYOMBO
MBEYA,53,CHUNYA,538,MATWIGA,53821,MAZIMBO,MAVINGE
MBEYA,53,CHUNYA,538,MATWIGA,53821,ISANGAWANA,ISANGAWANA  A
MBEYA,53,CHUNYA,538,MATWIGA,53821,ISANGAWANA,ISANGAWANA  B
MBEYA,53,CHUNYA,538,MATWIGA,53821,ISANGAWANA,MKANGE
MBEYA,53,CHUNYA,538,MATWIGA,53821,ISANGAWANA,MPAKANI
MBEYA,53,CHUNYA,538,MATWIGA,53821,ISANGAWANA,IGOMAA
MBEYA,53,CHUNYA,538,LUALAJE,53822,LUALAJE,SUMBWE
MBEYA,53,CHUNYA,538,LUALAJE,53822,LUALAJE,KABUTA
MBEYA,53,CHUNYA,538,LUALAJE,53822,LUALAJE,MUUNGANO
MBEYA,53,CHUNYA,538,LUALAJE,53822,LUALAJE,ITETE
MBEYA,53,CHUNYA,538,LUALAJE,53822,LUALAJE,KITAKWA
MBEYA,53,CHUNYA,538,LUALAJE,53822,LUALAJE,IKINGO
MBEYA,53,CHUNYA,538,LUALAJE,53822,LUALAJE,KISERU
MBEYA,53,CHUNYA,538,LUALAJE,53822,LUALAJE,MPEMBE MAGH.
MBEYA,53,CHUNYA,538,LUALAJE,53822,MWIJI,MWIJI  A
MBEYA,53,CHUNYA,538,LUALAJE,53822,MWIJI,MWIJI  B
MBEYA,53,CHUNYA,538,LUALAJE,53822,MWIJI,MWIJI  C
MBEYA,53,CHUNYA,538,LUALAJE,53822,MWIJI,MWIJI  D
MBEYA,53,CHUNYA,538,LUALAJE,53822,MWIJI,ISOTE
MBEYA,53,CHUNYA,538,LUALAJE,53822,MWIJI,MTAKUJA
MBEYA,53,CHUNYA,538,MAFYEKO,53823,MAFYEKO,MAFYEKO  A
MBEYA,53,CHUNYA,538,MAFYEKO,53823,MAFYEKO,MAFYEKO  B
MBEYA,53,CHUNYA,538,MAFYEKO,53823,MAFYEKO,MAFYEKO  C
MBEYA,53,CHUNYA,538,MAFYEKO,53823,MAFYEKO,MAFYEKO  D
MBEYA,53,CHUNYA,538,MAFYEKO,53823,MAFYEKO,TULIENI
MBEYA,53,CHUNYA,538,MAFYEKO,53823,BITIMANYANGA,BITIMANYANGA  A
MBEYA,53,CHUNYA,538,MAFYEKO,53823,BITIMANYANGA,BITIMANYANGA  B
MBEYA,53,CHUNYA,538,MAFYEKO,53823,BITIMANYANGA,BITIMANYANGA  C
MBEYA,53,CHUNYA,538,MAFYEKO,53823,BITIMANYANGA,BITIMANYANGA  D
MBEYA,53,CHUNYA,538,MAFYEKO,53823,BITIMANYANGA,BITIMANYANGA  E
MBEYA,53,CHUNYA,538,MAFYEKO,53823,BITIMANYANGA,IDODOMA
MBEYA,53,CHUNYA,538,KAMBIKATOTO,53825,KAMBIKATOTO,KIBAONI
MBEYA,53,CHUNYA,538,KAMBIKATOTO,53825,KAMBIKATOTO,LAINI
MBEYA,53,CHUNYA,538,KAMBIKATOTO,53825,KAMBIKATOTO,GENGENI
MBEYA,53,CHUNYA,538,KAMBIKATOTO,53825,KAMBIKATOTO,IWOLELO
MBEYA,53,CHUNYA,538,KAMBIKATOTO,53825,SIPA,MAWONDE
MBEYA,53,CHUNYA,538,KAMBIKATOTO,53825,SIPA,MAJIWENI
MBEYA,53,CHUNYA,538,KAMBIKATOTO,53825,SIPA,MWAMASESA
MBEYA,53,CHUNYA,538,SANGAMBI,53826,SANGAMBI,SANGAMBI  A
MBEYA,53,CHUNYA,538,SANGAMBI,53826,SANGAMBI,SANGAMBI  B
MBEYA,53,CHUNYA,538,SANGAMBI,53826,SANGAMBI,MWANJELWA
MBEYA,53,CHUNYA,538,SANGAMBI,53826,SANGAMBI,IDENDELUKA
MBEYA,53,CHUNYA,538,SANGAMBI,53826,SANGAMBI,IZUMBI
MBEYA,53,CHUNYA,538,SANGAMBI,53826,SANGAMBI,MAJENGO
MBEYA,53,CHUNYA,538,SANGAMBI,53826,IGUNDU,IGUNDU
MBEYA,53,CHUNYA,538,SANGAMBI,53826,IGUNDU,ISOKO
MBEYA,53,CHUNYA,538,SANGAMBI,53826,IGUNDU,KILIMAHEWA
MBEYA,53,CHUNYA,538,SANGAMBI,53826,SHOGA,SHOGA
MBEYA,53,CHUNYA,538,SANGAMBI,53826,SHOGA,MAPALIJI
MBEYA,53,CHUNYA,538,SANGAMBI,53826,SHOGA,IHAMBA
MBEYA,53,CHUNYA,538,SANGAMBI,53826,SHOGA,TUKUYU
MBEYA,53,CHUNYA,538,KASANGA,53832,MAWELU,MAWELU
MBEYA,53,CHUNYA,538,KASANGA,53832,MAWELU,LUPA MAPUNGA
MBEYA,53,CHUNYA,538,KASANGA,53832,MAWELU,LUPA BWAWANI
MBEYA,53,CHUNYA,538,KASANGA,53832,SOWETO,SOWETO  A
MBEYA,53,CHUNYA,538,KASANGA,53832,SOWETO,SOWETO  B
MBEYA,53,CHUNYA,538,KASANGA,53832,SOWETO,MAPAPAI
MBEYA,53,CHUNYA,538,KASANGA,53832,SOWETO,KIVUKONI
MBEYA,53,CHUNYA,538,KASANGA,53832,SOWETO,MABATINI
MBEYA,53,CHUNYA,538,UPENDO,53833,UPENDO,KITETE
MBEYA,53,CHUNYA,538,UPENDO,53833,UPENDO,MAENDELEO
MBEYA,53,CHUNYA,538,UPENDO,53833,UPENDO,MIHAMA
MBEYA,53,CHUNYA,538,UPENDO,53833,UPENDO,MBUGANI
MBEYA,53,CHUNYA,538,UPENDO,53833,LOLA,LOLA
MBEYA,53,CHUNYA,538,UPENDO,53833,LOLA,ILULA
MBEYA,53,CHUNYA,538,UPENDO,53833,LOLA,MAJENGO
MBEYA,53,CHUNYA,538,UPENDO,53833,LOLA,MAPITI
MBEYA,53,CHUNYA,538,UPENDO,53833,LOLA,BAGIDADI
MBEYA,53,CHUNYA,538,UPENDO,53833,NKWANGU,MALANGALI
MBEYA,53,CHUNYA,538,UPENDO,53833,NKWANGU,KISUNGU
MBEYA,53,CHUNYA,538,UPENDO,53833,NKWANGU,KASISI
MBEYA,53,CHUNYA,538,NKUNG’UNGU,53834,MAJENGO,MAJENGO
MBEYA,53,CHUNYA,538,NKUNG’UNGU,53834,MAJENGO,MTAKUJA
MBEYA,53,CHUNYA,538,NKUNG’UNGU,53834,MAJENGO,ITAGATA
MBEYA,53,CHUNYA,538,NKUNG’UNGU,53834,NKUNG’UNGU,NKUNG’UNGU
MBEYA,53,CHUNYA,538,NKUNG’UNGU,53834,NKUNG’UNGU,LUKALYA
MBEYA,53,CHUNYA,538,NKUNG’UNGU,53834,NKUNG’UNGU,OSTERBAY
MBEYA,53,CHUNYA,538,NKUNG’UNGU,53834,MAGUNGA,KINYAMPUMA
MBEYA,53,CHUNYA,538,NKUNG’UNGU,53834,MAGUNGA,UKOMBOZI
MBEYA,53,CHUNYA,538,NKUNG’UNGU,53834,MAGUNGA,KISENSE
MBEYA,53,CHUNYA,538,BWAWANI,53837,MAGUNGA,UHURU
MBEYA,53,CHUNYA,538,BWAWANI,53837,MAGUNGA,RAILWAY
MBEYA,53,CHUNYA,538,BWAWANI,53837,MAGUNGA,MAENDELEO
MBEYA,53,CHUNYA,538,BWAWANI,53837,MAGUNGA,BWAWANI
MBEYA,53,CHUNYA,538,BWAWANI,53837,MAGUNGA,MIANZINI
MBEYA,53,CHUNYA,538,BWAWANI,53837,MAGUNGA,KIPOKA
MBEYA,53,CHUNYA,538,BWAWANI,53837,MAGUNGA,KITETE
MBEYA,53,CHUNYA,538,BWAWANI,53837,MAGUNGA,MKAPA
