REGION,POSTCODE,DISTRICT,POSTCODE,WARD,POSTCODE,STREET,PLACES
MTWARA,63,MTWARA CBD,631,RELI,63101,KIZOTA,
MTWARA,63,MTWARA CBD,631,RELI,63101,MKUNGUNI,
MTWARA,63,MTWARA CBD,631,RELI,63101,MSIKITINI,
MTWARA,63,MTWARA CBD,631,RELI,63101,RELINI A,
MTWARA,63,MTWARA CBD,631,RELI,63101,RELINI B,
MTWARA,63,MTWARA CBD,631,RELI,63101,SERENGETI,
MTWARA,63,MTWARA CBD,631,LIKOMBE,63102,MDENGA,
MTWARA,63,MTWARA CBD,631,LIKOMBE,63102,MADABA,
MTWARA,63,MTWARA CBD,631,LIKOMBE,63102,MTEPWEZI,
MTWARA,63,MTWARA CBD,631,LIKOMBE,63102,MLIMANI,
MTWARA,63,MTWARA CBD,631,LIKOMBE,63102,LILUNGU,
MTWARA,63,MTWARA CBD,631,VIGAENI,63103,KISUTU A,
MTWARA,63,MTWARA CBD,631,VIGAENI,63103,KISUTU B,
MTWARA,63,MTWARA CBD,631,VIGAENI,63103,KISUTU C,
MTWARA,63,MTWARA CBD,631,VIGAENI,63103,MABATINI A,
MTWARA,63,MTWARA CBD,631,VIGAENI,63103,MABATINI B,
MTWARA,63,MTWARA CBD,631,VIGAENI,63103,SOKO KUU,
MTWARA,63,MTWARA CBD,631,VIGAENI,63103,SINANI,
MTWARA,63,MTWARA CBD,631,SHANGANI,63104,LIGULA KATI,
MTWARA,63,MTWARA CBD,631,SHANGANI,63104,LIGULA MBELENJE,
MTWARA,63,MTWARA CBD,631,SHANGANI,63104,KIYANGU A,
MTWARA,63,MTWARA CBD,631,SHANGANI,63104,KIYANGU B,
MTWARA,63,MTWARA CBD,631,SHANGANI,63104,SHANGANI EAST,
MTWARA,63,MTWARA CBD,631,SHANGANI,63104,LIGULA TES,
MTWARA,63,MTWARA CBD,631,SHANGANI,63104,MADUKA MAKUBWA,
MTWARA,63,MTWARA CBD,631,SHANGANI,63104,LIGULA SHULENI,
MTWARA,63,MTWARA CBD,631,SHANGANI,63104,LIGULA UMOJA,
MTWARA,63,MTWARA CBD,631,SHANGANI,63104,SHANGANI WEST,
MTWARA,63,MTWARA CBD,631,SHANGANI,63104,INDIAN QUARTERS,
MTWARA,63,MTWARA CBD,631,SHANGANI,63104,TTC UFUNDI,
MTWARA,63,MTWARA CBD,631,CHIKONGOLA,63105,OFISI KUU,
MTWARA,63,MTWARA CBD,631,CHIKONGOLA,63105,MWERA,
MTWARA,63,MTWARA CBD,631,CHIKONGOLA,63105,MUUNGANO,
MTWARA,63,MTWARA CBD,631,CHIKONGOLA,63105,CITUS,
MTWARA,63,MTWARA CBD,631,CHIKONGOLA,63105,SABASABA,
MTWARA,63,MTWARA CBD,631,MAJENGO,63106,BIAFRA,
MTWARA,63,MTWARA CBD,631,MAJENGO,63106,GEZAULOLE,
MTWARA,63,MTWARA CBD,631,MAJENGO,63106,GUINEA,
MTWARA,63,MTWARA CBD,631,MAJENGO,63106,MSIKITINI,
MTWARA,63,MTWARA CBD,631,CHUNO,63107,MISETI,
MTWARA,63,MTWARA CBD,631,CHUNO,63107,NAMTIBWILI,
MTWARA,63,MTWARA CBD,631,CHUNO,63107,MAJENGO,
MTWARA,63,MTWARA CBD,631,CHUNO,63107,LIGULA 'B',
MTWARA,63,MTWARA CBD,631,CHUNO,63107,LIGULA 'A',
MTWARA,63,MTWARA CBD,631,CHUNO,63107,LIGULA 'C',
MTWARA,63,MTWARA CBD,631,CHUNO,63107,CHUNO KATI,
MTWARA,63,MTWARA CBD,631,UFUKONI,63108,UFUKONI STANDI,
MTWARA,63,MTWARA CBD,631,UFUKONI,63108,CHUNDI,
MTWARA,63,MTWARA CBD,631,UFUKONI,63108,MBAE MASHARIKI,
MTWARA,63,MTWARA CBD,631,UFUKONI,63108,MBAE MAGHARIBI,
MTWARA,63,MTWARA CBD,631,UFUKONI,63108,MIANZINI,
MTWARA,63,MTWARA CBD,631,MITENGO,63109,KILIMA HEWA,
MTWARA,63,MTWARA CBD,631,MITENGO,63109,MNAZI MMOJA,
MTWARA,63,MTWARA CBD,631,MITENGO,63109,MNAIDA,
MTWARA,63,MTWARA CBD,631,MAGENGENI,63110,MKUNDI,
MTWARA,63,MTWARA CBD,631,MAGENGENI,63110,MAGENGENI,
MTWARA,63,MTWARA CBD,631,MAGENGENI,63110,NDOLO,
MTWARA,63,MTWARA CBD,631,MAGENGENI,63110,BOMANI,
MTWARA,63,MTWARA CBD,631,MAGENGENI,63110,MJIMWEMA,
MTWARA,63,MTWARA CBD,631,MTONYA,63111,MTONYA A,
MTWARA,63,MTWARA CBD,631,MTONYA,63111,MTONYA B,
MTWARA,63,MTWARA CBD,631,MTONYA,63111,SINGINO,
MTWARA,63,MTWARA CBD,631,MTONYA,63111,HAIKATA,
MTWARA,63,MTWARA CBD,631,KISUNGULE,63112,KISUNGULE A,
MTWARA,63,MTWARA CBD,631,KISUNGULE,63112,KISUNGULE B,
MTWARA,63,MTWARA CBD,631,KISUNGULE,63112,KISUNGULE C,
MTWARA,63,MTWARA CBD,631,JANGWANI,63113,MAHUTA,
MTWARA,63,MTWARA CBD,631,JANGWANI,63113,MIRUMBA,
MTWARA,63,MTWARA CBD,631,JANGWANI,63113,MCHANGANI,
MTWARA,63,MTWARA CBD,631,JANGWANI,63113,MTANGASHARI,
MTWARA,63,MTWARA CBD,631,JANGWANI,63113,LWELU,
MTWARA,63,MTWARA CBD,631,JANGWANI,63113,MABATINI,
MTWARA,63,MTWARA CBD,631,JANGWANI,63113,DIMBUZI,
MTWARA,63,MTWARA CBD,631,RAHALEO,63114,RAHALEO JUU,
MTWARA,63,MTWARA CBD,631,RAHALEO,63114,PENTEKOSTE,
MTWARA,63,MTWARA CBD,631,RAHALEO,63114,FFU NANDOPE,
MTWARA,63,MTWARA CBD,631,RAHALEO,63114,SHAPRIYA,
MTWARA,63,MTWARA CBD,631,RAHALEO,63114,RAHALEO CHINI,
MTWARA,63,MTWARA CBD,631,NALIENDELE,63115,MKANGALA KASKAZINI,
MTWARA,63,MTWARA CBD,631,NALIENDELE,63115,MKANGALA KUSINI,
MTWARA,63,MTWARA CBD,631,NALIENDELE,63115,MKUNJANGUO,
MTWARA,63,MTWARA CBD,631,NALIENDELE,63115,MBAWALA CHINI,
MTWARA,63,MTWARA CBD,631,NALIENDELE,63115,MBAWALA SHANGANI,
MTWARA,63,MTWARA CBD,631,NALIENDELE,63115,NAULONGO,
MTWARA,63,MTWARA CBD,631,NALIENDELE,63115,PWANI A,
MTWARA,63,MTWARA CBD,631,NALIENDELE,63115,PWANI B,
MTWARA,63,MTWARA CBD,631,NALIENDELE,63115,PWANI C,
MTWARA,63,MTWARA CBD,631,NALIENDELE,63115,MIHAMBWE,
MTWARA,63,MTWARA CBD,631,NALIENDELE,63115,PACHOTO A,
MTWARA,63,MTWARA CBD,631,NALIENDELE,63115,PACHOTO B,
MTWARA,63,MTWARA CBD,631,NALIENDELE,63115,SOGEA,
MTWARA,63,MTWARA CBD,631,MAGOMENI,63116,MAGOMENI A,FROM UFUKONI
MTWARA,63,MTWARA CBD,631,MAGOMENI,63116,MAGOMENI B,
MTWARA,63,MTWARA CBD,631,MAGOMENI,63116,MAGOMENI SHULENI,
MTWARA,63,MTWARA CBD,631,MAGOMENI,63116,TULIVU,
MTWARA,63,MTWARA CBD,631,MAGOMENI,63116,KAGERA,
MTWARA,63,MTWARA CBD,631,MAGOMENI,63116,BOMBA LA BURE,
MTWARA,63,MTWARA CBD,631,MAGOMENI,63116,CHIPUPUTA,
MTWARA,63,MTWARA CBD,631,MAGOMENI,63116,MATOPENI,
MTWARA,63,MTWARA CBD,631,MTAWANYA,63117,NAMAYANGA,FROM LIKOMBE
MTWARA,63,MTWARA CBD,631,MTAWANYA,63117,CHIHIKO,
MTWARA,63,MTWARA CBD,631,MTAWANYA,63117,MTAWANYA HOSPITALI,
MTWARA,63,MTWARA CBD,631,MTAWANYA,63117,MTAWANYA SOKONI,
MTWARA,63,MTWARA CBD,631,MTAWANYA,63117,MANGAMBA CHINI,
MTWARA,63,MTWARA CBD,631,MTAWANYA,63117,MANGAMBA JUU,
MTWARA,63,MTWARA CBD,631,MTAWANYA,63117,UWANJA WA NDEGE,
MTWARA,63,MTWARA CBD,631,TANDIKA,63118,MMINGANO,FROM DINDUMA
MTWARA,63,MTWARA CBD,631,TANDIKA,63118,MTAWIKE,
MTWARA,63,MTWARA CBD,631,TANDIKA,63118,LIYAWILE,
MTWARA,63,MTWARA CBD,631,TANDIKA,63118,TANDIKA,
MTWARA,63,MTWARA CBD,631,TANDIKA,63118,SHULE YA MSINGI  MAJENGO,
MTWARA,63,MTWARA,632,ZIWANI,63201,MSAKALA,SHULENI
MTWARA,63,MTWARA,632,ZIWANI,63201,MSAKALA,KANISANI
MTWARA,63,MTWARA,632,ZIWANI,63201,MSAKALA,MIJOHORO
MTWARA,63,MTWARA,632,ZIWANI,63201,MSAKALA,NUNU
MTWARA,63,MTWARA,632,ZIWANI,63201,MAJENGO,MAJENGO A
MTWARA,63,MTWARA,632,ZIWANI,63201,MAJENGO,MEMBE
MTWARA,63,MTWARA,632,ZIWANI,63201,MAJENGO,MSIJE
MTWARA,63,MTWARA,632,ZIWANI,63201,MAJENGO,MKWAJUNI
MTWARA,63,MTWARA,632,ZIWANI,63201,MNAWENE,ZAMBIA
MTWARA,63,MTWARA,632,ZIWANI,63201,MNAWENE,KONGO
MTWARA,63,MTWARA,632,ZIWANI,63201,MNAWENE,TEMBELEA
MTWARA,63,MTWARA,632,ZIWANI,63201,MNAWENE,SHANGANI
MTWARA,63,MTWARA,632,ZIWANI,63201,NAMBELEKETELA,NAMBELEKETELA SOKONI
MTWARA,63,MTWARA,632,ZIWANI,63201,NAMBELEKETELA,MNULI
MTWARA,63,MTWARA,632,ZIWANI,63201,NAMBELEKETELA,MNENJE
MTWARA,63,MTWARA,632,ZIWANI,63201,NAMBELEKETELA,MASHINE
MTWARA,63,MTWARA,632,MADIMBA,63202,MNGOJI,MNAIDA A
MTWARA,63,MTWARA,632,MADIMBA,63202,MNGOJI,MNAIDA B
MTWARA,63,MTWARA,632,MADIMBA,63202,MNGOJI,MLANDEGE
MTWARA,63,MTWARA,632,MADIMBA,63202,MNGOJI,HYUVI
MTWARA,63,MTWARA,632,MADIMBA,63202,MNGOJI,BARABARANI
MTWARA,63,MTWARA,632,MADIMBA,63202,MNGOJI,SHULENI
MTWARA,63,MTWARA,632,MADIMBA,63202,LITEMBE,PATAKUWA
MTWARA,63,MTWARA,632,MADIMBA,63202,LITEMBE,MAJENGO
MTWARA,63,MTWARA,632,MADIMBA,63202,LITEMBE,LITEMBE PWANI
MTWARA,63,MTWARA,632,MADIMBA,63202,LITEMBE,LITEMBE MIEMBENI
MTWARA,63,MTWARA,632,MADIMBA,63202,MITAMBO,CHOTA
MTWARA,63,MTWARA,632,MADIMBA,63202,MITAMBO,MITAMBO
MTWARA,63,MTWARA,632,MADIMBA,63202,MITAMBO,MITONDO
MTWARA,63,MTWARA,632,MADIMBA,63202,MITAMBO,NAMIYOKA
MTWARA,63,MTWARA,632,MADIMBA,63202,MADIMBA,PWANI
MTWARA,63,MTWARA,632,MADIMBA,63202,MADIMBA,MABATINI
MTWARA,63,MTWARA,632,MADIMBA,63202,MADIMBA,MAJENGO
MTWARA,63,MTWARA,632,MADIMBA,63202,MADIMBA,MAHVA
MTWARA,63,MTWARA,632,MADIMBA,63202,MADIMBA,MCHEPA
MTWARA,63,MTWARA,632,MADIMBA,63202,MADIMBA,SHANGANI
MTWARA,63,MTWARA,632,MADIMBA,63202,MTENDACHI,MILUMBA
MTWARA,63,MTWARA,632,MADIMBA,63202,MTENDACHI,MUUNGANO
MTWARA,63,MTWARA,632,MADIMBA,63202,MTENDACHI,MIEMBENI
MTWARA,63,MTWARA,632,MADIMBA,63202,MTENDACHI,RAHALEO
MTWARA,63,MTWARA,632,MADIMBA,63202,NAMINDONDI,KARIAKOO
MTWARA,63,MTWARA,632,MADIMBA,63202,NAMINDONDI,MAJENGO
MTWARA,63,MTWARA,632,MADIMBA,63202,NAMINDONDI,LIKONDE
MTWARA,63,MTWARA,632,MADIMBA,63202,NAMINDONDI,SHANGANI
MTWARA,63,MTWARA,632,MADIMBA,63202,NAMINDONDI,BARABARANI
MTWARA,63,MTWARA,632,MADIMBA,63202,MAYAYA,BWAWANI
MTWARA,63,MTWARA,632,MADIMBA,63202,MAYAYA,KIGAMBONI
MTWARA,63,MTWARA,632,MADIMBA,63202,MAYAYA,MPANGAPANGA
MTWARA,63,MTWARA,632,MADIMBA,63202,MAYAYA,SHULENI
MTWARA,63,MTWARA,632,MAHURUNGA,63203,KIHIMIKA,KIHIMIKA A
MTWARA,63,MTWARA,632,MAHURUNGA,63203,KIHIMIKA,KIHIMIKAB
MTWARA,63,MTWARA,632,MAHURUNGA,63203,KIHIMIKA,MKOHE
MTWARA,63,MTWARA,632,MAHURUNGA,63203,KITUNGULI,STENDI
MTWARA,63,MTWARA,632,MAHURUNGA,63203,KITUNGULI,NYUNGU
MTWARA,63,MTWARA,632,MAHURUNGA,63203,KITUNGULI,LIKUVI
MTWARA,63,MTWARA,632,MAHURUNGA,63203,KITUNGULI,SHULENI
MTWARA,63,MTWARA,632,MAHURUNGA,63203,KITUNGULI,KIYONGO
MTWARA,63,MTWARA,632,MAHURUNGA,63203,MAHURUNGA,UKOMBOZI
MTWARA,63,MTWARA,632,MAHURUNGA,63203,MAHURUNGA,GULIONI
MTWARA,63,MTWARA,632,MAHURUNGA,63203,MAHURUNGA,SOKONI
MTWARA,63,MTWARA,632,MAHURUNGA,63203,KIVAVA,KAGERA
MTWARA,63,MTWARA,632,MAHURUNGA,63203,KIVAVA,SOKONI
MTWARA,63,MTWARA,632,MAHURUNGA,63203,KIVAVA,KIVUKONI
MTWARA,63,MTWARA,632,MAHURUNGA,63203,KIVAVA,DINANJE
MTWARA,63,MTWARA,632,MAHURUNGA,63203,KIVAVA,LILUMBI
MTWARA,63,MTWARA,632,MAHURUNGA,63203,KILOMBERO,KILOMBERO
MTWARA,63,MTWARA,632,MAHURUNGA,63203,KILOMBERO,MAJALENGA
MTWARA,63,MTWARA,632,MAHURUNGA,63203,KILOMBERO,LIZIKA
MTWARA,63,MTWARA,632,NANGURUWE,63204,NGORONGORO,MALIASILI
MTWARA,63,MTWARA,632,NANGURUWE,63204,NGORONGORO,SHANGANI
MTWARA,63,MTWARA,632,NANGURUWE,63204,NGORONGORO,MAILI SITA
MTWARA,63,MTWARA,632,NANGURUWE,63204,NGORONGORO,SOKONI
MTWARA,63,MTWARA,632,NANGURUWE,63204,NANGURUWE,MAJENGO
MTWARA,63,MTWARA,632,NANGURUWE,63204,NANGURUWE,KITONDO
MTWARA,63,MTWARA,632,NANGURUWE,63204,NANGURUWE,MICHENJI
MTWARA,63,MTWARA,632,NANGURUWE,63204,NANGURUWE,LYOTO
MTWARA,63,MTWARA,632,NANGURUWE,63204,NAMAHYAKATA  SHULENI,MALAMBA
MTWARA,63,MTWARA,632,NANGURUWE,63204,NAMAHYAKATA  SHULENI,DINDUMA
MTWARA,63,MTWARA,632,NANGURUWE,63204,NAMAHYAKATA  SHULENI,MWAMBAO
MTWARA,63,MTWARA,632,NANGURUWE,63204,NAMAHYAKATA BARABARANI,CHIPANGATI
MTWARA,63,MTWARA,632,NANGURUWE,63204,NAMAHYAKATA BARABARANI,NAMAHYAKATA SOKONI
MTWARA,63,MTWARA,632,NANGURUWE,63204,NAMAHYAKATA BARABARANI,LINGULA
MTWARA,63,MTWARA,632,NANGURUWE,63204,NAMAHYAKATA BARABARANI,TANDIKA
MTWARA,63,MTWARA,632,NANGURUWE,63204,MTEMBA,ZAMBIA
MTWARA,63,MTWARA,632,NANGURUWE,63204,MTEMBA,SABASABA
MTWARA,63,MTWARA,632,NANGURUWE,63204,MTEMBA,NJIA SITA
MTWARA,63,MTWARA,632,NANGURUWE,63204,MTEMBA,MTANGA
MTWARA,63,MTWARA,632,MAYANGA,63205,MSIJUTE,MAJENGO
MTWARA,63,MTWARA,632,MAYANGA,63205,MSIJUTE,MAYANGA
MTWARA,63,MTWARA,632,MAYANGA,63205,MSIJUTE,MISRI
MTWARA,63,MTWARA,632,MAYANGA,63205,MSIJUTE,MAGOMENI
MTWARA,63,MTWARA,632,MAYANGA,63205,MAYANGA,MAYANGA
MTWARA,63,MTWARA,632,MAYANGA,63205,MAYANGA,MAJENGO
MTWARA,63,MTWARA,632,MAYANGA,63205,MAYANGA,MBULU
MTWARA,63,MTWARA,632,MAYANGA,63205,MAYANGA,NACHUNYU
MTWARA,63,MTWARA,632,MAYANGA,63205,HIYARI,LIKULUWILU
MTWARA,63,MTWARA,632,MAYANGA,63205,HIYARI,MAJENGO
MTWARA,63,MTWARA,632,MAYANGA,63205,HIYARI,PACHANI
MTWARA,63,MTWARA,632,MAYANGA,63205,HIYARI,MIGOMBANI
MTWARA,63,MTWARA,632,MAYANGA,63205,HIYARI,MWENGE
MTWARA,63,MTWARA,632,MAYANGA,63205,LIKONDE,MAENDELEO
MTWARA,63,MTWARA,632,MAYANGA,63205,LIKONDE,NANG'UNGA
MTWARA,63,MTWARA,632,MAYANGA,63205,LIKONDE,MABOMBA
MTWARA,63,MTWARA,632,MAYANGA,63205,LIKONDE,JITEGEMEE
MTWARA,63,MTWARA,632,MAYANGA,63205,NANGUMI,NANGUMI
MTWARA,63,MTWARA,632,MAYANGA,63205,NANGUMI,MTIBWA
MTWARA,63,MTWARA,632,MAYANGA,63205,NANGUMI,MAPAMBANO
MTWARA,63,MTWARA,632,MAYANGA,63205,NANGUMI,MWEMBECHAI
MTWARA,63,MTWARA,632,MAYANGA,63205,NANGUMI,SHANGANI
MTWARA,63,MTWARA,632,NAUMBU,63206,NAMGOGOLI,MWEMBECHAI
MTWARA,63,MTWARA,632,NAUMBU,63206,NAMGOGOLI,MSIKITINI
MTWARA,63,MTWARA,632,NAUMBU,63206,NAMGOGOLI,MIPANDE
MTWARA,63,MTWARA,632,NAUMBU,63206,MGAO,MKAYA
MTWARA,63,MTWARA,632,NAUMBU,63206,MGAO,NGAZIJA
MTWARA,63,MTWARA,632,NAUMBU,63206,MGAO,NANG'ONDE
MTWARA,63,MTWARA,632,NAUMBU,63206,MGAO,NAMTINGA
MTWARA,63,MTWARA,632,NAUMBU,63206,NAUMBU KUSINI,CHELEWENI
MTWARA,63,MTWARA,632,NAUMBU,63206,NAUMBU KUSINI,MNAZI MMOJA
MTWARA,63,MTWARA,632,NAUMBU,63206,NAUMBU KUSINI,NAMANGUMI
MTWARA,63,MTWARA,632,NAUMBU,63206,NAUMBU KUSINI,PEMBA PWANI
MTWARA,63,MTWARA,632,NAUMBU,63206,KISIWA,LISOHA
MTWARA,63,MTWARA,632,NAUMBU,63206,KISIWA,MWEDA
MTWARA,63,MTWARA,632,NAUMBU,63206,KISIWA,MAJENGO
MTWARA,63,MTWARA,632,NAUMBU,63206,KISIWA,BARABARANI
MTWARA,63,MTWARA,632,NAUMBU,63206,MAJENGO,NACHIEMBE
MTWARA,63,MTWARA,632,NAUMBU,63206,MAJENGO,MPAKANI
MTWARA,63,MTWARA,632,NAUMBU,63206,MAJENGO,MKWAJUNI
MTWARA,63,MTWARA,632,NAUMBU,63206,MAJENGO,MAJENGO
MTWARA,63,MTWARA,632,NAUMBU,63206,IMEKUWA,MIKUVA
MTWARA,63,MTWARA,632,NAUMBU,63206,IMEKUWA,BONDENI
MTWARA,63,MTWARA,632,NAUMBU,63206,IMEKUWA,BWAHARI
MTWARA,63,MTWARA,632,NAUMBU,63206,IMEKUWA,BWAHARI PWANI
MTWARA,63,MTWARA,632,NAUMBU,63206,NAUMBU,KITOPE
MTWARA,63,MTWARA,632,NAUMBU,63206,NAUMBU,PAKAYA
MTWARA,63,MTWARA,632,NAUMBU,63206,NAUMBU,MMELA
MTWARA,63,MTWARA,632,NAUMBU,63206,MKUNGU,MATAIFANI
MTWARA,63,MTWARA,632,NAUMBU,63206,MKUNGU,MANGISA
MTWARA,63,MTWARA,632,NAUMBU,63206,MKUNGU,MKAYA
MTWARA,63,MTWARA,632,NDUMBWE,63207,NDUMBWE,NDUMBWE MJINI
MTWARA,63,MTWARA,632,NDUMBWE,63207,NDUMBWE,NDUMBWE BARABARANI
MTWARA,63,MTWARA,632,NDUMBWE,63207,NDUMBWE,NAMIVANGO
MTWARA,63,MTWARA,632,NDUMBWE,63207,NDUMBWE,DIMBANGO
MTWARA,63,MTWARA,632,NDUMBWE,63207,NDUMBWE,MDAMBI
MTWARA,63,MTWARA,632,NDUMBWE,63207,NDUMBWE,MTUMBIKILE
MTWARA,63,MTWARA,632,NDUMBWE,63207,CHANGALAWE,CHANGALAWE
MTWARA,63,MTWARA,632,NDUMBWE,63207,CHANGALAWE,MPAPAYA
MTWARA,63,MTWARA,632,NDUMBWE,63207,CHANGALAWE,NAMDOBA
MTWARA,63,MTWARA,632,NDUMBWE,63207,CHANGALAWE,CHIULEULE
MTWARA,63,MTWARA,632,NDUMBWE,63207,MBUO,MAHOME
MTWARA,63,MTWARA,632,NDUMBWE,63207,MBUO,MBUO BONDENI
MTWARA,63,MTWARA,632,NDUMBWE,63207,MBUO,MBUO JUU
MTWARA,63,MTWARA,632,NDUMBWE,63207,MBUO,MATIMBULA
MTWARA,63,MTWARA,632,NDUMBWE,63207,MWATEHI,NAKUBA
MTWARA,63,MTWARA,632,NDUMBWE,63207,MWATEHI,MCHANGANI
MTWARA,63,MTWARA,632,NDUMBWE,63207,MWATEHI,MKWAJUNI
MTWARA,63,MTWARA,632,NDUMBWE,63207,MNYUNDO,MIYONGO
MTWARA,63,MTWARA,632,NDUMBWE,63207,MNYUNDO,MNYUNDO SHULENI
MTWARA,63,MTWARA,632,NDUMBWE,63207,MNYUNDO,CHITANDI
MTWARA,63,MTWARA,632,DIHIMBA,63208,DIHIMBA,DIHIMBA
MTWARA,63,MTWARA,632,DIHIMBA,63208,DIHIMBA,SOKONI
MTWARA,63,MTWARA,632,DIHIMBA,63208,DIHIMBA,LIGULA
MTWARA,63,MTWARA,632,DIHIMBA,63208,DIHIMBA,GHARANI
MTWARA,63,MTWARA,632,DIHIMBA,63208,DIHIMBA,MALUMO
MTWARA,63,MTWARA,632,DIHIMBA,63208,KINYAMU,SHANGANI
MTWARA,63,MTWARA,632,DIHIMBA,63208,KINYAMU,LUSAKA A
MTWARA,63,MTWARA,632,DIHIMBA,63208,KINYAMU,DINUMUNDU
MTWARA,63,MTWARA,632,DIHIMBA,63208,KINYAMU,KINYAMU
MTWARA,63,MTWARA,632,DIHIMBA,63208,NJUMBULI,NJUMBULI
MTWARA,63,MTWARA,632,DIHIMBA,63208,NJUMBULI,MAJENGO
MTWARA,63,MTWARA,632,DIHIMBA,63208,NJUMBULI,MNAZINI
MTWARA,63,MTWARA,632,DIHIMBA,63208,NJUMBULI,NAMIYUNDU
MTWARA,63,MTWARA,632,DIHIMBA,63208,MANAMAWA,MANAWANAWA
MTWARA,63,MTWARA,632,DIHIMBA,63208,MANAMAWA,NAHONYO
MTWARA,63,MTWARA,632,DIHIMBA,63208,MANAMAWA,NAMTWADI
MTWARA,63,MTWARA,632,DIHIMBA,63208,NAMKAPI,NAMKAPI
MTWARA,63,MTWARA,632,DIHIMBA,63208,NAMKAPI,MKUDA
MTWARA,63,MTWARA,632,DIHIMBA,63208,NAMKAPI,CHINYEU
MTWARA,63,MTWARA,632,DIHIMBA,63208,NAMKAPI,MANGUCHA
MTWARA,63,MTWARA,632,DIHIMBA,63208,NAMKAPI,CHIHOPE
MTWARA,63,MTWARA,632,DIHIMBA,63208,MPONDOMO,NGANDE
MTWARA,63,MTWARA,632,DIHIMBA,63208,MPONDOMO,MPONDOMO
MTWARA,63,MTWARA,632,DIHIMBA,63208,MPONDOMO,MILIMBA
MTWARA,63,MTWARA,632,DIHIMBA,63208,MPONDOMO,LUSAKA A
MTWARA,63,MTWARA,632,DIHIMBA,63208,NAMANJELE,MINAZINI
MTWARA,63,MTWARA,632,DIHIMBA,63208,NAMANJELE,MIEMBENI
MTWARA,63,MTWARA,632,DIHIMBA,63208,NAMANJELE,MADULA
MTWARA,63,MTWARA,632,DIHIMBA,63208,NAMANJELE,NACHENGA
MTWARA,63,MTWARA,632,MTINIKO,63209,MTINIKO,SOKONI
MTWARA,63,MTWARA,632,MTINIKO,63209,MTINIKO,LIGULA
MTWARA,63,MTWARA,632,MTINIKO,63209,MTINIKO,MAENDELEO
MTWARA,63,MTWARA,632,MTINIKO,63209,MAILI,MAILI
MTWARA,63,MTWARA,632,MTINIKO,63209,MAILI,UMOJA
MTWARA,63,MTWARA,632,MTINIKO,63209,MAILI,MBEZI
MTWARA,63,MTWARA,632,MTINIKO,63209,MAILI,AMANI
MTWARA,63,MTWARA,632,MTINIKO,63209,MALAMBA,DODOMA
MTWARA,63,MTWARA,632,MTINIKO,63209,MALAMBA,BAGIDADI
MTWARA,63,MTWARA,632,MTINIKO,63209,MALAMBA,SOKONI
MTWARA,63,MTWARA,632,MTINIKO,63209,MARANJE,MDENGA
MTWARA,63,MTWARA,632,MTINIKO,63209,MARANJE,MAJENGO
MTWARA,63,MTWARA,632,MTINIKO,63209,MARANJE,MATUNGURU A
MTWARA,63,MTWARA,632,MTINIKO,63209,MARANJE,MNOU
MTWARA,63,MTWARA,632,MTINIKO,63209,TULIA,MATUNGURU B
MTWARA,63,MTWARA,632,MTINIKO,63209,TULIA,CHITUMBA
MTWARA,63,MTWARA,632,MTINIKO,63209,TULIA,MPANGAPANGA
MTWARA,63,MTWARA,632,MTINIKO,63209,TULIA,NAKAHINDILI
MTWARA,63,MTWARA,632,MTINIKO,63209,MNIVATA,MNIVATA MJINI
MTWARA,63,MTWARA,632,MTINIKO,63209,MNIVATA,NAHYUVI
MTWARA,63,MTWARA,632,MTINIKO,63209,MNIVATA,MAJENGO
MTWARA,63,MTWARA,632,MTINIKO,63209,MKULANGA,MAJENGO
MTWARA,63,MTWARA,632,MTINIKO,63209,MKULANGA,JANGWANI
MTWARA,63,MTWARA,632,MTINIKO,63209,MKULANGA,MSHIKAMANO
MTWARA,63,MTWARA,632,CHAWI,63210,NGONJA,KILIMAHEWA
MTWARA,63,MTWARA,632,CHAWI,63210,NGONJA,MISRI
MTWARA,63,MTWARA,632,CHAWI,63210,NGONJA,TANDIKA
MTWARA,63,MTWARA,632,CHAWI,63210,NGONJA,JITEGEMEE
MTWARA,63,MTWARA,632,CHAWI,63210,NAVIKOLE,SOKONI
MTWARA,63,MTWARA,632,CHAWI,63210,NAVIKOLE,SHULENI
MTWARA,63,MTWARA,632,CHAWI,63210,NAVIKOLE,MDENGA
MTWARA,63,MTWARA,632,CHAWI,63210,NAVIKOLE,BOMBANI
MTWARA,63,MTWARA,632,CHAWI,63210,ARUSHA,BANDARI
MTWARA,63,MTWARA,632,CHAWI,63210,ARUSHA,ARUSHA CHINI
MTWARA,63,MTWARA,632,CHAWI,63210,ARUSHA,LUKANDA
MTWARA,63,MTWARA,632,CHAWI,63210,ARUSHA,MISRI
MTWARA,63,MTWARA,632,CHAWI,63210,ARUSHA,MASHINE
MTWARA,63,MTWARA,632,CHAWI,63210,ARUSHA JUU,ZAMBIA
MTWARA,63,MTWARA,632,CHAWI,63210,ARUSHA JUU,MAJENGO
MTWARA,63,MTWARA,632,CHAWI,63210,ARUSHA JUU,MAGEREZA
MTWARA,63,MTWARA,632,CHAWI,63210,ARUSHA JUU,TANKINI
MTWARA,63,MTWARA,632,CHAWI,63210,MKOMO,ZAMBIA
MTWARA,63,MTWARA,632,CHAWI,63210,MKOMO,MAJENGO
MTWARA,63,MTWARA,632,CHAWI,63210,MKOMO,MINAZINI
MTWARA,63,MTWARA,632,CHAWI,63210,MKOMO,MAGODOWN
MTWARA,63,MTWARA,632,CHAWI,63210,NGORONGORO,NGOROMA
MTWARA,63,MTWARA,632,CHAWI,63210,NGORONGORO,MAJENGO
MTWARA,63,MTWARA,632,CHAWI,63210,NGORONGORO,SOKONI
MTWARA,63,MTWARA,632,CHAWI,63210,NGORONGORO,JANGWANI
MTWARA,63,MTWARA,632,CHAWI,63210,CHAWI,MAJENGO
MTWARA,63,MTWARA,632,CHAWI,63210,CHAWI,MASASI
MTWARA,63,MTWARA,632,CHAWI,63210,CHAWI,SHULENI
MTWARA,63,MTWARA,632,CHAWI,63210,CHAWI,SHANGANI
MTWARA,63,MTWARA,632,CHAWI,63210,CHAWI SOKONI,MNUMBELU
MTWARA,63,MTWARA,632,CHAWI,63210,CHAWI SOKONI,MISRI
MTWARA,63,MTWARA,632,CHAWI,63210,CHAWI SOKONI,GULIONI
MTWARA,63,MTWARA,632,CHAWI,63210,CHAWI SOKONI,BWAWANI
MTWARA,63,MTWARA,632,KITAYA,63211,MAYEMBE JUU,MAYEMBE
MTWARA,63,MTWARA,632,KITAYA,63211,MAYEMBE JUU,GULIONI A
MTWARA,63,MTWARA,632,KITAYA,63211,MAYEMBE JUU,GULIONI B
MTWARA,63,MTWARA,632,KITAYA,63211,DINDWA,MPAKANI
MTWARA,63,MTWARA,632,KITAYA,63211,DINDWA,TANITA
MTWARA,63,MTWARA,632,KITAYA,63211,DINDWA,MUSOMA
MTWARA,63,MTWARA,632,KITAYA,63211,DINDWA,MILUMBA
MTWARA,63,MTWARA,632,KITAYA,63211,MAYEMBE CHINI,SHULENI
MTWARA,63,MTWARA,632,KITAYA,63211,MAYEMBE CHINI,MNAZI MMOJA
MTWARA,63,MTWARA,632,KITAYA,63211,MAYEMBE CHINI,GULIONI
MTWARA,63,MTWARA,632,KITAYA,63211,MAYEMBE CHINI,MKUNGUNI
MTWARA,63,MTWARA,632,KITAYA,63211,MAYEMBE CHINI,MAYEMBE
MTWARA,63,MTWARA,632,KITAYA,63211,MCHANJE,SOGEA
MTWARA,63,MTWARA,632,KITAYA,63211,MCHANJE,MSIKITINI
MTWARA,63,MTWARA,632,KITAYA,63211,MCHANJE,RUVUMA
MTWARA,63,MTWARA,632,KITAYA,63211,MCHANJE,RIZIKA
MTWARA,63,MTWARA,632,KITAYA,63211,KITAYA,ZAMBIA
MTWARA,63,MTWARA,632,KITAYA,63211,KITAYA,AZIMIO
MTWARA,63,MTWARA,632,KITAYA,63211,KITAYA,SHANGANI
MTWARA,63,MTWARA,632,KITAYA,63211,KITAYA,MANDELA
MTWARA,63,MTWARA,632,KITAYA,63211,KITAYA,MADUKANI
MTWARA,63,MTWARA,632,KITAYA,63211,KIHAMBA,MJOMA
MTWARA,63,MTWARA,632,KITAYA,63211,KIHAMBA,TIPULI
MTWARA,63,MTWARA,632,KITAYA,63211,KIHAMBA,KIHAMBA CHINI
MTWARA,63,MTWARA,632,KIROMBA,63212,MSUFINI,MPAKANI
MTWARA,63,MTWARA,632,KIROMBA,63212,MSUFINI,SHULENI
MTWARA,63,MTWARA,632,KIROMBA,63212,MSUFINI,KITONGO
MTWARA,63,MTWARA,632,KIROMBA,63212,MSUFINI,MIEZINI
MTWARA,63,MTWARA,632,KIROMBA,63212,KIROMBA,LIGULA
MTWARA,63,MTWARA,632,KIROMBA,63212,KIROMBA,MADUKANI
MTWARA,63,MTWARA,632,KIROMBA,63212,KIROMBA,POSTA
MTWARA,63,MTWARA,632,KIROMBA,63212,KIROMBA,IKULU
MTWARA,63,MTWARA,632,KIROMBA,63212,MJI MWEMA,MKOMO
MTWARA,63,MTWARA,632,KIROMBA,63212,MJI MWEMA,OSTERBAY
MTWARA,63,MTWARA,632,KIROMBA,63212,MJI MWEMA,MUUNGANO
MTWARA,63,MTWARA,632,KIROMBA,63212,NACHUMA,MBWAWANI
MTWARA,63,MTWARA,632,KIROMBA,63212,NACHUMA,DOHEME
MTWARA,63,MTWARA,632,KIROMBA,63212,NACHUMA,MCHEMCHEM
MTWARA,63,MTWARA,632,KIROMBA,63212,MIKUMBI,UKOMBOZI
MTWARA,63,MTWARA,632,KIROMBA,63212,MIKUMBI,KUSINI
MTWARA,63,MTWARA,632,KIROMBA,63212,MIKUMBI,PANGANI
MTWARA,63,MTWARA,632,KIROMBA,63212,KIROMBA CHINI,MAJENGO
MTWARA,63,MTWARA,632,KIROMBA,63212,KIROMBA CHINI,KIWANJANI
MTWARA,63,MTWARA,632,KIROMBA,63212,KIROMBA CHINI,GODAUNI
MTWARA,63,MTWARA,632,NANYAMBA,63213,NAMKUKU,
MTWARA,63,MTWARA,632,NANYAMBA,63213,NANYAMBA,
MTWARA,63,MTWARA,632,NANYAMBA,63213,NANYAMBA B,
MTWARA,63,MTWARA,632,NANYAMBA,63213,MIBOBO,
MTWARA,63,MTWARA,632,NANYAMBA,63213,MADINA,
MTWARA,63,MTWARA,632,NANYAMBA,63213,KILIMANJARO,
MTWARA,63,MTWARA,632,NAMTUMBUKA,63214,NAMTUMBUKA,SOKONI
MTWARA,63,MTWARA,632,NAMTUMBUKA,63214,NAMTUMBUKA,ZAHANATI
MTWARA,63,MTWARA,632,NAMTUMBUKA,63214,NAMTUMBUKA,MADINA
MTWARA,63,MTWARA,632,NAMTUMBUKA,63214,MAJENGO,MAJENGO
MTWARA,63,MTWARA,632,NAMTUMBUKA,63214,MAJENGO,KONGO
MTWARA,63,MTWARA,632,NAMTUMBUKA,63214,MAJENGO,MBAGALA
MTWARA,63,MTWARA,632,NAMTUMBUKA,63214,KILIMAHEWA,
MTWARA,63,MTWARA,632,NAMTUMBUKA,63214,NAMTUMBUKA SHULENI,NMTUMBUKA SHULENI
MTWARA,63,MTWARA,632,NAMTUMBUKA,63214,NAMTUMBUKA SHULENI,MSIKITINI
MTWARA,63,MTWARA,632,NAMTUMBUKA,63214,NAMTUMBUKA SHULENI,MTANGASHALI
MTWARA,63,MTWARA,632,NAMTUMBUKA,63214,NAMTUMBUKA SHULENI,NAMTUMBUKA MAGHARIBI
MTWARA,63,MTWARA,632,NAMTUMBUKA,63214,LIKWAYA,LIKWAYA
MTWARA,63,MTWARA,632,NAMTUMBUKA,63214,LIKWAYA,SHULENI
MTWARA,63,MTWARA,632,NAMTUMBUKA,63214,LIKWAYA,ZAMBIA
MTWARA,63,MTWARA,632,NAMTUMBUKA,63214,LIKWAYA,MWAMKO
MTWARA,63,MTWARA,632,NJENGWA,63215,NJENGWA,NJENGWA SHULENI
MTWARA,63,MTWARA,632,NJENGWA,63215,NJENGWA,SEKONDARI
MTWARA,63,MTWARA,632,NJENGWA,63215,NJENGWA,UKOMBOZI
MTWARA,63,MTWARA,632,NJENGWA,63215,NJENGWA,AMANI
MTWARA,63,MTWARA,632,NJENGWA,63215,NJENGWA SOKONI,SOKONI
MTWARA,63,MTWARA,632,NJENGWA,63215,NJENGWA SOKONI,KILIMAHEWA
MTWARA,63,MTWARA,632,NJENGWA,63215,NJENGWA SOKONI,SHANGANI
MTWARA,63,MTWARA,632,NJENGWA,63215,NJENGWA SOKONI,UNGUJA
MTWARA,63,MTWARA,632,NJENGWA,63215,MTENDACHI JUU,NAMAMBI CHINI
MTWARA,63,MTWARA,632,NJENGWA,63215,MTENDACHI JUU,MTENDACHI
MTWARA,63,MTWARA,632,NJENGWA,63215,MTENDACHI JUU,MINAZINI
MTWARA,63,MTWARA,632,NJENGWA,63215,NARUNGA,BARA
MTWARA,63,MTWARA,632,NJENGWA,63215,NARUNGA,PWANI
MTWARA,63,MTWARA,632,NJENGWA,63215,NARUNGA,TULIA
MTWARA,63,MTWARA,632,NJENGWA,63215,NARUNGA,MSHIKAMANO
MTWARA,63,MTWARA,632,NJENGWA,63215,MAJENGO,SHANGANI
MTWARA,63,MTWARA,632,NJENGWA,63215,MAJENGO,JAMAIKA
MTWARA,63,MTWARA,632,NJENGWA,63215,MAJENGO,NAMITWE
MTWARA,63,MTWARA,632,NJENGWA,63215,NANG'AWANGA,MZALENDO
MTWARA,63,MTWARA,632,NJENGWA,63215,NANG'AWANGA,MWENGE
MTWARA,63,MTWARA,632,NJENGWA,63215,NANG'AWANGA,SHULENI
MTWARA,63,MTWARA,632,NJENGWA,63215,ZIWANI  JUU,ZINGATIA
MTWARA,63,MTWARA,632,NJENGWA,63215,ZIWANI  JUU,BONDENI
MTWARA,63,MTWARA,632,NJENGWA,63215,ZIWANI  JUU,JUHUDI
MTWARA,63,MTWARA,632,NJENGWA,63215,ZIWANI  JUU,MUUNGANO
MTWARA,63,MTWARA,632,NITEKELA,63216,CHIWILO,CHIWILO
MTWARA,63,MTWARA,632,NITEKELA,63216,CHIWILO,JANGWANI
MTWARA,63,MTWARA,632,NITEKELA,63216,CHIWILO,AMANI
MTWARA,63,MTWARA,632,NITEKELA,63216,CHIWILO,SHULENI
MTWARA,63,MTWARA,632,NITEKELA,63216,MIGOMBANI,KIWANJANI
MTWARA,63,MTWARA,632,NITEKELA,63216,MIGOMBANI,LIZIKA
MTWARA,63,MTWARA,632,NITEKELA,63216,MIGOMBANI,TANDIKA
MTWARA,63,MTWARA,632,NITEKELA,63216,MIGOMBANI,MIGOMBANI
MTWARA,63,MTWARA,632,NITEKELA,63216,KITAMABONDENI,MAGOMENI
MTWARA,63,MTWARA,632,NITEKELA,63216,KITAMABONDENI,NAMAHENJE
MTWARA,63,MTWARA,632,NITEKELA,63216,KITAMABONDENI,KITAMA SHULENI
MTWARA,63,MTWARA,632,NITEKELA,63216,KITAMABONDENI,KITAMA BONDENI
MTWARA,63,MTWARA,632,NITEKELA,63216,MIULE,MIULE
MTWARA,63,MTWARA,632,NITEKELA,63216,MIULE,HURUMA
MTWARA,63,MTWARA,632,NITEKELA,63216,MIULE,HIARI
MTWARA,63,MTWARA,632,NITEKELA,63216,MIULE,MAJENGO
MTWARA,63,MTWARA,632,NITEKELA,63216,NITEKELA,ZAHANATI
MTWARA,63,MTWARA,632,NITEKELA,63216,NITEKELA,MISUFINI
MTWARA,63,MTWARA,632,NITEKELA,63216,NITEKELA,LIZIKA
MTWARA,63,MTWARA,632,NITEKELA,63216,NITEKELA,MALAMBA
MTWARA,63,MTWARA,632,NITEKELA,63216,MAENDELEO,MAJENGO
MTWARA,63,MTWARA,632,NITEKELA,63216,MAENDELEO,GHANA
MTWARA,63,MTWARA,632,NITEKELA,63216,MAENDELEO,UNGUJA
MTWARA,63,MTWARA,632,NITEKELA,63216,MAENDELEO,PEMBA
MTWARA,63,MTWARA,632,MNIMA,63217,NAMDIMBA,SHULENI
MTWARA,63,MTWARA,632,MNIMA,63217,NAMDIMBA,SOKONI
MTWARA,63,MTWARA,632,MNIMA,63217,MNIMA,MNIMA MJINI
MTWARA,63,MTWARA,632,MNIMA,63217,MNIMA,CHIVALALA
MTWARA,63,MTWARA,632,MNIMA,63217,KILIMAHEWA,CHIHANGA
MTWARA,63,MTWARA,632,MNIMA,63217,KILIMAHEWA,KILIMAHEWA MAENDELEO
MTWARA,63,MTWARA,632,MNIMA,63217,KILIMAHEWA,KILIMAHEWA MJINI
MTWARA,63,MTWARA,632,MNIMA,63217,NAMAHUKULA,GHALANI
MTWARA,63,MTWARA,632,MNIMA,63217,NAMAHUKULA,SEKONDARI
MTWARA,63,MTWARA,632,MNIMA,63217,NAMAHUKULA,CHEKACHEKA
MTWARA,63,MTWARA,632,MNIMA,63217,NAMAHUKULA,MTONI
MTWARA,63,MTWARA,632,MNIMA,63217,CHIHOKWE,CHIHOKWE
MTWARA,63,MTWARA,632,MNIMA,63217,CHIHOKWE,ZAHANATI
MTWARA,63,MTWARA,632,MNIMA,63217,CHIHOKWE,CHIHANGU
MTWARA,63,MTWARA,632,MNIMA,63217,CHIHOKWE,MPUNGULE
MTWARA,63,MTWARA,632,MNIMA,63217,NAMAMBI,TANDIKA
MTWARA,63,MTWARA,632,MNIMA,63217,NAMAMBI,SHANGANI
MTWARA,63,MTWARA,632,MNIMA,63217,NAMAMBI,NAMAMBI
MTWARA,63,MTWARA,632,KITERE,63218,CHEMCHEM,SHULENI
MTWARA,63,MTWARA,632,KITERE,63218,CHEMCHEM,MASHINE
MTWARA,63,MTWARA,632,KITERE,63218,CHEMCHEM,KITUNGURU
MTWARA,63,MTWARA,632,KITERE,63218,CHEMCHEM,HAMBONI
MTWARA,63,MTWARA,632,KITERE,63218,KITERE,MAMBI
MTWARA,63,MTWARA,632,KITERE,63218,KITERE,HOSPITALI
MTWARA,63,MTWARA,632,KITERE,63218,KITERE,MALUMO
MTWARA,63,MTWARA,632,KITERE,63218,LILIDO,MWEMBENI
MTWARA,63,MTWARA,632,KITERE,63218,LILIDO,SOKONI
MTWARA,63,MTWARA,632,KITERE,63218,LILIDO,KARAKANA
MTWARA,63,MTWARA,632,KITERE,63218,LILIDO,MKUNGUNI
MTWARA,63,MTWARA,632,KITERE,63218,LILIDO,KILIMO
MTWARA,63,MTWARA,632,KITERE,63218,LILIDO,BOMBANI
MTWARA,63,MTWARA,632,KITERE,63218,LILIDO,MLANDEGE
MTWARA,63,MTWARA,632,KITERE,63218,LILIDO,KIWANJANI
MTWARA,63,MTWARA,632,KITERE,63218,NAKADA,MAJENGO
MTWARA,63,MTWARA,632,KITERE,63218,NAKADA,SOKONI
MTWARA,63,MTWARA,632,KITERE,63218,MKONYE,MAFURIKO
MTWARA,63,MTWARA,632,KITERE,63218,MKONYE,SOKONI
MTWARA,63,MTWARA,632,KITERE,63218,MKONYE,BANDARI
MTWARA,63,MTWARA,632,KITERE,63218,CHEKELENI,SOKONI
MTWARA,63,MTWARA,632,KITERE,63218,CHEKELENI,MINJALENI
MTWARA,63,MTWARA,632,KITERE,63218,CHEKELENI,NAMANJASI
MTWARA,63,MTWARA,632,MSANGA MKUU,63219,MSANGA MKUU,MSANGAMKUU
MTWARA,63,MTWARA,632,MSANGA MKUU,63219,MSANGA MKUU,NAMELA
MTWARA,63,MTWARA,632,MSANGA MKUU,63219,MSANGA MKUU,SINDE
MTWARA,63,MTWARA,632,MSANGA MKUU,63219,SINDE,SINDE A
MTWARA,63,MTWARA,632,MSANGA MKUU,63219,SINDE,SINDE B
MTWARA,63,MTWARA,632,MSANGA MKUU,63219,SINDE,NG'WALE
MTWARA,63,MTWARA,632,MSANGA MKUU,63219,NAMELA,ZAHANATI
MTWARA,63,MTWARA,632,MSANGA MKUU,63219,NAMELA,MAPUNJE
MTWARA,63,MTWARA,632,MSANGA MKUU,63219,NAMELA,JONGEENI
MTWARA,63,MTWARA,632,MSANGA MKUU,63219,NAMELA,MATENJE
MTWARA,63,MTWARA,632,MBAWALA,63220,MDUWI,MDUI
MTWARA,63,MTWARA,632,MBAWALA,63220,MDUWI,NJIA PANDA
MTWARA,63,MTWARA,632,MBAWALA,63220,MDUWI,MPEME
MTWARA,63,MTWARA,632,MBAWALA,63220,MDUWI,MACHIKO
MTWARA,63,MTWARA,632,MBAWALA,63220,NACHENJELE,SOKONI
MTWARA,63,MTWARA,632,MBAWALA,63220,NACHENJELE,MAHUTA
MTWARA,63,MTWARA,632,MBAWALA,63220,NACHENJELE,SHANGANI
MTWARA,63,MTWARA,632,MBAWALA,63220,NACHENJELE,MSIKITINI
MTWARA,63,MTWARA,632,MBAWALA,63220,MBAWALA,NAHYANGADI
MTWARA,63,MTWARA,632,MBAWALA,63220,MBAWALA,MITOLODI
MTWARA,63,MTWARA,632,MBAWALA,63220,MBAWALA,SHULENI
MTWARA,63,MTWARA,632,MBAWALA,63220,MBAWALA,ZAHANATI
MTWARA,63,MTWARA,632,MBAWALA,63220,MAKOME,MAKOME A
MTWARA,63,MTWARA,632,MBAWALA,63220,MAKOME,KIMBINDU
MTWARA,63,MTWARA,632,MBAWALA,63220,MAKOME,KIPALA
MTWARA,63,MTWARA,632,MBAWALA,63220,MAKOME,NANG'AMBA
MTWARA,63,MTWARA,632,MBAWALA,63220,MAKOME B,MAKOME B
MTWARA,63,MTWARA,632,MBAWALA,63220,MAKOME B,MKOMAINDO
MTWARA,63,MTWARA,632,MBAWALA,63220,MAKOME B,MAJENGO
MTWARA,63,MTWARA,632,MBAWALA,63220,MAKOME B,MTUNGWE
MTWARA,63,MTWARA,632,MBAWALA,63220,MAILI KUMI,MAILI KUMI
MTWARA,63,MTWARA,632,MBAWALA,63220,MAILI KUMI,MALIASILI
MTWARA,63,MTWARA,632,MBAWALA,63220,MAILI KUMI,RIZIKA
MTWARA,63,MTWARA,632,MBAWALA,63220,MAILI KUMI,MBANJA
MTWARA,63,MTWARA,632,MBAWALA,63220,MWINDI,NAMIKOLI
MTWARA,63,MTWARA,632,MBAWALA,63220,MWINDI,SIMU
MTWARA,63,MTWARA,632,MBAWALA,63220,MWINDI,BWAWANI
MTWARA,63,MTWARA,632,MBAWALA,63220,MWINDI,MWINDI
MTWARA,63,MTWARA,632,MBAWALA,63220,MIHEMBE,MIHEMBE
MTWARA,63,MTWARA,632,MBAWALA,63220,MIHEMBE,LIVANDA
MTWARA,63,MTWARA,632,MBAWALA,63220,MIHEMBE,RUDIPE
MTWARA,63,MTWARA,632,MBAWALA,63220,MIHEMBE,LIPULA
MTWARA,63,MTWARA,632,MBAWALA,63220,CHING'OLOLA,CHING'OLOLA
MTWARA,63,MTWARA,632,MBAWALA,63220,CHING'OLOLA,MNAKOLE CHINJI
MTWARA,63,MTWARA,632,MBAWALA,63220,CHING'OLOLA,CHAIKA
MTWARA,63,MTWARA,632,MBAWALA,63220,CHING'OLOLA,KILAKALI
MTWARA,63,MTWARA,632,KIANGA,63221,KIANGA,MADUKA SITA
MTWARA,63,MTWARA,632,KIANGA,63221,KIANGA,MLIMANI
MTWARA,63,MTWARA,632,KIANGA,63221,KIANGA,MIAMBO
MTWARA,63,MTWARA,632,KIANGA,63221,MWENGE,TAMOFA
MTWARA,63,MTWARA,632,KIANGA,63221,MWENGE,MSIKITINI
MTWARA,63,MTWARA,632,KIANGA,63221,MWENGE,MIEMBENI
MTWARA,63,MTWARA,632,KIANGA,63221,MKAHARA,MKAPA
MTWARA,63,MTWARA,632,KIANGA,63221,MKAHARA,UKOMBOZI
MTWARA,63,MTWARA,632,KIANGA,63221,MKAHARA,UMOJA
MTWARA,63,MTWARA,632,KIANGA,63221,MPANYANI,MAJENGO
MTWARA,63,MTWARA,632,KIANGA,63221,MPANYANI,LIZIKA
MTWARA,63,MTWARA,632,TANGAZO,63222,MNAIDA,KILIMAHEWA
MTWARA,63,MTWARA,632,TANGAZO,63222,MNAIDA,KIPINGO
MTWARA,63,MTWARA,632,TANGAZO,63222,MNAIDA,MKUNGUNI
MTWARA,63,MTWARA,632,TANGAZO,63222,MNAIDA,MPONDOMO
MTWARA,63,MTWARA,632,TANGAZO,63222,MNAIDA,ZAHANATI
MTWARA,63,MTWARA,632,TANGAZO,63222,TANGAZO,GULIONI
MTWARA,63,MTWARA,632,TANGAZO,63222,TANGAZO,MAJENGO
MTWARA,63,MTWARA,632,TANGAZO,63222,TANGAZO,PACHANI
MTWARA,63,MTWARA,632,TANGAZO,63222,KILAMBO,MCHANGANI
MTWARA,63,MTWARA,632,TANGAZO,63222,KILAMBO,MIGOMBA
MTWARA,63,MTWARA,632,TANGAZO,63222,KILAMBO,MISUFIRI
MTWARA,63,MTWARA,632,TANGAZO,63222,KILAMBO,MSIJIBU
MTWARA,63,MTWARA,632,TANGAZO,63222,KILAMBO,MMWEMBERADI
MTWARA,63,MTWARA,632,TANGAZO,63222,MAGOMENI,MNYULUMBA
MTWARA,63,MTWARA,632,TANGAZO,63222,MAGOMENI,MTAKUJA
MTWARA,63,MTWARA,632,TANGAZO,63222,MAGOMENI,NANG'UNDE
MTWARA,63,MTWARA,632,MUUNGANO,63223,MUUNGANO,NAMPACHILA
MTWARA,63,MTWARA,632,MUUNGANO,63223,MUUNGANO,LIWALI
MTWARA,63,MTWARA,632,MUUNGANO,63223,MUUNGANO,MAJENGO
MTWARA,63,MTWARA,632,MUUNGANO,63223,MUUNGANO,MUHURU
MTWARA,63,MTWARA,632,MUUNGANO,63223,MUUNGANO,CHANG'OMBE
MTWARA,63,MTWARA,632,MUUNGANO,63223,MKWAJUNI CHINI,KILIMAHEWA
MTWARA,63,MTWARA,632,MUUNGANO,63223,MKWAJUNI CHINI,MIEMBENI
MTWARA,63,MTWARA,632,MUUNGANO,63223,MKWAJUNI CHINI,MSIKITINI
MTWARA,63,MTWARA,632,MUUNGANO,63223,MKWAJUNI CHINI,MKWAJUNI
MTWARA,63,MTWARA,632,MUUNGANO,63223,LYOWA,MSIKITINI
MTWARA,63,MTWARA,632,MUUNGANO,63223,LYOWA,NANEMBO
MTWARA,63,MTWARA,632,MUUNGANO,63223,LYOWA,SHULENI
MTWARA,63,MTWARA,632,MUUNGANO,63223,LYOWA,KIWANJANI
MTWARA,63,MTWARA,632,MUUNGANO,63223,LYOWA,KANISANI
MTWARA,63,MTWARA,632,MUUNGANO,63223,MWEMBETOGWA,KIYANGA
MTWARA,63,MTWARA,632,MUUNGANO,63223,MWEMBETOGWA,MAJENGO
MTWARA,63,MTWARA,632,MUUNGANO,63223,MWEMBETOGWA,SHANGANI
MTWARA,63,MTWARA,632,MUUNGANO,63223,MKWAJUNI JUU,MSASANI
MTWARA,63,MTWARA,632,MUUNGANO,63223,MKWAJUNI JUU,KIWANJANI
MTWARA,63,MTWARA,632,MUUNGANO,63223,MKWAJUNI JUU,RAHALEO
MTWARA,63,MTWARA,632,MUUNGANO,63223,MKWAJUNI JUU,SHULENI
MTWARA,63,MTWARA,632,LIBOBE,63224,MNYIJA,MINAZINI
MTWARA,63,MTWARA,632,LIBOBE,63224,MNYIJA,MAJENGO
MTWARA,63,MTWARA,632,LIBOBE,63224,MNYIJA,SEMAHOJA
MTWARA,63,MTWARA,632,LIBOBE,63224,MNYIJA,MIEMBENI
MTWARA,63,MTWARA,632,LIBOBE,63224,MNYIJA,SOKONI
MTWARA,63,MTWARA,632,LIBOBE,63224,LIBOBE,NAKAYANI
MTWARA,63,MTWARA,632,LIBOBE,63224,LIBOBE,MWANGAZA
MTWARA,63,MTWARA,632,LIBOBE,63224,LIBOBE,MLANDEGE
MTWARA,63,MTWARA,632,LIBOBE,63224,LIBOBE,KILIMANJARO
MTWARA,63,MTWARA,632,LIBOBE,63224,LIBOBE B,NALUPU
MTWARA,63,MTWARA,632,LIBOBE,63224,LIBOBE B,NEDA
MTWARA,63,MTWARA,632,LIBOBE,63224,LIBOBE B,KIWANJANI
MTWARA,63,MTWARA,632,LIBOBE,63224,LIBOBE B,MITUPA
MTWARA,63,MTWARA,632,LIBOBE,63224,LIBOBE B,NAKUTU
MTWARA,63,MTWARA,632,LIBOBE,63224,UNGUJA,UNGUJA
MTWARA,63,MTWARA,632,LIBOBE,63224,UNGUJA,SHAURIMOYO
MTWARA,63,MTWARA,632,LIBOBE,63224,UNGUJA,ARUSHA
MTWARA,63,MTWARA,632,LIBOBE,63224,UNGUJA,SHULENI
MTWARA,63,MTWARA,632,LIBOBE,63224,MING'WENA,KIKOLOMBA
MTWARA,63,MTWARA,632,LIBOBE,63224,MING'WENA,SOKONI
MTWARA,63,MTWARA,632,LIBOBE,63224,MING'WENA,KIVUKONI
MTWARA,63,MTWARA,632,LIBOBE,63224,MING'WENA,MING'WENA
MTWARA,63,MTWARA,632,LIBOBE,63224,MING'WENA,MISUFINI
MTWARA,63,MTWARA,632,LIBOBE,63224,NAMUHI,MKUNGUNI
MTWARA,63,MTWARA,632,LIBOBE,63224,NAMUHI,NAMALUNDI
MTWARA,63,MTWARA,632,LIBOBE,63224,NAMUHI,NAKANYANI
MTWARA,63,MTWARA,632,MPAPURA,63225,UTENDE,MKAKALA
MTWARA,63,MTWARA,632,MPAPURA,63225,UTENDE,UTENDE
MTWARA,63,MTWARA,632,MPAPURA,63225,UTENDE,KIDOLOLO
MTWARA,63,MTWARA,632,MPAPURA,63225,UTENDE,NAKUTU
MTWARA,63,MTWARA,632,MPAPURA,63225,MPAPURA,SHULENI
MTWARA,63,MTWARA,632,MPAPURA,63225,MPAPURA,SOKONI
MTWARA,63,MTWARA,632,MPAPURA,63225,MPAPURA,MINJALENI
MTWARA,63,MTWARA,632,MPAPURA,63225,MPAPURA,MAJENGO
MTWARA,63,MTWARA,632,MPAPURA,63225,MPAPURA,NAMNAMBA
MTWARA,63,MTWARA,632,MPAPURA,63225,NANYANI,NANYANI
MTWARA,63,MTWARA,632,MPAPURA,63225,NANYANI,MNYANJE
MTWARA,63,MTWARA,632,MPAPURA,63225,NANYANI,NAMALOMBE
MTWARA,63,MTWARA,632,MPAPURA,63225,NANYANI,NAKATAVALA
MTWARA,63,MTWARA,632,MPAPURA,63225,MABATINI,MABATINI
MTWARA,63,MTWARA,632,MPAPURA,63225,MABATINI,MIGOMBANI
MTWARA,63,MTWARA,632,MPAPURA,63225,MABATINI,MWAHA
MTWARA,63,MTWARA,632,MPAPURA,63225,MABATINI,NANG'AMBE
MTWARA,63,MTWARA,632,MBEMBALEO,63226,MWANG'ANGA,KITUNDA
MTWARA,63,MTWARA,632,MBEMBALEO,63226,MWANG'ANGA,KONGO A
MTWARA,63,MTWARA,632,MBEMBALEO,63226,MWANG'ANGA,MSHANGANI
MTWARA,63,MTWARA,632,MBEMBALEO,63226,MWANG'ANGA,MTONI
MTWARA,63,MTWARA,632,MBEMBALEO,63226,MAGOMENI,MISUFINI
MTWARA,63,MTWARA,632,MBEMBALEO,63226,MAGOMENI,MADINA
MTWARA,63,MTWARA,632,MBEMBALEO,63226,MAGOMENI,KONGO B
MTWARA,63,MTWARA,632,MBEMBALEO,63226,MAGOMENI,MAJENGO
MTWARA,63,MTWARA,632,MBEMBALEO,63226,MBEMBALEO,MISUFINI
MTWARA,63,MTWARA,632,MBEMBALEO,63226,MBEMBALEO,NAVIKOLE
MTWARA,63,MTWARA,632,MBEMBALEO,63226,MBEMBALEO,LITUMBO
MTWARA,63,MTWARA,632,MBEMBALEO,63226,MBEMBALEO,LYANGAHI
MTWARA,63,MTWARA,632,MBEMBALEO,63226,MWAMKO,MILAMBA
MTWARA,63,MTWARA,632,MBEMBALEO,63226,MWAMKO,MWAMKO
MTWARA,63,MTWARA,632,MBEMBALEO,63226,MWAMKO,MADINA
MTWARA,63,MTWARA,632,MBEMBALEO,63226,MWAMKO,MAJENGO
MTWARA,63,MTWARA,632,MBEMBALEO,63226,SHANGANI,MAHEMA
MTWARA,63,MTWARA,632,MBEMBALEO,63226,SHANGANI,KONGO
MTWARA,63,MTWARA,632,MBEMBALEO,63226,SHANGANI,PWANI
MTWARA,63,MTWARA,632,MBEMBALEO,63226,SHANGANI,SHANGANI
MTWARA,63,MTWARA,632,MTIMBWILIMBWI,63227,MTIMBWILIMBWI,DODOMA
MTWARA,63,MTWARA,632,MTIMBWILIMBWI,63227,MTIMBWILIMBWI,AZIMIO
MTWARA,63,MTWARA,632,MTIMBWILIMBWI,63227,MTIMBWILIMBWI,TULIA
MTWARA,63,MTWARA,632,MTIMBWILIMBWI,63227,MTIMBWILIMBWI,DAR ES SALAAM
MTWARA,63,MTWARA,632,MTIMBWILIMBWI,63227,SHABA,NGUVUKAZI
MTWARA,63,MTWARA,632,MTIMBWILIMBWI,63227,SHABA,JUHUDI
MTWARA,63,MTWARA,632,MTIMBWILIMBWI,63227,SHABA,UJAMAA
MTWARA,63,MTWARA,632,MTIMBWILIMBWI,63227,SHABA,MAJENGO
MTWARA,63,MTWARA,632,MTIMBWILIMBWI,63227,MTOPWA,MTOPWA
MTWARA,63,MTWARA,632,MTIMBWILIMBWI,63227,MTOPWA,KOMORO
MTWARA,63,MTWARA,632,MTIMBWILIMBWI,63227,MTOPWA,RAHALEO
MTWARA,63,MTWARA,632,MTIMBWILIMBWI,63227,MTOPWA,MADINA
MTWARA,63,MTWARA,632,MTIMBWILIMBWI,63227,PACHANI,PACHANI
MTWARA,63,MTWARA,632,MTIMBWILIMBWI,63227,PACHANI,KISUTU
MTWARA,63,MTWARA,632,MTIMBWILIMBWI,63227,PACHANI,MAJENGO
MTWARA,63,MTWARA,632,MTIMBWILIMBWI,63227,PACHANI,SHANGANI
MTWARA,63,MTWARA,632,MTIMBWILIMBWI,63227,MBAMBAKOFI,MADINA
MTWARA,63,MTWARA,632,MTIMBWILIMBWI,63227,MBAMBAKOFI,NAMBARU
MTWARA,63,MTWARA,632,MTIMBWILIMBWI,63227,MBAMBAKOFI,MBAMBAKOFI
MTWARA,63,MTWARA,632,MTIMBWILIMBWI,63227,NANJEDYA,BONDENI
MTWARA,63,MTWARA,632,MTIMBWILIMBWI,63227,NANJEDYA,LUSAKA
MTWARA,63,MTWARA,632,MTIMBWILIMBWI,63227,NANJEDYA,MAJENGO
MTWARA,63,MTWARA,632,MTIMBWILIMBWI,63227,NANJEDYA,MITANGANI
MTWARA,63,MTWARA,632,MTIMBWILIMBWI,63227,NANJEDYA,MADINA
MTWARA,63,MTWARA,632,MTIMBWILIMBWI,63227,NAMISANGI,JANGWANI
MTWARA,63,MTWARA,632,MTIMBWILIMBWI,63227,NAMISANGI,MAGEUZI
MTWARA,63,MTWARA,632,MILANGO MINNE,63228,MNYAHI,MAJENGO
MTWARA,63,MTWARA,632,MILANGO MINNE,63228,MNYAHI,SOKONI
MTWARA,63,MTWARA,632,MILANGO MINNE,63228,MNYAHI,UFUKONI
MTWARA,63,MTWARA,632,MILANGO MINNE,63228,MNYAHI,MADINA
MTWARA,63,MTWARA,632,MILANGO MINNE,63228,MILANGO MINNE,JANGWANI
MTWARA,63,MTWARA,632,MILANGO MINNE,63228,MILANGO MINNE,UNGUJA
MTWARA,63,MTWARA,632,MILANGO MINNE,63228,MILANGO MINNE,KIPAWA
MTWARA,63,MTWARA,632,MILANGO MINNE,63228,MILANGO MINNE,GHALANI
MTWARA,63,MTWARA,632,MILANGO MINNE,63228,MNYAWI,MAJENGO
MTWARA,63,MTWARA,632,MILANGO MINNE,63228,MNYAWI,SOKONI
MTWARA,63,MTWARA,632,MILANGO MINNE,63228,MNYAWI,UFUKONI
MTWARA,63,MTWARA,632,MILANGO MINNE,63228,MNYAWI,MADINA
MTWARA,63,MTWARA,632,MILANGO MINNE,63228,MKUBWANANA,KIDULI
MTWARA,63,MTWARA,632,MILANGO MINNE,63228,MKUBWANANA,MKUMBWANANA
MTWARA,63,MTWARA,632,MILANGO MINNE,63228,MKUBWANANA,MKUMBWANANA MASHARIKI
MTWARA,63,MTWARA,632,MILANGO MINNE,63228,MKUBWANANA,MKUMBWANANA KASKAZINI
MTWARA,63,MTWARA,632,MILANGO MINNE,63228,MNYAWI BARABARANI,CAMP
MTWARA,63,MTWARA,632,MILANGO MINNE,63228,MNYAWI BARABARANI,KUSINI
MTWARA,63,MTWARA,632,MILANGO MINNE,63228,MNYAWI BARABARANI,MNYAWI SHULENI
MTWARA,63,MTWARA,632,MILANGO MINNE,63228,MNYAWI BARABARANI,MNYAWI BARABARANI
MTWARA,63,MTWARA,632,MILANGO MINNE,63228,UMOJA,KIZOTA
MTWARA,63,MTWARA,632,MILANGO MINNE,63228,UMOJA,MNYENGENDI
MTWARA,63,MTWARA,632,MILANGO MINNE,63228,UMOJA,MTONGANI
MTWARA,63,MTWARA,632,MILANGO MINNE,63228,UMOJA,MAJENGO
MTWARA,63,MTWARA,632,MILANGO MINNE,63228,MYAWI SHULENI,SHULENI
MTWARA,63,MTWARA,632,MILANGO MINNE,63228,MYAWI SHULENI,MAJENGO
MTWARA,63,MTWARA,632,MILANGO MINNE,63228,MYAWI SHULENI,ZAHANATI
MTWARA,63,MTWARA,632,MILANGO MINNE,63228,MYAWI SHULENI,MASASI
MTWARA,63,MTWARA,632,DINYECHA,63229,DINYECHA,
MTWARA,63,MTWARA,632,DINYECHA,63229,NATOTO,
MTWARA,63,MTWARA,632,DINYECHA,63229,CHITONDOLA,
MTWARA,63,MTWARA,632,DINYECHA,63229,CHIKWAYA,DODOMA
MTWARA,63,MTWARA,632,DINYECHA,63229,CHIKWAYA,CHINA
MTWARA,63,MTWARA,632,DINYECHA,63229,CHIKWAYA,ZIWANI
MTWARA,63,MTWARA,632,DINYECHA,63229,CHIKWAYA,MBEZI
MTWARA,63,MTWARA,632,DINYECHA,63229,CHIKWAYA,UJENZI
MTWARA,63,MTWARA,632,DINYECHA,63229,CHIKWAYA,MITANGANI
MTWARA,63,MTWARA,632,DINYECHA,63229,KIBAONI,PAKISTANI
MTWARA,63,MTWARA,632,DINYECHA,63229,KIBAONI,MISUFINI
MTWARA,63,MTWARA,632,DINYECHA,63229,KIBAONI,SHANGANI
MTWARA,63,MTWARA,632,DINYECHA,63229,KIBAONI,LYANGAHI
MTWARA,63,MTWARA,632,DINYECHA,63229,KIBAONI,SHULENI
MTWARA,63,MTWARA,632,NYUNDO,63230,NYUNDO,KUSINI
MTWARA,63,MTWARA,632,NYUNDO,63230,NYUNDO,ZAHANATI
MTWARA,63,MTWARA,632,NYUNDO,63230,NYUNDO,SOKONI
MTWARA,63,MTWARA,632,NYUNDO,63230,NYUNDO,MTWARA
MTWARA,63,MTWARA,632,NYUNDO,63230,NIYUMBA,MITANGANI
MTWARA,63,MTWARA,632,NYUNDO,63230,NIYUMBA,LEGEZA
MTWARA,63,MTWARA,632,NYUNDO,63230,NIYUMBA,NIYUMBA
MTWARA,63,MTWARA,632,NYUNDO,63230,NIYUMBA,TANDIKA
MTWARA,63,MTWARA,632,NYUNDO,63230,NYUNDO B,LINDI
MTWARA,63,MTWARA,632,NYUNDO,63230,NYUNDO B,NEWALA
MTWARA,63,MTWARA,632,NYUNDO,63230,NYUNDO B,NYUNDO MJINI
MTWARA,63,MTWARA,632,NYUNDO,63230,NYUNDO B,NYUNDO KUSINI
MTWARA,63,MTWARA,632,NYUNDO,63230,NAUCHECHE,NAUCHECHE
MTWARA,63,MTWARA,632,NYUNDO,63230,NAUCHECHE,SHULENI
MTWARA,63,MTWARA,632,NYUNDO,63230,NAUCHECHE,UMOJA
MTWARA,63,MTWARA,632,NYUNDO,63230,NAUCHECHE,TANDIKA
MTWARA,63,MTWARA,632,MNONGODI,63231,MNONGODI,ZAHANATI
MTWARA,63,MTWARA,632,MNONGODI,63231,MNONGODI,SOKONI
MTWARA,63,MTWARA,632,MNONGODI,63231,MNONGODI,RUVUMA
MTWARA,63,MTWARA,632,MNONGODI,63231,KILIMAHEWA,KILIMAHEWA
MTWARA,63,MTWARA,632,MNONGODI,63231,KILIMAHEWA,BONDENI
MTWARA,63,MTWARA,632,MNONGODI,63231,KILIMAHEWA,RUVUMA
MTWARA,63,MTWARA,632,MNONGODI,63231,KILIMAHEWA,MDENGA
MTWARA,63,MTWARA,632,MNONGODI,63231,MNONGODI MAGHARIB1,SHULENI
MTWARA,63,MTWARA,632,MNONGODI,63231,MNONGODI MAGHARIB2,PWANI
MTWARA,63,MTWARA,632,MNONGODI,63231,MNONGODI MAGHARIB3,GHARANI
MTWARA,63,MTWARA,632,MNONGODI,63231,KIWENGULO,PWANI
MTWARA,63,MTWARA,632,MNONGODI,63231,KIWENGULO,KIWENGULO MJINI
MTWARA,63,MTWARA,632,MNONGODI,63231,KIWENGULO,SHULENI
MTWARA,63,MTWARA,632,HINJU,63232,HINJU,HYUVI
MTWARA,63,MTWARA,632,HINJU,63232,HINJU,MTULINJENGWA
MTWARA,63,MTWARA,632,HINJU,63232,HINJU,MDENGA
MTWARA,63,MTWARA,632,HINJU,63232,HINJU,NAMBUNGA
MTWARA,63,MTWARA,632,HINJU,63232,CHIWINDI,MMONGO
MTWARA,63,MTWARA,632,HINJU,63232,CHIWINDI,MUHEZA
MTWARA,63,MTWARA,632,HINJU,63232,CHIWINDI,NAUCHECHE
MTWARA,63,MTWARA,632,HINJU,63232,KITACHI,HINJU SHULENI
MTWARA,63,MTWARA,632,HINJU,63232,KITACHI,KITACHI
MTWARA,63,MTWARA,632,HINJU,63232,KITACHI,ZAHANATI
MTWARA,63,MTWARA,632,HINJU,63232,KITACHI,MWENGE
MTWARA,63,MTWARA,632,HINJU,63232,MALONGO,MISUFINI
MTWARA,63,MTWARA,632,HINJU,63232,MALONGO,MTAMA
MTWARA,63,MTWARA,632,HINJU,63232,MALONGO,LIPANGATI
MTWARA,63,MTWARA,632,MSIMBATI,63233,MTANDI,MAJENGO
MTWARA,63,MTWARA,632,MSIMBATI,63233,MTANDI,LIUMBO
MTWARA,63,MTWARA,632,MSIMBATI,63233,MTANDI,MAILI
MTWARA,63,MTWARA,632,MSIMBATI,63233,MTANDI,LUKANGA
MTWARA,63,MTWARA,632,MSIMBATI,63233,MSIMBATI,MSIJE
MTWARA,63,MTWARA,632,MSIMBATI,63233,MSIMBATI,SOKONI
MTWARA,63,MTWARA,632,MSIMBATI,63233,MSIMBATI,YAO
MTWARA,63,MTWARA,632,MSIMBATI,63233,MSIMBATI,KILIMANI
MTWARA,63,MTWARA,632,MSIMBATI,63233,RUVULA,NAMPONDA
MTWARA,63,MTWARA,632,MSIMBATI,63233,RUVULA,NANANO
MTWARA,63,MTWARA,632,MSIMBATI,63233,RUVULA,LIKUNGU
MTWARA,63,MTWARA,632,MSIMBATI,63233,RUVULA,BOMANI
MTWARA,63,MTWARA,632,MSIMBATI,63233,MNUYO,BUMBWINI
MTWARA,63,MTWARA,632,MSIMBATI,63233,MNUYO,JIBU
MTWARA,63,MTWARA,632,MSIMBATI,63233,MNUYO,MNAMBA
MTWARA,63,MTWARA,632,MSIMBATI,63233,MNUYO,LIANJE
MTWARA,63,MTWARA,632,NALINGU,63234,MNETE,KILIMANI
MTWARA,63,MTWARA,632,NALINGU,63234,MNETE,MNETE PWANI
MTWARA,63,MTWARA,632,NALINGU,63234,MNETE,CHIYONO
MTWARA,63,MTWARA,632,NALINGU,63234,MNETE,MNETE BARABARANI
MTWARA,63,MTWARA,632,NALINGU,63234,MKUBIRU,MKUBIRU JUU
MTWARA,63,MTWARA,632,NALINGU,63234,MKUBIRU,MKUBIRU PWANI
MTWARA,63,MTWARA,632,NALINGU,63234,MKUBIRU,MVITUJE
MTWARA,63,MTWARA,632,NALINGU,63234,MKUBIRU,NANGURUKURU
MTWARA,63,MTWARA,632,NALINGU,63234,NALINGU,GULIONI
MTWARA,63,MTWARA,632,NALINGU,63234,NALINGU,MAJENGO
MTWARA,63,MTWARA,632,NALINGU,63234,NALINGU,ZAHANATI
MTWARA,63,MTWARA,632,NALINGU,63234,MILAMBA,SHULENI
MTWARA,63,MTWARA,632,NALINGU,63234,MILAMBA,MILAMBA A
MTWARA,63,MTWARA,632,NALINGU,63234,MILAMBA,MILAMBA B
MTWARA,63,MTWARA,632,NALINGU,63234,MNAZI,NAMNONGOLA
MTWARA,63,MTWARA,632,NALINGU,63234,MNAZI,MSOKOLE
MTWARA,63,MTWARA,632,NALINGU,63234,MNAZI,FUNGUMI
MTWARA,63,MTWARA,632,MOMA,63235,DING'WIDA,SOGEA
MTWARA,63,MTWARA,632,MOMA,63235,DING'WIDA,MALAMBA
MTWARA,63,MTWARA,632,MOMA,63235,DING'WIDA,MSIKITINI
MTWARA,63,MTWARA,632,MOMA,63235,DING'WIDA,GULIONI
MTWARA,63,MTWARA,632,MOMA,63235,DING'WIDA,KANISANI
MTWARA,63,MTWARA,632,MOMA,63235,MINYEMBE,KITAMA
MTWARA,63,MTWARA,632,MOMA,63235,MINYEMBE,MINYEMBE
MTWARA,63,MTWARA,632,MOMA,63235,MINYEMBE,MAJENGO
MTWARA,63,MTWARA,632,MOMA,63235,MOMA,MOMA SOKONI
MTWARA,63,MTWARA,632,MOMA,63235,MOMA,MIEMBE
MTWARA,63,MTWARA,632,MOMA,63235,MOMA,MAYOMANILO
MTWARA,63,MTWARA,632,MOMA,63235,LUKWETA,LUKWETA
MTWARA,63,MTWARA,632,MOMA,63235,LUKWETA,WANAMTINDI
MTWARA,63,MTWARA,632,MOMA,63235,LUKWETA,SHULENI
MTWARA,63,MTWARA,632,LIPWIDI,63236,LIPWIDI,NATOLO
MTWARA,63,MTWARA,632,LIPWIDI,63236,LIPWIDI,ZAHANATI
MTWARA,63,MTWARA,632,LIPWIDI,63236,LIPWIDI,NAMKAPI
MTWARA,63,MTWARA,632,LIPWIDI,63236,LIPWIDI,MNADI UHAI
MTWARA,63,MTWARA,632,LIPWIDI,63236,MTAMA,MNIMA
MTWARA,63,MTWARA,632,LIPWIDI,63236,MTAMA,CHIVALALA
MTWARA,63,MTWARA,632,LIPWIDI,63236,NAMBELA,NAMBELA
MTWARA,63,MTWARA,632,LIPWIDI,63236,NAMBELA,SAKAMWENDE
MTWARA,63,MTWARA,632,LIPWIDI,63236,NAMBELA,NAULUTU
MTWARA,63,MTWARA,632,MANGOPACHANNE,63237,MANGOPACHANNE,MISRI
MTWARA,63,MTWARA,632,MANGOPACHANNE,63237,MANGOPACHANNE,GODAUNI
MTWARA,63,MTWARA,632,MANGOPACHANNE,63237,MBAGALA,LIGULA
MTWARA,63,MTWARA,632,MANGOPACHANNE,63237,MBAGALA,SHULENI
MTWARA,63,MTWARA,632,MANGOPACHANNE,63237,ILALA,MTANDA
MTWARA,63,MTWARA,632,MANGOPACHANNE,63237,ILALA,NANYANGA
MTWARA,63,MTWARA,632,MANGOPACHANNE,63237,ILALA,ILALA
MTWARA,63,MTWARA,632,MANGOPACHANNE,63237,ILALA,CHING'OLOLA
MTWARA,63,MTWARA,632,MANGOPACHANNE,63237,MKUTIMANGO,UMOJA
MTWARA,63,MTWARA,632,MANGOPACHANNE,63237,MKUTIMANGO,AMANI
MTWARA,63,MTWARA,632,MANGOPACHANNE,63237,MKUTIMANGO,MUUNGANO
MTWARA,63,MTWARA,632,MANGOPACHANNE,63237,USHIRIKA,USHIRIKA
MTWARA,63,MTWARA,632,MANGOPACHANNE,63237,USHIRIKA,NAMALOMBE
MTWARA,63,MTWARA,632,MANGOPACHANNE,63237,USHIRIKA,MIEMBENI
MTWARA,63,MTWARA,632,MKUNWA,63238,NANYATI,TANDIKA
MTWARA,63,MTWARA,632,MKUNWA,63238,NANYATI,NANYATI
MTWARA,63,MTWARA,632,MKUNWA,63238,NANYATI,LITUMBO
MTWARA,63,MTWARA,632,MKUNWA,63238,MNYENGEDI,MAJENGO
MTWARA,63,MTWARA,632,MKUNWA,63238,MNYENGEDI,NYENGEDI
MTWARA,63,MTWARA,632,MKUNWA,63238,MNYENGEDI,BWAWANI
MTWARA,63,MTWARA,632,MKUNWA,63238,MNYENGEDI,MTAPATA
MTWARA,63,MTWARA,632,MKUNWA,63238,MKUNWA,KIBAONI
MTWARA,63,MTWARA,632,MKUNWA,63238,MKUNWA,MADUKANI
MTWARA,63,MTWARA,632,MKUNWA,63238,MKUNWA,NGORONGORO
MTWARA,63,MTWARA,632,MKUNWA,63238,MKUNWA,MKADUNDA
MTWARA,63,MTWARA,632,MKUNWA,63238,NACHUA,NACHUA
MTWARA,63,MTWARA,632,MKUNWA,63238,NACHUA,MMANDAMO
MTWARA,63,MTWARA,632,MKUNWA,63238,NACHUA,MKWAJUNI
MTWARA,63,MTWARA,632,MKUNWA,63238,KAWAWA,SHULENI
MTWARA,63,MTWARA,632,MKUNWA,63238,KAWAWA,SOKONI
MTWARA,63,MTWARA,632,MKUNWA,63238,KAWAWA,MABOMBWE
MTWARA,63,MTWARA,632,MKUNWA,63238,MAWINDI,MIWINDI
MTWARA,63,MTWARA,632,MKUNWA,63238,MAWINDI,MDENGA
MTWARA,63,MTWARA,632,MKUNWA,63238,MAWINDI,KISIWA
MTWARA,63,MTWARA,632,MKUNWA,63238,MAWINDI,MACHEMBE
MTWARA,63,MTWARA,632,MKUNWA,63238,MAWINDI,SINDE
MTWARA,63,TANDAHIMBA,633,TANDAHIMBA,63301,,MADABA MJINI
MTWARA,63,TANDAHIMBA,633,TANDAHIMBA,63301,,MADABA BONDENI
MTWARA,63,TANDAHIMBA,633,TANDAHIMBA,63301,,MDENGA
MTWARA,63,TANDAHIMBA,633,TANDAHIMBA,63301,,MUUNGANO
MTWARA,63,TANDAHIMBA,633,TANDAHIMBA,63301,,MBURAHATI
MTWARA,63,TANDAHIMBA,633,TANDAHIMBA,63301,,MADINA
MTWARA,63,TANDAHIMBA,633,TANDAHIMBA,63301,,TUMAINI
MTWARA,63,TANDAHIMBA,633,TANDAHIMBA,63301,,MPAKANI
MTWARA,63,TANDAHIMBA,633,TANDAHIMBA,63301,,MAJENGO
MTWARA,63,TANDAHIMBA,633,TANDAHIMBA,63301,,TANDAHIMBA
MTWARA,63,TANDAHIMBA,633,TANDAHIMBA,63301,,BONDENI
MTWARA,63,TANDAHIMBA,633,TANDAHIMBA,63301,,HIYARI
MTWARA,63,TANDAHIMBA,633,TANDAHIMBA,63301,,CHAKATI
MTWARA,63,TANDAHIMBA,633,TANDAHIMBA,63301,,KWA MNYANDA
MTWARA,63,TANDAHIMBA,633,TANDAHIMBA,63301,,MATOGORO
MTWARA,63,TANDAHIMBA,633,TANDAHIMBA,63301,,MAJENGO
MTWARA,63,TANDAHIMBA,633,TANDAHIMBA,63301,,MNAZI MMOJA
MTWARA,63,TANDAHIMBA,633,TANDAHIMBA,63301,,MIKOROSHONI
MTWARA,63,TANDAHIMBA,633,TANDAHIMBA,63301,,MDENGA
MTWARA,63,TANDAHIMBA,633,TANDAHIMBA,63301,,KIWANJANI
MTWARA,63,TANDAHIMBA,633,TANDAHIMBA,63301,,MAJENGO
MTWARA,63,TANDAHIMBA,633,TANDAHIMBA,63301,,KOTA
MTWARA,63,TANDAHIMBA,633,TANDAHIMBA,63301,,SOKONI
MTWARA,63,TANDAHIMBA,633,TANDAHIMBA,63301,,AMANI
MTWARA,63,TANDAHIMBA,633,TANDAHIMBA,63301,,MAGHALANI
MTWARA,63,TANDAHIMBA,633,TANDAHIMBA,63301,,KAWAWA
MTWARA,63,TANDAHIMBA,633,TANDAHIMBA,63301,,MALAMBA KASKAZINI
MTWARA,63,TANDAHIMBA,633,TANDAHIMBA,63301,,MALAMBA KUSINI
MTWARA,63,TANDAHIMBA,633,KITAMA 1,63302,KITAMA MJINI,MASASI
MTWARA,63,TANDAHIMBA,633,KITAMA 2,63302,KITAMA MJINI,DODOMA
MTWARA,63,TANDAHIMBA,633,KITAMA 3,63302,KITAMA MJINI,SINZA
MTWARA,63,TANDAHIMBA,633,KITAMA 4,63302,MITONDI A,MIEMBENI
MTWARA,63,TANDAHIMBA,633,KITAMA 5,63302,MITONDI A,MTANGANI
MTWARA,63,TANDAHIMBA,633,KITAMA 6,63302,MITONDI A,CHIMBUKO
MTWARA,63,TANDAHIMBA,633,KITAMA 7,63302,MITONDI B,NANGURUKURU
MTWARA,63,TANDAHIMBA,633,KITAMA 8,63302,MITONDI B,MANDALE
MTWARA,63,TANDAHIMBA,633,KITAMA 9,63302,MITONDI B,MIANZINI
MTWARA,63,TANDAHIMBA,633,KITAMA 10,63302,MITONDI B,JANGWANI
MTWARA,63,TANDAHIMBA,633,KITAMA 11,63302,MITONDI B,MIHWINDI
MTWARA,63,TANDAHIMBA,633,KITAMA 12,63302,KITAMA SHULENI,KITAMA SHULENI
MTWARA,63,TANDAHIMBA,633,KITAMA 13,63302,KITAMA SHULENI,MISIFUNI
MTWARA,63,TANDAHIMBA,633,KITAMA 14,63302,KITAMA SHULENI,SHANGANI
MTWARA,63,TANDAHIMBA,633,KITAMA 15,63302,MWENGE B,MKOLOMA
MTWARA,63,TANDAHIMBA,633,KITAMA 16,63302,MWENGE B,DINYANGA
MTWARA,63,TANDAHIMBA,633,KITAMA 17,63302,MWENGE B,BASLA
MTWARA,63,TANDAHIMBA,633,KITAMA 18,63302,MWENGE A,MWENGE JUU
MTWARA,63,TANDAHIMBA,633,KITAMA 19,63302,MWENGE A,MAENDELEO
MTWARA,63,TANDAHIMBA,633,KITAMA 20,63302,MWENGE A,MWENGE SHULENI/CHINI
MTWARA,63,TANDAHIMBA,633,KITAMA 21,63302,NAMUNDA,NAMUNDA
MTWARA,63,TANDAHIMBA,633,KITAMA 22,63302,NAMUNDA,KITAMA MJINI
MTWARA,63,TANDAHIMBA,633,KITAMA 23,63302,NAMUNDA,MAJENGO
MTWARA,63,TANDAHIMBA,633,LYENJE,63303,LYENJE,TANGA
MTWARA,63,TANDAHIMBA,633,LYENJE,63303,LYENJE,TANDIKA
MTWARA,63,TANDAHIMBA,633,LYENJE,63303,LYENJE,UMOJA
MTWARA,63,TANDAHIMBA,633,LYENJE,63303,LYENJE,MISRI
MTWARA,63,TANDAHIMBA,633,LYENJE,63303,LYENJE,TUPENDANE
MTWARA,63,TANDAHIMBA,633,LYENJE,63303,MWEMBEMMOJA,MWEMBEMMOJA
MTWARA,63,TANDAHIMBA,633,LYENJE,63303,MWEMBEMMOJA,UHURUWI
MTWARA,63,TANDAHIMBA,633,LYENJE,63303,MWEMBEMMOJA,AMANI
MTWARA,63,TANDAHIMBA,633,LYENJE,63303,MWEMBEMMOJA,JITEGEMEE
MTWARA,63,TANDAHIMBA,633,LYENJE,63303,MWEMBEMMOJA,USALAMA
MTWARA,63,TANDAHIMBA,633,LYENJE,63303,MWEMBEMMOJA,MAJENGO
MTWARA,63,TANDAHIMBA,633,LYENJE,63303,MWEMBEMMOJA,MWWANZILISHI
MTWARA,63,TANDAHIMBA,633,LYENJE,63303,MAHOHA,KISUTU
MTWARA,63,TANDAHIMBA,633,LYENJE,63303,MAHOHA,SHULENI
MTWARA,63,TANDAHIMBA,633,LYENJE,63303,MAHOHA,MISRI
MTWARA,63,TANDAHIMBA,633,LYENJE,63303,MAHOHA,BONDENI
MTWARA,63,TANDAHIMBA,633,MILONGODI,63304,MTINGIDA,MIEMBENI
MTWARA,63,TANDAHIMBA,633,MILONGODI,63304,MTINGIDA,MIANZINI
MTWARA,63,TANDAHIMBA,633,MILONGODI,63304,MTINGIDA,OFISINI
MTWARA,63,TANDAHIMBA,633,MILONGODI,63304,NAMKOMOLELA,NAMKOMOLELA
MTWARA,63,TANDAHIMBA,633,MILONGODI,63304,NAMKOMOLELA,BADO MMOJA
MTWARA,63,TANDAHIMBA,633,MILONGODI,63304,NAMKOMOLELA,JANGWANI
MTWARA,63,TANDAHIMBA,633,MILONGODI,63304,MILEDI,MILEDI
MTWARA,63,TANDAHIMBA,633,MILONGODI,63304,MILEDI,BOMBAMBILI
MTWARA,63,TANDAHIMBA,633,MILONGODI,63304,MILONGODI,MILONGODI
MTWARA,63,TANDAHIMBA,633,MILONGODI,63304,MILONGODI,MNALYAMBA
MTWARA,63,TANDAHIMBA,633,MILONGODI,63304,MMWINDI,MIKUMBI
MTWARA,63,TANDAHIMBA,633,MILONGODI,63304,MMWINDI,MAJENGO
MTWARA,63,TANDAHIMBA,633,MILONGODI,63304,MMWINDI,MZALENDO
MTWARA,63,TANDAHIMBA,633,NANHYANGA,63305,NAHYANGA 'A',SOKONI
MTWARA,63,TANDAHIMBA,633,NANHYANGA,63305,NAHYANGA 'A',SHULENI
MTWARA,63,TANDAHIMBA,633,NANHYANGA,63305,NAHYANGA 'A',KIWANJANI
MTWARA,63,TANDAHIMBA,633,NANHYANGA,63305,NAHYANGA 'A',BANDARI
MTWARA,63,TANDAHIMBA,633,NANHYANGA,63305,NAHYANGA 'A',MIEMBENI
MTWARA,63,TANDAHIMBA,633,NANHYANGA,63305,NAHYANGA 'A',MNINGAMO
MTWARA,63,TANDAHIMBA,633,NANHYANGA,63305,NAHYANGA 'C',KIBAHA
MTWARA,63,TANDAHIMBA,633,NANHYANGA,63305,,DODOMA
MTWARA,63,TANDAHIMBA,633,NANHYANGA,63305,,PEMBA
MTWARA,63,TANDAHIMBA,633,NANHYANGA,63305,,MLINGANO
MTWARA,63,TANDAHIMBA,633,NANHYANGA,63305,,MADINA
MTWARA,63,TANDAHIMBA,633,NANHYANGA,63305,,MPAKANI
MTWARA,63,TANDAHIMBA,633,NANHYANGA,63305,NANHYANGA 'B',MAJENGO
MTWARA,63,TANDAHIMBA,633,NANHYANGA,63305,NANHYANGA 'B',PEMBA
MTWARA,63,TANDAHIMBA,633,NANHYANGA,63305,NANHYANGA 'B',NAMDOHOLA
MTWARA,63,TANDAHIMBA,633,NANHYANGA,63305,MIULE,SOKONI
MTWARA,63,TANDAHIMBA,633,NANHYANGA,63305,MIULE,MINAZINI
MTWARA,63,TANDAHIMBA,633,NANHYANGA,63305,MIULE,SHULENI
MTWARA,63,TANDAHIMBA,633,NANHYANGA,63305,MIULE,BIMA
MTWARA,63,TANDAHIMBA,633,NANHYANGA,63305,MIULE,ILALA
MTWARA,63,TANDAHIMBA,633,NANHYANGA,63305,MNAIDA,SOKONI
MTWARA,63,TANDAHIMBA,633,NANHYANGA,63305,MNAIDA,BONDENI
MTWARA,63,TANDAHIMBA,633,NANHYANGA,63305,MNAUKE,TANDIKA
MTWARA,63,TANDAHIMBA,633,NANHYANGA,63305,MNAUKE,LUSAKA/ MIPINGO
MTWARA,63,TANDAHIMBA,633,NAMIKUPA,63306,NAMIKUPA,ZAMBIA
MTWARA,63,TANDAHIMBA,633,NAMIKUPA,63306,NAMIKUPA,MIEMBENI
MTWARA,63,TANDAHIMBA,633,NAMIKUPA,63306,NAMIKUPA,MNAZI MMOJA
MTWARA,63,TANDAHIMBA,633,NAMIKUPA,63306,CHING'ATI,KITUMBINI
MTWARA,63,TANDAHIMBA,633,NAMIKUPA,63306,CHING'ATI,TANDIKA
MTWARA,63,TANDAHIMBA,633,NAMIKUPA,63306,PEMBA,CHAKECHAKE
MTWARA,63,TANDAHIMBA,633,NAMIKUPA,63306,PEMBA,MAJENGO
MTWARA,63,TANDAHIMBA,633,NAMIKUPA,63306,PEMBA,HOSPITALI
MTWARA,63,TANDAHIMBA,633,NAMIKUPA,63306,PEMBA,MAYUNGEYUNGE
MTWARA,63,TANDAHIMBA,633,NAMIKUPA,63306,MILIDU,CHIKUNDA
MTWARA,63,TANDAHIMBA,633,NAMIKUPA,63306,MILIDU,MABATINI
MTWARA,63,TANDAHIMBA,633,NAMIKUPA,63306,MILIDU,DODOMA
MTWARA,63,TANDAHIMBA,633,NAMIKUPA,63306,MILIDU,JANGWANI
MTWARA,63,TANDAHIMBA,633,NAMIKUPA,63306,MILIDU,CHIHINDWI
MTWARA,63,TANDAHIMBA,633,NAMIKUPA,63306,CHIHANGI,CHIMBUKO
MTWARA,63,TANDAHIMBA,633,NAMIKUPA,63306,CHIHANGI,KUCHELE
MTWARA,63,TANDAHIMBA,633,NAMIKUPA,63306,CHIHANGI,BWAWANI
MTWARA,63,TANDAHIMBA,633,NAMIKUPA,63306,CHIHANGI,MAJENGO
MTWARA,63,TANDAHIMBA,633,NAMIKUPA,63306,CHIHANGI,UHURU
MTWARA,63,TANDAHIMBA,633,NAMIKUPA,63306,ILALA,ILALA
MTWARA,63,TANDAHIMBA,633,NAMIKUPA,63306,ILALA,JUHUDI
MTWARA,63,TANDAHIMBA,633,NAMIKUPA,63306,ILALA,UHURU
MTWARA,63,TANDAHIMBA,633,NAPUTA,63307,MPIKULA,MNYEKEHE
MTWARA,63,TANDAHIMBA,633,NAPUTA,63307,MPIKULA,MKWAJUNI
MTWARA,63,TANDAHIMBA,633,NAPUTA,63307,MWANGAZA SOKONI,KONGO
MTWARA,63,TANDAHIMBA,633,NAPUTA,63307,MWANGAZA SOKONI,TANDIKA
MTWARA,63,TANDAHIMBA,633,NAPUTA,63307,MWANGAZA SOKONI,MABATINI
MTWARA,63,TANDAHIMBA,633,NAPUTA,63307,NAMDWANI,USALAMA
MTWARA,63,TANDAHIMBA,633,NAPUTA,63307,NAMDWANI,NAMDWANI
MTWARA,63,TANDAHIMBA,633,NAPUTA,63307,NAPUTA SHULENI,DODOMA
MTWARA,63,TANDAHIMBA,633,NAPUTA,63307,NAPUTA SHULENI,MSIKITINI
MTWARA,63,TANDAHIMBA,633,NAPUTA,63307,NAPUTA SOKONI,MAJENGO
MTWARA,63,TANDAHIMBA,633,NAPUTA,63307,NAPUTA SOKONI,MNAZINI
MTWARA,63,TANDAHIMBA,633,NAPUTA,63307,NAPUTA SOKONI,UNGUJA
MTWARA,63,TANDAHIMBA,633,NAPUTA,63307,NAPUTA SOKONI,CHIUMO
MTWARA,63,TANDAHIMBA,633,NAPUTA,63307,MWANGAZA SHULENI,KILIMAHEWA
MTWARA,63,TANDAHIMBA,633,NAPUTA,63307,MWANGAZA SHULENI,CHANG'OMBE
MTWARA,63,TANDAHIMBA,633,NAPUTA,63307,MWANGAZA SHULENI,POLISI
MTWARA,63,TANDAHIMBA,633,MKOREHA,63308,NAMUNDA,BUTIAMA
MTWARA,63,TANDAHIMBA,633,MKOREHA,63308,NAMUNDA,NAMUNDA
MTWARA,63,TANDAHIMBA,633,MKOREHA,63308,NAMUNDA,CHIHWINDI
MTWARA,63,TANDAHIMBA,633,MKOREHA,63308,NAMUNDA,AMANI
MTWARA,63,TANDAHIMBA,633,MKOREHA,63308,NAMUNDA,MASAKI
MTWARA,63,TANDAHIMBA,633,MKOREHA,63308,NAMUNDA,MIEMBENI
MTWARA,63,TANDAHIMBA,633,MKOREHA,63308,NAMUNDA,SHULENI
MTWARA,63,TANDAHIMBA,633,MKOREHA,63308,MCHANGANI,MIKOROSHONI
MTWARA,63,TANDAHIMBA,633,MKOREHA,63308,MCHANGANI,MASWA
MTWARA,63,TANDAHIMBA,633,MKOREHA,63308,MCHANGANI,MALAWI
MTWARA,63,TANDAHIMBA,633,MKOREHA,63308,CHIKONGO,NANG'AWANGA
MTWARA,63,TANDAHIMBA,633,MKOREHA,63308,CHIKONGO,CHIKONGO
MTWARA,63,TANDAHIMBA,633,MKOREHA,63308,CHIKONGO,MLIMANI
MTWARA,63,TANDAHIMBA,633,MKOREHA,63308,CHIKONGO,TABATA
MTWARA,63,TANDAHIMBA,633,MKOREHA,63308,CHIKONGO,MADINA
MTWARA,63,TANDAHIMBA,633,MKOREHA,63308,CHIKONGO,CHIHWINDI
MTWARA,63,TANDAHIMBA,633,MKOREHA,63308,DINYEKE,KILIMAHEWA
MTWARA,63,TANDAHIMBA,633,MKOREHA,63308,DINYEKE,SOKONI
MTWARA,63,TANDAHIMBA,633,MKOREHA,63308,DINYEKE,DINYEKE
MTWARA,63,TANDAHIMBA,633,MKOREHA,63308,MISUFINI,MAGOMENI
MTWARA,63,TANDAHIMBA,633,MKOREHA,63308,MISUFINI,TANDIKA
MTWARA,63,TANDAHIMBA,633,MKOREHA,63308,MISUFINI,MADUKANI
MTWARA,63,TANDAHIMBA,633,MKOREHA,63308,MISUFINI,MISUFINI
MTWARA,63,TANDAHIMBA,633,MKOREHA,63308,MISUFINI,UKONGA
MTWARA,63,TANDAHIMBA,633,MIHAMBWE,63309,MIHAMBWE,MDENGA
MTWARA,63,TANDAHIMBA,633,MIHAMBWE,63309,MIHAMBWE,MIHAMBWE MJINI
MTWARA,63,TANDAHIMBA,633,MIHAMBWE,63309,MIHAMBWE,SHANGANI*
MTWARA,63,TANDAHIMBA,633,MIHAMBWE,63309,MIHAMBWE,CHIKONGO
MTWARA,63,TANDAHIMBA,633,MIHAMBWE,63309,MIHAMBWE,JANGWANI
MTWARA,63,TANDAHIMBA,633,MIHAMBWE,63309,RUVUMA,BATALIANI
MTWARA,63,TANDAHIMBA,633,MIHAMBWE,63309,RUVUMA,JANGWANI
MTWARA,63,TANDAHIMBA,633,MIHAMBWE,63309,RUVUMA,CHANG'OMBE
MTWARA,63,TANDAHIMBA,633,MIHAMBWE,63309,RUVUMA,SONGEA
MTWARA,63,TANDAHIMBA,633,MIHAMBWE,63309,LEMBELA,MNYAHI
MTWARA,63,TANDAHIMBA,633,MIHAMBWE,63309,LEMBELA,MUUNGANO
MTWARA,63,TANDAHIMBA,633,MIHAMBWE,63309,LEMBELA,MISRI
MTWARA,63,TANDAHIMBA,633,MIHAMBWE,63309,LEMBELA,LANDANI
MTWARA,63,TANDAHIMBA,633,MIHAMBWE,63309,LEMBELA,PACHOTO
MTWARA,63,TANDAHIMBA,633,MIHAMBWE,63309,KISAGANI,MATENDE
MTWARA,63,TANDAHIMBA,633,MIHAMBWE,63309,KISAGANI,ILALA
MTWARA,63,TANDAHIMBA,633,MIHAMBWE,63309,KISAGANI,MITUMBATI
MTWARA,63,TANDAHIMBA,633,MIHAMBWE,63309,KISAGANI,MPAKANI
MTWARA,63,TANDAHIMBA,633,MIHAMBWE,63309,KISAGANI,MAJENGO
MTWARA,63,TANDAHIMBA,633,MIHAMBWE,63309,KISAGANI,HARAMBEE
MTWARA,63,TANDAHIMBA,633,MIHAMBWE,63309,NAKALE,NAKALE
MTWARA,63,TANDAHIMBA,633,MIHAMBWE,63309,NAKALE,BONDENI
MTWARA,63,TANDAHIMBA,633,MIHAMBWE,63309,NAKALE,KILIMAHEWA
MTWARA,63,TANDAHIMBA,633,MIHAMBWE,63309,MKAHA,MKAHA MJINI
MTWARA,63,TANDAHIMBA,633,MIHAMBWE,63309,MKAHA,MALAWI
MTWARA,63,TANDAHIMBA,633,MIHAMBWE,63309,MKAHA,SHANGANI
MTWARA,63,TANDAHIMBA,633,MIHAMBWE,63309,MKAHA,RIZIKI
MTWARA,63,TANDAHIMBA,633,MIHAMBWE,63309,MKAHA,TUMAINI
MTWARA,63,TANDAHIMBA,633,MICHENJELE,63310,MICHENJELE,PEMBA
MTWARA,63,TANDAHIMBA,633,MICHENJELE,63310,MICHENJELE,MITUMBATI
MTWARA,63,TANDAHIMBA,633,MICHENJELE,63310,MICHENJELE,SOKONI
MTWARA,63,TANDAHIMBA,633,MICHENJELE,63310,MICHENJELE,MWANGAZA
MTWARA,63,TANDAHIMBA,633,MICHENJELE,63310,MICHENJELE,NDOLYA
MTWARA,63,TANDAHIMBA,633,MICHENJELE,63310,BANDARI,MTUKWAO
MTWARA,63,TANDAHIMBA,633,MICHENJELE,63310,BANDARI,KONGO
MTWARA,63,TANDAHIMBA,633,MICHENJELE,63310,BANDARI,CHIPYAI
MTWARA,63,TANDAHIMBA,633,MICHENJELE,63310,BANDARI,RUVUMA
MTWARA,63,TANDAHIMBA,633,MICHENJELE,63310,BANDARI,AMKENI
MTWARA,63,TANDAHIMBA,633,MICHENJELE,63310,MPUNDA,AMKENI
MTWARA,63,TANDAHIMBA,633,MICHENJELE,63310,MPUNDA,JITEGEMEE
MTWARA,63,TANDAHIMBA,633,MICHENJELE,63310,MPUNDA,KIVUKONI
MTWARA,63,TANDAHIMBA,633,MICHENJELE,63310,MPUNDA,MAENDELEO
MTWARA,63,TANDAHIMBA,633,MICHENJELE,63310,MMALALA,MADINA
MTWARA,63,TANDAHIMBA,633,MICHENJELE,63310,MMALALA,RIDHIKA
MTWARA,63,TANDAHIMBA,633,MICHENJELE,63310,MMALALA,NAMAHENJE
MTWARA,63,TANDAHIMBA,633,MICHENJELE,63310,MMALALA,MISRI
MTWARA,63,TANDAHIMBA,633,MICHENJELE,63310,MMALALA,TUVUMILIANE
MTWARA,63,TANDAHIMBA,633,MICHENJELE,63310,SHANGANI,MITUMBATI
MTWARA,63,TANDAHIMBA,633,MICHENJELE,63310,SHANGANI,KILIDU
MTWARA,63,TANDAHIMBA,633,MICHENJELE,63310,SHANGANI,NAMAHENJA
MTWARA,63,TANDAHIMBA,633,MICHENJELE,63310,SHANGANI,ZAHANATI
MTWARA,63,TANDAHIMBA,633,MICHENJELE,63310,SHANGANI,TANDIKA
MTWARA,63,TANDAHIMBA,633,MICHENJELE,63310,SHANGANI,ILALA
MTWARA,63,TANDAHIMBA,633,MICHENJELE,63310,SHANGANI,CHIKAGO
MTWARA,63,TANDAHIMBA,633,MICHENJELE,63310,NGONGO,NGONGO
MTWARA,63,TANDAHIMBA,633,MICHENJELE,63310,NGONGO,PEMBA
MTWARA,63,TANDAHIMBA,633,MAUNDO,63311,MAUNDO,DODOMA
MTWARA,63,TANDAHIMBA,633,MAUNDO,63311,MAUNDO,SONGAMBELE
MTWARA,63,TANDAHIMBA,633,MAUNDO,63311,MAUNDO,NANGURUWE
MTWARA,63,TANDAHIMBA,633,MAUNDO,63311,NAMAHONGA,CHIKUMBILILO
MTWARA,63,TANDAHIMBA,633,MAUNDO,63311,NAMAHONGA,MADINA
MTWARA,63,TANDAHIMBA,633,MAUNDO,63311,NAMAHONGA,RIZIKI
MTWARA,63,TANDAHIMBA,633,MAUNDO,63311,NAMAHONGA,ILALA
MTWARA,63,TANDAHIMBA,633,MAUNDO,63311,NAMAHONGA,BANDARI
MTWARA,63,TANDAHIMBA,633,MAUNDO,63311,CHANG'OMBE,TANDIKA
MTWARA,63,TANDAHIMBA,633,MAUNDO,63311,CHANG'OMBE,JUHUDI
MTWARA,63,TANDAHIMBA,633,MAUNDO,63311,CHANG'OMBE,KAZIMOTO
MTWARA,63,TANDAHIMBA,633,MAUNDO,63311,CHANG'OMBE,NIAMOJA
MTWARA,63,TANDAHIMBA,633,MAUNDO,63311,CHANG'OMBE,JIENDELEZE
MTWARA,63,TANDAHIMBA,633,MAUNDO,63311,KUNANDUNDU,KIYANGU
MTWARA,63,TANDAHIMBA,633,MAUNDO,63311,KUNANDUNDU,KUNANDUNDU
MTWARA,63,TANDAHIMBA,633,MAUNDO,63311,KUNANDUNDU,MSASANI
MTWARA,63,TANDAHIMBA,633,MAUNDO,63311,KUNANDUNDU,MADUKANI
MTWARA,63,TANDAHIMBA,633,MAUNDO,63311,KUNANDUNDU,MJI MPYA
MTWARA,63,TANDAHIMBA,633,MAUNDO,63311,KUNANDUNDU,KILIMAHEWA
MTWARA,63,TANDAHIMBA,633,MAUNDO,63311,CHIUMO,MILUMBA
MTWARA,63,TANDAHIMBA,633,MAUNDO,63311,CHIUMO,KONGO
MTWARA,63,TANDAHIMBA,633,MAUNDO,63311,CHIUMO,MBUYUNI
MTWARA,63,TANDAHIMBA,633,MAUNDO,63311,CHIUMO,NAMUNGULA
MTWARA,63,TANDAHIMBA,633,MAUNDO,63311,CHIUMO,WIBA
MTWARA,63,TANDAHIMBA,633,MAUNDO,63311,CHIUMO,MAUNDO CHINI
MTWARA,63,TANDAHIMBA,633,MNYAWA,63312,MNYAWA,KARIAKOO
MTWARA,63,TANDAHIMBA,633,MNYAWA,63312,MNYAWA,MTUTU
MTWARA,63,TANDAHIMBA,633,MNYAWA,63312,MNYAWA,ZIWANI
MTWARA,63,TANDAHIMBA,633,MNYAWA,63312,MNYAWA,MOYO
MTWARA,63,TANDAHIMBA,633,MNYAWA,63312,MAHEHA,KAITABA
MTWARA,63,TANDAHIMBA,633,MNYAWA,63312,MAHEHA,KISUTU
MTWARA,63,TANDAHIMBA,633,MNYAWA,63312,MAHEHA,CHIMBUKO
MTWARA,63,TANDAHIMBA,633,MNYAWA,63312,MAHEHA,TULIENI
MTWARA,63,TANDAHIMBA,633,MNYAWA,63312,MUNDAMKULU,BARABARANI
MTWARA,63,TANDAHIMBA,633,MNYAWA,63312,MUNDAMKULU,ZIWANI
MTWARA,63,TANDAHIMBA,633,MNYAWA,63312,MUNDAMKULU,KILIDU
MTWARA,63,TANDAHIMBA,633,MNYAWA,63312,JANGWANI,RUVUMA
MTWARA,63,TANDAHIMBA,633,MNYAWA,63312,JANGWANI,SHULENI
MTWARA,63,TANDAHIMBA,633,MNYAWA,63312,JANGWANI,BANANGENGE
MTWARA,63,TANDAHIMBA,633,MNYAWA,63312,UMOJA,SONGEA
MTWARA,63,TANDAHIMBA,633,MNYAWA,63312,UMOJA,CHUMBAGENI
MTWARA,63,TANDAHIMBA,633,MNYAWA,63312,UMOJA,MADINA
MTWARA,63,TANDAHIMBA,633,LUKOKODA,63313,LUKOKODA,MBAGALA
MTWARA,63,TANDAHIMBA,633,LUKOKODA,63313,LUKOKODA,CHANG'OMBE
MTWARA,63,TANDAHIMBA,633,LUKOKODA,63313,LUKOKODA,MAGODAUNI
MTWARA,63,TANDAHIMBA,633,LUKOKODA,63313,LUKOKODA,CHAMWINO
MTWARA,63,TANDAHIMBA,633,LUKOKODA,63313,LUKOKODA,LUDEKO
MTWARA,63,TANDAHIMBA,633,LUKOKODA,63313,MNAZIMMOJA,MADINA
MTWARA,63,TANDAHIMBA,633,LUKOKODA,63313,MNAZIMMOJA,MITEMA
MTWARA,63,TANDAHIMBA,633,LUKOKODA,63313,MNAZIMMOJA,MSHIKAMANO
MTWARA,63,TANDAHIMBA,633,LUKOKODA,63313,MNAZIMMOJA,MJI MPYA
MTWARA,63,TANDAHIMBA,633,LUKOKODA,63313,MNAZIMMOJA,MOMBASA
MTWARA,63,TANDAHIMBA,633,LUKOKODA,63313,MNAZIMMOJA,TANDIKA
MTWARA,63,TANDAHIMBA,633,LUKOKODA,63313,GHANA JUU,MIKINDANI
MTWARA,63,TANDAHIMBA,633,LUKOKODA,63313,GHANA JUU,MIEMBENI
MTWARA,63,TANDAHIMBA,633,LUKOKODA,63313,GHANA JUU,MBUYUNI
MTWARA,63,TANDAHIMBA,633,LUKOKODA,63313,GHANA CHINI,PEMBA
MTWARA,63,TANDAHIMBA,633,LUKOKODA,63313,GHANA CHINI,KONGO
MTWARA,63,TANDAHIMBA,633,MKUNDI,63314,LIPALWE I,KIWANJANI
MTWARA,63,TANDAHIMBA,633,MKUNDI,63314,LIPALWE I,MKUNGUNI
MTWARA,63,TANDAHIMBA,633,MKUNDI,63314,LIPALWE I,MIKOROSHONI
MTWARA,63,TANDAHIMBA,633,MKUNDI,63314,LIPALWE I,MBUYUNI
MTWARA,63,TANDAHIMBA,633,MKUNDI,63314,DINEMBO,MALITO
MTWARA,63,TANDAHIMBA,633,MKUNDI,63314,DINEMBO,NGOJENI
MTWARA,63,TANDAHIMBA,633,MKUNDI,63314,DINEMBO,MASAKI
MTWARA,63,TANDAHIMBA,633,MKUNDI,63314,DINEMBO,MATOGORO
MTWARA,63,TANDAHIMBA,633,MKUNDI,63314,CHITOHOLI JUU,MBUYUNI
MTWARA,63,TANDAHIMBA,633,MKUNDI,63314,CHITOHOLI JUU,TANDALE
MTWARA,63,TANDAHIMBA,633,MKUNDI,63314,CHITOHOLI JUU,TANDIKA
MTWARA,63,TANDAHIMBA,633,MKUNDI,63314,CHITOHOLI JUU,MADINA
MTWARA,63,TANDAHIMBA,633,MKUNDI,63314,MIKUNDA SOKONI,TANDALE B
MTWARA,63,TANDAHIMBA,633,MKUNDI,63314,MIKUNDA SOKONI,YOMBO
MTWARA,63,TANDAHIMBA,633,MKUNDI,63314,MIKUNDA SOKONI,KIJIWENI
MTWARA,63,TANDAHIMBA,633,MKUNDI,63314,MIKUNDA SOKONI,TANDALE A
MTWARA,63,TANDAHIMBA,633,MKUNDI,63314,MIKUNDA SHULENI,CHANG'OMBE
MTWARA,63,TANDAHIMBA,633,MKUNDI,63314,MIKUNDA SHULENI,DODOMA A
MTWARA,63,TANDAHIMBA,633,MKUNDI,63314,MIKUNDA SHULENI,DODOMA B
MTWARA,63,TANDAHIMBA,633,MKUNDI,63314,MIKUNDA SHULENI,MWEMBECHAI
MTWARA,63,TANDAHIMBA,633,MKUNDI,63314,LIPALWE II,BWAWANI
MTWARA,63,TANDAHIMBA,633,MKUNDI,63314,LIPALWE II,KILIMAHEWA
MTWARA,63,TANDAHIMBA,633,MKUNDI,63314,CHITOHOLI,USALAMA
MTWARA,63,TANDAHIMBA,633,MKUNDI,63314,CHITOHOLI,JIDDA
MTWARA,63,TANDAHIMBA,633,MKUNDI,63314,CHITOHOLI,TANDALE
MTWARA,63,TANDAHIMBA,633,MKUNDI,63314,CHITOHOLI,MBUYUNI
MTWARA,63,TANDAHIMBA,633,MAHUTA,63315,CHITOHOLI,CHIWINDI
MTWARA,63,TANDAHIMBA,633,MAHUTA,63315,CHITOHOLI,MAGEUZI
MTWARA,63,TANDAHIMBA,633,MAHUTA,63315,CHITOHOLI,NYERERE
MTWARA,63,TANDAHIMBA,633,MAHUTA,63315,CHITOHOLI,MWINYI
MTWARA,63,TANDAHIMBA,633,MAHUTA,63315,CHITOHOLI,MREMA
MTWARA,63,TANDAHIMBA,633,MAHUTA,63315,CHITOHOLI,UMOJA
MTWARA,63,TANDAHIMBA,633,MAHUTA,63315,CHITOHOLI,NGUVUKAZI
MTWARA,63,TANDAHIMBA,633,MAHUTA,63315,CHITOHOLI,USALAMA
MTWARA,63,TANDAHIMBA,633,MAHUTA,63315,CHITOHOLI,MIKAKATI
MTWARA,63,TANDAHIMBA,633,MAHUTA,63315,CHITOHOLI,JANGWANI
MTWARA,63,TANDAHIMBA,633,MAHUTA,63315,CHITOHOLI,MVULENI
MTWARA,63,TANDAHIMBA,633,MAHUTA,63315,CHITOHOLI,LUWONGO
MTWARA,63,TANDAHIMBA,633,CHINGUNGWE,63316,CHINGUNGWE,MIEMBENI
MTWARA,63,TANDAHIMBA,633,CHINGUNGWE,63316,CHINGUNGWE,TANDIKA
MTWARA,63,TANDAHIMBA,633,CHINGUNGWE,63316,CHINGUNGWE,MUHIMBILI
MTWARA,63,TANDAHIMBA,633,CHINGUNGWE,63316,CHINGUNGWE,SOKONI
MTWARA,63,TANDAHIMBA,633,CHINGUNGWE,63316,CHINGUNGWE,MANGAMBA
MTWARA,63,TANDAHIMBA,633,CHINGUNGWE,63316,MKUPETE,MBUYUNI
MTWARA,63,TANDAHIMBA,633,CHINGUNGWE,63316,MKUPETE,KILIDU
MTWARA,63,TANDAHIMBA,633,CHINGUNGWE,63316,MKUPETE,KILIMAHEWA
MTWARA,63,TANDAHIMBA,633,CHINGUNGWE,63316,MTENDA,KENYA
MTWARA,63,TANDAHIMBA,633,CHINGUNGWE,63316,MTENDA,KUSINI
MTWARA,63,TANDAHIMBA,633,CHINGUNGWE,63316,MTENDA,KARIAKOO
MTWARA,63,TANDAHIMBA,633,CHINGUNGWE,63316,SALAMA,AMANI
MTWARA,63,TANDAHIMBA,633,CHINGUNGWE,63316,SALAMA,MALANJE
MTWARA,63,TANDAHIMBA,633,CHINGUNGWE,63316,SALAMA,MBEBEDE
MTWARA,63,TANDAHIMBA,633,CHINGUNGWE,63316,SALAMA,MWONGOZO
MTWARA,63,TANDAHIMBA,633,CHINGUNGWE,63316,SALAMA,JUHUDI
MTWARA,63,TANDAHIMBA,633,CHINGUNGWE,63316,CHIKUNDA,MAENDELEO
MTWARA,63,TANDAHIMBA,633,CHINGUNGWE,63316,CHIKUNDA,MNAZIMMOJA
MTWARA,63,TANDAHIMBA,633,CHINGUNGWE,63316,CHIKUNDA,NAMAHENJE
MTWARA,63,TANDAHIMBA,633,CHINGUNGWE,63316,CHIKUNDA,JITEGEMEE
MTWARA,63,TANDAHIMBA,633,CHINGUNGWE,63316,CHIKUNDA,UKOMBOZI
MTWARA,63,TANDAHIMBA,633,CHINGUNGWE,63316,KUCHELE,DODOMA
MTWARA,63,TANDAHIMBA,633,CHINGUNGWE,63316,KUCHELE,BAGAMOYO
MTWARA,63,TANDAHIMBA,633,CHINGUNGWE,63316,KUCHELE,MAJENGO
MTWARA,63,TANDAHIMBA,633,CHINGUNGWE,63316,KUCHELE,TANGA
MTWARA,63,TANDAHIMBA,633,CHINGUNGWE,63316,KUCHELE,NGUVUKAZI
MTWARA,63,TANDAHIMBA,633,CHINGUNGWE,63316,KIULE,NANG'OMBA
MTWARA,63,TANDAHIMBA,633,CHINGUNGWE,63316,KIULE,RAHALEO
MTWARA,63,TANDAHIMBA,633,MDIMBA MNYOMA,63317,MNYOMA,USALAMA
MTWARA,63,TANDAHIMBA,633,MDIMBA MNYOMA,63317,MNYOMA,MKURANGA
MTWARA,63,TANDAHIMBA,633,MDIMBA MNYOMA,63317,MNYOMA,SEKONDARI
MTWARA,63,TANDAHIMBA,633,MDIMBA MNYOMA,63317,MNYOMA,SOKONI
MTWARA,63,TANDAHIMBA,633,MDIMBA MNYOMA,63317,MNYOMA,MAJENGO
MTWARA,63,TANDAHIMBA,633,MDIMBA MNYOMA,63317,TUKURU,KAWAWA
MTWARA,63,TANDAHIMBA,633,MDIMBA MNYOMA,63317,TUKURU,KARUME
MTWARA,63,TANDAHIMBA,633,MDIMBA MNYOMA,63317,TUKURU,MNAIDA
MTWARA,63,TANDAHIMBA,633,MDIMBA MNYOMA,63317,TUKURU,TANKINI
MTWARA,63,TANDAHIMBA,633,MDIMBA MNYOMA,63317,TUKURU,KAMBARAGE
MTWARA,63,TANDAHIMBA,633,MDIMBA MNYOMA,63317,MDENGA,BONDENI
MTWARA,63,TANDAHIMBA,633,MDIMBA MNYOMA,63317,MDENGA,KAGERA
MTWARA,63,TANDAHIMBA,633,MDIMBA MNYOMA,63317,MDENGA,SOKOINE
MTWARA,63,TANDAHIMBA,633,MDIMBA MNYOMA,63317,MDENGA,AZIMIO
MTWARA,63,TANDAHIMBA,633,MDIMBA MNYOMA,63317,MDENGA,AMANI
MTWARA,63,TANDAHIMBA,633,MDIMBA MNYOMA,63317,MTEGU,PWANI
MTWARA,63,TANDAHIMBA,633,MDIMBA MNYOMA,63317,MTEGU,MCHANGANI
MTWARA,63,TANDAHIMBA,633,MDIMBA MNYOMA,63317,MTEGU,MNYEPE
MTWARA,63,TANDAHIMBA,633,MDIMBA MNYOMA,63317,MTEGU,MLIMANI
MTWARA,63,TANDAHIMBA,633,MDIMBA MNYOMA,63318,LIPONDE,LIPONDE A
MTWARA,63,TANDAHIMBA,633,MDIMBA MNYOMA,63318,LIPONDE,LIPONDE B
MTWARA,63,TANDAHIMBA,633,MDIMBA MNYOMA,63318,MWERU SHULENI,MMONGO
MTWARA,63,TANDAHIMBA,633,MDIMBA MNYOMA,63318,MWERU SHULENI,MITUMBATI
MTWARA,63,TANDAHIMBA,633,MDIMBA MNYOMA,63318,MWERU SHULENI,MANZESE
MTWARA,63,TANDAHIMBA,633,MDIMBA MNYOMA,63318,MWERU SHULENI,CHANGAMOTO
MTWARA,63,TANDAHIMBA,633,MDIMBA MNYOMA,63318,MWERU SHULENI,MAPAMBANO
MTWARA,63,TANDAHIMBA,633,MDIMBA MNYOMA,63318,MWERU SOKONI,SEMALAKO
MTWARA,63,TANDAHIMBA,633,MDIMBA MNYOMA,63318,MWERU SOKONI,KILIMAHEWA
MTWARA,63,TANDAHIMBA,633,MDIMBA MNYOMA,63318,MWERU SOKONI,KITANGARI
MTWARA,63,TANDAHIMBA,633,MDIMBA MNYOMA,63318,MWERU SOKONI,DODOMA
MTWARA,63,TANDAHIMBA,633,MDIMBA MNYOMA,63318,MWERU SOKONI,MUUNGANO
MTWARA,63,TANDAHIMBA,633,MDIMBA MNYOMA,63318,CHAUME,CHAUME A
MTWARA,63,TANDAHIMBA,633,MDIMBA MNYOMA,63318,CHAUME,JUHUDI
MTWARA,63,TANDAHIMBA,633,MDIMBA MNYOMA,63318,CHAUME,JANGWANI
MTWARA,63,TANDAHIMBA,633,MDIMBA MNYOMA,63318,CHAUME,TUPENDANE
MTWARA,63,TANDAHIMBA,633,MDIMBA MNYOMA,63318,CHAUME,MIKUMBI
MTWARA,63,TANDAHIMBA,633,MDIMBA MNYOMA,63318,CHAUME,KILIMAHEWA
MTWARA,63,TANDAHIMBA,633,MDIMBA MNYOMA,63318,CHAUME,CHAUME B
MTWARA,63,TANDAHIMBA,633,MDIMBA MNYOMA,63318,SOKOINE,KILIMAHEWA
MTWARA,63,TANDAHIMBA,633,MDIMBA MNYOMA,63318,SOKOINE,AMANI
MTWARA,63,TANDAHIMBA,633,MDIMBA MNYOMA,63318,SOKOINE,RAHALEO
MTWARA,63,TANDAHIMBA,633,MDIMBA MNYOMA,63318,SOKOINE,MIEMBENI
MTWARA,63,TANDAHIMBA,633,MDIMBA MNYOMA,63318,SOKOINE,SHAMKA
MTWARA,63,TANDAHIMBA,633,MDIMBA MNYOMA,63319,MKONJOWANO,MZALENDO
MTWARA,63,TANDAHIMBA,633,MDIMBA MNYOMA,63319,MKONJOWANO,PEMBA
MTWARA,63,TANDAHIMBA,633,MDIMBA MNYOMA,63319,MKONJOWANO,NIAMOJA
MTWARA,63,TANDAHIMBA,633,MDIMBA MNYOMA,63319,MKONJOWANO,MUUNGANO
MTWARA,63,TANDAHIMBA,633,MDIMBA MNYOMA,63319,MKONJOWANO,UMOJA
MTWARA,63,TANDAHIMBA,633,MDIMBA MNYOMA,63319,CHIMBUKO,MUHORO
MTWARA,63,TANDAHIMBA,633,MDIMBA MNYOMA,63319,CHIMBUKO,MNAZIMMOJA
MTWARA,63,TANDAHIMBA,633,MDIMBA MNYOMA,63319,CHIMBUKO,ZANZIBAR
MTWARA,63,TANDAHIMBA,633,MDIMBA MNYOMA,63319,CHIMBUKO,MISRI
MTWARA,63,TANDAHIMBA,633,MDIMBA MNYOMA,63319,CHIMBUKO,DODOMA
MTWARA,63,TANDAHIMBA,633,MDIMBA MNYOMA,63319,CHIMBUKO,CHIWONDA
MTWARA,63,TANDAHIMBA,633,MDIMBA MNYOMA,63319,CHIMBUKO,RIZIKA
MTWARA,63,TANDAHIMBA,633,MDIMBA MNYOMA,63319,MKULA,USALAMA
MTWARA,63,TANDAHIMBA,633,MDIMBA MNYOMA,63319,MKULA,MSIJUTE
MTWARA,63,TANDAHIMBA,633,MDIMBA MNYOMA,63319,MKULA,MNARANI
MTWARA,63,TANDAHIMBA,633,MDIMBA MNYOMA,63319,ULODALEO,MTUNDA
MTWARA,63,TANDAHIMBA,633,MDIMBA MNYOMA,63319,ULODALEO,NAMDEDA
MTWARA,63,TANDAHIMBA,633,MDIMBA MNYOMA,63319,ULODALEO,NANKONG'O
MTWARA,63,TANDAHIMBA,633,MDIMBA MNYOMA,63319,ULODALEO,NIAMOJA
MTWARA,63,TANDAHIMBA,633,LUAGALA,63320,MICHINJI,MVULENI
MTWARA,63,TANDAHIMBA,633,LUAGALA,63320,MICHINJI,IDAMNOLE
MTWARA,63,TANDAHIMBA,633,LUAGALA,63320,MICHINJI,TULIENI
MTWARA,63,TANDAHIMBA,633,LUAGALA,63320,MICHINJI,NIAMOJA
MTWARA,63,TANDAHIMBA,633,LUAGALA,63320,MICHINJI,KIBAHA
MTWARA,63,TANDAHIMBA,633,LUAGALA,63320,MICHINJI,MIKUMBI
MTWARA,63,TANDAHIMBA,633,LUAGALA,63320,MKOLA  CHINI,SHULENI
MTWARA,63,TANDAHIMBA,633,LUAGALA,63320,MKOLA  CHINI,MAPINDUZI
MTWARA,63,TANDAHIMBA,633,LUAGALA,63320,MKOLA  CHINI,MUUNGANO
MTWARA,63,TANDAHIMBA,633,LUAGALA,63320,MKOLA  JUU,BONDENI
MTWARA,63,TANDAHIMBA,633,LUAGALA,63320,MKOLA  JUU,KILIMANI
MTWARA,63,TANDAHIMBA,633,LUAGALA,63320,CHIDEDE,KULUYENDA JUU
MTWARA,63,TANDAHIMBA,633,LUAGALA,63320,CHIDEDE,KULUYENDA CHINI
MTWARA,63,TANDAHIMBA,633,LUAGALA,63320,LUAGALA,KARIAKOO
MTWARA,63,TANDAHIMBA,633,LUAGALA,63320,LUAGALA,MLIMANI
MTWARA,63,TANDAHIMBA,633,LUAGALA,63320,LUAGALA,MJIMPYA
MTWARA,63,TANDAHIMBA,633,LUAGALA,63320,LUAGALA,BONDENI
MTWARA,63,TANDAHIMBA,633,LUAGALA,63320,LUAGALA,UHURU
MTWARA,63,TANDAHIMBA,633,LUAGALA,63320,KIGAMBONI,KIGAMBONI
MTWARA,63,TANDAHIMBA,633,LUAGALA,63320,KIGAMBONI,JITEGEMEE
MTWARA,63,TANDAHIMBA,633,LUAGALA,63320,KIGAMBONI,MIEMBENI
MTWARA,63,TANDAHIMBA,633,LUAGALA,63320,KIGAMBONI,KIBAHA
MTWARA,63,TANDAHIMBA,633,LUAGALA,63320,KIGAMBONI,TANKINI
MTWARA,63,TANDAHIMBA,633,NGUNJA,63321,NGUNJA,NAMWANYA
MTWARA,63,TANDAHIMBA,633,NGUNJA,63321,NGUNJA,CHIMBUKO
MTWARA,63,TANDAHIMBA,633,NGUNJA,63321,NGUNJA,MUUNGANO
MTWARA,63,TANDAHIMBA,633,NGUNJA,63321,NGUNJA,MAJENGO
MTWARA,63,TANDAHIMBA,633,NGUNJA,63321,NGUNJA,NAMIONGA
MTWARA,63,TANDAHIMBA,633,NGUNJA,63321,NGUNJA,MSIKITINI
MTWARA,63,TANDAHIMBA,633,NGUNJA,63321,NAMINDONDI JUU,MNONJI
MTWARA,63,TANDAHIMBA,633,NGUNJA,63321,NAMINDONDI JUU,MTUNUNGWE
MTWARA,63,TANDAHIMBA,633,NGUNJA,63321,NAMINDONDI JUU,KIDONGOCHEKUNDU
MTWARA,63,TANDAHIMBA,633,NGUNJA,63321,NAMINDONDI JUU,RAHALEO
MTWARA,63,TANDAHIMBA,633,NGUNJA,63321,NAMINDONDI JUU,MWEMBECHAI
MTWARA,63,TANDAHIMBA,633,NGUNJA,63321,NAMINDONDI JUU,NANGUNDE
MTWARA,63,TANDAHIMBA,633,NGUNJA,63321,NAMINDONDI JUU,BONDE MAJI
MTWARA,63,TANDAHIMBA,633,NGUNJA,63321,NAMINDONDI CHINI,JUHUDI
MTWARA,63,TANDAHIMBA,633,NGUNJA,63321,NAMINDONDI CHINI,PEMBA
MTWARA,63,TANDAHIMBA,633,NGUNJA,63321,NAMINDONDI CHINI,MAHUMBIKA
MTWARA,63,TANDAHIMBA,633,NGUNJA,63321,MANGOMBYA,KILIMAHEWA
MTWARA,63,TANDAHIMBA,633,NGUNJA,63321,MANGOMBYA,MDIMBA
MTWARA,63,TANDAHIMBA,633,NGUNJA,63321,MANGOMBYA,ZAHANATI
MTWARA,63,TANDAHIMBA,633,NGUNJA,63321,MANGOMBYA,JANGWANI
MTWARA,63,TANDAHIMBA,633,NGUNJA,63321,MANGOMBYA,DDC
MTWARA,63,TANDAHIMBA,633,NGUNJA,63321,NANJANGA,MSIONDOKE
MTWARA,63,TANDAHIMBA,633,NGUNJA,63321,NANJANGA,BONDENI
MTWARA,63,TANDAHIMBA,633,NGUNJA,63321,NANJANGA,MIEMBENI
MTWARA,63,TANDAHIMBA,633,NGUNJA,63321,NANJANGA,JAMHURI
MTWARA,63,TANDAHIMBA,633,NGUNJA,63321,NANNALA,MIULE
MTWARA,63,TANDAHIMBA,633,NGUNJA,63321,NANNALA,JUHUDI
MTWARA,63,TANDAHIMBA,633,NGUNJA,63321,NANNALA,MMOVA
MTWARA,63,TANDAHIMBA,633,NGUNJA,63321,NANNALA,MUUNGANO
MTWARA,63,TANDAHIMBA,633,NGUNJA,63321,NANNALA,MAJENGO
MTWARA,63,TANDAHIMBA,633,NGUNJA,63321,MKUTI,NAMBALANGANDA
MTWARA,63,TANDAHIMBA,633,NGUNJA,63321,MKUTI,MATAPATA
MTWARA,63,TANDAHIMBA,633,NGUNJA,63321,MKUTI,MKOLA
MTWARA,63,TANDAHIMBA,633,NGUNJA,63321,MKUTI,MDIMBA
MTWARA,63,TANDAHIMBA,633,MKWITI,63322,MKWITI CHINI,MISUFINI
MTWARA,63,TANDAHIMBA,633,MKWITI,63322,MKWITI CHINI,NAMKULUJULU
MTWARA,63,TANDAHIMBA,633,MKWITI,63322,MKWITI CHINI,MITENGO
MTWARA,63,TANDAHIMBA,633,MKWITI,63322,MKWITI CHINI,KINOLOMBEDO
MTWARA,63,TANDAHIMBA,633,MKWITI,63322,MKWITI JUU,NAMAHAKATA
MTWARA,63,TANDAHIMBA,633,MKWITI,63322,MKWITI JUU,MKWITI
MTWARA,63,TANDAHIMBA,633,MKWITI,63322,MKWITI JUU,MNAUKE
MTWARA,63,TANDAHIMBA,633,MKWITI,63322,LIKOLOMBE,MTILE
MTWARA,63,TANDAHIMBA,633,MKWITI,63322,LIKOLOMBE,MBAWE
MTWARA,63,TANDAHIMBA,633,MKWITI,63322,LIKOLOMBE,MASASI
MTWARA,63,TANDAHIMBA,633,MKWITI,63322,LIKOLOMBE,LIKOLOMBE JUU
MTWARA,63,TANDAHIMBA,633,MKWITI,63322,LIKOLOMBE,LUKONGOLO
MTWARA,63,TANDAHIMBA,633,MKWITI,63322,KIDOO,UMOJA
MTWARA,63,TANDAHIMBA,633,MKWITI,63322,KIDOO,MPAKANI
MTWARA,63,TANDAHIMBA,633,MKWITI,63322,KIDOO,CHIMBUKO
MTWARA,63,TANDAHIMBA,633,MKWITI,63322,KIDOO,AMANI
MTWARA,63,TANDAHIMBA,633,MKWITI,63322,KIDOO,MPWAPWANI
MTWARA,63,TANDAHIMBA,633,MCHICHIRA,63323,MCHICHIRA,MAJANI MAPANA
MTWARA,63,TANDAHIMBA,633,MCHICHIRA,63323,MCHICHIRA,MPAKANI
MTWARA,63,TANDAHIMBA,633,MCHICHIRA,63323,MCHICHIRA,LIGULA
MTWARA,63,TANDAHIMBA,633,MCHICHIRA,63323,MCHICHIRA,USALAMA
MTWARA,63,TANDAHIMBA,633,MCHICHIRA,63323,MCHICHIRA,JIRANI
MTWARA,63,TANDAHIMBA,633,MCHICHIRA,63323,SHANGANI,MIEMBENI
MTWARA,63,TANDAHIMBA,633,MCHICHIRA,63323,SHANGANI,MIVINJENI
MTWARA,63,TANDAHIMBA,633,MCHICHIRA,63323,SHANGANI,MADINA
MTWARA,63,TANDAHIMBA,633,MCHICHIRA,63323,SHANGANI,MITEMA
MTWARA,63,TANDAHIMBA,633,MCHICHIRA,63323,SHANGANI,LILANDE
MTWARA,63,TANDAHIMBA,633,MCHICHIRA,63323,PACHANI,LITEMLA
MTWARA,63,TANDAHIMBA,633,MCHICHIRA,63323,PACHANI,MLINGOTI
MTWARA,63,TANDAHIMBA,633,MCHICHIRA,63323,MNARANI,SIDO
MTWARA,63,TANDAHIMBA,633,MCHICHIRA,63323,MNARANI,KAMBARAGE
MTWARA,63,TANDAHIMBA,633,MCHICHIRA,63323,MNARANI,AJENTINA
MTWARA,63,TANDAHIMBA,633,MCHICHIRA,63323,MKWAJUNI,MKALANGA
MTWARA,63,TANDAHIMBA,633,MCHICHIRA,63323,MKWAJUNI,MAJALIWA
MTWARA,63,TANDAHIMBA,633,MCHICHIRA,63323,MKWAJUNI,RIZIKA
MTWARA,63,TANDAHIMBA,633,MCHICHIRA,63323,MKWAJUNI,UKOMBOZI
MTWARA,63,TANDAHIMBA,633,MCHICHIRA,63323,MKWAJUNI,RUVUMA
MTWARA,63,TANDAHIMBA,633,LITEHU,63324,LITEHU,NANKONG'O
MTWARA,63,TANDAHIMBA,633,LITEHU,63324,LITEHU,MWENGE
MTWARA,63,TANDAHIMBA,633,LITEHU,63324,LITEHU,MIKOCHENI
MTWARA,63,TANDAHIMBA,633,LITEHU,63324,LITEHU,LITEHU
MTWARA,63,TANDAHIMBA,633,LITEHU,63324,LITEHU,MIEMBEMIWILI
MTWARA,63,TANDAHIMBA,633,LITEHU,63324,MMEDA,USALAMA
MTWARA,63,TANDAHIMBA,633,LITEHU,63324,MMEDA,MNAZINI
MTWARA,63,TANDAHIMBA,633,LITEHU,63324,MMEDA,MISRI
MTWARA,63,TANDAHIMBA,633,LITEHU,63324,MABETI,MNAZINI
MTWARA,63,TANDAHIMBA,633,LITEHU,63324,MABETI,MISUFINI
MTWARA,63,TANDAHIMBA,633,LITEHU,63324,MABETI,MABETI
MTWARA,63,TANDAHIMBA,633,LITEHU,63324,MABETI,MPUTO
MTWARA,63,TANDAHIMBA,633,LITEHU,63324,LIBOBE,NYERERE
MTWARA,63,TANDAHIMBA,633,LITEHU,63324,LIBOBE,KARUME
MTWARA,63,TANDAHIMBA,633,LITEHU,63324,LIBOBE,KAWAWA
MTWARA,63,TANDAHIMBA,633,LITEHU,63324,LIBOBE,NANGWANDA
MTWARA,63,TANDAHIMBA,633,NAMBAHU,63325,MIVANGA,MIVANGA MJINI
MTWARA,63,TANDAHIMBA,633,NAMBAHU,63325,MIVANGA,LICHINYO
MTWARA,63,TANDAHIMBA,633,NAMBAHU,63325,MIVANGA,MWANG'ANGA
MTWARA,63,TANDAHIMBA,633,NAMBAHU,63325,MIVANGA,TEMEKE
MTWARA,63,TANDAHIMBA,633,NAMBAHU,63325,MIKUYU,MIKUYU
MTWARA,63,TANDAHIMBA,633,NAMBAHU,63325,MIKUYU,MUUNGANO
MTWARA,63,TANDAHIMBA,633,NAMBAHU,63325,MIKUYU,UHURU
MTWARA,63,TANDAHIMBA,633,NAMBAHU,63325,MUUNGANO,BAKWATA
MTWARA,63,TANDAHIMBA,633,NAMBAHU,63325,MUUNGANO,MKWAJUNI
MTWARA,63,TANDAHIMBA,633,NAMBAHU,63325,MUUNGANO,LIKWAYA
MTWARA,63,TANDAHIMBA,633,NAMBAHU,63325,MUUNGANO,TUMAINI
MTWARA,63,TANDAHIMBA,633,NAMBAHU,63325,MUUNGANO,AZIMIO
MTWARA,63,TANDAHIMBA,633,NAMBAHU,63325,NAMBAHU,MBALALA
MTWARA,63,TANDAHIMBA,633,NAMBAHU,63325,NAMBAHU,MAENDELEO
MTWARA,63,TANDAHIMBA,633,NAMBAHU,63325,NAMBAHU,MAPAMBANO
MTWARA,63,TANDAHIMBA,633,NAMBAHU,63325,NAMBAHU,TEMEKA
MTWARA,63,TANDAHIMBA,633,NAMBAHU,63325,NAMBAHU,SONGAMBELE
MTWARA,63,TANDAHIMBA,633,NAMBAHU,63325,NACHUNYU,MIKUYU
MTWARA,63,TANDAHIMBA,633,NAMBAHU,63325,NACHUNYU,MUUNGANO
MTWARA,63,TANDAHIMBA,633,NAMBAHU,63325,MNAIDA,SHAURIMOYO
MTWARA,63,TANDAHIMBA,633,NAMBAHU,63325,MNAIDA,TANDIKA
MTWARA,63,TANDAHIMBA,633,NAMBAHU,63325,MNAIDA,MJIMPYA
MTWARA,63,TANDAHIMBA,633,NAMBAHU,63325,MNAIDA,AMANI
MTWARA,63,TANDAHIMBA,633,NAMBAHU,63325,MNAIDA,MNAIDAMJINI
MTWARA,63,TANDAHIMBA,633,MIUTA,63326,NAMEDI,MPAKANI
MTWARA,63,TANDAHIMBA,633,MIUTA,63326,NAMEDI,JUHUDI
MTWARA,63,TANDAHIMBA,633,MIUTA,63326,NG'ONGOLO,MAILI MOJA
MTWARA,63,TANDAHIMBA,633,MIUTA,63326,NG'ONGOLO,KIMARA
MTWARA,63,TANDAHIMBA,633,MIUTA,63326,NG'ONGOLO,UMOJA
MTWARA,63,TANDAHIMBA,633,MIUTA,63326,NG'ONGOLO,CHANG'OMBE
MTWARA,63,TANDAHIMBA,633,MIUTA,63326,NG'ONGOLO,DODOMA
MTWARA,63,TANDAHIMBA,633,MIUTA,63326,MIUTA,MPAKANI
MTWARA,63,TANDAHIMBA,633,MIUTA,63326,MIUTA,MAJENGO
MTWARA,63,TANDAHIMBA,633,MIUTA,63326,MIUTA,KIZOTA
MTWARA,63,TANDAHIMBA,633,MIUTA,63326,MIUTA,PAKSTAN
MTWARA,63,TANDAHIMBA,633,MIUTA,63326,MIUTA,STENDI
MTWARA,63,TANDAHIMBA,633,KWANYAMA,63327,KWANYAMA,KIBAHA KWANYAMA
MTWARA,63,TANDAHIMBA,633,KWANYAMA,63327,KWANYAMA,NANJALAHU
MTWARA,63,TANDAHIMBA,633,KWANYAMA,63327,KWANYAMA,MAJENGO
MTWARA,63,TANDAHIMBA,633,KWANYAMA,63327,KWANYAMA,USALAMA
MTWARA,63,TANDAHIMBA,633,KWANYAMA,63327,KWANYAMA,KUSINI
MTWARA,63,TANDAHIMBA,633,KWANYAMA,63327,HURUMA,MSIKITINI
MTWARA,63,TANDAHIMBA,633,KWANYAMA,63327,HURUMA,MWENGE
MTWARA,63,TANDAHIMBA,633,KWANYAMA,63327,SINYANGI,SINYANGI
MTWARA,63,TANDAHIMBA,633,KWANYAMA,63327,SINYANGI,BONDENI
MTWARA,63,TANDAHIMBA,633,KWANYAMA,63327,SINYANGI,MKOROSHINI
MTWARA,63,TANDAHIMBA,633,KWANYAMA,63327,MITUMBATI,LITENGELEKE
MTWARA,63,TANDAHIMBA,633,KWANYAMA,63327,MITUMBATI,RAHALEO
MTWARA,63,TANDAHIMBA,633,KWANYAMA,63327,MITUMBATI,NANYANG'ANYA
MTWARA,63,TANDAHIMBA,633,KWANYAMA,63327,MITUMBATI,KILIMANJARO
MTWARA,63,TANDAHIMBA,633,KWANYAMA,63327,MITUMBATI,ILALA
MTWARA,63,TANDAHIMBA,633,DINDUMA,63328,NANYUWILA,GHALANI
MTWARA,63,TANDAHIMBA,633,DINDUMA,63328,NANYUWILA,MWEMBEMMOJA
MTWARA,63,TANDAHIMBA,633,DINDUMA,63328,NANYUWILA,SHULENI
MTWARA,63,TANDAHIMBA,633,DINDUMA,63328,MITENE,TANKINI
MTWARA,63,TANDAHIMBA,633,DINDUMA,63328,MITENE,MNAZI MMOJA
MTWARA,63,TANDAHIMBA,633,DINDUMA,63328,MITENE,MNALWAYO
MTWARA,63,TANDAHIMBA,633,DINDUMA,63328,MITENE,MSIKITINI
MTWARA,63,TANDAHIMBA,633,DINDUMA,63328,MITENE,GULIONI
MTWARA,63,TANDAHIMBA,633,DINDUMA,63328,DINDUMA BARABARANI,STENDI
MTWARA,63,TANDAHIMBA,633,DINDUMA,63328,DINDUMA BARABARANI,MAJENGO
MTWARA,63,TANDAHIMBA,633,DINDUMA,63328,DINDUMA BARABARANI,BIRIKANI
MTWARA,63,TANDAHIMBA,633,DINDUMA,63328,DINDUMA SHULENI,MKWAWA
MTWARA,63,TANDAHIMBA,633,DINDUMA,63328,DINDUMA SHULENI,MABISI
MTWARA,63,TANDAHIMBA,633,DINDUMA,63328,DINDUMA SHULENI,AMKENI
MTWARA,63,TANDAHIMBA,633,DINDUMA,63328,TANDIKA,TANDIKA
MTWARA,63,TANDAHIMBA,633,DINDUMA,63328,TANDIKA,MADINA
MTWARA,63,TANDAHIMBA,633,DINDUMA,63328,TANDIKA,AMKENI
MTWARA,63,TANDAHIMBA,633,CHIKONGOLA,63329,TANDIKA,MSIKITINI
MTWARA,63,TANDAHIMBA,633,CHIKONGOLA,63329,TANDIKA,OROFEA
MTWARA,63,TANDAHIMBA,633,CHIKONGOLA,63329,TANDIKA,JANGWANI
MTWARA,63,TANDAHIMBA,633,CHIKONGOLA,63329,TANDIKA,TANDIKA MIKOROSHINI
MTWARA,63,TANDAHIMBA,633,CHIKONGOLA,63329,TANDIKA,AMANA
MTWARA,63,TANDAHIMBA,633,CHIKONGOLA,63329,TANDIKA,ILULU
MTWARA,63,TANDAHIMBA,633,CHIKONGOLA,63329,TANDIKA,SHIMONI
MTWARA,63,TANDAHIMBA,633,CHIKONGOLA,63329,TANDIKA,MKUNDI
MTWARA,63,TANDAHIMBA,633,CHIKONGOLA,63329,TANDIKA,MAHAKALU
MTWARA,63,TANDAHIMBA,633,CHIKONGOLA,63329,TANDIKA,KILIDU
MTWARA,63,TANDAHIMBA,633,CHIKONGOLA,63329,TANDIKA,LILANDI
MTWARA,63,TANDAHIMBA,633,CHIKONGOLA,63329,TANDIKA,MIEMBENI
MTWARA,63,TANDAHIMBA,633,CHIKONGOLA,63329,TANDIKA,BIRIKANI
MTWARA,63,TANDAHIMBA,633,MNDUMBWE,63330,MNDUMBWE,CHANG'OMBE
MTWARA,63,TANDAHIMBA,633,MNDUMBWE,63330,MNDUMBWE,SONGEA
MTWARA,63,TANDAHIMBA,633,MNDUMBWE,63330,MNDUMBWE,CHIKONGOLA
MTWARA,63,TANDAHIMBA,633,MNDUMBWE,63330,MNDUMBWE,ILALA
MTWARA,63,TANDAHIMBA,633,MNDUMBWE,63330,MAMBAMBA,BONDENI
MTWARA,63,TANDAHIMBA,633,MNDUMBWE,63330,MAMBAMBA,MNEKACHI
MTWARA,63,TANDAHIMBA,633,MNDUMBWE,63330,MAMBAMBA,KONGO
MTWARA,63,TANDAHIMBA,633,MNDUMBWE,63330,MAMBAMBA,USALAMA
MTWARA,63,TANDAHIMBA,633,MNDUMBWE,63330,MAMBAMBA,LITULE
MTWARA,63,TANDAHIMBA,633,MNDUMBWE,63330,MAJENGO,MAJENGO
MTWARA,63,TANDAHIMBA,633,MNDUMBWE,63330,MAJENGO,CHIHANGA
MTWARA,63,TANDAHIMBA,633,MNDUMBWE,63330,MAJENGO,KEKO
MTWARA,63,TANDAHIMBA,633,MNDUMBWE,63330,MAJENGO,TANDIKA
MTWARA,63,TANDAHIMBA,633,MNDUMBWE,63330,MAJENGO,NGUVUKAZI
MTWARA,63,TANDAHIMBA,633,MNDUMBWE,63330,MTANDAVALA,MAJENGO
MTWARA,63,TANDAHIMBA,633,MNDUMBWE,63330,MTANDAVALA,MINGOYO
MTWARA,63,TANDAHIMBA,633,MNDUMBWE,63330,MTANDAVALA,PEMBA
MTWARA,63,TANDAHIMBA,633,MNDUMBWE,63330,MFYATULA,BONDENI
MTWARA,63,TANDAHIMBA,633,MNDUMBWE,63330,MFYATULA,MLIMANI
MTWARA,63,TANDAHIMBA,633,MALOPOKELO,63331,MFYATULA,MALOPOKELO MJINI
MTWARA,63,TANDAHIMBA,633,MALOPOKELO,63331,MFYATULA,MALOPOKELO BONDENI
MTWARA,63,TANDAHIMBA,633,MALOPOKELO,63331,MFYATULA,NASUVI
MTWARA,63,TANDAHIMBA,633,MALOPOKELO,63331,MFYATULA,SHANGANI
MTWARA,63,TANDAHIMBA,633,MALOPOKELO,63331,MFYATULA,KWAMNIMALA
MTWARA,63,TANDAHIMBA,633,MALOPOKELO,63331,MFYATULA,MKOMAPAHIMA
MTWARA,63,TANDAHIMBA,633,MALOPOKELO,63331,MFYATULA,MBALALA
MTWARA,63,TANDAHIMBA,633,MALOPOKELO,63331,MFYATULA,MBAGALA
MTWARA,63,TANDAHIMBA,633,MALOPOKELO,63331,MFYATULA,MNAAYOPE
MTWARA,63,TANDAHIMBA,633,MALOPOKELO,63331,MFYATULA,MANGUCHA
MTWARA,63,TANDAHIMBA,633,MALOPOKELO,63331,MFYATULA,NANA
MTWARA,63,TANDAHIMBA,633,MALOPOKELO,63331,MFYATULA,TANKINI
MTWARA,63,TANDAHIMBA,633,MALOPOKELO,63331,MFYATULA,NAANGURUKURU
MTWARA,63,TANDAHIMBA,633,MALOPOKELO,63331,MFYATULA,MANDELA
MTWARA,63,TANDAHIMBA,633,MALOPOKELO,63331,MFYATULA,RAHALEO
MTWARA,63,TANDAHIMBA,633,MALOPOKELO,63331,MFYATULA,BARABARA YA 3
MTWARA,63,TANDAHIMBA,633,MALOPOKELO,63331,MFYATULA,MJIMWEMA
MTWARA,63,TANDAHIMBA,633,MALOPOKELO,63331,MFYATULA,MJI MPYA
MTWARA,63,TANDAHIMBA,633,MALOPOKELO,63331,MFYATULA,MIHULU
MTWARA,63,TANDAHIMBA,633,MALOPOKELO,63331,MFYATULA,MPAKANI
MTWARA,63,TANDAHIMBA,633,MKWEDU,63332,LUHEYA,LUHEYA
MTWARA,63,TANDAHIMBA,633,MKWEDU,63332,LUHEYA,RAHALEO
MTWARA,63,TANDAHIMBA,633,MKWEDU,63332,LUHEYA,PARISI
MTWARA,63,TANDAHIMBA,633,MKWEDU,63332,MACHEDI,MTWARA
MTWARA,63,TANDAHIMBA,633,MKWEDU,63332,MACHEDI,MTAKUJA
MTWARA,63,TANDAHIMBA,633,MKWEDU,63332,MACHEDI,MITEMA
MTWARA,63,TANDAHIMBA,633,MKWEDU,63332,MKWEDU II,TANDIKA
MTWARA,63,TANDAHIMBA,633,MKWEDU,63332,MKWEDU II,NINGOJENI
MTWARA,63,TANDAHIMBA,633,MKWEDU,63332,MKWEDU II,MAJENGO
MTWARA,63,TANDAHIMBA,633,MKWEDU,63332,MKWEDU II,PEMBA
MTWARA,63,NEWALA,634,LUCHINGU,63401,MAHAKAMA,
MTWARA,63,NEWALA,634,LUCHINGU,63401,MZALENDO,
MTWARA,63,NEWALA,634,LUCHINGU,63401,BUTIAMA,
MTWARA,63,NEWALA,634,LUCHINGU,63401,UJENZI,
MTWARA,63,NEWALA,634,MKUNYA,63402,KIUTA,DAWAMO
MTWARA,63,NEWALA,634,MKUNYA,63402,KIUTA,KIUTA JUU
MTWARA,63,NEWALA,634,MKUNYA,63402,KIUTA,AMKENI
MTWARA,63,NEWALA,634,MKUNYA,63402,KIUTA,TWENDEPAMOJA
MTWARA,63,NEWALA,634,MKUNYA,63402,RAHALEO,SOGEA
MTWARA,63,NEWALA,634,MKUNYA,63402,RAHALEO,MINAZINI
MTWARA,63,NEWALA,634,MKUNYA,63402,RAHALEO,SHANGANI
MTWARA,63,NEWALA,634,MKUNYA,63402,RAHALEO,KOLONI
MTWARA,63,NEWALA,634,MKUNYA,63402,MATOKEO,MNAUKE
MTWARA,63,NEWALA,634,MKUNYA,63402,MATOKEO,MATOKEO
MTWARA,63,NEWALA,634,MKUNYA,63402,MATOKEO,TUVENE
MTWARA,63,NEWALA,634,MKUNYA,63402,MATOKEO,MTANDI
MTWARA,63,NEWALA,634,MKUNYA,63402,MKUNYA,KABAMBE
MTWARA,63,NEWALA,634,MKUNYA,63402,MKUNYA,MAJENGO
MTWARA,63,NEWALA,634,MKUNYA,63402,MKUNYA,MKUNYA
MTWARA,63,NEWALA,634,MKUNYA,63402,MKUNYA,MIEMBENI
MTWARA,63,NEWALA,634,MKUNYA,63402,CHIHANGA,KASKAZINI
MTWARA,63,NEWALA,634,MKUNYA,63402,CHIHANGA,KUSINI
MTWARA,63,NEWALA,634,MKUNYA,63402,CHIHANGA,MKUTO
MTWARA,63,NEWALA,634,MKUNYA,63402,CHIHANGA,LIHAPA
MTWARA,63,NEWALA,634,NANGURUWE,63403,NANGURUWE,MAJENGO
MTWARA,63,NEWALA,634,NANGURUWE,63403,NANGURUWE,SONGAMBELE
MTWARA,63,NEWALA,634,NANGURUWE,63403,NANGURUWE,DODOMA
MTWARA,63,NEWALA,634,NANGURUWE,63403,NANGURUWE,SOKONI
MTWARA,63,NEWALA,634,NANGURUWE,63403,NANGURUWE,SHULENI
MTWARA,63,NEWALA,634,NANGURUWE,63403,KILIMANI,MTENDACHI
MTWARA,63,NEWALA,634,NANGURUWE,63403,KILIMANI,BONDENI
MTWARA,63,NEWALA,634,NANGURUWE,63403,MAGUMCHILA,MASASI
MTWARA,63,NEWALA,634,NANGURUWE,63403,MAGUMCHILA,MTAKUJA
MTWARA,63,NEWALA,634,NANGURUWE,63403,MAGUMCHILA,MAGUMCHILA KATI
MTWARA,63,NEWALA,634,NANGURUWE,63403,MNANJE,MIEMBENI
MTWARA,63,NEWALA,634,NANGURUWE,63403,MNANJE,MDENGANAMADI
MTWARA,63,NEWALA,634,NANGURUWE,63403,MNANJE,SOKONI
MTWARA,63,NEWALA,634,NANGURUWE,63403,MTAWE,KIWANJANI
MTWARA,63,NEWALA,634,NANGURUWE,63403,MTAWE,MNAZINI
MTWARA,63,NEWALA,634,NANGURUWE,63403,MTAWE,MADINA
MTWARA,63,NEWALA,634,NANGURUWE,63403,SAMORA,MAJENGO
MTWARA,63,NEWALA,634,NANGURUWE,63403,SAMORA,KISIWANI
MTWARA,63,NEWALA,634,NANGURUWE,63403,SAMORA,MITUMBATI
MTWARA,63,NEWALA,634,NANGURUWE,63403,SAMORA,KILUMBE
MTWARA,63,NEWALA,634,NANGURUWE,63403,MAPILI,BONDENI
MTWARA,63,NEWALA,634,NANGURUWE,63403,MAPILI,MSIKITINI
MTWARA,63,NEWALA,634,MCHOLI  I,63404,PACHOTO,PACHOTO KATI
MTWARA,63,NEWALA,634,MCHOLI  I,63404,PACHOTO,KIWANJANI
MTWARA,63,NEWALA,634,MCHOLI  I,63404,PACHOTO,LENGO
MTWARA,63,NEWALA,634,MCHOLI  I,63404,CHIUNJILA,MPILIPILI
MTWARA,63,NEWALA,634,MCHOLI  I,63404,CHIUNJILA,CHIKOPOLI
MTWARA,63,NEWALA,634,MCHOLI  I,63404,CHIUNJILA,CHIUNJILA
MTWARA,63,NEWALA,634,MCHOLI  I,63404,AMANI,AMANI KISIWANI
MTWARA,63,NEWALA,634,MCHOLI  I,63404,AMANI,AMANI KATI
MTWARA,63,NEWALA,634,MCHOLI  I,63404,MNALALE,MNALALE SHULENI
MTWARA,63,NEWALA,634,MCHOLI  I,63404,MNALALE,MNALALE MSUFINI
MTWARA,63,NEWALA,634,MCHOLI  I,63404,CHIKWEDU,MSIKITINI
MTWARA,63,NEWALA,634,MCHOLI  I,63404,CHIKWEDU,MKWAJUNI
MTWARA,63,NEWALA,634,MCHOLI  I,63404,CHIKWEDU,SHANGANI
MTWARA,63,NEWALA,634,MAKOTE,63405,KIPIMI,
MTWARA,63,NEWALA,634,MAKOTE,63405,MAKONDEKO,
MTWARA,63,NEWALA,634,MAKOTE,63405,MAKOTE,
MTWARA,63,NEWALA,634,MCHOLI II,63406,TAWALA,GODAUNI
MTWARA,63,NEWALA,634,MCHOLI II,63406,TAWALA,MAJENGO
MTWARA,63,NEWALA,634,MCHOLI II,63406,TAWALA,MDENGA
MTWARA,63,NEWALA,634,MCHOLI II,63406,MNAIDA,KILIMAHEWA
MTWARA,63,NEWALA,634,MCHOLI II,63406,MNAIDA,MADINA
MTWARA,63,NEWALA,634,MCHOLI II,63406,LIDUMBE SHULENI,MKUNGUNI
MTWARA,63,NEWALA,634,MCHOLI II,63406,LIDUMBE SHULENI,CHIKONGO
MTWARA,63,NEWALA,634,MCHOLI II,63406,LIDUMBE SHULENI,MADINA
MTWARA,63,NEWALA,634,MCHOLI II,63406,LIDUMBE SHULENI,DUBAI
MTWARA,63,NEWALA,634,MCHOLI II,63406,MITUMBATI,MKUNGUNI
MTWARA,63,NEWALA,634,MCHOLI II,63406,MITUMBATI,MWEMBENI
MTWARA,63,NEWALA,634,MCHOLI II,63406,MSILILI,GODAUNI
MTWARA,63,NEWALA,634,MCHOLI II,63406,MSILILI,MASHINE
MTWARA,63,NEWALA,634,MNEKACHI,63407,NAMBUNGA,
MTWARA,63,NEWALA,634,MNEKACHI,63407,CHIWAMBO,
MTWARA,63,NEWALA,634,MNEKACHI,63407,MKOMA I,
MTWARA,63,NEWALA,634,MNEKACHI,63407,IMANI,
MTWARA,63,NEWALA,634,MNEKACHI,63407,KAZAMOYO,
MTWARA,63,NEWALA,634,NAMIYONGA,63408,NAMIYONGA,
MTWARA,63,NEWALA,634,NAMIYONGA,63408,NAKACHELA,
MTWARA,63,NEWALA,634,NAMIYONGA,63408,MANDUMBA,
MTWARA,63,NEWALA,634,MKWEDU,63409,TENGULENGU,BARA
MTWARA,63,NEWALA,634,MKWEDU,63409,TENGULENGU,PWANI
MTWARA,63,NEWALA,634,MKWEDU,63409,TENGULENGU,MWENGE
MTWARA,63,NEWALA,634,MKWEDU,63409,TENGULENGU,AZIMIO
MTWARA,63,NEWALA,634,MKWEDU,63409,MKWEDU,NANG'OMBA
MTWARA,63,NEWALA,634,MKWEDU,63409,MKWEDU,MGULANI
MTWARA,63,NEWALA,634,MKWEDU,63409,MKWEDU,MKWEDU
MTWARA,63,NEWALA,634,MKWEDU,63409,MKWEDU,MAJENGO
MTWARA,63,NEWALA,634,MKWEDU,63409,MNYAMBACHI,DODOMA
MTWARA,63,NEWALA,634,MKWEDU,63409,MNYAMBACHI,KIKUYU
MTWARA,63,NEWALA,634,MKWEDU,63409,MNYAMBACHI,MNYAMBACHI
MTWARA,63,NEWALA,634,MKWEDU,63409,MATALE,MAKULE
MTWARA,63,NEWALA,634,MKWEDU,63409,MATALE,CHIUTA
MTWARA,63,NEWALA,634,MKWEDU,63409,LUHEYA,LUHEYA
MTWARA,63,NEWALA,634,MKWEDU,63409,LUHEYA,RAHALEO
MTWARA,63,NEWALA,634,MKWEDU,63409,LUHEYA,PARISI
MTWARA,63,NEWALA,634,MKWEDU,63409,MACHEDI,MTWARA
MTWARA,63,NEWALA,634,MKWEDU,63409,MACHEDI,MTAKUJA
MTWARA,63,NEWALA,634,MKWEDU,63409,MACHEDI,MITEMA
MTWARA,63,NEWALA,634,MKWEDU,63409,MKWEDU II,TANDIKA
MTWARA,63,NEWALA,634,MKWEDU,63409,MKWEDU II,NINGOJENI
MTWARA,63,NEWALA,634,MKWEDU,63409,MKWEDU II,MAJENGO
MTWARA,63,NEWALA,634,MKWEDU,63409,MKWEDU II,PEMBA
MTWARA,63,NEWALA,634,MAKUKWE,63410,MAKUKWE,MAJENGO
MTWARA,63,NEWALA,634,MAKUKWE,63410,MAKUKWE,JANGWANI
MTWARA,63,NEWALA,634,MAKUKWE,63410,MAKUKWE,MKWAJUNI
MTWARA,63,NEWALA,634,MAKUKWE,63410,MAKUKWE,KIWANJANI
MTWARA,63,NEWALA,634,MAKUKWE,63410,MNAMUNJELELE,SOKOSELA
MTWARA,63,NEWALA,634,MAKUKWE,63410,MNAMUNJELELE,TANDIKA
MTWARA,63,NEWALA,634,MAKUKWE,63410,MNAMUNJELELE,USALAMA
MTWARA,63,NEWALA,634,MAKUKWE,63410,MNAMUNJELELE,KIULE
MTWARA,63,NEWALA,634,MAKUKWE,63410,MNACHI,MWEMBEMMOJA
MTWARA,63,NEWALA,634,MAKUKWE,63410,MNACHI,MBAMBAKOFI
MTWARA,63,NEWALA,634,MAKUKWE,63410,MNAUDYA,MBEMBA
MTWARA,63,NEWALA,634,MAKUKWE,63410,MNAUDYA,NAMBOLE
MTWARA,63,NEWALA,634,MAKUKWE,63410,MMONGO,MINJALE
MTWARA,63,NEWALA,634,MAKUKWE,63410,MMONGO,MBUYUNI
MTWARA,63,NEWALA,634,MAKUKWE,63410,MMONGO,MWEMBEMMOJA
MTWARA,63,NEWALA,634,MCHEMO,63411,MCHEMO A,NAMAPUTU
MTWARA,63,NEWALA,634,MCHEMO,63411,MCHEMO A,MCHEMO
MTWARA,63,NEWALA,634,MCHEMO,63411,MKUPETE,TUJENGE
MTWARA,63,NEWALA,634,MCHEMO,63411,MKUPETE,JARIBIO
MTWARA,63,NEWALA,634,MCHEMO,63411,LENGO,CHIKWAYA
MTWARA,63,NEWALA,634,MCHEMO,63411,LENGO,MDIMBA
MTWARA,63,NEWALA,634,MCHEMO,63411,LENGO,CHIHWINDI
MTWARA,63,NEWALA,634,MCHEMO,63411,LENGO,PACHANNE
MTWARA,63,NEWALA,634,MCHEMO,63411,MCHEDEBWA,MISUFINI
MTWARA,63,NEWALA,634,MCHEMO,63411,MCHEDEBWA,USALAMA
MTWARA,63,NEWALA,634,MCHEMO,63411,CHIULE,MKAMBA
MTWARA,63,NEWALA,634,MCHEMO,63411,CHIULE,MKUMBA
MTWARA,63,NEWALA,634,MCHEMO,63411,MCHEMO B,DODOMA
MTWARA,63,NEWALA,634,MCHEMO,63411,MCHEMO B,MCHEMO
MTWARA,63,NEWALA,634,MALATU,63412,MALATU JUU,SOKONI
MTWARA,63,NEWALA,634,MALATU,63412,MALATU JUU,KILIMAHEWA
MTWARA,63,NEWALA,634,MALATU,63412,TUYANGATANA,CHIWINDI
MTWARA,63,NEWALA,634,MALATU,63412,TUYANGATANA,CHIUTA
MTWARA,63,NEWALA,634,MALATU,63412,TUYANGATANA,KITANGARI
MTWARA,63,NEWALA,634,MALATU,63412,MALATU SHULENI,MATEHU
MTWARA,63,NEWALA,634,MALATU,63412,MALATU SHULENI,MCHEMBA
MTWARA,63,NEWALA,634,MALATU,63412,MALATU SHULENI,CHIUTA
MTWARA,63,NEWALA,634,MALATU,63412,MKUNJO,NAMIDONG'A
MTWARA,63,NEWALA,634,MALATU,63412,MKUNJO,MAILIMBILI
MTWARA,63,NEWALA,634,MALATU,63412,MTANDA,MWANANYAMARA
MTWARA,63,NEWALA,634,MALATU,63412,MTANDA,MWANGAZA
MTWARA,63,NEWALA,634,MALATU,63412,MNONELA,MNOLELA JUU
MTWARA,63,NEWALA,634,MALATU,63412,MNONELA,MNOLELA SHULENI
MTWARA,63,NEWALA,634,MALATU,63412,MNONELA,MNOLELA CHINI
MTWARA,63,NEWALA,634,CHITEKETE,63413,CHITEKETE,TULINGE
MTWARA,63,NEWALA,634,CHITEKETE,63413,CHITEKETE,MAJENGO
MTWARA,63,NEWALA,634,CHITEKETE,63413,CHITEKETE,RAHALEO
MTWARA,63,NEWALA,634,CHITEKETE,63413,MCHANGANI,MADUKANI
MTWARA,63,NEWALA,634,CHITEKETE,63413,MCHANGANI,KILIMAHEWA
MTWARA,63,NEWALA,634,CHITEKETE,63413,NAMBUDI,MIKARANGA
MTWARA,63,NEWALA,634,CHITEKETE,63413,NAMBUDI,MISUFINI
MTWARA,63,NEWALA,634,CHITEKETE,63413,NAMKONDA,NAMKONDA
MTWARA,63,NEWALA,634,CHITEKETE,63413,NAMKONDA,MASASI
MTWARA,63,NEWALA,634,MNYAMBE,63414,MNYAMBE,MNYAMBE CHINI
MTWARA,63,NEWALA,634,MNYAMBE,63414,MNYAMBE,MTAMA
MTWARA,63,NEWALA,634,MNYAMBE,63414,MNYAMBE,MSOKANI
MTWARA,63,NEWALA,634,MNYAMBE,63414,MNYAMBE,MNYAMBE JUU
MTWARA,63,NEWALA,634,MNYAMBE,63414,MNYAMBE,KILIMAHEWA
MTWARA,63,NEWALA,634,MNYAMBE,63414,MNIMA,LUCHEMO
MTWARA,63,NEWALA,634,MNYAMBE,63414,MNIMA,MNGUMBI
MTWARA,63,NEWALA,634,MNYAMBE,63414,MNIMA,MKALENDA
MTWARA,63,NEWALA,634,MNYAMBE,63414,MNIMA,MKUMBA
MTWARA,63,NEWALA,634,MNYAMBE,63414,MAJEMBE JUU,MAJENGO
MTWARA,63,NEWALA,634,MNYAMBE,63414,MAJEMBE JUU,SAUTI MOJA
MTWARA,63,NEWALA,634,MNYAMBE,63414,MAJEMBE JUU,KITANGARI
MTWARA,63,NEWALA,634,MNYAMBE,63414,MAJEMBE JUU,MNUMBA
MTWARA,63,NEWALA,634,MNYAMBE,63414,MNAYOPE,MADUKANI
MTWARA,63,NEWALA,634,MNYAMBE,63414,MNAYOPE,MNAYOPE JUU
MTWARA,63,NEWALA,634,MNYAMBE,63414,MNAYOPE,NALUWAYA
MTWARA,63,NEWALA,634,MNYAMBE,63414,MNAYOPE,CHILIMBA
MTWARA,63,NEWALA,634,MNYAMBE,63414,HENGAPANO,NACHIPOME
MTWARA,63,NEWALA,634,MNYAMBE,63414,HENGAPANO,NANGUKU
MTWARA,63,NEWALA,634,MNYAMBE,63414,BAHATI,KANISANI
MTWARA,63,NEWALA,634,MNYAMBE,63414,BAHATI,LUWONGO
MTWARA,63,NEWALA,634,MNYAMBE,63414,BAHATI,MITENE
MTWARA,63,NEWALA,634,MAPUTI,63415,MAPUTI,KITANGARI TTC
MTWARA,63,NEWALA,634,MAPUTI,63415,MAPUTI,LIKANDAHULE
MTWARA,63,NEWALA,634,MAPUTI,63415,MAPUTI,MMEA
MTWARA,63,NEWALA,634,MAPUTI,63415,MAPUTI,JANGWANI
MTWARA,63,NEWALA,634,MAPUTI,63415,MIKWANGA,MITANGA
MTWARA,63,NEWALA,634,MAPUTI,63415,KADENGWA,MAKASINI
MTWARA,63,NEWALA,634,MAPUTI,63415,KADENGWA,MDENGA
MTWARA,63,NEWALA,634,MAPUTI,63415,MNAUYA,NAMCHACHA
MTWARA,63,NEWALA,634,MAPUTI,63415,MNAUYA,MAYANGA
MTWARA,63,NEWALA,634,MAPUTI,63415,MNAUYA,MAULE
MTWARA,63,NEWALA,634,MAPUTI,63415,MTONGWELE CHINI,SIJAONA
MTWARA,63,NEWALA,634,MAPUTI,63415,MTONGWELE CHINI,ELIMU
MTWARA,63,NEWALA,634,MAPUTI,63415,MTONGWELE CHINI,CHIKONGILA
MTWARA,63,NEWALA,634,MAPUTI,63415,MTONGWELE CHINI,KISIWANI
MTWARA,63,NEWALA,634,MAPUTI,63415,LIKWAYA,BONDENI
MTWARA,63,NEWALA,634,MAPUTI,63415,LIKWAYA,KILIMANI
MTWARA,63,NEWALA,634,KITANGARI,63416,KITANGARI SOKONI,BONDENI
MTWARA,63,NEWALA,634,KITANGARI,63416,KITANGARI SOKONI,KILIMAHEWA
MTWARA,63,NEWALA,634,KITANGARI,63416,KITANGANI HOSPITALI,MAJENGO
MTWARA,63,NEWALA,634,KITANGARI,63416,KITANGANI HOSPITALI,KITANGARI HOSPITALI
MTWARA,63,NEWALA,634,KITANGARI,63416,NIAMOJA,NACHILINDIMA
MTWARA,63,NEWALA,634,KITANGARI,63416,NIAMOJA,TANKINI
MTWARA,63,NEWALA,634,KITANGARI,63416,NIAMOJA,MNING'ALIYE
MTWARA,63,NEWALA,634,KITANGARI,63416,MANDALA,GHALANI
MTWARA,63,NEWALA,634,KITANGARI,63416,MANDALA,SHULENI
MTWARA,63,NEWALA,634,KITANGARI,63416,MITEMA,BICHI
MTWARA,63,NEWALA,634,KITANGARI,63416,MITEMA,AMKENI
MTWARA,63,NEWALA,634,KITANGARI,63416,MITEMA,GENGENI
MTWARA,63,NEWALA,634,MTOPWA,63417,MTOPWA,TUSHIRIKIANE
MTWARA,63,NEWALA,634,MTOPWA,63417,MTOPWA,JUHUDI
MTWARA,63,NEWALA,634,MTOPWA,63417,TUKAZANE,TULIA
MTWARA,63,NEWALA,634,MTOPWA,63417,TUKAZANE,KAZAMOYO
MTWARA,63,NEWALA,634,MTOPWA,63417,TUKAZANE,TUMAINI
MTWARA,63,NEWALA,634,MTOPWA,63417,CHILONDOLO,MKUNGURU
MTWARA,63,NEWALA,634,MTOPWA,63417,CHILONDOLO,MTEPELA
MTWARA,63,NEWALA,634,MTOPWA,63417,CHILONDOLO,MBALU
MTWARA,63,NEWALA,634,CHIWONGA,63418,CHIWONGA,MKOTO
MTWARA,63,NEWALA,634,CHIWONGA,63418,CHIWONGA,AZIMIO
MTWARA,63,NEWALA,634,CHIWONGA,63418,CHIWONGA,CHINDOLA
MTWARA,63,NEWALA,634,CHIWONGA,63418,CHIWONGA,CHILUMBE
MTWARA,63,NEWALA,634,CHIWONGA,63418,CHIWONGA,KILIMAHEWA
MTWARA,63,NEWALA,634,CHIWONGA,63418,CHIHWINDI,AZIMIO
MTWARA,63,NEWALA,634,CHIWONGA,63418,CHIHWINDI,JUHUDI
MTWARA,63,NEWALA,634,CHIWONGA,63418,CHIKUTI,MANGAMENO
MTWARA,63,NEWALA,634,CHIWONGA,63418,CHIKUTI,DIMENE
MTWARA,63,NEWALA,634,CHIWONGA,63418,PACHANNE,MBEBEDE
MTWARA,63,NEWALA,634,CHIWONGA,63418,PACHANNE,MISUFINI
MTWARA,63,NEWALA,634,CHIWONGA,63418,UKOMBOZI,BONDENI
MTWARA,63,NEWALA,634,CHIWONGA,63418,UKOMBOZI,KILIMANI
MTWARA,63,NEWALA,634,CHIWONGA,63418,MMULUNGA,GODAUNI
MTWARA,63,NEWALA,634,CHIWONGA,63418,MMULUNGA,NANG'UMBA
MTWARA,63,NEWALA,634,MKOMA II,63419,MKOMA II,ULINZI
MTWARA,63,NEWALA,634,MKOMA II,63419,MKOMA II,AMANI
MTWARA,63,NEWALA,634,MKOMA II,63419,MKOMA II,USALAMA
MTWARA,63,NEWALA,634,MKOMA II,63419,LIHANGA,MWONGOZO
MTWARA,63,NEWALA,634,MKOMA II,63419,LOCHINU,MAKONDE
MTWARA,63,NEWALA,634,MKOMA II,63419,LOCHINU,MAJENGO
MTWARA,63,NEWALA,634,MKOMA II,63419,LOCHINU,DODOMA
MTWARA,63,NEWALA,634,MKOMA II,63419,LOCHINU,JANGWANI
MTWARA,63,NEWALA,634,MKOMA II,63419,NANGUDYANE,CHIYANGA
MTWARA,63,NEWALA,634,MKOMA II,63419,NANGUDYANE,NANGUDYANE
MTWARA,63,NEWALA,634,MKOMA II,63419,NANGUDYANE,MAGOMBO
MTWARA,63,NEWALA,634,MKOMA II,63419,CHIKALULE,CHIKALULE
MTWARA,63,NEWALA,634,CHILANGALA,63420,NAMDIMBA,SHULENI
MTWARA,63,NEWALA,634,CHILANGALA,63420,NAMDIMBA,CHIWATA
MTWARA,63,NEWALA,634,CHILANGALA,63420,NAMDIMBA,CHANG'OMBE
MTWARA,63,NEWALA,634,CHILANGALA,63420,NAMDIMBA,MWENDAPOLE
MTWARA,63,NEWALA,634,CHILANGALA,63420,MIYUYU,LIHUMBO
MTWARA,63,NEWALA,634,CHILANGALA,63420,MIYUYU,MNAZIMMOJA
MTWARA,63,NEWALA,634,CHILANGALA,63420,MIYUYU,MIEMBENI
MTWARA,63,NEWALA,634,CHILANGALA,63420,MIYUYU,LILONDO
MTWARA,63,NEWALA,634,CHILANGALA,63420,MIYUYU,MKUO
MTWARA,63,NEWALA,634,CHILANGALA,63420,MIYUYU,CHILOLELO
MTWARA,63,NEWALA,634,CHILANGALA,63420,CHILANGALA,IKULU
MTWARA,63,NEWALA,634,CHILANGALA,63420,CHILANGALA,BAHATI
MTWARA,63,NEWALA,634,CHILANGALA,63420,CHILANGALA,RAHALEO
MTWARA,63,NEWALA,634,CHILANGALA,63420,CHILANGALA,MBUYUNI
MTWARA,63,NEWALA,634,CHILANGALA,63420,CHILANGALA,MDENGANAMADI
MTWARA,63,NEWALA,634,CHILANGALA,63420,MNYEGACHI,MNAZIMMOJA
MTWARA,63,NEWALA,634,CHILANGALA,63420,MNYEGACHI,MBUYUNI
MTWARA,63,NEWALA,634,CHILANGALA,63420,MNYEGACHI,SHAURI MOYO
MTWARA,63,NEWALA,634,CHILANGALA,63420,MKUDUMBA,LIHONGA
MTWARA,63,NEWALA,634,CHILANGALA,63420,MKUDUMBA,KILIMAHEWA
MTWARA,63,NEWALA,634,CHILANGALA,63420,MKUDUMBA,LIHINDI
MTWARA,63,NEWALA,634,MDIMBA MPELEMPELE,63421,MDIMBA,CHITAMA
MTWARA,63,NEWALA,634,MDIMBA MPELEMPELE,63421,MDIMBA,MAJENGO
MTWARA,63,NEWALA,634,MDIMBA MPELEMPELE,63421,MDIMBA,BARABARANI
MTWARA,63,NEWALA,634,MDIMBA MPELEMPELE,63421,NGALU,DODOMA
MTWARA,63,NEWALA,634,MDIMBA MPELEMPELE,63421,NGALU,NEWALA
MTWARA,63,NEWALA,634,MDIMBA MPELEMPELE,63421,NGALU,KITANGARI
MTWARA,63,NEWALA,634,MDIMBA MPELEMPELE,63421,MINJALE,MDUHE
MTWARA,63,NEWALA,634,MDIMBA MPELEMPELE,63421,MINJALE,MINJALE A
MTWARA,63,NEWALA,634,MDIMBA MPELEMPELE,63421,MINJALE,MINJALE B
MTWARA,63,NEWALA,634,MDIMBA MPELEMPELE,63421,MINJALE,CHIKUNDA
MTWARA,63,NEWALA,634,MDIMBA MPELEMPELE,63421,MINJALE,CHIKWAYA
MTWARA,63,NEWALA,634,MDIMBA MPELEMPELE,63421,MINJALE,MMOVO
MTWARA,63,NEWALA,634,MDIMBA MPELEMPELE,63421,MINJALE,MSALABANI
MTWARA,63,NEWALA,634,MDIMBA MPELEMPELE,63421,CHITENDA,CHITENDA
MTWARA,63,NEWALA,634,MDIMBA MPELEMPELE,63421,CHITENDA,MAPUTO
MTWARA,63,NEWALA,634,MTONYA,63422,MAJENGO,
MTWARA,63,NEWALA,634,MTONYA,63422,MONEKA,
MTWARA,63,NEWALA,634,MTONYA,63422,LEKANELO,
MTWARA,63,NEWALA,634,NAKAHAKO,63423,NAKAHAKO,JUHUDI
MTWARA,63,NEWALA,634,NAKAHAKO,63423,NAKAHAKO,MSIMAMO
MTWARA,63,NEWALA,634,NAKAHAKO,63423,NAKAHAKO,MDENGA
MTWARA,63,NEWALA,634,NAKAHAKO,63423,NAKAHAKO,POLEPOLE
MTWARA,63,NEWALA,634,NAKAHAKO,63423,MNAUKE,MIEMBENI
MTWARA,63,NEWALA,634,NAKAHAKO,63423,MNAUKE,MAENDELEO
MTWARA,63,NEWALA,634,NAKAHAKO,63423,MNAUKE,SONGAMBELE
MTWARA,63,NEWALA,634,NAKAHAKO,63423,MITAHU,MKUNDANE
MTWARA,63,NEWALA,634,NAKAHAKO,63423,MITAHU,MAKONDEKO
MTWARA,63,NEWALA,634,NAKAHAKO,63423,MITAHU,CHIPELELE
MTWARA,63,NEWALA,634,NAKAHAKO,63423,MPALU,MCHAURU
MTWARA,63,NEWALA,634,NAKAHAKO,63423,MPALU,PACHANNE
MTWARA,63,NEWALA,634,NAKAHAKO,63423,LUKOHE,KISIWANI
MTWARA,63,NEWALA,634,NAKAHAKO,63423,LUKOHE,KILIMAHEWA
MTWARA,63,NEWALA,634,MAKONGA,63424,MAKONGA,
MTWARA,63,NEWALA,634,MAKONGA,63424,JUHUDI,
MTWARA,63,NEWALA,634,MAKONGA,63424,NANYONDA,
MTWARA,63,NEWALA,634,MAKONGA,63424,KILINDU,
MTWARA,63,NEWALA,634,MAKONGA,63424,MTANGALANGA,
MTWARA,63,NEWALA,634,MTUNGURU,63425,MTUNGURU,NAMATILI
MTWARA,63,NEWALA,634,MTUNGURU,63425,MTUNGURU,MAPAMBANO
MTWARA,63,NEWALA,634,MTUNGURU,63425,MTUNGURU,MADINA
MTWARA,63,NEWALA,634,MTUNGURU,63425,MTUNGURU,KAZAMOYO
MTWARA,63,NEWALA,634,MTUNGURU,63425,NGONGO,KILIMANI
MTWARA,63,NEWALA,634,MTUNGURU,63425,NGONGO,BONDENI
MTWARA,63,NEWALA,634,MTUNGURU,63425,MANGO,HENGANELO
MTWARA,63,NEWALA,634,MTUNGURU,63425,MANGO,MBEBEDE
MTWARA,63,NEWALA,634,MTUNGURU,63425,MKWAYA,MAKOTE
MTWARA,63,NEWALA,634,MTUNGURU,63425,MKWAYA,MIEMBENI
MTWARA,63,NEWALA,634,MTUNGURU,63425,MKWAYA,NAMTIKA
MTWARA,63,NEWALA,634,MTUNGURU,63425,MKWAYA,USALAMA
MTWARA,63,NEWALA,634,MTUNGURU,63425,MKWAYA,MJIMWEMA
MTWARA,63,NEWALA,634,CHIHANGU,63426,MTONGWELE JUU,UZUNGUNI
MTWARA,63,NEWALA,634,CHIHANGU,63426,MTONGWELE JUU,BORA SALAMA
MTWARA,63,NEWALA,634,CHIHANGU,63426,MTONGWELE JUU,MBONDE
MTWARA,63,NEWALA,634,CHIHANGU,63426,CHIHANGU A,MMANJE
MTWARA,63,NEWALA,634,CHIHANGU,63426,CHIHANGU A,MAPALE
MTWARA,63,NEWALA,634,CHIHANGU,63426,CHIHANGU A,NAMMEMBE
MTWARA,63,NEWALA,634,CHIHANGU,63426,CHIHANGU B,KITUONI
MTWARA,63,NEWALA,634,CHIHANGU,63426,CHIHANGU B,MIKUMBI
MTWARA,63,NEWALA,634,CHIHANGU,63426,IDAMNOLE,KANISANI
MTWARA,63,NEWALA,634,CHIHANGU,63426,IDAMNOLE,META
MTWARA,63,NEWALA,634,CHIHANGU,63426,IDAMNOLE,KILIMAHEWA
MTWARA,63,NEWALA,634,CHIHANGU,63426,IDAMNOLE,NDONDA
MTWARA,63,NEWALA,634,NAMBALI,63427,NAMBALI A,LILOYA
MTWARA,63,NEWALA,634,NAMBALI,63427,NAMBALI A,CHIWONGA
MTWARA,63,NEWALA,634,NAMBALI,63427,MAHOHA,TANDIKA
MTWARA,63,NEWALA,634,NAMBALI,63427,MAHOHA,TABORA
MTWARA,63,NEWALA,634,NAMBALI,63427,MMALACHI,MSIKITINI
MTWARA,63,NEWALA,634,NAMBALI,63427,MMALACHI,MIYAU
MTWARA,63,NEWALA,634,NAMBALI,63427,MMALACHI,KILIMANI
MTWARA,63,NEWALA,634,NAMBALI,63427,MMALACHI,SHULENI
MTWARA,63,NEWALA,634,NAMBALI,63427,NAMBALI B,MNYAMBE
MTWARA,63,NEWALA,634,NAMBALI,63427,NAMBALI B,MIKALANGA
MTWARA,63,NEWALA,634,NAMBALI,63427,CHILENDE,JUHUDI
MTWARA,63,NEWALA,634,NAMBALI,63427,CHILENDE,AMANI
MTWARA,63,NEWALA,634,NANDWAHI,63428,NANDWAHI,NEWALA
MTWARA,63,NEWALA,634,NANDWAHI,63428,NANDWAHI,SOKONI GODAUNI
MTWARA,63,NEWALA,634,NANDWAHI,63428,NANDWAHI,LIKULA
MTWARA,63,NEWALA,634,NANDWAHI,63428,NANDWAHI,TANKINI
MTWARA,63,NEWALA,634,NANDWAHI,63428,MADABA,AZIMIO
MTWARA,63,NEWALA,634,NANDWAHI,63428,MADABA,MADABA
MTWARA,63,NEWALA,634,NANDWAHI,63428,MBEMBELE,MONGOMONGO
MTWARA,63,NEWALA,634,NANDWAHI,63428,MBEMBELE,ZIARANI
MTWARA,63,NEWALA,634,NANDWAHI,63428,VIHOKOLI,VIHOKOLI
MTWARA,63,NEWALA,634,NANDWAHI,63428,VIHOKOLI,KARIBU
MTWARA,63,NEWALA,634,NANDWAHI,63428,VIHOKOLI,NANDEDA
MTWARA,63,NEWALA,634,NANDWAHI,63428,CHIKUNDA / LUBIDO,MCHIMILE
MTWARA,63,NEWALA,634,NANDWAHI,63428,CHIKUNDA / LUBIDO,LIKULA
MTWARA,63,NEWALA,634,NANDWAHI,63428,MPIRANI,MPIRANI
MTWARA,63,NEWALA,634,NANDWAHI,63428,MPIRANI,TANDIKA
MTWARA,63,NEWALA,634,NANDWAHI,63428,CHIPITO,MIEMBENI
MTWARA,63,NEWALA,634,NANDWAHI,63428,CHIPITO,SOKOINE
MTWARA,63,NEWALA,634,MPWAPWA,63429,SONGAMBELE,MNYENGACHI
MTWARA,63,NEWALA,634,MPWAPWA,63429,SONGAMBELE,NAMENO
MTWARA,63,NEWALA,634,MPWAPWA,63429,SONGAMBELE,LUBIDO
MTWARA,63,NEWALA,634,MPWAPWA,63429,MACHENJE,MACHENJE
MTWARA,63,NEWALA,634,MPWAPWA,63429,MACHENJE,KILIDU
MTWARA,63,NEWALA,634,MPWAPWA,63429,MPWAPWA,MPWAPWA  A
MTWARA,63,NEWALA,634,MPWAPWA,63429,MPWAPWA,MPWAPWA  B
MTWARA,63,NEWALA,634,MPWAPWA,63429,MPWAPWA,MPWAPWA C
MTWARA,63,NEWALA,634,MNYEU,63430,MNYEU,TUPENDANE
MTWARA,63,NEWALA,634,MNYEU,63430,MNYEU,MIHOGONI
MTWARA,63,NEWALA,634,MNYEU,63430,MNYEU,TANDIKA
MTWARA,63,NEWALA,634,MNYEU,63430,MBEYA,CHIKWAYA
MTWARA,63,NEWALA,634,MNYEU,63430,MBEYA,NAMBUDI
MTWARA,63,NEWALA,634,MNYEU,63430,TULIENI,CHIKUNDA
MTWARA,63,NEWALA,634,MNYEU,63430,TULIENI,SHANGANI
MTWARA,63,NEWALA,634,MNYEU,63430,MBEBEDE,MBEBEDE
MTWARA,63,NEWALA,634,MNYEU,63430,MBEBEDE,MAJENGO
MTWARA,63,NEWALA,634,MIKUMBI,63431,MDENGA,MDENGA
MTWARA,63,NEWALA,634,MIKUMBI,63431,MDENGA,KANISANI
MTWARA,63,NEWALA,634,MIKUMBI,63431,NAVANGA,NAHANGA
MTWARA,63,NEWALA,634,MIKUMBI,63431,NAVANGA,KUSINI
MTWARA,63,NEWALA,634,MIKUMBI,63431,NAVANGA,NAVANGA
MTWARA,63,NEWALA,634,MIKUMBI,63431,MKONGI,SHULENI
MTWARA,63,NEWALA,634,MIKUMBI,63431,MKONGI,SOKONI
MTWARA,63,NEWALA,634,MIKUMBI,63431,MKONGI,BONDENI
MTWARA,63,NEWALA,634,MIKUMBI,63431,NAMANGUDU,MAHICHI
MTWARA,63,NEWALA,634,MIKUMBI,63431,NAMANGUDU,NAMANGUDU
MTWARA,63,NEWALA,634,MIKUMBI,63431,NAMANGUDU,MIYAU
MTWARA,63,NEWALA,634,MIKUMBI,63431,NAMANGUDU,CHIKUNDA
MTWARA,63,NEWALA,634,MIKUMBI,63431,NAMANGUDU,DINYEHE
MTWARA,63,NEWALA,634,MIKUMBI,63431,MIKUMBI,CHILANGALA
MTWARA,63,NEWALA,634,MIKUMBI,63431,MIKUMBI,CHIDENGELE
MTWARA,63,NEWALA,634,MIKUMBI,63431,MIKUMBI,LIDIMBA
MTWARA,63,NEWALA,634,MIKUMBI,63431,MIKUMBI,MIKUMBI
MTWARA,63,NEWALA,634,JULIA,63432,JULIA,
MTWARA,63,NEWALA,634,JULIA,63432,KILIMAHEWA,
MTWARA,63,NEWALA,634,JULIA,63432,MWANOHA,
MTWARA,63,NEWALA,634,NANGWALA,63433,UWANJA WA NDEGE,
MTWARA,63,NEWALA,634,NANGWALA,63433,KOTAZI,
MTWARA,63,NEWALA,634,NANGWALA,63433,NANGWALA CHINI,
MTWARA,63,NEWALA,634,NANGWALA,63433,JESHINI,
MTWARA,63,NEWALA,634,NANGWALA,63433,SHULENI CHITANDI,
MTWARA,63,NEWALA,634,NANGWALA,63433,GODAUNI CHITANDI,
MTWARA,63,NEWALA,634,TULINDANE,63434,NAKACHELA,
MTWARA,63,NEWALA,634,TULINDANE,63434,PACHOTO,
MTWARA,63,NEWALA,634,TULINDANE,63434,MAKOTE,
MTWARA,63,NEWALA,634,TULINDANE,63434,MBENGA,
MTWARA,63,NEWALA,634,TULINDANE,63434,LUCHINGU A,
MTWARA,63,NEWALA,634,TULINDANE,63434,AMKENI,
MTWARA,63,NEWALA,634,TULINDANE,63434,MFARANYAKI,
MTWARA,63,NEWALA,634,TULINDANE,63434,CHIWEMBI,
MTWARA,63,NEWALA,634,TULINDANE,63434,MATANKINI,
MTWARA,63,NEWALA,634,TULINDANE,63434,MAJENGO,
MTWARA,63,NEWALA,634,MKULUNG'ULU,63435,LONDO,
MTWARA,63,NEWALA,634,MKULUNG'ULU,63435,MAGOMBO,
MTWARA,63,NEWALA,634,MKULUNG'ULU,63435,MKULUNG'ULU,
MTWARA,63,NEWALA,634,MAHUMBIKA,63436,MAHUMBIKA,
MTWARA,63,NEWALA,634,MAHUMBIKA,63436,KIKUYU,
MTWARA,63,NEWALA,634,MAHUMBIKA,63436,CHIKWAYA,
MTWARA,63,NEWALA,634,MTUMACHI,63437,MCHOLI GODAUNI,MCHOLI GODAUNI
MTWARA,63,NEWALA,634,MTUMACHI,63437,MCHOLI GODAUNI,UMOJA
MTWARA,63,NEWALA,634,MTUMACHI,63437,TUMAINI,TWENDENI
MTWARA,63,NEWALA,634,MTUMACHI,63437,TUMAINI,SHIRIKISHO
MTWARA,63,NEWALA,634,MTUMACHI,63437,MAKORONGO,MBUYUNI
MTWARA,63,NEWALA,634,MTUMACHI,63437,MAKORONGO,MADINI
MTWARA,63,NEWALA,634,MTUMACHI,63437,CHIHWINDI,MALANJE
MTWARA,63,NEWALA,634,MTUMACHI,63437,CHIHWINDI,ZAWIANI
MTWARA,63,NEWALA,634,MUUNGANO,63438,MNALI,JITEGEMEE
MTWARA,63,NEWALA,634,MUUNGANO,63438,MNALI,MWANGAZA
MTWARA,63,NEWALA,634,MUUNGANO,63438,MAPINDUZI,RAHALEO
MTWARA,63,NEWALA,634,MUUNGANO,63438,MAPINDUZI,MAPINDUZI
MTWARA,63,NEWALA,634,MUUNGANO,63438,NAMKONDA,AMANI
MTWARA,63,NEWALA,634,MUUNGANO,63438,NAMKONDA,JANGWANI
MTWARA,63,NEWALA,634,MUUNGANO,63438,NANDA,MVULENI
MTWARA,63,NEWALA,634,MUUNGANO,63438,NANDA,MTWARA
MTWARA,63,NEWALA,634,MUUNGANO,63438,NANDA,DODOMA
MTWARA,63,NEWALA,634,MUUNGANO,63438,NANDA,NAMANGUDU
MTWARA,63,NEWALA,634,MUUNGANO,63438,NANDA,LIZABONI
MTWARA,63,NEWALA,634,MUUNGANO,63438,MMOVO,MMOVO
MTWARA,63,NEWALA,634,MUUNGANO,63438,,MNAYOPE
MTWARA,63,MASASI,635,MKUTI,63501,SABA SABA,
MTWARA,63,MASASI,635,MKUTI,63501,MADEKO,
MTWARA,63,MASASI,635,MKUTI,63501,KITUNDA,
MTWARA,63,MASASI,635,MKUTI,63501,ROBENI,
MTWARA,63,MASASI,635,MKUTI,63501,KISIWANI,
MTWARA,63,MASASI,635,MKUTI,63501,MAJIMAJI,
MTWARA,63,MASASI,635,MKUTI,63501,MKUTIKATI,
MTWARA,63,MASASI,635,MARIKA,63502,NAMATUNU,NAMATUNU
MTWARA,63,MASASI,635,MARIKA,63502,NAMATUNU,MIRIMITAI
MTWARA,63,MASASI,635,MARIKA,63502,NAMATUNU,MARUASHA
MTWARA,63,MASASI,635,MARIKA,63502,NAMATUNU,IPIHO
MTWARA,63,MASASI,635,MARIKA,63502,NAMATUNU,SOGEA
MTWARA,63,MASASI,635,MARIKA,63502,MNARANI,MSAKALA
MTWARA,63,MASASI,635,MARIKA,63502,MNARANI,MAKONDEKO
MTWARA,63,MASASI,635,MARIKA,63502,MNARANI,MAFURIKO
MTWARA,63,MASASI,635,MARIKA,63502,MNARANI,NAZARETI
MTWARA,63,MASASI,635,MARIKA,63502,MARIKA,CHANG´OMBE
MTWARA,63,MASASI,635,MARIKA,63502,MARIKA,SAUTI MOJA
MTWARA,63,MASASI,635,MARIKA,63502,MARIKA,MUUNGANO
MTWARA,63,MASASI,635,MARIKA,63502,MARIKA,KAZAMOYO
MTWARA,63,MASASI,635,MARIKA,63502,MARIKA,UMOJA
MTWARA,63,MASASI,635,MARIKA,63502,MACHOMBE,MACHOMBE
MTWARA,63,MASASI,635,MARIKA,63502,MACHOMBE,AMANI
MTWARA,63,MASASI,635,MARIKA,63502,MACHOMBE,NAKWANDA
MTWARA,63,MASASI,635,MARIKA,63502,MACHOMBE,MIPAKANI
MTWARA,63,MASASI,635,LUKULEDI,63505,LUKULEDI A,BONDENI
MTWARA,63,MASASI,635,LUKULEDI,63505,LUKULEDI A,WARIOBA
MTWARA,63,MASASI,635,LUKULEDI,63505,LUKULEDI A,MADUKANI
MTWARA,63,MASASI,635,LUKULEDI,63505,LUKULEDI A,CHIUNGUTWA
MTWARA,63,MASASI,635,LUKULEDI,63505,LUKULEDI A,SHULENI
MTWARA,63,MASASI,635,LUKULEDI,63505,LUKULEDI A,MAPINDUZI
MTWARA,63,MASASI,635,LUKULEDI,63505,LUKULEDI A,GHALANI
MTWARA,63,MASASI,635,LUKULEDI,63505,LUKULEDI B,KILIMANI HEWA
MTWARA,63,MASASI,635,LUKULEDI,63505,LUKULEDI B,NAMBARAPI
MTWARA,63,MASASI,635,LUKULEDI,63505,LUKULEDI B,TEXASI
MTWARA,63,MASASI,635,LUKULEDI,63505,LUKULEDI B,MISSION
MTWARA,63,MASASI,635,LUKULEDI,63505,LUKULEDI B,MBUYUNI
MTWARA,63,MASASI,635,LUKULEDI,63505,LUKULEDI B,KIBO
MTWARA,63,MASASI,635,LUKULEDI,63505,LUKULEDI B,AZIMIO
MTWARA,63,MASASI,635,LUKULEDI,63505,LUKULEDI B,DEMUNI
MTWARA,63,MASASI,635,LUKULEDI,63505,MRAUSHI,MRAUSHI A
MTWARA,63,MASASI,635,LUKULEDI,63505,MRAUSHI,MRAUSHI B
MTWARA,63,MASASI,635,LUKULEDI,63505,MRAUSHI,MWANGAWALEO A
MTWARA,63,MASASI,635,LUKULEDI,63505,MRAUSHI,MWANGAWALEO B
MTWARA,63,MASASI,635,LUKULEDI,63505,MRAUSHI,MASONGA
MTWARA,63,MASASI,635,LUKULEDI,63505,MKOLOPOLA,KILIMANI
MTWARA,63,MASASI,635,LUKULEDI,63505,MKOLOPOLA,MIEMBENI
MTWARA,63,MASASI,635,LUKULEDI,63505,MKOLOPOLA,OFISINI
MTWARA,63,MASASI,635,LUKULEDI,63505,MKOLOPOLA,MSIKITINI
MTWARA,63,MASASI,635,LUKULEDI,63505,MKOLOPOLA,SHULENI
MTWARA,63,MASASI,635,NAMAJANI,63506,NAMAHINGA,MAJENGO
MTWARA,63,MASASI,635,NAMAJANI,63506,NAMAHINGA,SHULENI
MTWARA,63,MASASI,635,NAMAJANI,63506,NAMAHINGA,SOKONI
MTWARA,63,MASASI,635,NAMAJANI,63506,NAMAHINGA,DUKANI
MTWARA,63,MASASI,635,NAMAJANI,63506,NAMAHINGA,TANDIKA
MTWARA,63,MASASI,635,NAMAJANI,63506,NAMAJANI,MAPUTO
MTWARA,63,MASASI,635,NAMAJANI,63506,NAMAJANI,DODOMA
MTWARA,63,MASASI,635,NAMAJANI,63506,NAMAJANI,TANKINI
MTWARA,63,MASASI,635,NAMAJANI,63506,NAMAJANI,MAGOMENI
MTWARA,63,MASASI,635,NAMAJANI,63506,NAMAJANI,ZAHANATI
MTWARA,63,MASASI,635,NAMAJANI,63506,AMANI CHIRORO,MIJELEJELE
MTWARA,63,MASASI,635,NAMAJANI,63506,AMANI CHIRORO,MIGOMBANI
MTWARA,63,MASASI,635,NAMAJANI,63506,AMANI CHIRORO,MAJENGO
MTWARA,63,MASASI,635,NAMAJANI,63506,AMANI CHIRORO,KILIMANIHEWA
MTWARA,63,MASASI,635,NAMAJANI,63506,AMANI CHIRORO,CHIMBO
MTWARA,63,MASASI,635,NAMAJANI,63506,NGALOLE,KILIMANIHEWA
MTWARA,63,MASASI,635,NAMAJANI,63506,NGALOLE,MIGOMBANI
MTWARA,63,MASASI,635,NAMAJANI,63506,NGALOLE,MNAZIMMOJA
MTWARA,63,MASASI,635,NAMAJANI,63506,NGALOLE,TANDIKA
MTWARA,63,MASASI,635,NAMAJANI,63506,NGALOLE,MBUYUNI
MTWARA,63,MASASI,635,NAMAJANI,63506,NGALOLE,CHANG'OMBE
MTWARA,63,MASASI,635,NAMAJANI,63506,NGALOLE,NATEPO
MTWARA,63,MASASI,635,NAMAJANI,63506,MIGOMBANI,NAPANYE
MTWARA,63,MASASI,635,NAMAJANI,63506,MIGOMBANI,NAMILASI
MTWARA,63,MASASI,635,NAMAJANI,63506,MIGOMBANI,WAMIRI
MTWARA,63,MASASI,635,NAMAJANI,63506,MIGOMBANI,NAPICHE
MTWARA,63,MASASI,635,NAMATUTWE,63507,CHINGULUNGULU,MACHINGA
MTWARA,63,MASASI,635,NAMATUTWE,63507,CHINGULUNGULU,SOKOINE
MTWARA,63,MASASI,635,NAMATUTWE,63507,CHINGULUNGULU,BWAWANI
MTWARA,63,MASASI,635,NAMATUTWE,63507,CHINGULUNGULU,PACHANI
MTWARA,63,MASASI,635,NAMATUTWE,63507,CHINGULUNGULU,AMANI
MTWARA,63,MASASI,635,NAMATUTWE,63507,MKWAPA,SAMORA
MTWARA,63,MASASI,635,NAMATUTWE,63507,MKWAPA,MANDELA
MTWARA,63,MASASI,635,NAMATUTWE,63507,MKWAPA,NYERERE
MTWARA,63,MASASI,635,NAMATUTWE,63507,MKWAPA,MKAPA
MTWARA,63,MASASI,635,NAMATUTWE,63507,MKWAPA,MWINYI
MTWARA,63,MASASI,635,NAMATUTWE,63507,NAMATUTWE,MALETA
MTWARA,63,MASASI,635,NAMATUTWE,63507,NAMATUTWE,KIBAONI
MTWARA,63,MASASI,635,NAMATUTWE,63507,NAMATUTWE,CHIPUNDA
MTWARA,63,MASASI,635,NAMATUTWE,63507,NAMATUTWE,CHEMCHEM
MTWARA,63,MASASI,635,NAMATUTWE,63507,NAMATUTWE,MWANGAZA
MTWARA,63,MASASI,635,NAMATUTWE,63507,NAMATUTWE,TULIENI
MTWARA,63,MASASI,635,NAMATUTWE,63507,NAMATUTWE,PANGANI
MTWARA,63,MASASI,635,NAMATUTWE,63507,NAMATUTWE,CHIKUNJA
MTWARA,63,MASASI,635,NAMATUTWE,63507,NAMATUTWE,KILIMANIHEWA
MTWARA,63,MASASI,635,NAMATUTWE,63507,NAMATUTWE,MBUYUNI
MTWARA,63,MASASI,635,NAMATUTWE,63507,NAMATUTWE,MTONI
MTWARA,63,MASASI,635,CHIGUGU,63508,CHIGUGU,MWENJEMA
MTWARA,63,MASASI,635,CHIGUGU,63508,CHIGUGU,TANDIKA
MTWARA,63,MASASI,635,CHIGUGU,63508,CHIGUGU,TEMEKE
MTWARA,63,MASASI,635,CHIGUGU,63508,CHIGUGU,CHIGUGU
MTWARA,63,MASASI,635,CHIGUGU,63508,CHIGUGU,NAMBUTI
MTWARA,63,MASASI,635,CHIGUGU,63508,MBAJU,KATI
MTWARA,63,MASASI,635,CHIGUGU,63508,MBAJU,BONDENI
MTWARA,63,MASASI,635,CHIGUGU,63508,MBAJU,MIBUYUNI
MTWARA,63,MASASI,635,CHIGUGU,63508,MBAJU,MAJENGO
MTWARA,63,MASASI,635,CHIGUGU,63508,MBAJU,RAHA LEO JUU
MTWARA,63,MASASI,635,CHIGUGU,63508,MBAJU,RAHA LEO CHINI
MTWARA,63,MASASI,635,CHIGUGU,63508,MBEMBA,SONGAMBELE
MTWARA,63,MASASI,635,CHIGUGU,63508,MBEMBA,MBUYUNI
MTWARA,63,MASASI,635,CHIGUGU,63508,MBEMBA,TULIENI
MTWARA,63,MASASI,635,CHIGUGU,63508,MBEMBA,MAPINDUZI
MTWARA,63,MASASI,635,CHIGUGU,63508,MBEMBA,MAJIMAJI
MTWARA,63,MASASI,635,CHIGUGU,63508,MBEMBA,MIKANGAULA
MTWARA,63,MASASI,635,CHIGUGU,63508,MKUYUNI,NANYUNGU
MTWARA,63,MASASI,635,CHIGUGU,63508,MKUYUNI,CHIOMBORA
MTWARA,63,MASASI,635,CHIGUGU,63508,MKUYUNI,KISIWANI
MTWARA,63,MASASI,635,CHIGUGU,63508,MKUYUNI,MSINJAILI
MTWARA,63,MASASI,635,CHIGUGU,63508,MKUYUNI,MCHANGANI
MTWARA,63,MASASI,635,CHIWATA,63509,CHIWATA,TEMEKE
MTWARA,63,MASASI,635,CHIWATA,63509,CHIWATA,MUUNGANO
MTWARA,63,MASASI,635,CHIWATA,63509,CHIWATA,NGALOLE
MTWARA,63,MASASI,635,CHIWATA,63509,CHIWATA,OFISINI
MTWARA,63,MASASI,635,CHIWATA,63509,CHIWATA,MADUKANI
MTWARA,63,MASASI,635,CHIWATA,63509,CHIWATA,CHINDUMBA
MTWARA,63,MASASI,635,CHIWATA,63509,CHIDYA,CHIDYA OFISINI
MTWARA,63,MASASI,635,CHIWATA,63509,CHIDYA,CHIDYA SEKONDARI
MTWARA,63,MASASI,635,CHIWATA,63509,CHIDYA,NANGALOLO
MTWARA,63,MASASI,635,CHIWATA,63509,CHIDYA,NGALINJE
MTWARA,63,MASASI,635,CHIWATA,63509,CHIDYA,NAMAUNYA
MTWARA,63,MASASI,635,CHIWATA,63509,CHIDYA,ZINGATIA
MTWARA,63,MASASI,635,MKUNDI,63510,MKOROPOLA,NAMWANGA
MTWARA,63,MASASI,635,MKUNDI,63510,MKOROPOLA,MKULIWA
MTWARA,63,MASASI,635,MKUNDI,63510,MKOROPOLA,MKANDANDA
MTWARA,63,MASASI,635,MKUNDI,63510,MKOROPOLA,NANGWALE
MTWARA,63,MASASI,635,MKUNDI,63510,MKOROPOLA,NGOYANGA
MTWARA,63,MASASI,635,MKUNDI,63510,MKOROPOLA,ABENE
MTWARA,63,MASASI,635,MKUNDI,63510,MAJEMBE,KANGOMBA
MTWARA,63,MASASI,635,MKUNDI,63510,MAJEMBE,MIZINGA
MTWARA,63,MASASI,635,MKUNDI,63510,MAJEMBE,KAPENDE
MTWARA,63,MASASI,635,MKUNDI,63510,MAJEMBE,MIKUMBI
MTWARA,63,MASASI,635,MKUNDI,63510,MAJEMBE,LITIMBE
MTWARA,63,MASASI,635,MKUNDI,63510,MAJEMBE,MAGUMUCHILA
MTWARA,63,MASASI,635,MKUNDI,63510,NAKALOLA,KACHULU
MTWARA,63,MASASI,635,MKUNDI,63510,NAKALOLA,MIWALE
MTWARA,63,MASASI,635,MKUNDI,63510,NAKALOLA,NAKANJENI
MTWARA,63,MASASI,635,MKUNDI,63510,NAKALOLA,PAANEPA
MTWARA,63,MASASI,635,MKUNDI,63510,NAKALOLA,MPAMBICHILENI
MTWARA,63,MASASI,635,MKUNDI,63510,NAKACHINDU,NAMBONDO
MTWARA,63,MASASI,635,MKUNDI,63510,NAKACHINDU,MATAULA
MTWARA,63,MASASI,635,MKUNDI,63510,NAKACHINDU,NAKAONA
MTWARA,63,MASASI,635,MKUNDI,63510,NAKACHINDU,NGUWILA
MTWARA,63,MASASI,635,MKUNDI,63510,NAKACHINDU,NAMTUSI
MTWARA,63,MASASI,635,MKUNDI,63510,NAKACHINDU,NATUMIKA
MTWARA,63,MASASI,635,MKUNDI,63510,CHIPANGO,MIWALE
MTWARA,63,MASASI,635,MKUNDI,63510,CHIPANGO,NJECHELE
MTWARA,63,MASASI,635,MKUNDI,63510,CHIPANGO,NGONJINI
MTWARA,63,MASASI,635,MKUNDI,63510,CHIPANGO,CHIPANGO
MTWARA,63,MASASI,635,MKUNDI,63510,CHIPANGO,MKUNGWINI
MTWARA,63,MASASI,635,MKUNDI,63510,CHIPANGO,MAJANGILILO
MTWARA,63,MASASI,635,NANJOTA,63511,NANJOTA A,MSANGAMKUU A
MTWARA,63,MASASI,635,NANJOTA,63511,NANJOTA A,MSANGAMKUU B
MTWARA,63,MASASI,635,NANJOTA,63511,NANJOTA A,OFISINI
MTWARA,63,MASASI,635,NANJOTA,63511,NANJOTA A,BAHARINI
MTWARA,63,MASASI,635,NANJOTA,63511,NANJOTA A,MNAZIMMOJA A
MTWARA,63,MASASI,635,NANJOTA,63511,NANJOTA A,MNAZIMMOJA B
MTWARA,63,MASASI,635,NANJOTA,63511,NANJOTA A,MUHIMBILI
MTWARA,63,MASASI,635,NANJOTA,63511,NANJOTA A,GHANA
MTWARA,63,MASASI,635,NANJOTA,63511,NAIROMBO,MIEMBENI
MTWARA,63,MASASI,635,NANJOTA,63511,NAIROMBO,MSIKITINI
MTWARA,63,MASASI,635,NANJOTA,63511,NAIROMBO,SHULENI
MTWARA,63,MASASI,635,NANJOTA,63511,NAIROMBO,MANGAKA
MTWARA,63,MASASI,635,NANJOTA,63511,NAIROMBO,OFISINI
MTWARA,63,MASASI,635,NANJOTA,63511,MILUNDA,GHALANI
MTWARA,63,MASASI,635,NANJOTA,63511,MILUNDA,MISUFINI
MTWARA,63,MASASI,635,NANJOTA,63511,MILUNDA,MILUNDACHINI
MTWARA,63,MASASI,635,NANJOTA,63511,MILUNDA,MBUYUNI
MTWARA,63,MASASI,635,NANJOTA,63511,MILUNDA,MIEMBENI
MTWARA,63,MASASI,635,MKULULU,63512,MKULULU,MBALICHILA
MTWARA,63,MASASI,635,MKULULU,63512,MKULULU,MAKAZI MAPYA
MTWARA,63,MASASI,635,MKULULU,63512,MKULULU,MAJENGO
MTWARA,63,MASASI,635,MKULULU,63512,MKULULU,MNAZI MMOJA
MTWARA,63,MASASI,635,MKULULU,63512,MKULULU,MADUKANI
MTWARA,63,MASASI,635,MKULULU,63512,MKULULU,ZAHANATI
MTWARA,63,MASASI,635,MKULULU,63512,MKUNDI AMANI,MAJIMAJI
MTWARA,63,MASASI,635,MKULULU,63512,MKUNDI AMANI,AMKENI
MTWARA,63,MASASI,635,MKULULU,63512,MKUNDI AMANI,UMOJA
MTWARA,63,MASASI,635,MKULULU,63512,MKUNDI AMANI,KIVUKONI
MTWARA,63,MASASI,635,MKULULU,63512,MKUNDI AMANI,TUKAE WOTE
MTWARA,63,MASASI,635,MKULULU,63512,MFUTO,PEMBA
MTWARA,63,MASASI,635,MKULULU,63512,MFUTO,MAJIMAJI
MTWARA,63,MASASI,635,MKULULU,63512,MFUTO,CHIKUTWE
MTWARA,63,MASASI,635,MKULULU,63512,MFUTO,KAANANI
MTWARA,63,MASASI,635,MKULULU,63512,MFUTO,KILIMANI HEWA
MTWARA,63,MASASI,635,MKULULU,63512,MFUTO,MNAZI MMOJA
MTWARA,63,MASASI,635,MKULULU,63512,MIBA,TUKAEWOTE
MTWARA,63,MASASI,635,MKULULU,63512,MIBA,KILIMAHEWA
MTWARA,63,MASASI,635,MKULULU,63512,MIBA,AZIMIO
MTWARA,63,MASASI,635,MKULULU,63512,MIBA,UMOJA NI NGUVU
MTWARA,63,MASASI,635,MKULULU,63512,MPOPO,MAJIMAJI
MTWARA,63,MASASI,635,MKULULU,63512,MPOPO,OFISINI
MTWARA,63,MASASI,635,MKULULU,63512,MPOPO,NGALAMUICHE
MTWARA,63,MASASI,635,MKULULU,63512,MPOPO,MKONDE
MTWARA,63,MASASI,635,MKULULU,63512,MPOPO,MSIKITINI
MTWARA,63,MASASI,635,MKULULU,63512,MBUGO,NGUVU KAZI
MTWARA,63,MASASI,635,MKULULU,63512,MBUGO,MOTOMOTO
MTWARA,63,MASASI,635,MKULULU,63512,MBUGO,UMOJA
MTWARA,63,MASASI,635,MKULULU,63512,MBUGO,KUJITEGEMEA
MTWARA,63,MASASI,635,MKULULU,63512,MBUGO,AZIMIO
MTWARA,63,MASASI,635,MKULULU,63512,SYENJELA,MWONGOZO
MTWARA,63,MASASI,635,MKULULU,63512,SYENJELA,MAJENGO
MTWARA,63,MASASI,635,MKULULU,63512,SYENJELA,MNAZI MMOJA
MTWARA,63,MASASI,635,MKULULU,63512,SYENJELA,AMANI
MTWARA,63,MASASI,635,MKULULU,63512,SYENJELA,AMKENI
MTWARA,63,MASASI,635,MKULULU,63512,CHINGOPOLI,AMANI
MTWARA,63,MASASI,635,MKULULU,63512,CHINGOPOLI,JIDA
MTWARA,63,MASASI,635,MKULULU,63512,CHINGOPOLI,SHULENI
MTWARA,63,MASASI,635,MKULULU,63512,CHINGOPOLI,MUUNGANO
MTWARA,63,MASASI,635,MKULULU,63512,CHINGOPOLI,MTI MKUBWA
MTWARA,63,MASASI,635,MKULULU,63512,MNOLELA,UMOJA
MTWARA,63,MASASI,635,MKULULU,63512,MNOLELA,CHIUNGO
MTWARA,63,MASASI,635,MKULULU,63512,MNOLELA,TUPENDANE
MTWARA,63,MASASI,635,MKULULU,63512,MNOLELA,KANDULU
MTWARA,63,MASASI,635,MKULULU,63512,MNOLELA,ATUPELE
MTWARA,63,MASASI,635,MKULULU,63512,CHIPUNDA,MBUYUNI
MTWARA,63,MASASI,635,MKULULU,63512,CHIPUNDA,CHIKUNJA
MTWARA,63,MASASI,635,MKULULU,63512,CHIPUNDA,MADALE
MTWARA,63,MASASI,635,MKULULU,63512,CHIPUNDA,MTONI
MTWARA,63,MASASI,635,MKULULU,63512,CHIPUNDA,HEVE
MTWARA,63,MASASI,635,CHIUNGUTWA,63513,CHIUNGUTWA,CHIULE
MTWARA,63,MASASI,635,CHIUNGUTWA,63513,CHIUNGUTWA,MAGEREZA
MTWARA,63,MASASI,635,CHIUNGUTWA,63513,CHIUNGUTWA,MCHANGANI
MTWARA,63,MASASI,635,CHIUNGUTWA,63513,CHIUNGUTWA,NAMASIMBA
MTWARA,63,MASASI,635,CHIUNGUTWA,63513,CHIUNGUTWA,MSIKITINI
MTWARA,63,MASASI,635,CHIUNGUTWA,63513,CHIUNGUTWA,KILIMANIHEWA
MTWARA,63,MASASI,635,CHIUNGUTWA,63513,MAUGURA,MAUGURA
MTWARA,63,MASASI,635,CHIUNGUTWA,63513,MAUGURA,MNALAWINA
MTWARA,63,MASASI,635,CHIUNGUTWA,63513,MAUGURA,MKWAJUNI
MTWARA,63,MASASI,635,CHIUNGUTWA,63513,MAUGURA,GHALANI
MTWARA,63,MASASI,635,CHIUNGUTWA,63513,MISECHELA,MAPINDUZI
MTWARA,63,MASASI,635,CHIUNGUTWA,63513,MISECHELA,NANGOSE
MTWARA,63,MASASI,635,CHIUNGUTWA,63513,MISECHELA,MISECHELA
MTWARA,63,MASASI,635,CHIUNGUTWA,63513,MISECHELA,MDENGANAMADI
MTWARA,63,MASASI,635,CHIUNGUTWA,63513,MISECHELA,LISANJE
MTWARA,63,MASASI,635,CHIUNGUTWA,63513,MIPANDE,JIDA
MTWARA,63,MASASI,635,CHIUNGUTWA,63513,MIPANDE,CHANG’OMBE
MTWARA,63,MASASI,635,CHIUNGUTWA,63513,MIPANDE,SONGAMBELE
MTWARA,63,MASASI,635,CHIUNGUTWA,63513,MIPANDE,MSIGALILE
MTWARA,63,MASASI,635,CHIUNGUTWA,63513,MIPANDE,KALIPINDE JUU
MTWARA,63,MASASI,635,CHIUNGUTWA,63513,CHILIMBA,CHILIMBA
MTWARA,63,MASASI,635,CHIUNGUTWA,63513,CHILIMBA,MISUFINI
MTWARA,63,MASASI,635,CHIUNGUTWA,63513,CHILIMBA,LIUNGA
MTWARA,63,MASASI,635,CHIUNGUTWA,63513,CHILIMBA,LILOKOTE
MTWARA,63,MASASI,635,CHIUNGUTWA,63513,CHILIMBA,TUPENDANE
MTWARA,63,MASASI,635,CHIUNGUTWA,63513,CHILIMBA,MIEMBENI
MTWARA,63,MASASI,635,CHIUNGUTWA,63513,CHILIMBA,MIKOROSHONI
MTWARA,63,MASASI,635,CHIUNGUTWA,63513,KALIPINDE,KALIPINDE
MTWARA,63,MASASI,635,CHIUNGUTWA,63513,KALIPINDE,KISIWANI
MTWARA,63,MASASI,635,CHIUNGUTWA,63513,KALIPINDE,MWITI
MTWARA,63,MASASI,635,CHIUNGUTWA,63513,KALIPINDE,JOSHONI
MTWARA,63,MASASI,635,CHIUNGUTWA,63513,KALIPINDE,SATMAH
MTWARA,63,MASASI,635,MBUYUNI,63514,MAJEMBENDAGO,TUKAEWOTE
MTWARA,63,MASASI,635,MBUYUNI,63514,MAJEMBENDAGO,MAFURIKO
MTWARA,63,MASASI,635,MBUYUNI,63514,MAJEMBENDAGO,MIEMBENI
MTWARA,63,MASASI,635,MBUYUNI,63514,MBUYUNI,KISIWANI
MTWARA,63,MASASI,635,MBUYUNI,63514,MBUYUNI,MDENGANAMADI
MTWARA,63,MASASI,635,MBUYUNI,63514,MBUYUNI,ZIMBAMBWE
MTWARA,63,MASASI,635,MBUYUNI,63514,MBUYUNI,LUCHELEWA
MTWARA,63,MASASI,635,MBUYUNI,63514,MBUYUNI,USALAMA
MTWARA,63,MASASI,635,MBUYUNI,63514,MBUYUNI,MAJIMAJI
MTWARA,63,MASASI,635,MBUYUNI,63514,NDIBWA,KEKO
MTWARA,63,MASASI,635,MBUYUNI,63514,NDIBWA,AMANI
MTWARA,63,MASASI,635,MBUYUNI,63514,NDIBWA,MIGOMBANI
MTWARA,63,MASASI,635,MBUYUNI,63514,MPULIMA,KILIMAHEWA
MTWARA,63,MASASI,635,MBUYUNI,63514,MPULIMA,TUPAMBANE
MTWARA,63,MASASI,635,MBUYUNI,63514,MPULIMA,SONGEA
MTWARA,63,MASASI,635,MBUYUNI,63514,MIUNGO,GULIONI
MTWARA,63,MASASI,635,MBUYUNI,63514,MIUNGO,MIEMBENI
MTWARA,63,MASASI,635,MBUYUNI,63514,MIUNGO,MCHANGANI
MTWARA,63,MASASI,635,MBUYUNI,63514,MIUNGO,CHIPINDIMBI
MTWARA,63,MASASI,635,MBUYUNI,63514,MITONJI,MSIKITINI
MTWARA,63,MASASI,635,MBUYUNI,63514,MITONJI,MNONJINI
MTWARA,63,MASASI,635,MBUYUNI,63514,MITONJI,MNAZI MMOJA
MTWARA,63,MASASI,635,MBUYUNI,63514,MITONJI,MAJENGO
MTWARA,63,MASASI,635,MBUYUNI,63514,MITONJI,MIGOMBANI
MTWARA,63,MASASI,635,MBUYUNI,63514,MATOGORO,CHITYATYA
MTWARA,63,MASASI,635,MBUYUNI,63514,MATOGORO,MNALI
MTWARA,63,MASASI,635,MBUYUNI,63514,MATOGORO,ZIWANI B
MTWARA,63,MASASI,635,MBUYUNI,63514,MATOGORO,MANYAMBA
MTWARA,63,MASASI,635,MBUYUNI,63514,MATOGORO,MAJENGO
MTWARA,63,MASASI,635,LULINDI,63515,LULINDI,CALFONIA
MTWARA,63,MASASI,635,LULINDI,63515,LULINDI,MNAZIMMOJA
MTWARA,63,MASASI,635,LULINDI,63515,LULINDI,MAPINDUZI
MTWARA,63,MASASI,635,LULINDI,63515,LULINDI,MWENGE
MTWARA,63,MASASI,635,LULINDI,63515,LULINDI,TANDIKA
MTWARA,63,MASASI,635,LULINDI,63515,NDWIKA CHINI,MAGOMENI
MTWARA,63,MASASI,635,LULINDI,63515,NDWIKA CHINI,NDWIKA CHINI
MTWARA,63,MASASI,635,LULINDI,63515,NDWIKA CHINI,MCHANGANI
MTWARA,63,MASASI,635,LULINDI,63515,NDWIKA CHINI,MISHENI
MTWARA,63,MASASI,635,LULINDI,63515,NDWIKA CHINI,DARAJANI
MTWARA,63,MASASI,635,LULINDI,63515,MKASEKA,MKWAJUNI
MTWARA,63,MASASI,635,LULINDI,63515,MKASEKA,CHEKECHEANI
MTWARA,63,MASASI,635,LULINDI,63515,MKASEKA,MABATINI
MTWARA,63,MASASI,635,LULINDI,63515,MKASEKA,MSIKITINI
MTWARA,63,MASASI,635,LULINDI,63515,MKASEKA,MIKOROSHONI
MTWARA,63,MASASI,635,LULINDI,63515,CHIWAMBO,LUTAMBA
MTWARA,63,MASASI,635,LULINDI,63515,CHIWAMBO,MNOLELA
MTWARA,63,MASASI,635,LULINDI,63515,CHIWAMBO,MSIMBATI
MTWARA,63,MASASI,635,LULINDI,63515,MUUNGANO,SOMANGA
MTWARA,63,MASASI,635,LULINDI,63515,MUUNGANO,KISIWANI
MTWARA,63,MASASI,635,LULINDI,63515,MUUNGANO,MISUFINI
MTWARA,63,MASASI,635,LULINDI,63515,MUUNGANO,NAMAJANI
MTWARA,63,MASASI,635,LULINDI,63515,LUAGALA,MIUTA
MTWARA,63,MASASI,635,LULINDI,63515,LUAGALA,MNYAKATU
MTWARA,63,MASASI,635,LULINDI,63515,LUAGALA,MKWAJUNI
MTWARA,63,MASASI,635,LULINDI,63515,LUAGALA,MAJENGO
MTWARA,63,MASASI,635,LULINDI,63515,LUAGALA,CHILALA
MTWARA,63,MASASI,635,LULINDI,63515,KIVUKONI,KANISANI
MTWARA,63,MASASI,635,LULINDI,63515,KIVUKONI,OSTABEY
MTWARA,63,MASASI,635,LULINDI,63515,KIVUKONI,MIEMBENI
MTWARA,63,MASASI,635,LULINDI,63515,KIVUKONI,AMANI
MTWARA,63,MASASI,635,LULINDI,63515,KIVUKONI,SHULENI
MTWARA,63,MASASI,635,LULINDI,63515,MNOPWE,OSTABEY
MTWARA,63,MASASI,635,LULINDI,63515,MNOPWE,MPUJE
MTWARA,63,MASASI,635,LULINDI,63515,MNOPWE,RAHALEO
MTWARA,63,MASASI,635,LULINDI,63515,MNOPWE,MSIKITINI
MTWARA,63,MASASI,635,LULINDI,63515,MNOPWE,PEMBA
MTWARA,63,MASASI,635,NAMALENGA,63516,MKANGAULA,MIEMBENI
MTWARA,63,MASASI,635,NAMALENGA,63516,MKANGAULA,TEMEKE
MTWARA,63,MASASI,635,NAMALENGA,63516,MKANGAULA,NGALAMBE
MTWARA,63,MASASI,635,NAMALENGA,63516,MKANGAULA,KAGERA A
MTWARA,63,MASASI,635,NAMALENGA,63516,MKANGAULA,KAGERA B
MTWARA,63,MASASI,635,NAMALENGA,63516,MKANGAULA,NYASA A
MTWARA,63,MASASI,635,NAMALENGA,63516,MKANGAULA,NYASA B
MTWARA,63,MASASI,635,NAMALENGA,63516,NAGAGA,STENDI
MTWARA,63,MASASI,635,NAMALENGA,63516,NAGAGA,MDENGA
MTWARA,63,MASASI,635,NAMALENGA,63516,NAGAGA,MIEMBENI
MTWARA,63,MASASI,635,NAMALENGA,63516,NAGAGA,BONDENI
MTWARA,63,MASASI,635,NAMALENGA,63516,NAGAGA,MTUKULA
MTWARA,63,MASASI,635,NAMALENGA,63516,NAGAGA,TANKINI
MTWARA,63,MASASI,635,NAMALENGA,63516,NAGAGA,MIJALE
MTWARA,63,MASASI,635,NAMALENGA,63516,NAMALENGA,NAMALENGA
MTWARA,63,MASASI,635,NAMALENGA,63516,NAMALENGA,MIEMBENI
MTWARA,63,MASASI,635,NAMALENGA,63516,NAMALENGA,SAMORA
MTWARA,63,MASASI,635,NAMALENGA,63516,NAMALENGA,KANISANI
MTWARA,63,MASASI,635,NAMALENGA,63516,NAMALENGA,MCHINGA
MTWARA,63,MASASI,635,NAMALENGA,63516,NAMALENGA,MSIKITINI
MTWARA,63,MASASI,635,NAMALENGA,63516,MVITA,MVITA  A
MTWARA,63,MASASI,635,NAMALENGA,63516,MVITA,MVITA  B
MTWARA,63,MASASI,635,NAMALENGA,63516,MVITA,MAJENGO  A
MTWARA,63,MASASI,635,NAMALENGA,63516,MVITA,MAJENGO  B
MTWARA,63,MASASI,635,NAMALENGA,63516,MVITA,MIEMBENI
MTWARA,63,MASASI,635,LIPUMBURU,63517,MCHOTI,NJAWALA
MTWARA,63,MASASI,635,LIPUMBURU,63517,MCHOTI,MCHOTI
MTWARA,63,MASASI,635,LIPUMBURU,63517,MCHOTI,NAMAJANI
MTWARA,63,MASASI,635,LIPUMBURU,63517,MCHOTI,NANDEMBO
MTWARA,63,MASASI,635,LIPUMBURU,63517,MCHOTI,MLAPA
MTWARA,63,MASASI,635,LIPUMBURU,63517,LIPUMBURU,NAMBUNJU KILIMANI
MTWARA,63,MASASI,635,LIPUMBURU,63517,LIPUMBURU,NAMBUNJU BONDENI
MTWARA,63,MASASI,635,LIPUMBURU,63517,LIPUMBURU,MNAZI MMOJA
MTWARA,63,MASASI,635,LIPUMBURU,63517,LIPUMBURU,GHALANI
MTWARA,63,MASASI,635,LIPUMBURU,63517,LIPUMBURU,MISUFINI
MTWARA,63,MASASI,635,LIPUMBURU,63517,LIPUMBURU,NAKACHERENI
MTWARA,63,MASASI,635,LIPUMBURU,63517,NANTONA,CHIKOWEDI
MTWARA,63,MASASI,635,LIPUMBURU,63517,NANTONA,NGOTEME
MTWARA,63,MASASI,635,LIPUMBURU,63517,NANTONA,ABALASANI
MTWARA,63,MASASI,635,LIPUMBURU,63517,NANTONA,KALUMA
MTWARA,63,MASASI,635,LIPUMBURU,63517,NANTONA,NANTONA
MTWARA,63,MASASI,635,SINDANO,63518,SINDANO,NAMANJE
MTWARA,63,MASASI,635,SINDANO,63518,SINDANO,NACHUWIRA
MTWARA,63,MASASI,635,SINDANO,63518,SINDANO,MKAPITA
MTWARA,63,MASASI,635,SINDANO,63518,SINDANO,MKOMBERO
MTWARA,63,MASASI,635,SINDANO,63518,SINDANO,MTAPAHI
MTWARA,63,MASASI,635,SINDANO,63518,LUATALA,MPUHIYA
MTWARA,63,MASASI,635,SINDANO,63518,LUATALA,NDENDEMAMA
MTWARA,63,MASASI,635,SINDANO,63518,LUATALA,LULEMBA
MTWARA,63,MASASI,635,SINDANO,63518,LUATALA,LIGAMBA
MTWARA,63,MASASI,635,SINDANO,63518,LUATALA,KACHULU
MTWARA,63,MASASI,635,SINDANO,63518,LUATALA,MATOLA
MTWARA,63,MASASI,635,SINDANO,63518,ULUNGU,NDOMONI
MTWARA,63,MASASI,635,SINDANO,63518,ULUNGU,MTIMATIMAPE
MTWARA,63,MASASI,635,SINDANO,63518,ULUNGU,NAMONDE
MTWARA,63,MASASI,635,SINDANO,63518,ULUNGU,ULUNGU
MTWARA,63,MASASI,635,SINDANO,63518,ULUNGU,NG’UNI
MTWARA,63,MASASI,635,SINDANO,63518,LICHEHE,TUPENDANE
MTWARA,63,MASASI,635,SINDANO,63518,LICHEHE,CHIPAPA
MTWARA,63,MASASI,635,SINDANO,63518,LICHEHE,MITINDAWALA
MTWARA,63,MASASI,635,SINDANO,63518,LICHEHE,MKWAJUNI
MTWARA,63,MASASI,635,SINDANO,63518,LICHEHE,MGWAGULE
MTWARA,63,MASASI,635,MCHAURU,63519,NAMOMBWE,MKUMBULULU
MTWARA,63,MASASI,635,MCHAURU,63519,NAMOMBWE,MAJENGO
MTWARA,63,MASASI,635,MCHAURU,63519,NAMOMBWE,PACHANNE
MTWARA,63,MASASI,635,MCHAURU,63519,NAMOMBWE,MKUMBA
MTWARA,63,MASASI,635,MCHAURU,63519,NAMOMBWE,NALIENDELE
MTWARA,63,MASASI,635,MCHAURU,63519,NAMOMBWE,PACHOTO
MTWARA,63,MASASI,635,MCHAURU,63519,NAMOMBWE,MOMBASA
MTWARA,63,MASASI,635,MCHAURU,63519,MIREWE,CHIKONGOLA
MTWARA,63,MASASI,635,MCHAURU,63519,MIREWE,SAMORA
MTWARA,63,MASASI,635,MCHAURU,63519,MIREWE,MNAHAME
MTWARA,63,MASASI,635,MCHAURU,63519,MIREWE,KANISANI
MTWARA,63,MASASI,635,MCHAURU,63519,MIREWE,BARABARANI
MTWARA,63,MASASI,635,MCHAURU,63519,MIREWE,TAPUTA
MTWARA,63,MASASI,635,MCHAURU,63519,MCHAURU,MTOLA
MTWARA,63,MASASI,635,MCHAURU,63519,MCHAURU,KARIAKOO
MTWARA,63,MASASI,635,MCHAURU,63519,MCHAURU,MISUFINI
MTWARA,63,MASASI,635,MCHAURU,63519,MCHAURU,ZANZIBAR
MTWARA,63,MASASI,635,MCHAURU,63519,MCHAURU,DAR ES SALAAM
MTWARA,63,MASASI,635,MCHAURU,63519,RIVANGO,MIEMBENI
MTWARA,63,MASASI,635,MCHAURU,63519,RIVANGO,KAZAMOYO
MTWARA,63,MASASI,635,MCHAURU,63519,RIVANGO,MIKOROSHONI
MTWARA,63,MASASI,635,MCHAURU,63519,RIVANGO,TANKINI
MTWARA,63,MASASI,635,MCHAURU,63519,RIVANGO,MIBUYUNI
MTWARA,63,MASASI,635,MCHAURU,63519,RIVANGO,KIWANJANI
MTWARA,63,MASASI,635,MCHAURU,63519,MKOWO,MKWAJUNI
MTWARA,63,MASASI,635,MCHAURU,63519,MKOWO,MISUFINI
MTWARA,63,MASASI,635,MCHAURU,63519,MKOWO,MAPINDUZI
MTWARA,63,MASASI,635,MCHAURU,63519,MKOWO,UMOJA
MTWARA,63,MASASI,635,MCHAURU,63519,MKOWO,MTAKUJA
MTWARA,63,MASASI,635,MCHAURU,63519,NANGOMWA,MKWAJUNI
MTWARA,63,MASASI,635,MCHAURU,63519,NANGOMWA,ILALA
MTWARA,63,MASASI,635,MCHAURU,63519,NANGOMWA,MAGOMENI
MTWARA,63,MASASI,635,MCHAURU,63519,NANGOMWA,RAHALEO
MTWARA,63,MASASI,635,MCHAURU,63519,NANGOMWA,KILIMANIHEWA
MTWARA,63,MASASI,635,MCHAURU,63519,MAPARAWE,MTAKUJA
MTWARA,63,MASASI,635,MCHAURU,63519,MAPARAWE,MAJENGO
MTWARA,63,MASASI,635,MCHAURU,63519,MAPARAWE,MNAUKE
MTWARA,63,MASASI,635,MCHAURU,63519,MAPARAWE,MAPINDUZI
MTWARA,63,MASASI,635,MCHAURU,63519,MAPARAWE,ILALA
MTWARA,63,MASASI,635,MCHAURU,63519,MAPARAWE,SONGAMBELE
MTWARA,63,MASASI,635,MCHAURU,63519,MWITIKA,MAJENGO
MTWARA,63,MASASI,635,MCHAURU,63519,MWITIKA,MIJALENI
MTWARA,63,MASASI,635,MCHAURU,63519,MWITIKA,MIEMBENI
MTWARA,63,MASASI,635,MCHAURU,63519,MWITIKA,MAKUMBUSHO A
MTWARA,63,MASASI,635,MCHAURU,63519,MWITIKA,MAKUMBUSHO B
MTWARA,63,MASASI,635,MCHAURU,63519,MWITIKA,MCHAURU A
MTWARA,63,MASASI,635,MCHAURU,63519,MWITIKA,MCHAURU B
MTWARA,63,MASASI,635,MCHAURU,63519,MHATA,MAHUTA
MTWARA,63,MASASI,635,MCHAURU,63519,MHATA,MAJENGO
MTWARA,63,MASASI,635,MCHAURU,63519,MHATA,MAJENGO MAPYA
MTWARA,63,MASASI,635,MCHAURU,63519,MHATA,ROMA
MTWARA,63,MASASI,635,MCHAURU,63519,MHATA,MTINGALA
MTWARA,63,MASASI,635,MNAVIRA,63520,MNAVIRA,IKULU
MTWARA,63,MASASI,635,MNAVIRA,63520,MNAVIRA,KIZOTA
MTWARA,63,MASASI,635,MNAVIRA,63520,MNAVIRA,DAR ES SALAAM
MTWARA,63,MASASI,635,MNAVIRA,63520,MNAVIRA,BENKI KUU
MTWARA,63,MASASI,635,MNAVIRA,63520,MNAVIRA,MBUYUNI
MTWARA,63,MASASI,635,MNAVIRA,63520,MNAVIRA,KITUNDA
MTWARA,63,MASASI,635,MNAVIRA,63520,MNAVIRA,TANKINI
MTWARA,63,MASASI,635,MNAVIRA,63520,MNAVIRA,DODOMA
MTWARA,63,MASASI,635,MNAVIRA,63520,MNAVIRA,BUTIAMA
MTWARA,63,MASASI,635,MNAVIRA,63520,MNAVIRA,ILALA
MTWARA,63,MASASI,635,MNAVIRA,63520,GEUZA,NEWALA
MTWARA,63,MASASI,635,MNAVIRA,63520,GEUZA,DODOMA
MTWARA,63,MASASI,635,MNAVIRA,63520,GEUZA,ZANZIBAR
MTWARA,63,MASASI,635,MNAVIRA,63520,GEUZA,MADINA
MTWARA,63,MASASI,635,MNAVIRA,63520,GEUZA,MAPINDUZI
MTWARA,63,MASASI,635,MNAVIRA,63520,GEUZA,NAMANDEMBO
MTWARA,63,MASASI,635,MNAVIRA,63520,GEUZA,ASANTE JOSEPH
MTWARA,63,MASASI,635,MNAVIRA,63520,GEUZA,RUVUMA MIKOROSHINI
MTWARA,63,MASASI,635,MNAVIRA,63520,GEUZA,USHIRIKA
MTWARA,63,MASASI,635,MNAVIRA,63520,GEUZA,TUPENDANE
MTWARA,63,MASASI,635,MNAVIRA,63520,GEUZA,NALIONGOLA
MTWARA,63,MASASI,635,MNAVIRA,63520,GEUZA,MDUHE
MTWARA,63,MASASI,635,MNAVIRA,63520,MANYULI,MWANGAZA
MTWARA,63,MASASI,635,MNAVIRA,63520,MANYULI,USALAMA
MTWARA,63,MASASI,635,MNAVIRA,63520,MANYULI,TAIFANI
MTWARA,63,MASASI,635,MNAVIRA,63520,MANYULI,MTAKUJA
MTWARA,63,MASASI,635,MNAVIRA,63520,MANYULI,TWENDEPAMOJA
MTWARA,63,MASASI,635,MNAVIRA,63520,MANYULI,MAJENGO
MTWARA,63,MASASI,635,MWENA,63521,MWENA,MITITIMO
MTWARA,63,MASASI,635,MWENA,63521,MWENA,MSIKITINI
MTWARA,63,MASASI,635,MWENA,63521,MWENA,BOMBANI
MTWARA,63,MASASI,635,MWENA,63521,MWENA,MAFURIKONI
MTWARA,63,MASASI,635,MWENA,63521,MWENA,MBALE
MTWARA,63,MASASI,635,MWENA,63521,CHIBWINI,MUUNGANO
MTWARA,63,MASASI,635,MWENA,63521,CHIBWINI,MNAZIMMOJA
MTWARA,63,MASASI,635,MWENA,63521,CHIBWINI,DARAJANI
MTWARA,63,MASASI,635,MWENA,63521,CHIBWINI,TULIZO
MTWARA,63,MASASI,635,MWENA,63521,NDUNDA,LUKUJU
MTWARA,63,MASASI,635,MWENA,63521,NDUNDA,SHAURIMOYO
MTWARA,63,MASASI,635,MWENA,63521,NDUNDA,TANKINI
MTWARA,63,MASASI,635,MWENA,63521,NDUNDA,TUPENDANE A
MTWARA,63,MASASI,635,MWENA,63521,NDUNDA,TUPENDANE B
MTWARA,63,MASASI,635,MWENA,63521,NDUNDA,KILIMAHEWA
MTWARA,63,MASASI,635,NANGANGA,63522,NANGANGA A,MINGOYO
MTWARA,63,MASASI,635,NANGANGA,63522,NANGANGA A,KARIAKOO
MTWARA,63,MASASI,635,NANGANGA,63522,NANGANGA A,ZIMAMOTO
MTWARA,63,MASASI,635,NANGANGA,63522,NANGANGA A,SONGAMBELE
MTWARA,63,MASASI,635,NANGANGA,63522,NANGANGA A,RAHALEO
MTWARA,63,MASASI,635,NANGANGA,63522,NAMIHUNGO,CHIUNGULA B
MTWARA,63,MASASI,635,NANGANGA,63522,NAMIHUNGO,CHIUGULA A
MTWARA,63,MASASI,635,NANGANGA,63522,NAMIHUNGO,NAMAYANGA
MTWARA,63,MASASI,635,NANGANGA,63522,NAMIHUNGO,NANG'AMBO
MTWARA,63,MASASI,635,NANGANGA,63522,NAMIHUNGO,CHINYANYIRA
MTWARA,63,MASASI,635,NANGANGA,63522,MKUNGU,NAKAYAYA
MTWARA,63,MASASI,635,NANGANGA,63522,MKUNGU,NGALINJE
MTWARA,63,MASASI,635,NANGANGA,63522,MKUNGU,NARUNG'OMBE
MTWARA,63,MASASI,635,NANGANGA,63522,MKUNGU,CHIMEMENA
MTWARA,63,MASASI,635,NANGANGA,63522,MKUNGU,NABADA
MTWARA,63,MASASI,635,NANGANGA,63522,MKANG'U,UHURU
MTWARA,63,MASASI,635,NANGANGA,63522,MKANG'U,JAMHURI
MTWARA,63,MASASI,635,NANGANGA,63522,MKANG'U,UJAMAA
MTWARA,63,MASASI,635,NANGANGA,63522,MKANG'U,KAMBA
MTWARA,63,MASASI,635,NANGANGA,63522,MKANG'U,MUUNGANO
MTWARA,63,MASASI,635,NANGANGA,63522,MKANG'U,BUGURUNI
MTWARA,63,MASASI,635,NANGANGA,63522,CHIPITE,TULIENI
MTWARA,63,MASASI,635,NANGANGA,63522,CHIPITE,KONGO
MTWARA,63,MASASI,635,NANGANGA,63522,CHIPITE,KOTAZI
MTWARA,63,MASASI,635,NANGANGA,63522,CHIPITE,ZIMAMOTO
MTWARA,63,MASASI,635,NANGANGA,63522,CHIPITE,MAHURUKA
MTWARA,63,MASASI,635,NANGANGA,63522,NANGANGAB,ILALA
MTWARA,63,MASASI,635,NANGANGA,63522,NANGANGAB,KURASINI
MTWARA,63,MASASI,635,NANGANGA,63522,NANGANGAB,MNAZIMMOJA
MTWARA,63,MASASI,635,NANGANGA,63522,NANGANGAB,HOSTELI
MTWARA,63,MASASI,635,NANGANGA,63522,NANGANGAB,BUGURUNI
MTWARA,63,MASASI,635,JIDA,63523,JIDA,
MTWARA,63,MASASI,635,JIDA,63523,MAGUMCHILA,
MTWARA,63,MASASI,635,JIDA,63523,MADARAKA,
MTWARA,63,MASASI,635,JIDA,63523,ZAHANATI,
MTWARA,63,MASASI,635,JIDA,63523,JAMHURI,
MTWARA,63,MASASI,635,MKOMAINDO,63524,REST CAMP,
MTWARA,63,MASASI,635,MKOMAINDO,63524,DARAJANI,
MTWARA,63,MASASI,635,MKOMAINDO,63524,MCHEMA,
MTWARA,63,MASASI,635,MKOMAINDO,63524,HOSPITALI,
MTWARA,63,MASASI,635,MKOMAINDO,63524,MKADAENDA 'A',
MTWARA,63,MASASI,635,MKOMAINDO,63524,MISUFINI,
MTWARA,63,MASASI,635,MKOMAINDO,63524,MKADAENDA B,
MTWARA,63,MASASI,635,MIGONGO,63525,KILIMANI,
MTWARA,63,MASASI,635,MIGONGO,63525,NANGAYA,
MTWARA,63,MASASI,635,MIGONGO,63525,NANGAYA  'A',
MTWARA,63,MASASI,635,MIGONGO,63525,NANGAYA  'B',
MTWARA,63,MASASI,635,MIGONGO,63525,MISUFINI,
MTWARA,63,MASASI,635,MIGONGO,63525,MKUNGUNI,
MTWARA,63,MASASI,635,MIGONGO,63525,MIGONGO KATI,
MTWARA,63,MASASI,635,MTANDI,63526,MTANDI A,
MTWARA,63,MASASI,635,MTANDI,63526,MTANDI B,
MTWARA,63,MASASI,635,MTANDI,63526,NANJUVA,
MTWARA,63,MASASI,635,MTANDI,63526,MINAZINI,
MTWARA,63,MASASI,635,MTANDI,63526,MARAMBO JUU,
MTWARA,63,MASASI,635,MTANDI,63526,MARAMBO CHINI,
MTWARA,63,MASASI,635,MTANDI,63526,BENAKO,
MTWARA,63,MASASI,635,MTANDI,63526,PACHANI,
MTWARA,63,MASASI,635,MTANDI,63526,KACHULU,
MTWARA,63,MASASI,635,NYASA,63527,NYASA CHINI,
MTWARA,63,MASASI,635,NYASA,63527,NYASA A,
MTWARA,63,MASASI,635,NYASA,63527,NYASA B,
MTWARA,63,MASASI,635,NYASA,63527,MATANKINI,
MTWARA,63,MASASI,635,NYASA,63527,MCHEMA,
MTWARA,63,MASASI,635,NYASA,63527,MAENDELEO,
MTWARA,63,MASASI,635,NYASA,63527,NYASA OFISINI,
MTWARA,63,MASASI,635,TEMEKE,63528,TEMEKE,MTWARA
MTWARA,63,MASASI,635,TEMEKE,63528,TEMEKE,JIDA
MTWARA,63,MASASI,635,TEMEKE,63528,TEMEKE,MSIKITINI
MTWARA,63,MASASI,635,TEMEKE,63528,TEMEKE,TEMEKE CHINI
MTWARA,63,MASASI,635,TEMEKE,63528,TEMEKE,ELIMU
MTWARA,63,MASASI,635,TEMEKE,63528,MKARANGO,DODOMA
MTWARA,63,MASASI,635,TEMEKE,63528,MKARANGO,SAUTI MOJA
MTWARA,63,MASASI,635,TEMEKE,63528,MKARANGO,KILIMANI
MTWARA,63,MASASI,635,TEMEKE,63528,MKARANGO,AMKENI
MTWARA,63,MASASI,635,TEMEKE,63528,MKARANGO,TANDIKA
MTWARA,63,MASASI,635,TEMEKE,63528,NAMBOSE JUU,KILIMANI HEWA
MTWARA,63,MASASI,635,TEMEKE,63528,NAMBOSE JUU,CHINGALE
MTWARA,63,MASASI,635,TEMEKE,63528,NAMBOSE JUU,LIZABUNI
MTWARA,63,MASASI,635,TEMEKE,63528,NAMBOSE JUU,AZIMIO
MTWARA,63,MASASI,635,TEMEKE,63528,MTAKUJA,MAJENGO
MTWARA,63,MASASI,635,TEMEKE,63528,MTAKUJA,KISUKU
MTWARA,63,MASASI,635,TEMEKE,63528,MTAKUJA,UMOJA
MTWARA,63,MASASI,635,TEMEKE,63528,MTAKUJA,NYERERE
MTWARA,63,MASASI,635,TEMEKE,63528,MTAKUJA,KAUNDA
MTWARA,63,MASASI,635,TEMEKE,63528,MTAKUJA,MAPINDUZI
MTWARA,63,MASASI,635,TEMEKE,63528,MTAKUJA,LAWALAWA
MTWARA,63,MASASI,635,MWENGE MTAPIKA,63529,MBONDE,DODOMA
MTWARA,63,MASASI,635,MWENGE MTAPIKA,63529,MBONDE,KARIAKOO
MTWARA,63,MASASI,635,MWENGE MTAPIKA,63529,MBONDE,MAPUTO
MTWARA,63,MASASI,635,MWENGE MTAPIKA,63529,MBONDE,MAPINDUZI
MTWARA,63,MASASI,635,MWENGE MTAPIKA,63529,MBONDE,MAJIMAJI
MTWARA,63,MASASI,635,MWENGE MTAPIKA,63529,MBONDE,MNAZI MMOJA
MTWARA,63,MASASI,635,MWENGE MTAPIKA,63529,MBONDE,MWONGOZO
MTWARA,63,MASASI,635,MWENGE MTAPIKA,63529,MBONDE,TULEANE
MTWARA,63,MASASI,635,MWENGE MTAPIKA,63529,MBONDE,KILIMANIHEWA
MTWARA,63,MASASI,635,MWENGE MTAPIKA,63529,MAYULA,MNAZI MMOJA
MTWARA,63,MASASI,635,MWENGE MTAPIKA,63529,MAYULA,MWONGOZO
MTWARA,63,MASASI,635,MWENGE MTAPIKA,63529,MAYULA,TULEANE
MTWARA,63,MASASI,635,MWENGE MTAPIKA,63529,MAYULA,KILIMANIHEWA
MTWARA,63,MASASI,635,MWENGE MTAPIKA,63529,MWENGE MTAPIKA,MSIKITINI
MTWARA,63,MASASI,635,MWENGE MTAPIKA,63529,MWENGE MTAPIKA,MKWAJUNI
MTWARA,63,MASASI,635,MWENGE MTAPIKA,63529,MWENGE MTAPIKA,MAKAO MAKUU
MTWARA,63,MASASI,635,MWENGE MTAPIKA,63529,MWENGE MTAPIKA,MBUYUNI
MTWARA,63,MASASI,635,MWENGE MTAPIKA,63529,MWENGE MTAPIKA,SHULENI
MTWARA,63,MASASI,635,MWENGE MTAPIKA,63529,MWENGE MTAPIKA,KABOMOLA
MTWARA,63,MASASI,635,MWENGE MTAPIKA,63529,NAMKUNGWI,MSIKITINI
MTWARA,63,MASASI,635,MWENGE MTAPIKA,63529,NAMKUNGWI,KILIMANI HEWA
MTWARA,63,MASASI,635,MWENGE MTAPIKA,63529,NAMKUNGWI,MWONGOZO
MTWARA,63,MASASI,635,MWENGE MTAPIKA,63529,NAMKUNGWI,MSASANI
MTWARA,63,MASASI,635,MWENGE MTAPIKA,63529,NAMKUNGWI,MTOASIRI
MTWARA,63,MASASI,635,CHIWALE,63530,CHIWALE,TANDIKA
MTWARA,63,MASASI,635,CHIWALE,63530,CHIWALE,CHIMBO
MTWARA,63,MASASI,635,CHIWALE,63530,CHIWALE,AMANI
MTWARA,63,MASASI,635,CHIWALE,63530,CHIWALE,MATATIZO B
MTWARA,63,MASASI,635,CHIWALE,63530,CHIWALE,MBUYUNI
MTWARA,63,MASASI,635,CHIWALE,63530,CHIWALE,AZIMIO
MTWARA,63,MASASI,635,CHIWALE,63530,NANYINDWA,MAJENGO
MTWARA,63,MASASI,635,CHIWALE,63530,NANYINDWA,ZAIRE
MTWARA,63,MASASI,635,CHIWALE,63530,NANYINDWA,MKWAJUNI
MTWARA,63,MASASI,635,CHIWALE,63530,NANYINDWA,KILIMANI
MTWARA,63,MASASI,635,CHIWALE,63530,NANYINDWA,MNAZIMMOJA
MTWARA,63,MASASI,635,CHIWALE,63530,KIVUKONI,UFUKONI
MTWARA,63,MASASI,635,CHIWALE,63530,KIVUKONI,TANKINI
MTWARA,63,MASASI,635,CHIWALE,63530,KIVUKONI,USALAMA
MTWARA,63,MASASI,635,CHIWALE,63530,KIVUKONI,MERERANI
MTWARA,63,MASASI,635,CHIWALE,63530,KIVUKONI,MAJENGO
MTWARA,63,MASASI,635,CHIWALE,63530,KIVUKONI,MATATIZO A
MTWARA,63,MASASI,635,CHIWALE,63530,KIVUKONI,PACHANI
MTWARA,63,MASASI,635,CHIWALE,63530,KIVUKONI,NANSINJI
MTWARA,63,MASASI,635,CHIWALE,63530,LILALA,PACHANI
MTWARA,63,MASASI,635,CHIWALE,63530,LILALA,DARAJANI
MTWARA,63,MASASI,635,CHIWALE,63530,LILALA,OFISINI
MTWARA,63,MASASI,635,CHIWALE,63530,LILALA,KANISANI
MTWARA,63,MASASI,635,CHIWALE,63530,LILALA,NAYOMBO
MTWARA,63,MASASI,635,MPANYANI,63531,MPANYANI,KILIMAI HEWA
MTWARA,63,MASASI,635,MPANYANI,63531,MPANYANI,GHALANI
MTWARA,63,MASASI,635,MPANYANI,63531,MPANYANI,MAPOKEZI
MTWARA,63,MASASI,635,MPANYANI,63531,MPANYANI,JUHUDI
MTWARA,63,MASASI,635,MPANYANI,63531,MPANYANI,CHEMCHEM
MTWARA,63,MASASI,635,MPANYANI,63531,MUUNGANO,NEWALA
MTWARA,63,MASASI,635,MPANYANI,63531,MUUNGANO,MASHINENI
MTWARA,63,MASASI,635,MPANYANI,63531,MUUNGANO,MAJIMASWELA
MTWARA,63,MASASI,635,MPANYANI,63531,MUUNGANO,MKUTI
MTWARA,63,MASASI,635,MPANYANI,63531,MUUNGANO,MSIKITINI
MTWARA,63,MASASI,635,MPANYANI,63531,MUUNGANO,NAGAMBE
MTWARA,63,MASASI,635,MPANYANI,63531,MIHIMA,UZURI
MTWARA,63,MASASI,635,MPANYANI,63531,MIHIMA,MAJENGO
MTWARA,63,MASASI,635,MPANYANI,63531,MIHIMA,MTONI
MTWARA,63,MASASI,635,MPANYANI,63531,MIHIMA,IKULU
MTWARA,63,MASASI,635,MPANYANI,63531,MIHIMA,UHURU
MTWARA,63,MASASI,635,MPANYANI,63531,NAMBAWALA A,KIWANJANI
MTWARA,63,MASASI,635,MPANYANI,63531,NAMBAWALA A,SHULENI
MTWARA,63,MASASI,635,MPANYANI,63531,NAMBAWALA A,MAGEUZI
MTWARA,63,MASASI,635,MPANYANI,63531,NAMBAWALA A,SONGAMBELE
MTWARA,63,MASASI,635,MPANYANI,63531,NAMBAWALA A,TANDALE
MTWARA,63,MASASI,635,MPANYANI,63531,NAMBAWALA B,MADUKANI
MTWARA,63,MASASI,635,MPANYANI,63531,NAMBAWALA B,MSIKITINI
MTWARA,63,MASASI,635,MPANYANI,63531,NAMBAWALA B,MCHANGANI
MTWARA,63,MASASI,635,MPANYANI,63531,NAMBAWALA B,JIUNGENI
MTWARA,63,MASASI,635,MPANYANI,63531,NAMBAWALA B,KILIMA HEWA
MTWARA,63,MASASI,635,MLINGULA,63532,MLINGULA,MKAPA
MTWARA,63,MASASI,635,MLINGULA,63532,MLINGULA,TANDIKA
MTWARA,63,MASASI,635,MLINGULA,63532,MLINGULA,MANDELA
MTWARA,63,MASASI,635,MLINGULA,63532,MLINGULA,AMANI
MTWARA,63,MASASI,635,MLINGULA,63532,MLINGULA,NYERERE
MTWARA,63,MASASI,635,MLINGULA,63532,MLINGULA,UMOJA
MTWARA,63,MASASI,635,MLINGULA,63532,MLINGULA,MUUNGANO
MTWARA,63,MASASI,635,MLINGULA,63532,NAMICHI,SAVEYI
MTWARA,63,MASASI,635,MLINGULA,63532,NAMICHI,AMANI
MTWARA,63,MASASI,635,MLINGULA,63532,NAMICHI,NAMICHI
MTWARA,63,MASASI,635,MLINGULA,63532,NAMICHI,MIGOMBANI
MTWARA,63,MASASI,635,MLINGULA,63532,MASIKUNYINGI,MNAZIMMOJA
MTWARA,63,MASASI,635,MLINGULA,63532,MASIKUNYINGI,MAJIMAJI
MTWARA,63,MASASI,635,MLINGULA,63532,MASIKUNYINGI,KILIMANIHEWA
MTWARA,63,MASASI,635,MLINGULA,63532,MASIKUNYINGI,TANDIKA
MTWARA,63,MASASI,635,MLINGULA,63532,MASIKUNYINGI,SISI KWA SISI
MTWARA,63,MASASI,635,MLINGULA,63532,CHIKOWETI,SABANI
MTWARA,63,MASASI,635,MLINGULA,63532,CHIKOWETI,CHIKOWETI
MTWARA,63,MASASI,635,MLINGULA,63532,CHIKOWETI,MBUYUNI
MTWARA,63,MASASI,635,MLINGULA,63532,NAMBAYA,NAMBAYA
MTWARA,63,MASASI,635,MLINGULA,63532,NAMBAYA,WILIMBE
MTWARA,63,MASASI,635,MLINGULA,63532,NAMBAYA,MAJIMAJI
MTWARA,63,MASASI,635,MLINGULA,63532,NAMBAYA,MINAZINI
MTWARA,63,MASASI,635,MLINGULA,63532,NAMBAYA,CHIBONGA
MTWARA,63,MASASI,635,SULULU,63533,MAKULANI,KAGERA
MTWARA,63,MASASI,635,SULULU,63533,MAKULANI,KANISANI
MTWARA,63,MASASI,635,SULULU,63533,MAKULANI,CHEMICHEMI
MTWARA,63,MASASI,635,SULULU,63533,MAKULANI,MSIKITINI
MTWARA,63,MASASI,635,SULULU,63533,MTAKENI,NAMUPA
MTWARA,63,MASASI,635,SULULU,63533,MTAKENI,AMANI
MTWARA,63,MASASI,635,SULULU,63533,MTAKENI,LEBA
MTWARA,63,MASASI,635,SULULU,63533,MTAKENI,BUTIAMA
MTWARA,63,MASASI,635,SULULU,63533,MKARAKATE,SHULENI
MTWARA,63,MASASI,635,SULULU,63533,MKARAKATE,GHARANI
MTWARA,63,MASASI,635,SULULU,63533,MKARAKATE,MAJENGO
MTWARA,63,MASASI,635,SULULU,63533,MKARAKATE,KILIMAHEWA
MTWARA,63,MASASI,635,SULULU,63533,MKARAKATE,SAUTI MOJA
MTWARA,63,MASASI,635,SULULU,63533,MKARAKATE,SULULU A
MTWARA,63,MASASI,635,SULULU,63533,MKARAKATE,AMANI
MTWARA,63,MASASI,635,SULULU,63533,SULULU,MAJIMAJI
MTWARA,63,MASASI,635,SULULU,63533,SULULU,GHALANI
MTWARA,63,MASASI,635,SULULU,63533,SULULU,KIWANJANI
MTWARA,63,MASASI,635,SULULU,63533,SULULU,SHULENI
MTWARA,63,MASASI,635,SULULU,63533,SULULU,KANISANI
MTWARA,63,MASASI,635,SULULU,63533,SULULU,MSIKITINI
MTWARA,63,MASASI,635,SULULU,63533,SULULU,OFISINI
MTWARA,63,MASASI,635,SULULU,63533,MKAPUNDA A,MKAPUNDA A
MTWARA,63,MASASI,635,SULULU,63533,MKAPUNDA A,SHULENI
MTWARA,63,MASASI,635,SULULU,63533,MKAPUNDA A,KIWAJANI
MTWARA,63,MASASI,635,SULULU,63533,MKAPUNDA A,MKAPUNDA OFISINI
MTWARA,63,MASASI,635,SULULU,63533,MKAPUNDA A,GHALANI
MTWARA,63,MASASI,635,SULULU,63533,MKAPUNDA B,KANISANI
MTWARA,63,MASASI,635,SULULU,63533,MKAPUNDA B,MSIKITINI
MTWARA,63,MASASI,635,SULULU,63533,MKAPUNDA B,MAJIMAJI
MTWARA,63,MASASI,635,CHIKOROPORA,63534,CHIKOROPORA,ELIMU
MTWARA,63,MASASI,635,CHIKOROPORA,63534,CHIKOROPORA,SAUTIMOJA
MTWARA,63,MASASI,635,CHIKOROPORA,63534,CHIKOROPORA,USALAMA
MTWARA,63,MASASI,635,CHIKOROPORA,63534,CHIKOROPORA,MAJENGO
MTWARA,63,MASASI,635,CHIKOROPORA,63534,CHIKOROPORA,MTAKUJA
MTWARA,63,MASASI,635,CHIKOROPORA,63534,CHIKOROPORA,OFISINI
MTWARA,63,MASASI,635,CHIKOROPORA,63534,NAMYOMYO,MIEMBENI
MTWARA,63,MASASI,635,CHIKOROPORA,63534,NAMYOMYO,SHULENI
MTWARA,63,MASASI,635,CHIKOROPORA,63534,NAMYOMYO,MINAZINI
MTWARA,63,MASASI,635,CHIKOROPORA,63534,NAMYOMYO,CHANG’OMBE
MTWARA,63,MASASI,635,CHIKOROPORA,63534,NAMYOMYO,MAJENGO
MTWARA,63,MASASI,635,CHIKOROPORA,63534,RAHALEO,GHALANI
MTWARA,63,MASASI,635,CHIKOROPORA,63534,RAHALEO,ELIMU
MTWARA,63,MASASI,635,CHIKOROPORA,63534,RAHALEO,CHITEMO
MTWARA,63,MASASI,635,CHIKOROPORA,63534,RAHALEO,KILIMANIHEWA
MTWARA,63,MASASI,635,CHIKOROPORA,63534,RAHALEO,MAJENGO
MTWARA,63,MASASI,635,CHIKOROPORA,63534,MKALIWATA,MTWARA
MTWARA,63,MASASI,635,CHIKOROPORA,63534,MKALIWATA,D'SALAAM
MTWARA,63,MASASI,635,CHIKOROPORA,63534,MKALIWATA,MKURUMA
MTWARA,63,MASASI,635,CHIKOROPORA,63534,MKALIWATA,SHAURIMOYO
MTWARA,63,MASASI,635,CHIKOROPORA,63534,MKALIWATA,BONDENI
MTWARA,63,MASASI,635,CHIKOROPORA,63534,MKACHIMA,NEWALA
MTWARA,63,MASASI,635,CHIKOROPORA,63534,MKACHIMA,MASASI
MTWARA,63,MASASI,635,CHIKOROPORA,63534,MKACHIMA,MAPUTO
MTWARA,63,MASASI,635,CHIKOROPORA,63534,MKACHIMA,NAGAGA
MTWARA,63,MASASI,635,CHIKOROPORA,63534,MKACHIMA,MAJENGO
MTWARA,63,MASASI,635,CHIKOROPORA,63534,MKACHIMA,CHIPINGO
MTWARA,63,MASASI,635,CHIKOROPORA,63534,MAPILI,RUVUMA
MTWARA,63,MASASI,635,CHIKOROPORA,63534,MAPILI,JANGWANI
MTWARA,63,MASASI,635,CHIKOROPORA,63534,MAPILI,BUTIAMA
MTWARA,63,MASASI,635,CHIKOROPORA,63534,MAPILI,SOKOINE
MTWARA,63,MASASI,635,CHIKOROPORA,63534,MAPILI,MWANZA
MTWARA,63,MASASI,635,CHIKOROPORA,63534,MAPILI,TANDAHIMBA
MTWARA,63,MASASI,635,MATAWALE,63535,MPEKESO,MWINYI
MTWARA,63,MASASI,635,MATAWALE,63535,MPEKESO,MAJIMAJI
MTWARA,63,MASASI,635,MATAWALE,63535,MPEKESO,MALECHELA
MTWARA,63,MASASI,635,MATAWALE,63535,MPEKESO,KOLIMBA
MTWARA,63,MASASI,635,MATAWALE,63535,MPEKESO,NYERERE
MTWARA,63,MASASI,635,MATAWALE,63535,TUKAEWOTE,NGALINJE
MTWARA,63,MASASI,635,MATAWALE,63535,TUKAEWOTE,NACHINGWEA
MTWARA,63,MASASI,635,MATAWALE,63535,TUKAEWOTE,AMANI
MTWARA,63,MASASI,635,MATAWALE,63535,TUKAEWOTE,MAPUTO
MTWARA,63,MASASI,635,MATAWALE,63535,NAVAI,AMANI
MTWARA,63,MASASI,635,MATAWALE,63535,NAVAI,MWAMBANI
MTWARA,63,MASASI,635,MATAWALE,63535,NAVAI,MAENDELEO
MTWARA,63,MASASI,635,MATAWALE,63535,NAVAI,MKANGARA
MTWARA,63,MASASI,635,MATAWALE,63535,NAVAI,KILIMANIHEWA
MTWARA,63,MASASI,635,MATAWALE,63535,MACHENJE,NYERERE
MTWARA,63,MASASI,635,MATAWALE,63535,MACHENJE,KOLIMBA
MTWARA,63,MASASI,635,MATAWALE,63535,MACHENJE,AZIMIO
MTWARA,63,MASASI,635,MATAWALE,63535,MACHENJE,UMOJA
MTWARA,63,MASASI,635,MATAWALE,63535,NGALINJE,NGALINJE
MTWARA,63,MASASI,635,MATAWALE,63535,NGALINJE,NACHINGWEA
MTWARA,63,MASASI,635,MATAWALE,63535,NGALINJE,MSIKITINI
MTWARA,63,MASASI,635,MATAWALE,63535,NGALINJE,KILIMANI
MTWARA,63,MASASI,635,MATAWALE,63535,MKARANGA,MKARANGA
MTWARA,63,MASASI,635,MATAWALE,63535,MKARANGA,KILIMANIHEWA
MTWARA,63,MASASI,635,MATAWALE,63535,MKARANGA,ELIMU
MTWARA,63,MASASI,635,MATAWALE,63535,CHAKAMA,SOWETO
MTWARA,63,MASASI,635,MATAWALE,63535,CHAKAMA,TANDIKA
MTWARA,63,MASASI,635,MATAWALE,63535,CHAKAMA,KILIMANI
MTWARA,63,MASASI,635,MATAWALE,63535,CHAKAMA,MAJIMAJI
MTWARA,63,MASASI,635,MATAWALE,63535,CHAKAMA,ELIMU
MTWARA,63,MASASI,635,MITESA,63536,MSANGA,KATUNDU
MTWARA,63,MASASI,635,MITESA,63536,MSANGA,UMOJA
MTWARA,63,MASASI,635,MITESA,63536,MSANGA,CHIKUNDI
MTWARA,63,MASASI,635,MITESA,63536,MSANGA,TUKAEWOTE
MTWARA,63,MASASI,635,MITESA,63536,MSANGA,JUHUDI
MTWARA,63,MASASI,635,MITESA,63536,MSANGA,MAPINDUZI
MTWARA,63,MASASI,635,MITESA,63536,MITESA,TANDIKA
MTWARA,63,MASASI,635,MITESA,63536,MITESA,MAGOMENI
MTWARA,63,MASASI,635,MITESA,63536,MITESA,MZALENDO
MTWARA,63,MASASI,635,MITESA,63536,MITESA,AMKENI
MTWARA,63,MASASI,635,MITESA,63536,MITESA,MKWAJUNI
MTWARA,63,MASASI,635,MITESA,63536,MSOKOSELA,MINAZINI
MTWARA,63,MASASI,635,MITESA,63536,MSOKOSELA,MAJENGO
MTWARA,63,MASASI,635,MITESA,63536,MSOKOSELA,MIEMBENI
MTWARA,63,MASASI,635,MITESA,63536,MSOKOSELA,MIGOMBANI
MTWARA,63,MASASI,635,MITESA,63536,MSOKOSELA,MCHANGANI
MTWARA,63,MASASI,635,MITESA,63536,MAENDELEO,MAPINDUZI
MTWARA,63,MASASI,635,MITESA,63536,MAENDELEO,MAKAZI MAPYA
MTWARA,63,MASASI,635,MITESA,63536,MAENDELEO,CHIMBUKO
MTWARA,63,MASASI,635,MITESA,63536,MAENDELEO,KOKENI
MTWARA,63,MASASI,635,MITESA,63536,MAENDELEO,SHANGANI
MTWARA,63,MASASI,635,MITESA,63536,MBURUSA,MICHUNGWANI
MTWARA,63,MASASI,635,MITESA,63536,MBURUSA,MKWAJUNI
MTWARA,63,MASASI,635,MITESA,63536,MBURUSA,GHALANI
MTWARA,63,MASASI,635,MITESA,63536,MBURUSA,KAZAMOYO
MTWARA,63,MASASI,635,MITESA,63536,MBURUSA,KIVUKONI
MTWARA,63,MASASI,635,MAKONG'ONDA,63537,MAKONG'ONDA,KIDUNI
MTWARA,63,MASASI,635,MAKONG'ONDA,63537,MAKONG'ONDA,MAJENGO
MTWARA,63,MASASI,635,MAKONG'ONDA,63537,MAKONG'ONDA,SAMORA
MTWARA,63,MASASI,635,MAKONG'ONDA,63537,MAKONG'ONDA,MAENDELEO
MTWARA,63,MASASI,635,MAKONG'ONDA,63537,MAKONG'ONDA,JAMHURI
MTWARA,63,MASASI,635,MAKONG'ONDA,63537,KILIDU,MUUNGANO
MTWARA,63,MASASI,635,MAKONG'ONDA,63537,KILIDU,SOWETO
MTWARA,63,MASASI,635,MAKONG'ONDA,63537,KILIDU,MAPINDUZI
MTWARA,63,MASASI,635,MAKONG'ONDA,63537,KILIDU,MKAPA
MTWARA,63,MASASI,635,MAKONG'ONDA,63537,KILIDU,SEKONDARI
MTWARA,63,MASASI,635,MAKONG'ONDA,63537,NAKARARA,OSTERBAY
MTWARA,63,MASASI,635,MAKONG'ONDA,63537,NAKARARA,JITEGEMEE
MTWARA,63,MASASI,635,MAKONG'ONDA,63537,NAKARARA,MIKOCHENI
MTWARA,63,MASASI,635,MAKONG'ONDA,63537,NAKARARA,MISHENI
MTWARA,63,MASASI,635,MAKONG'ONDA,63537,NAKARARA,ELIMU
MTWARA,63,MASASI,635,MAKONG'ONDA,63537,NAKARARA,PACHA NNE
MTWARA,63,MASASI,635,MAKONG'ONDA,63537,NAKARARA,ALLY H. MWINYI
MTWARA,63,MASASI,635,MAKONG'ONDA,63537,NAKARARA,KITUNDA
MTWARA,63,MASASI,635,MAKONG'ONDA,63537,NAKARARA,MKUNGUNI
MTWARA,63,MASASI,635,MAKONG'ONDA,63537,NAKARARA,MAJENGO
MTWARA,63,MASASI,635,MAKONG'ONDA,63537,NAKARARA,TANDIKA
MTWARA,63,MASASI,635,MAKONG'ONDA,63537,MKWAYA,ZAIRE
MTWARA,63,MASASI,635,MAKONG'ONDA,63537,MKWAYA,ZAMBIA
MTWARA,63,MASASI,635,MAKONG'ONDA,63537,MKWAYA,MIKOROSHONI
MTWARA,63,MASASI,635,MAKONG'ONDA,63537,MKWAYA,AMANI
MTWARA,63,MASASI,635,MPETA,63538,MPETA,MSANGAMKUU
MTWARA,63,MASASI,635,MPETA,63538,MPETA,KILIMAHEWA
MTWARA,63,MASASI,635,MPETA,63538,MPETA,MAJENGO
MTWARA,63,MASASI,635,MPETA,63538,MPETA,BICHI
MTWARA,63,MASASI,635,MPETA,63538,MPETA,AMANI
MTWARA,63,MASASI,635,MPETA,63538,MPETA,RAHALEO
MTWARA,63,MASASI,635,MPETA,63538,HUWE,AMANI
MTWARA,63,MASASI,635,MPETA,63538,HUWE,CHANIKA
MTWARA,63,MASASI,635,MPETA,63538,HUWE,KILIMANI HEWA
MTWARA,63,MASASI,635,MPETA,63538,HUWE,MAGUMUCHILA
MTWARA,63,MASASI,635,MPETA,63538,MAKANYAMA,MJOHORONI
MTWARA,63,MASASI,635,MPETA,63538,MAKANYAMA,MBUYUNI
MTWARA,63,MASASI,635,MPETA,63538,MAKANYAMA,SHULENI
MTWARA,63,MASASI,635,MPETA,63538,MAKANYAMA,TANKINI
MTWARA,63,MASASI,635,MPETA,63538,KALANGWALE,KILIMANIHEWA
MTWARA,63,MASASI,635,MPETA,63538,KALANGWALE,KALANGWALE
MTWARA,63,MASASI,635,MPETA,63538,KALANGWALE,IKULU
MTWARA,63,MASASI,635,MPETA,63538,KALANGWALE,MBUYUNI
MTWARA,63,MASASI,635,MPETA,63538,KALANGWALE,KANISANI
MTWARA,63,MASASI,635,LUPASO,63539,MTOJO,MSALE
MTWARA,63,MASASI,635,LUPASO,63539,MTOJO,MALIRANI
MTWARA,63,MASASI,635,LUPASO,63539,MTOJO,MTOJO KILIMANI
MTWARA,63,MASASI,635,LUPASO,63539,MTOJO,MRIPA
MTWARA,63,MASASI,635,LUPASO,63539,MTOJO,NAKALOLA
MTWARA,63,MASASI,635,LUPASO,63539,UTIMBE,MNAZI MMOJA
MTWARA,63,MASASI,635,LUPASO,63539,UTIMBE,KILIMAHEWA
MTWARA,63,MASASI,635,LUPASO,63539,UTIMBE,AMKENI
MTWARA,63,MASASI,635,LUPASO,63539,UTIMBE,UMATI
MTWARA,63,MASASI,635,LUPASO,63539,UTIMBE,MKALIVATA
MTWARA,63,MASASI,635,LUPASO,63539,LIURUNGU,MBUYUNI
MTWARA,63,MASASI,635,LUPASO,63539,LIURUNGU,MIKANGAULA
MTWARA,63,MASASI,635,LUPASO,63539,LIURUNGU,MTIMKUBWA
MTWARA,63,MASASI,635,LUPASO,63539,LIURUNGU,NAMPUTU
MTWARA,63,MASASI,635,LUPASO,63539,LIURUNGU,LUCHILICHILI
MTWARA,63,MASASI,635,LUPASO,63539,MBANGARA,MIESI
MTWARA,63,MASASI,635,LUPASO,63539,MBANGARA,MBAGARA
MTWARA,63,MASASI,635,LUPASO,63539,LUPASO,KADUDU
MTWARA,63,MASASI,635,LUPASO,63539,LUPASO,NACHENDA
MTWARA,63,MASASI,635,LUPASO,63539,LUPASO,MSANGA MKUU
MTWARA,63,MASASI,635,LUPASO,63539,LUPASO,MISSIONI
MTWARA,63,MASASI,635,LUPASO,63539,LUPASO,NAMACHUPA
MTWARA,63,MASASI,635,MJELEJELE,63540,MPUTENI,OFISINI
MTWARA,63,MASASI,635,MJELEJELE,63540,MPUTENI,MKUTI
MTWARA,63,MASASI,635,MJELEJELE,63540,MPUTENI,TANDIKA
MTWARA,63,MASASI,635,MJELEJELE,63540,NAMBUNDA,MPWAPWA JUU
MTWARA,63,MASASI,635,MJELEJELE,63540,NAMBUNDA,DODOMA
MTWARA,63,MASASI,635,MJELEJELE,63540,NAMBUNDA,ILALA
MTWARA,63,MASASI,635,MJELEJELE,63540,NAMBUNDA,KILIMAHEWA
MTWARA,63,MASASI,635,MJELEJELE,63540,NAMBUNDA,TUPENDANE
MTWARA,63,MASASI,635,MJELEJELE,63540,MIJELEJELE,DODOMA
MTWARA,63,MASASI,635,MJELEJELE,63540,MIJELEJELE,MSIKITINI
MTWARA,63,MASASI,635,MJELEJELE,63540,MIJELEJELE,SHULENI
MTWARA,63,MASASI,635,MJELEJELE,63540,MIJELEJELE,KEKO
MTWARA,63,MASASI,635,MJELEJELE,63540,MIJELEJELE,OFISINI
MTWARA,63,MASASI,635,MJELEJELE,63540,MTENGULA,GHALANI
MTWARA,63,MASASI,635,MJELEJELE,63540,MTENGULA,MTONI
MTWARA,63,MASASI,635,MJELEJELE,63540,MTENGULA,UMOJA
MTWARA,63,MASASI,635,MJELEJELE,63540,MTENGULA,KAZAMOYO
MTWARA,63,MASASI,635,CHIKUKWE,63541,CHIKUKWE,TANDIKA
MTWARA,63,MASASI,635,CHIKUKWE,63541,CHIKUKWE,KANISANI
MTWARA,63,MASASI,635,CHIKUKWE,63541,CHIKUKWE,CHEMCHEM
MTWARA,63,MASASI,635,CHIKUKWE,63541,CHIKUKWE,BENAKO
MTWARA,63,MASASI,635,CHIKUKWE,63541,CHIKUKWE,GHALANI
MTWARA,63,MASASI,635,CHIKUKWE,63541,MAPARAGWE,PWANI
MTWARA,63,MASASI,635,CHIKUKWE,63541,MAPARAGWE,AMANI
MTWARA,63,MASASI,635,CHIKUKWE,63541,MAPARAGWE,KARIAKOO
MTWARA,63,MASASI,635,CHIKUKWE,63541,MAPARAGWE,MNAIDA
MTWARA,63,MASASI,635,CHIKUKWE,63541,MAPARAGWE,KILIMANI HEWA
MTWARA,63,MASASI,635,CHIKUKWE,63541,LILOYA,TUKAEWOTE
MTWARA,63,MASASI,635,CHIKUKWE,63541,LILOYA,CHAKAMBA
MTWARA,63,MASASI,635,CHIKUKWE,63541,LILOYA,TUPENDANE
MTWARA,63,MASASI,635,CHIKUKWE,63541,LILOYA,SONGAMBELE
MTWARA,63,MASASI,635,CHIKUKWE,63541,LILOYA,KILIMANI HEWA
MTWARA,63,MASASI,635,CHIKUKWE,63541,MJI MWEMA,KIBAONI
MTWARA,63,MASASI,635,CHIKUKWE,63541,MJI MWEMA,DARAJANI
MTWARA,63,MASASI,635,CHIKUKWE,63541,MJI MWEMA,KANISANI
MTWARA,63,MASASI,635,CHIKUKWE,63541,MJI MWEMA,MAGOMENI
MTWARA,63,MASASI,635,CHIKUKWE,63541,MJI MWEMA,MJI MWEMA
MTWARA,63,MASASI,635,CHIKUKWE,63541,MANDIWA,ZANZIBARI
MTWARA,63,MASASI,635,CHIKUKWE,63541,MANDIWA,AMANI
MTWARA,63,MASASI,635,CHIKUKWE,63541,MANDIWA,BARABARANI
MTWARA,63,MASASI,635,CHIKUKWE,63541,MANDIWA,TULIENI
MTWARA,63,MASASI,635,CHIKUKWE,63541,MANDIWA,TEKELEZA
MTWARA,63,MASASI,635,CHIKUKWE,63541,MANDIWA,TUUNGANE
MTWARA,63,MASASI,635,CHIKUKWE,63541,MANDIWA,MIHURU
MTWARA,63,MASASI,635,CHIKUKWE,63541,MWAMBAO,MWAMBAO
MTWARA,63,MASASI,635,CHIKUKWE,63541,MWAMBAO,MPUTUMA
MTWARA,63,MASASI,635,CHIKUKWE,63541,MWAMBAO,LUKOKA
MTWARA,63,MASASI,635,CHIKUKWE,63541,MWAMBAO,CHITOPE
MTWARA,63,MASASI,635,CHIKUKWE,63541,MWAMBAO,DENESI
MTWARA,63,MASASI,635,NANGOO,63542,MUMBURU A,NAMAYANGA
MTWARA,63,MASASI,635,NANGOO,63542,MUMBURU A,RUTAMBA
MTWARA,63,MASASI,635,NANGOO,63542,MUMBURU A,MKWAJUNI
MTWARA,63,MASASI,635,NANGOO,63542,MUMBURU A,MTAKUJA
MTWARA,63,MASASI,635,NANGOO,63542,MUMBURU B,TUUNGANE
MTWARA,63,MASASI,635,NANGOO,63542,MUMBURU B,SHULENI
MTWARA,63,MASASI,635,NANGOO,63542,MUMBURU B,NAMPYAILA
MTWARA,63,MASASI,635,NANGOO,63542,MUMBURU B,CHALINZE
MTWARA,63,MASASI,635,NANGOO,63542,MUMBURU B,MKOMBOZI
MTWARA,63,MASASI,635,NANGOO,63542,MWONGOZO,NGAILE
MTWARA,63,MASASI,635,NANGOO,63542,MWONGOZO,MPANYANI
MTWARA,63,MASASI,635,NANGOO,63542,MWONGOZO,TANKINI
MTWARA,63,MASASI,635,NANGOO,63542,MWONGOZO,CHIUNGU
MTWARA,63,MASASI,635,NANGOO,63542,MWONGOZO,MBWINJI
MTWARA,63,MASASI,635,NANGOO,63542,NANGOO,MAGOMENI
MTWARA,63,MASASI,635,NANGOO,63542,NANGOO,CHIPULULA
MTWARA,63,MASASI,635,NANGOO,63542,NANGOO,MNAZIMMOJA
MTWARA,63,MASASI,635,NANGOO,63542,NANGOO,TANDIKA
MTWARA,63,MASASI,635,NANGOO,63542,NANGOO,MKAYOKA
MTWARA,63,MASASI,635,NANGOO,63542,MDENGA,CHILENDE
MTWARA,63,MASASI,635,NANGOO,63542,MDENGA,NURU
MTWARA,63,MASASI,635,NANGOO,63542,MDENGA,LEGIO
MTWARA,63,MASASI,635,NANGOO,63542,MDENGA,JOSHONI
MTWARA,63,MASASI,635,NANGOO,63542,MDENGA,LUPASO
MTWARA,63,MASASI,635,CHIKUNDI,63543,CHIKUNDI,MSHIKAMANO
MTWARA,63,MASASI,635,CHIKUNDI,63543,CHIKUNDI,MBANGA
MTWARA,63,MASASI,635,CHIKUNDI,63543,CHIKUNDI,IKONGA
MTWARA,63,MASASI,635,CHIKUNDI,63543,CHIKUNDI,TUUNGANE
MTWARA,63,MASASI,635,CHIKUNDI,63543,CHIKUNDI,JITEGEMEE
MTWARA,63,MASASI,635,CHIKUNDI,63543,MSIGALILA,AMANI
MTWARA,63,MASASI,635,CHIKUNDI,63543,MSIGALILA,SINGINO
MTWARA,63,MASASI,635,CHIKUNDI,63543,MSIGALILA,MUUNGANO
MTWARA,63,MASASI,635,CHIKUNDI,63543,MSIGALILA,NASHAURI MOYO
MTWARA,63,MASASI,635,CHIKUNDI,63543,MTUNUNGU,BONDENI ROAD
MTWARA,63,MASASI,635,CHIKUNDI,63543,MTUNUNGU,KITUNDA
MTWARA,63,MASASI,635,CHIKUNDI,63543,MTUNUNGU,MAWENI
MTWARA,63,MASASI,635,CHIKUNDI,63543,MTUNUNGU,BATABUNETI
MTWARA,63,MASASI,635,CHIKUNDI,63543,MTUNUNGU,MATWANI
MTWARA,63,MASASI,635,CHIKUNDI,63543,NAMALI,CHEMCHEM
MTWARA,63,MASASI,635,CHIKUNDI,63543,NAMALI,JUHUDI
MTWARA,63,MASASI,635,CHIKUNDI,63543,NAMALI,KILIMANI HEWA
MTWARA,63,MASASI,635,CHIKUNDI,63543,NAMALI,MAPINDUZI
MTWARA,63,MASASI,635,CHIKUNDI,63543,NAMALI,NANTIELIE
MTWARA,63,MASASI,635,CHIKUNDI,63543,MKALAPA,PACHANA JUU
MTWARA,63,MASASI,635,CHIKUNDI,63543,MKALAPA,MABATINI
MTWARA,63,MASASI,635,CHIKUNDI,63543,MKALAPA,MIJALENI
MTWARA,63,MASASI,635,NDANDA,63544,NJENGA,NJENGA
MTWARA,63,MASASI,635,NDANDA,63544,NJENGA,TANDIKA
MTWARA,63,MASASI,635,NDANDA,63544,NJENGA,NDOLO
MTWARA,63,MASASI,635,NDANDA,63544,NJENGA,NJENGA JUU
MTWARA,63,MASASI,635,NDANDA,63544,NJENGA,KITUNDA
MTWARA,63,MASASI,635,NDANDA,63544,NJENGA,NASUVI
MTWARA,63,MASASI,635,NDANDA,63544,MPOWORA,DODOMA
MTWARA,63,MASASI,635,NDANDA,63544,MPOWORA,RAHALEO
MTWARA,63,MASASI,635,NDANDA,63544,MPOWORA,MITITIMO
MTWARA,63,MASASI,635,NDANDA,63544,MPOWORA,ZAMBIA
MTWARA,63,MASASI,635,NDANDA,63544,MPOWORA,MCHANGANI
MTWARA,63,MASASI,635,NDANDA,63544,LIPUTU,MISUFINI
MTWARA,63,MASASI,635,NDANDA,63544,LIPUTU,GHALANI
MTWARA,63,MASASI,635,NDANDA,63544,LIPUTU,MITUMBATI
MTWARA,63,MASASI,635,NDANDA,63544,LIPUTU,LIPUTU JUU
MTWARA,63,MASASI,635,NDANDA,63544,TUUNGANE,GHALANI
MTWARA,63,MASASI,635,NDANDA,63544,TUUNGANE,MAWENI
MTWARA,63,MASASI,635,NDANDA,63544,TUUNGANE,SONGAMBELE
MTWARA,63,MASASI,635,NDANDA,63544,TUUNGANE,MAGOMENI
MTWARA,63,MASASI,635,NDANDA,63544,MAJENGO,MBUYUNI
MTWARA,63,MASASI,635,NDANDA,63544,MAJENGO,IKAMDOBE
MTWARA,63,MASASI,635,NDANDA,63544,MAJENGO,TANKINI
MTWARA,63,MASASI,635,NDANDA,63544,MAJENGO,KISIWANI
MTWARA,63,MASASI,635,NDANDA,63544,MAJENGO,WAILESI
MTWARA,63,MASASI,635,MPINDIMBI,63545,SHAURI MOYO,SONGAMBELE
MTWARA,63,MASASI,635,MPINDIMBI,63545,SHAURI MOYO,TUPENDANE
MTWARA,63,MASASI,635,MPINDIMBI,63545,SHAURI MOYO,TULIENI
MTWARA,63,MASASI,635,MPINDIMBI,63545,SHAURI MOYO,UMOJA
MTWARA,63,MASASI,635,MPINDIMBI,63545,SHAURI MOYO,KILIMANI HEWA
MTWARA,63,MASASI,635,MPINDIMBI,63545,KANYIMBI,MUHIMBILI
MTWARA,63,MASASI,635,MPINDIMBI,63545,KANYIMBI,MAJENGO
MTWARA,63,MASASI,635,MPINDIMBI,63545,KANYIMBI,CHILIKWAA
MTWARA,63,MASASI,635,MPINDIMBI,63545,KANYIMBI,MKUNGUNI
MTWARA,63,MASASI,635,MPINDIMBI,63545,KANYIMBI,AMANI
MTWARA,63,MASASI,635,MPINDIMBI,63545,KANYIMBI,MUUNGANO
MTWARA,63,MASASI,635,MPINDIMBI,63545,KACHEPA,MAPINDUZI
MTWARA,63,MASASI,635,MPINDIMBI,63545,KACHEPA,JAMHURI
MTWARA,63,MASASI,635,MPINDIMBI,63545,KACHEPA,MDENGA
MTWARA,63,MASASI,635,MPINDIMBI,63545,KACHEPA,KAWAMBALA
MTWARA,63,MASASI,635,MPINDIMBI,63545,KACHEPA,MSASANI
MTWARA,63,MASASI,635,MPINDIMBI,63545,KACHEPA,MBOZI
MTWARA,63,MASASI,635,MPINDIMBI,63545,KACHEPA,MAJENGO
MTWARA,63,MASASI,635,MPINDIMBI,63545,KACHEPA,NAMAJANI
MTWARA,63,MASASI,635,MPINDIMBI,63545,KACHEPA,MLUNDELUNDE
MTWARA,63,MASASI,635,MPINDIMBI,63545,MPINDIMBI,NANDETE
MTWARA,63,MASASI,635,MPINDIMBI,63545,MPINDIMBI,SHUJETA
MTWARA,63,MASASI,635,MPINDIMBI,63545,MPINDIMBI,MICHENGANI
MTWARA,63,MASASI,635,MPINDIMBI,63545,MPINDIMBI,NAMAKONGWA
MTWARA,63,MASASI,635,MPINDIMBI,63545,MPINDIMBI,DODOMA
MTWARA,63,MASASI,635,MPINDIMBI,63545,MPINDIMBI,TEMEKE
MTWARA,63,MASASI,635,MPINDIMBI,63545,MPINDIMBI,MAENDELEO
MTWARA,63,MASASI,635,MPINDIMBI,63545,MPINDIMBI,TULIENI
MTWARA,63,MASASI,635,MPINDIMBI,63545,MPINDIMBI,MBUYUNI
MTWARA,63,MASASI,635,MPINDIMBI,63545,MAPALE,TEKELEZA
MTWARA,63,MASASI,635,MPINDIMBI,63545,MAPALE,AMANI
MTWARA,63,MASASI,635,MPINDIMBI,63545,MAPALE,CHIPOLOMBE
MTWARA,63,MASASI,635,MPINDIMBI,63545,MAPALE,MWANAKARIVAI
MTWARA,63,MASASI,635,MPINDIMBI,63545,MAPALE,KANISANI
MTWARA,63,MASASI,635,MSIKISI,63546,MIWALE,MBUYUNI
MTWARA,63,MASASI,635,MSIKISI,63546,MIWALE,MKWAJUNI
MTWARA,63,MASASI,635,MSIKISI,63546,MIWALE,MWAMBANI
MTWARA,63,MASASI,635,MSIKISI,63546,MIWALE,CHIMBO A
MTWARA,63,MASASI,635,MSIKISI,63546,MIWALE,CHIMBO B
MTWARA,63,MASASI,635,MSIKISI,63546,MSIKISI,KILIMANIHEWA
MTWARA,63,MASASI,635,MSIKISI,63546,MSIKISI,MUUNGANO
MTWARA,63,MASASI,635,MSIKISI,63546,MSIKISI,JIULIZE
MTWARA,63,MASASI,635,MSIKISI,63546,MSIKISI,JITEGEMEE
MTWARA,63,MASASI,635,MSIKISI,63546,MSIKISI,UMOJA
MTWARA,63,MASASI,635,MSIKISI,63546,NAMALEMBO,NAMBUPA
MTWARA,63,MASASI,635,MSIKISI,63546,NAMALEMBO,MAJENGO
MTWARA,63,MASASI,635,MSIKISI,63546,NAMALEMBO,AMANI
MTWARA,63,MASASI,635,MSIKISI,63546,NAMALEMBO,MAPUTO
MTWARA,63,MASASI,635,MSIKISI,63546,NAMALEMBO,MAJIMAJI
MTWARA,63,MASASI,635,CHANIKANGUO,63547,MCHOKONYO,
MTWARA,63,MASASI,635,CHANIKANGUO,63547,NDUNDA,
MTWARA,63,MASASI,635,CHANIKANGUO,63547,MAGUMUCHILA,
MTWARA,63,MASASI,635,CHANIKANGUO,63547,CHISEGU,
MTWARA,63,MASASI,635,CHANIKANGUO,63547,MAILI SITA,
MTWARA,63,MASASI,635,CHANIKANGUO,63547,NAMAKONGWA,
MTWARA,63,MASASI,635,CHANIKANGUO,63547,MKAJAMILA,
MTWARA,63,MASASI,635,CHANIKANGUO,63547,TULEANE,
MTWARA,63,MASASI,635,CHANIKANGUO,63547,CHANIKANGUO,
MTWARA,63,MASASI,635,NAPUPA,63548,WAPI WAPI A,
MTWARA,63,MASASI,635,NAPUPA,63548,WAPI WAPI B,
MTWARA,63,MASASI,635,NAPUPA,63548,KAGERA,
MTWARA,63,MASASI,635,NAPUPA,63548,STENDI YA NEWALA,
MTWARA,63,MASASI,635,NAPUPA,63548,MISUFINI,
MTWARA,63,MASASI,635,NAPUPA,63548,SILABU,
MTWARA,63,MASASI,635,NAPUPA,63548,NAPUPA,
MTWARA,63,MASASI,635,NAPUPA,63548,CHIWISI,
MTWARA,63,MASASI,635,MUMBAKA,63549,MUMBAKA,MADUKANI
MTWARA,63,MASASI,635,MUMBAKA,63549,MUMBAKA,MAGOMENI
MTWARA,63,MASASI,635,MUMBAKA,63549,MUMBAKA,KILIMANI HEWA
MTWARA,63,MASASI,635,MUMBAKA,63549,MUMBAKA,MAJENGO B
MTWARA,63,MASASI,635,MUMBAKA,63549,MLUNDELUNDE,MCHAKA
MTWARA,63,MASASI,635,MUMBAKA,63549,MLUNDELUNDE,MPOTA
MTWARA,63,MASASI,635,MUMBAKA,63549,MLUNDELUNDE,MAJENGO A
MTWARA,63,MASASI,635,MUMBAKA,63549,NAMIKUNDA A,LISEKESE
MTWARA,63,MASASI,635,MUMBAKA,63549,NAMIKUNDA A,MIGONGO
MTWARA,63,MASASI,635,MUMBAKA,63549,NAMIKUNDA A,MKOMAINDO
MTWARA,63,MASASI,635,MUMBAKA,63549,NAMIKUNDA A,GALANI
MTWARA,63,MASASI,635,MUMBAKA,63549,NAMIKUNDA A,MSASANI
MTWARA,63,MASASI,635,MUMBAKA,63549,CHIPOLE,MAJIMAJI
MTWARA,63,MASASI,635,MUMBAKA,63549,CHIPOLE,TEMEKE
MTWARA,63,MASASI,635,MUMBAKA,63549,CHIPOLE,KILIMANI HEWA
MTWARA,63,MASASI,635,MUMBAKA,63549,CHIPOLE,AMANI
MTWARA,63,MASASI,635,MUMBAKA,63549,NAMIKUNDA B,IKULU
MTWARA,63,MASASI,635,MUMBAKA,63549,NAMIKUNDA B,MKUTI
MTWARA,63,MASASI,635,MUMBAKA,63549,NAMIKUNDA B,MKUMBURANI
MTWARA,63,MASASI,635,MUMBAKA,63549,NAMIKUNDA B,NAMAKAMBALE
MTWARA,63,MASASI,635,CHIKUNJA,63550,CHIKUNJA,GHALANI
MTWARA,63,MASASI,635,CHIKUNJA,63550,CHIKUNJA,SHULENI A
MTWARA,63,MASASI,635,CHIKUNJA,63550,CHIKUNJA,SHULENI B
MTWARA,63,MASASI,635,CHIKUNJA,63550,CHIKUNJA,NANDITI A
MTWARA,63,MASASI,635,CHIKUNJA,63550,CHIKUNJA,NANDITI B
MTWARA,63,MASASI,635,CHIKUNJA,63550,NAPATA,OFISINI
MTWARA,63,MASASI,635,CHIKUNJA,63550,NAPATA,KILIMANI
MTWARA,63,MASASI,635,CHIKUNJA,63550,NAPATA,MKALINGA
MTWARA,63,MASASI,635,CHIKUNJA,63550,NAPATA,MWONGOZO
MTWARA,63,MASASI,635,CHIKUNJA,63550,NAPATA,MKALINGA SHULENI
MTWARA,63,MASASI,635,CHIKUNJA,63550,NASINDI,CHANG'OMBE
MTWARA,63,MASASI,635,CHIKUNJA,63550,NASINDI,KIJIWENI
MTWARA,63,MASASI,635,CHIKUNJA,63550,NASINDI,MAKONDEKO
MTWARA,63,MASASI,635,CHIKUNJA,63550,NASINDI,MUUNGANO
MTWARA,63,MASASI,635,CHIKUNJA,63550,NASINDI,OFISINI
MTWARA,63,MASASI,635,CHIKUNJA,63550,NASINDI MISSION,NANDEMBO
MTWARA,63,MASASI,635,CHIKUNJA,63550,NASINDI MISSION,MTONI
MTWARA,63,MASASI,635,CHIKUNJA,63550,NASINDI MISSION,SHULENI
MTWARA,63,MASASI,635,CHIKUNJA,63550,NASINDI MISSION,MLIMANI
MTWARA,63,MASASI,635,CHIKUNJA,63550,NASINDI MISSION,MAENDELEO
MTWARA,63,MASASI,635,CHIKUNJA,63550,NANDITI,MITULENI
MTWARA,63,MASASI,635,CHIKUNJA,63550,NANDITI,MWETIA
MTWARA,63,MASASI,635,CHIKUNJA,63550,NANDITI,KOMORO
MTWARA,63,MASASI,635,CHIKUNJA,63550,NANDITI,MWIRUKA
MTWARA,63,MASASI,635,CHIKUNJA,63550,NANDITI,IKULU
MTWARA,63,NANYUMBU,636,NANGOMBA,63601,NANGOMBA,MAPINDUZI
MTWARA,63,NANYUMBU,636,NANGOMBA,63601,NANGOMBA,MIKOROSHONI
MTWARA,63,NANYUMBU,636,NANGOMBA,63601,NANGOMBA,MADUKANI
MTWARA,63,NANYUMBU,636,NANGOMBA,63601,NANGOMBA,RAHALEO
MTWARA,63,NANYUMBU,636,NANGOMBA,63601,NANGOMBA,SHULENI
MTWARA,63,NANYUMBU,636,NANGOMBA,63601,MJIMWEMA,MJIMWEMA
MTWARA,63,NANYUMBU,636,NANGOMBA,63601,MJIMWEMA,NANJESE
MTWARA,63,NANYUMBU,636,NANGOMBA,63601,MJIMWEMA,KANISANI
MTWARA,63,NANYUMBU,636,NANGOMBA,63601,MJIMWEMA,ZAHANATI
MTWARA,63,NANYUMBU,636,NANGOMBA,63601,MJIMWEMA,MBUYUNI
MTWARA,63,NANYUMBU,636,NANGOMBA,63601,CHIHUVE,TULIVU
MTWARA,63,NANYUMBU,636,NANGOMBA,63601,CHIHUVE,TUMAINI
MTWARA,63,NANYUMBU,636,NANGOMBA,63601,CHIHUVE,CHIHUVE
MTWARA,63,NANYUMBU,636,NANGOMBA,63601,CHIHUVE,MTANGASHARI
MTWARA,63,NANYUMBU,636,NANGOMBA,63601,CHIHUVE,MIANZINI
MTWARA,63,NANYUMBU,636,NANGOMBA,63601,MNENEKA,KILIMAHEWA
MTWARA,63,NANYUMBU,636,NANGOMBA,63601,MNENEKA,SABASABA
MTWARA,63,NANYUMBU,636,NANGOMBA,63601,MNENEKA,MAKONDEKO
MTWARA,63,NANYUMBU,636,NANGOMBA,63601,MNENEKA,TUKAEWOTE
MTWARA,63,NANYUMBU,636,NANGOMBA,63601,MNENEKA,MALAWI
MTWARA,63,NANYUMBU,636,NANGOMBA,63601,MASWERA,SAUTIMOJA
MTWARA,63,NANYUMBU,636,NANGOMBA,63601,MASWERA,KILIMANI
MTWARA,63,NANYUMBU,636,NANGOMBA,63601,MASWERA,TUKAEWOTE
MTWARA,63,NANYUMBU,636,NANGOMBA,63601,MASWERA,MZALENDO
MTWARA,63,NANYUMBU,636,NANGOMBA,63601,MASWERA,MKOMA
MTWARA,63,NANYUMBU,636,MIKANGAULA,63602,CHANG'OMBE,BOMBAMBILI
MTWARA,63,NANYUMBU,636,MIKANGAULA,63602,CHANG'OMBE,MINAZINI
MTWARA,63,NANYUMBU,636,MIKANGAULA,63602,CHANG'OMBE,SHAURIMOYO
MTWARA,63,NANYUMBU,636,MIKANGAULA,63602,CHANG'OMBE,KISIWANI
MTWARA,63,NANYUMBU,636,MIKANGAULA,63602,MIKANGAULA,MADUKANI
MTWARA,63,NANYUMBU,636,MIKANGAULA,63602,MIKANGAULA,DODOMA
MTWARA,63,NANYUMBU,636,MIKANGAULA,63602,MIKANGAULA,MSASANI
MTWARA,63,NANYUMBU,636,MIKANGAULA,63602,MIKANGAULA,CHEM CHEM
MTWARA,63,NANYUMBU,636,MIKANGAULA,63602,MIKANGAULA,MISUFINI
MTWARA,63,NANYUMBU,636,MIKANGAULA,63602,MIKANGAULA,MUUNGANO
MTWARA,63,NANYUMBU,636,MIKANGAULA,63602,NAMATUMBUSI,MIRAMBO
MTWARA,63,NANYUMBU,636,MIKANGAULA,63602,NAMATUMBUSI,MUUNGANO
MTWARA,63,NANYUMBU,636,MIKANGAULA,63602,NAMATUMBUSI,KIVUKONI
MTWARA,63,NANYUMBU,636,MIKANGAULA,63602,NAMATUMBUSI,STENDI
MTWARA,63,NANYUMBU,636,MIKANGAULA,63602,NAMATUMBUSI,NAIPINGO
MTWARA,63,NANYUMBU,636,MIKANGAULA,63602,NAMATUMBUSI,MIGONGO
MTWARA,63,NANYUMBU,636,MIKANGAULA,63602,NAMATUMBUSI,MSIMBAZI
MTWARA,63,NANYUMBU,636,MIKANGAULA,63602,NAMATUMBUSI,MAJENGO
MTWARA,63,NANYUMBU,636,MIKANGAULA,63602,MKWAJUNI,MAJENGO
MTWARA,63,NANYUMBU,636,MIKANGAULA,63602,MKWAJUNI,MTONI
MTWARA,63,NANYUMBU,636,MIKANGAULA,63602,MKWAJUNI,HANDENI
MTWARA,63,NANYUMBU,636,MIKANGAULA,63602,MKWAJUNI,AMANI
MTWARA,63,NANYUMBU,636,MIKANGAULA,63602,KILOSA,MWAMBANI
MTWARA,63,NANYUMBU,636,MIKANGAULA,63602,KILOSA,RAHALEO
MTWARA,63,NANYUMBU,636,MIKANGAULA,63602,KILOSA,KAZAMOYO
MTWARA,63,NANYUMBU,636,MIKANGAULA,63602,KILOSA,MUUNGANO
MTWARA,63,NANYUMBU,636,MIKANGAULA,63602,KILOSA,SHIMONI
MTWARA,63,NANYUMBU,636,MIKANGAULA,63602,KILOSA,MBARUKU
MTWARA,63,NANYUMBU,636,MIKANGAULA,63602,LOWASA,MNAZIMMOJA
MTWARA,63,NANYUMBU,636,MIKANGAULA,63602,LOWASA,KILIMAHEWA
MTWARA,63,NANYUMBU,636,MIKANGAULA,63602,LOWASA,LOWASA
MTWARA,63,NANYUMBU,636,MIKANGAULA,63602,LOWASA,MIKOROSHINI
MTWARA,63,NANYUMBU,636,MARATANI,63603,MARATANI,MABATINI
MTWARA,63,NANYUMBU,636,MARATANI,63603,MARATANI,KILIMANIHEWA
MTWARA,63,NANYUMBU,636,MARATANI,63603,MARATANI,MAJI MAJI
MTWARA,63,NANYUMBU,636,MARATANI,63603,MARATANI,MRAUSHI
MTWARA,63,NANYUMBU,636,MARATANI,63603,MARATANI,CHIUNGUTWA
MTWARA,63,NANYUMBU,636,MARATANI,63603,MARATANI,KISARAWE
MTWARA,63,NANYUMBU,636,MARATANI,63603,MCHANGANI A,SOWETO
MTWARA,63,NANYUMBU,636,MARATANI,63603,MCHANGANI A,NKURUMA
MTWARA,63,NANYUMBU,636,MARATANI,63603,MCHANGANI A,MAJENGO
MTWARA,63,NANYUMBU,636,MARATANI,63603,MCHANGANI A,MITIMINGI
MTWARA,63,NANYUMBU,636,MARATANI,63603,LIPUPU,MNAZIMOJA
MTWARA,63,NANYUMBU,636,MARATANI,63603,LIPUPU,SHAURIMOYO
MTWARA,63,NANYUMBU,636,MARATANI,63603,LIPUPU,KILIMAHEWA
MTWARA,63,NANYUMBU,636,MARATANI,63603,LIPUPU,MKUTI
MTWARA,63,NANYUMBU,636,MARATANI,63603,LIPUPU,MUUNGANO
MTWARA,63,NANYUMBU,636,MARATANI,63603,MALEMA,URAFIKI
MTWARA,63,NANYUMBU,636,MARATANI,63603,MALEMA,UHURU
MTWARA,63,NANYUMBU,636,MARATANI,63603,MALEMA,MZALENDO
MTWARA,63,NANYUMBU,636,MARATANI,63603,MALEMA,KAWAWA
MTWARA,63,NANYUMBU,636,MARATANI,63603,MALEMA,KARUME
MTWARA,63,NANYUMBU,636,MARATANI,63603,MALEMA,AMANI
MTWARA,63,NANYUMBU,636,MARATANI,63603,MALEMA,SAMORA
MTWARA,63,NANYUMBU,636,MARATANI,63603,MALEMA,NYERERE
MTWARA,63,NANYUMBU,636,NANYUMBU,63604,NANYUMBU,ELIMU
MTWARA,63,NANYUMBU,636,NANYUMBU,63604,NANYUMBU,MADUKANI
MTWARA,63,NANYUMBU,636,NANYUMBU,63604,NANYUMBU,MDENGA
MTWARA,63,NANYUMBU,636,NANYUMBU,63604,NANYUMBU,NAMALOMBE
MTWARA,63,NANYUMBU,636,NANYUMBU,63604,NANYUMBU,MAHAKAMANI
MTWARA,63,NANYUMBU,636,NANYUMBU,63604,CHUNGU,GHALANI
MTWARA,63,NANYUMBU,636,NANYUMBU,63604,CHUNGU,ELIMU
MTWARA,63,NANYUMBU,636,NANYUMBU,63604,CHUNGU,PACHANI
MTWARA,63,NANYUMBU,636,NANYUMBU,63604,CHUNGU,LIHANGU
MTWARA,63,NANYUMBU,636,NANYUMBU,63604,CHUNGU,NAMATUNU
MTWARA,63,NANYUMBU,636,NANYUMBU,63604,CHITOWE,AZIMIO
MTWARA,63,NANYUMBU,636,NANYUMBU,63604,CHITOWE,MEHIRU
MTWARA,63,NANYUMBU,636,NANYUMBU,63604,CHITOWE,MBUYUNI
MTWARA,63,NANYUMBU,636,NANYUMBU,63604,CHITOWE,MNAZIMOJA
MTWARA,63,NANYUMBU,636,NANYUMBU,63604,CHITOWE,ELIMU
MTWARA,63,NANYUMBU,636,NANYUMBU,63604,CHITOWE,SAUTI
MTWARA,63,NANYUMBU,636,NANYUMBU,63604,CHITOWE,MSASANI
MTWARA,63,NANYUMBU,636,NANYUMBU,63604,CHITOWE,MLIMANI
MTWARA,63,NANYUMBU,636,NANYUMBU,63604,MANEME,MWERA
MTWARA,63,NANYUMBU,636,NANYUMBU,63604,MANEME,KIVUKONI
MTWARA,63,NANYUMBU,636,NANYUMBU,63604,MANEME,ELIMU
MTWARA,63,NANYUMBU,636,NANYUMBU,63604,MANEME,ZIWANI
MTWARA,63,NANYUMBU,636,NANYUMBU,63604,MANEME,MNAZIMMOJA
MTWARA,63,NANYUMBU,636,NANYUMBU,63604,MTAWATAWA,KILIMANI
MTWARA,63,NANYUMBU,636,NANYUMBU,63604,MTAWATAWA,KANISANI
MTWARA,63,NANYUMBU,636,NANYUMBU,63604,MTAWATAWA,MADINA
MTWARA,63,NANYUMBU,636,NANYUMBU,63604,MTAWATAWA,ELIMU
MTWARA,63,NANYUMBU,636,NANYUMBU,63604,MTAWATAWA,MBANGALA
MTWARA,63,NANYUMBU,636,NANYUMBU,63604,NANDERU,AMANI
MTWARA,63,NANYUMBU,636,NANYUMBU,63604,NANDERU,MKUTI
MTWARA,63,NANYUMBU,636,NANYUMBU,63604,NANDERU,SONGEA
MTWARA,63,NANYUMBU,636,NANYUMBU,63604,NANDERU,ELIMU
MTWARA,63,NANYUMBU,636,NANYUMBU,63604,NANDERU,NGONJI
MTWARA,63,NANYUMBU,636,NANYUMBU,63604,NANDERU,UMOJA
MTWARA,63,NANYUMBU,636,NANYUMBU,63604,NANDERU,MWONGOZO
MTWARA,63,NANYUMBU,636,NANYUMBU,63604,NANDERU,KILIMANIHEWA
MTWARA,63,NANYUMBU,636,NANYUMBU,63604,MKUULA,MKUULA
MTWARA,63,NANYUMBU,636,NANYUMBU,63604,MKUULA,MNAWA
MTWARA,63,NANYUMBU,636,NANYUMBU,63604,MKUULA,MBANGWE
MTWARA,63,NANYUMBU,636,NANYUMBU,63604,MKUULA,LICHINGA
MTWARA,63,NANYUMBU,636,NANYUMBU,63604,MKUULA,CHIKOTWA
MTWARA,63,NANYUMBU,636,NANYUMBU,63604,MAKANYA,LINDI
MTWARA,63,NANYUMBU,636,NANYUMBU,63604,MAKANYA,MTWARA
MTWARA,63,NANYUMBU,636,NANYUMBU,63604,MAKANYA,ELIMU
MTWARA,63,NANYUMBU,636,NANYUMBU,63604,MAKANYA,CHIPANGA
MTWARA,63,NANYUMBU,636,NANYUMBU,63604,MAKANYA,CHIUNGUTWA
MTWARA,63,NANYUMBU,636,CHIPUPUTA,63605,CHIPUPUTA,SIASA
MTWARA,63,NANYUMBU,636,CHIPUPUTA,63605,CHIPUPUTA,MZALENDO
MTWARA,63,NANYUMBU,636,CHIPUPUTA,63605,CHIPUPUTA,MAPINDUZI
MTWARA,63,NANYUMBU,636,CHIPUPUTA,63605,CHIPUPUTA,SOKOINE
MTWARA,63,NANYUMBU,636,CHIPUPUTA,63605,CHIPUPUTA,MNAZIMMOJA
MTWARA,63,NANYUMBU,636,CHIPUPUTA,63605,CHIPUPUTA,MATIHU
MTWARA,63,NANYUMBU,636,CHIPUPUTA,63605,MKOHORA,KILIMAHEWA
MTWARA,63,NANYUMBU,636,CHIPUPUTA,63605,MKOHORA,PWANI
MTWARA,63,NANYUMBU,636,CHIPUPUTA,63605,MKOHORA,ELIMU
MTWARA,63,NANYUMBU,636,CHIPUPUTA,63605,MKOHORA,SAMORA
MTWARA,63,NANYUMBU,636,CHIPUPUTA,63605,MKOHORA,AMANI
MTWARA,63,NANYUMBU,636,CHIPUPUTA,63605,NAMASOGO,IRINGA
MTWARA,63,NANYUMBU,636,CHIPUPUTA,63605,NAMASOGO,DODOMA
MTWARA,63,NANYUMBU,636,CHIPUPUTA,63605,NAMASOGO,TABORA
MTWARA,63,NANYUMBU,636,CHIPUPUTA,63605,NAMASOGO,MHINAWE
MTWARA,63,NANYUMBU,636,CHIPUPUTA,63605,NAMASOGO,MAJIMAJI
MTWARA,63,NANYUMBU,636,CHIPUPUTA,63605,NAMASOGO,MISENJERE
MTWARA,63,NANYUMBU,636,CHIPUPUTA,63605,NAMASOGO,MAENDELEO
MTWARA,63,NANYUMBU,636,CHIPUPUTA,63605,NAMAGULUVI,MAENDELEO
MTWARA,63,NANYUMBU,636,CHIPUPUTA,63605,NAMAGULUVI,MICHUNGWANI
MTWARA,63,NANYUMBU,636,CHIPUPUTA,63605,NAMAGULUVI,MWAMBANI
MTWARA,63,NANYUMBU,636,CHIPUPUTA,63605,NAMAGULUVI,ELIMU
MTWARA,63,NANYUMBU,636,CHIPUPUTA,63605,NAMAGULUVI,SONGAMBELE
MTWARA,63,NANYUMBU,636,CHIPUPUTA,63605,NAMAGULUVI,NGALINJE
MTWARA,63,NANYUMBU,636,CHIPUPUTA,63605,MPWAHIA,KAMBARAGE
MTWARA,63,NANYUMBU,636,CHIPUPUTA,63605,MPWAHIA,MKWAJUNI
MTWARA,63,NANYUMBU,636,CHIPUPUTA,63605,MPWAHIA,MADUKANI
MTWARA,63,NANYUMBU,636,CHIPUPUTA,63605,MPWAHIA,ELIMU
MTWARA,63,NANYUMBU,636,CHIPUPUTA,63605,MPWAHIA,PWANI
MTWARA,63,NANYUMBU,636,CHIPUPUTA,63605,MPWAHIA,MADINA
MTWARA,63,NANYUMBU,636,CHIPUPUTA,63605,NAKATETE,ELIMU
MTWARA,63,NANYUMBU,636,CHIPUPUTA,63605,NAKATETE,MADUKANI
MTWARA,63,NANYUMBU,636,CHIPUPUTA,63605,NAKATETE,ILALA
MTWARA,63,NANYUMBU,636,CHIPUPUTA,63605,NAKATETE,KAMBARAGE
MTWARA,63,NANYUMBU,636,NAKOPI,63606,NAKOPI,BWAWANI
MTWARA,63,NANYUMBU,636,NAKOPI,63606,NAKOPI,MCHUNDI
MTWARA,63,NANYUMBU,636,NAKOPI,63606,NAKOPI,MIKANGAULA
MTWARA,63,NANYUMBU,636,NAKOPI,63606,NAKOPI,MUUNGANO
MTWARA,63,NANYUMBU,636,NAKOPI,63606,NAKOPI,KILIMAHEWA
MTWARA,63,NANYUMBU,636,NAKOPI,63606,NAKOPI,TUKAE WOTE
MTWARA,63,NANYUMBU,636,NAKOPI,63606,NAKOPI,MIKANGAULA B
MTWARA,63,NANYUMBU,636,NAKOPI,63606,KAZAMOYO,KAZAMOYO
MTWARA,63,NANYUMBU,636,NAKOPI,63606,KAZAMOYO,MWENGE
MTWARA,63,NANYUMBU,636,NAKOPI,63606,KAZAMOYO,MTAKUJA
MTWARA,63,NANYUMBU,636,NAKOPI,63606,KAZAMOYO,SHULENI
MTWARA,63,NANYUMBU,636,NAKOPI,63606,KAZAMOYO,KILIMAHEWA
MTWARA,63,NANYUMBU,636,NAKOPI,63606,KAZAMOYO,LIUNGA
MTWARA,63,NANYUMBU,636,NAKOPI,63606,MBURUSA,OFISINI
MTWARA,63,NANYUMBU,636,NAKOPI,63606,MBURUSA,MSIKITINI
MTWARA,63,NANYUMBU,636,NAKOPI,63606,MBURUSA,KANISANI
MTWARA,63,NANYUMBU,636,NAKOPI,63606,MBURUSA,GHALANI
MTWARA,63,NANYUMBU,636,NAKOPI,63606,MBURUSA,MISUFINI
MTWARA,63,NANYUMBU,636,NAKOPI,63606,MBURUSA,NAMBUNDA
MTWARA,63,NANYUMBU,636,NAKOPI,63606,MBURUSA,SHULENI
MTWARA,63,NANYUMBU,636,NAKOPI,63606,MPOMBE,MWENGE
MTWARA,63,NANYUMBU,636,NAKOPI,63606,MPOMBE,SHULENI
MTWARA,63,NANYUMBU,636,NAKOPI,63606,MPOMBE,BONDENI
MTWARA,63,NANYUMBU,636,NAKOPI,63606,MPOMBE,GHALANI
MTWARA,63,NANYUMBU,636,NAKOPI,63606,MPOMBE,MSIKITINI
MTWARA,63,NANYUMBU,636,NAKOPI,63606,MPOMBE,MTEMAUPINDE
MTWARA,63,NANYUMBU,636,NAKOPI,63606,MPOMBE,LEGEZAMWENDO
MTWARA,63,NANYUMBU,636,NAKOPI,63606,NDECHELA,NDECHELA
MTWARA,63,NANYUMBU,636,NAKOPI,63606,NDECHELA,MITONGA
MTWARA,63,NANYUMBU,636,NAKOPI,63606,CHIMIKA,MASASI
MTWARA,63,NANYUMBU,636,NAKOPI,63606,CHIMIKA,MTWARA
MTWARA,63,NANYUMBU,636,NAKOPI,63606,CHIMIKA,CHIMIKA
MTWARA,63,NANYUMBU,636,NAKOPI,63606,CHIMIKA,EREVUKA
MTWARA,63,NANYUMBU,636,LIKOKONA,63607,LIKOKONA,MKWAJUNI
MTWARA,63,NANYUMBU,636,LIKOKONA,63607,LIKOKONA,MWAMBANI
MTWARA,63,NANYUMBU,636,LIKOKONA,63607,LIKOKONA,MICHUNGWANI
MTWARA,63,NANYUMBU,636,LIKOKONA,63607,LIKOKONA,MIKANGAULA
MTWARA,63,NANYUMBU,636,LIKOKONA,63607,LIKOKONA,CHELEWENI
MTWARA,63,NANYUMBU,636,LIKOKONA,63607,LIKOKONA,MISUFINI
MTWARA,63,NANYUMBU,636,LIKOKONA,63607,NAMAKA,NAMAKA
MTWARA,63,NANYUMBU,636,LIKOKONA,63607,NAMAKA,MWAMBO
MTWARA,63,NANYUMBU,636,LIKOKONA,63607,NAMAKA,PEMBA
MTWARA,63,NANYUMBU,636,LIKOKONA,63607,NAMAKA,MTANDI
MTWARA,63,NANYUMBU,636,LIKOKONA,63607,MSINYASI,MSINYASI JUU
MTWARA,63,NANYUMBU,636,LIKOKONA,63607,MSINYASI,KAZAMOYO
MTWARA,63,NANYUMBU,636,LIKOKONA,63607,MSINYASI,MNAZIMOJA
MTWARA,63,NANYUMBU,636,LIKOKONA,63607,MSINYASI,MGOMBASI
MTWARA,63,NANYUMBU,636,LIKOKONA,63607,MISAWAJI,MISAWAJI
MTWARA,63,NANYUMBU,636,LIKOKONA,63607,MISAWAJI,MBAMBAKOFI
MTWARA,63,NANYUMBU,636,LIKOKONA,63607,MISAWAJI,TULEANE
MTWARA,63,NANYUMBU,636,LIKOKONA,63607,MISAWAJI,JIUNGENI
MTWARA,63,NANYUMBU,636,LIKOKONA,63607,MISAWAJI,KILIMANI HEWA
MTWARA,63,NANYUMBU,636,SENGENYA,63608,SENGENYA,PWANI
MTWARA,63,NANYUMBU,636,SENGENYA,63608,SENGENYA,KIJIWENI
MTWARA,63,NANYUMBU,636,SENGENYA,63608,SENGENYA,MABATINI
MTWARA,63,NANYUMBU,636,SENGENYA,63608,SENGENYA,MNAZI MMOJA
MTWARA,63,NANYUMBU,636,SENGENYA,63608,MKUMBARU,MKUMBARU
MTWARA,63,NANYUMBU,636,SENGENYA,63608,MKUMBARU,SONGAMBELE A
MTWARA,63,NANYUMBU,636,SENGENYA,63608,MKUMBARU,NAIVANGA
MTWARA,63,NANYUMBU,636,SENGENYA,63608,MKUMBARU,SONGAMBELE B
MTWARA,63,NANYUMBU,636,SENGENYA,63608,MKUMBARU,SOMILI
MTWARA,63,NANYUMBU,636,SENGENYA,63608,MATIMBENI,AZIMIO
MTWARA,63,NANYUMBU,636,SENGENYA,63608,MATIMBENI,AMANI
MTWARA,63,NANYUMBU,636,SENGENYA,63608,MATIMBENI,DODOMA
MTWARA,63,NANYUMBU,636,SENGENYA,63608,MATIMBENI,KISUMU
MTWARA,63,NANYUMBU,636,SENGENYA,63608,MATIMBENI,ILALA
MTWARA,63,NANYUMBU,636,SENGENYA,63608,RUKUMBI,MBUYUNI
MTWARA,63,NANYUMBU,636,SENGENYA,63608,RUKUMBI,SHULENI
MTWARA,63,NANYUMBU,636,SENGENYA,63608,RUKUMBI,RUKUMBI A
MTWARA,63,NANYUMBU,636,SENGENYA,63608,CHINYANYIRA,MAPINDUZI
MTWARA,63,NANYUMBU,636,SENGENYA,63608,CHINYANYIRA,AMANI
MTWARA,63,NANYUMBU,636,SENGENYA,63608,CHINYANYIRA,MWENGE
MTWARA,63,NANYUMBU,636,SENGENYA,63608,CHINYANYIRA,MERERANI
MTWARA,63,NANYUMBU,636,SENGENYA,63608,CHINYANYIRA,CHEMCHEM
MTWARA,63,NANYUMBU,636,SENGENYA,63608,CHINYANYIRA,TEMEKE
MTWARA,63,NANYUMBU,636,SENGENYA,63608,MARA,KIVUKONI
MTWARA,63,NANYUMBU,636,SENGENYA,63608,MARA,KILOSA
MTWARA,63,NANYUMBU,636,SENGENYA,63608,MARA,RAHALEO
MTWARA,63,NANYUMBU,636,SENGENYA,63608,MARA,MAPINDUZI
MTWARA,63,NANYUMBU,636,SENGENYA,63608,MARA,ELIMU
MTWARA,63,NANYUMBU,636,SENGENYA,63608,NACHIURA,DODOMA
MTWARA,63,NANYUMBU,636,SENGENYA,63608,NACHIURA,SHULENI
MTWARA,63,NANYUMBU,636,SENGENYA,63608,NACHIURA,MZALENDO
MTWARA,63,NANYUMBU,636,SENGENYA,63608,NACHIURA,MAPINDUZI
MTWARA,63,NANYUMBU,636,SENGENYA,63608,NACHIURA,AMANI
MTWARA,63,NANYUMBU,636,SENGENYA,63608,NAMARUPI,KILIMAHEWA
MTWARA,63,NANYUMBU,636,SENGENYA,63608,NAMARUPI,KIBAONI
MTWARA,63,NANYUMBU,636,SENGENYA,63608,NAMARUPI,JIUNGENI
MTWARA,63,NANYUMBU,636,SENGENYA,63608,KISIMATULI,MCHENJEUKA
MTWARA,63,NANYUMBU,636,SENGENYA,63608,KISIMATULI,KILIMAHEWA
MTWARA,63,NANYUMBU,636,SENGENYA,63608,KISIMATULI,MNAZIMMOJA
MTWARA,63,NANYUMBU,636,SENGENYA,63608,KISIMATULI,MBUYUNI
MTWARA,63,NANYUMBU,636,SENGENYA,63608,AMANI,AMANI
MTWARA,63,NANYUMBU,636,SENGENYA,63608,AMANI,TUKAEWOTE
MTWARA,63,NANYUMBU,636,SENGENYA,63608,AMANI,SAUTIMOJA
MTWARA,63,NANYUMBU,636,SENGENYA,63608,AMANI,MTAKUJA
MTWARA,63,NANYUMBU,636,SENGENYA,63608,AMANI,NAPIRI
MTWARA,63,NANYUMBU,636,SENGENYA,63608,MASYALELE,NGALOLE
MTWARA,63,NANYUMBU,636,SENGENYA,63608,MASYALELE,MAGOMENI
MTWARA,63,NANYUMBU,636,SENGENYA,63608,MASYALELE,NAMASIMBA
MTWARA,63,NANYUMBU,636,SENGENYA,63608,MASYALELE,KILIMAHEWA
MTWARA,63,NANYUMBU,636,SENGENYA,63608,MASYALELE,IGUNGA
MTWARA,63,NANYUMBU,636,SENGENYA,63608,MASYALELE,MCHOTEKA
MTWARA,63,NANYUMBU,636,LUMESULE,63609,LUMESULE,UMOJA
MTWARA,63,NANYUMBU,636,LUMESULE,63609,LUMESULE,MBUYUNI
MTWARA,63,NANYUMBU,636,LUMESULE,63609,LUMESULE,AMANI
MTWARA,63,NANYUMBU,636,LUMESULE,63609,LUMESULE,SHAURIMOYO
MTWARA,63,NANYUMBU,636,LUMESULE,63609,LUMESULE,SONGAMBELE
MTWARA,63,NANYUMBU,636,LUMESULE,63609,LUMESULE,MALUNGUWILA
MTWARA,63,NANYUMBU,636,LUMESULE,63609,MCHENJEUKA,DODOMA
MTWARA,63,NANYUMBU,636,LUMESULE,63609,MCHENJEUKA,MUUNGANO
MTWARA,63,NANYUMBU,636,LUMESULE,63609,MCHENJEUKA,TULIENI
MTWARA,63,NANYUMBU,636,LUMESULE,63609,MCHENJEUKA,NAMIUNGO
MTWARA,63,NANYUMBU,636,LUMESULE,63609,MCHENJEUKA,MTAKUJA
MTWARA,63,NANYUMBU,636,LUMESULE,63609,MCHENJEUKA,NAMASINGA
MTWARA,63,NANYUMBU,636,LUMESULE,63609,CHIGWEJE,MZALENDO
MTWARA,63,NANYUMBU,636,LUMESULE,63609,CHIGWEJE,AMANI
MTWARA,63,NANYUMBU,636,LUMESULE,63609,CHIGWEJE,MABATINI
MTWARA,63,NANYUMBU,636,LUMESULE,63609,CHIGWEJE,MSETO
MTWARA,63,NANYUMBU,636,LUMESULE,63609,CHIGWEJE,MBUYUNI
MTWARA,63,NANYUMBU,636,LUMESULE,63609,CHIGWEJE,USALAMA
MTWARA,63,NANYUMBU,636,LUMESULE,63609,CHIGWEJE,MAILI SITINI
MTWARA,63,NANYUMBU,636,LUMESULE,63609,CHANGWALE,MNAZIMMOJA
MTWARA,63,NANYUMBU,636,LUMESULE,63609,CHANGWALE,MIGOMBANI
MTWARA,63,NANYUMBU,636,LUMESULE,63609,CHANGWALE,TULIENI
MTWARA,63,NANYUMBU,636,LUMESULE,63609,CHANGWALE,MSIKITINI
MTWARA,63,NANYUMBU,636,LUMESULE,63609,CHANGWALE,MAKONDEKO
MTWARA,63,NANYUMBU,636,LUMESULE,63609,CHANGWALE,NYASA
MTWARA,63,NANYUMBU,636,LUMESULE,63609,CHANGWALE,TULIENI
MTWARA,63,NANYUMBU,636,LUMESULE,63609,CHANGWALE,LIHUHU
MTWARA,63,NANYUMBU,636,LUMESULE,63609,NANDEMBO,NGUVUKAZI
MTWARA,63,NANYUMBU,636,LUMESULE,63609,NANDEMBO,KAGERA
MTWARA,63,NANYUMBU,636,LUMESULE,63609,NANDEMBO,SAUTIMOJA
MTWARA,63,NANYUMBU,636,LUMESULE,63609,NANDEMBO,MAGOMENI
MTWARA,63,NANYUMBU,636,LUMESULE,63609,NANDEMBO,MKASALE
MTWARA,63,NANYUMBU,636,LUMESULE,63609,NANDEMBO,MKAPUNDA
MTWARA,63,NANYUMBU,636,LUMESULE,63609,NANDEMBO,RAHALEO
MTWARA,63,NANYUMBU,636,LUMESULE,63609,NANDEMBO,MNAZIMMOJA
MTWARA,63,NANYUMBU,636,MASUGURU,63610,MASUGURU,MSIKITINI
MTWARA,63,NANYUMBU,636,MASUGURU,63610,MASUGURU,CHANGO'MBE
MTWARA,63,NANYUMBU,636,MASUGURU,63610,MASUGURU,MUHIMBILI
MTWARA,63,NANYUMBU,636,MASUGURU,63610,MASUGURU,MTAKUJA
MTWARA,63,NANYUMBU,636,MASUGURU,63610,MASUGURU,ELIMU
MTWARA,63,NANYUMBU,636,MASUGURU,63610,LUKULA,MBUYUNI
MTWARA,63,NANYUMBU,636,MASUGURU,63610,LUKULA,TANKINI
MTWARA,63,NANYUMBU,636,MASUGURU,63610,LUKULA,MSIKITINI
MTWARA,63,NANYUMBU,636,MASUGURU,63610,LUKULA,ELIMU
MTWARA,63,NANYUMBU,636,MASUGURU,63610,LUKULA,BONDENI
MTWARA,63,NANYUMBU,636,MASUGURU,63610,LUKULA,RUVUMA
MTWARA,63,NANYUMBU,636,MASUGURU,63610,LUKULA,MTAMBASWALA
MTWARA,63,NANYUMBU,636,MASUGURU,63610,LUKWIKA,ELIMU
MTWARA,63,NANYUMBU,636,MASUGURU,63610,LUKWIKA,BONDENI
MTWARA,63,NANYUMBU,636,MASUGURU,63610,LUKWIKA,MSIKITINI
MTWARA,63,NANYUMBU,636,MASUGURU,63610,LUKWIKA,KANISANI
MTWARA,63,NANYUMBU,636,MASUGURU,63610,LUKWIKA,KILIMANI HEWA
MTWARA,63,NANYUMBU,636,MKONONA,63611,MITUMBATI,ELIMU
MTWARA,63,NANYUMBU,636,MKONONA,63611,MITUMBATI,SIASA
MTWARA,63,NANYUMBU,636,MKONONA,63611,MITUMBATI,KILIMAHEWA
MTWARA,63,NANYUMBU,636,MKONONA,63611,MITUMBATI,MKONGO
MTWARA,63,NANYUMBU,636,MKONONA,63611,MITUMBATI,MAKASICHI
MTWARA,63,NANYUMBU,636,MKONONA,63611,MITUMBATI,MNAZIMOJA
MTWARA,63,NANYUMBU,636,MKONONA,63611,MITUMBATI,MILEPA
MTWARA,63,NANYUMBU,636,MKONONA,63611,NJISA,ELIMU
MTWARA,63,NANYUMBU,636,MKONONA,63611,NJISA,MBUYUNI
MTWARA,63,NANYUMBU,636,MKONONA,63611,NJISA,KIWANJANI
MTWARA,63,NANYUMBU,636,MKONONA,63611,NJISA,MSENGENYA
MTWARA,63,NANYUMBU,636,MKONONA,63611,NJISA,MKWAJUNI
MTWARA,63,NANYUMBU,636,MKONONA,63611,NJISA,JIUNGENI
MTWARA,63,NANYUMBU,636,MKONONA,63611,MARUMBA,LILUNGU
MTWARA,63,NANYUMBU,636,MKONONA,63611,MARUMBA,MTWARA
MTWARA,63,NANYUMBU,636,MKONONA,63611,MARUMBA,NAMBUNDA
MTWARA,63,NANYUMBU,636,MKONONA,63611,MARUMBA,NAMAROMBA
MTWARA,63,NANYUMBU,636,MKONONA,63611,CHILUNDA,MISUFINI
MTWARA,63,NANYUMBU,636,MKONONA,63611,CHILUNDA,KISARAWE
MTWARA,63,NANYUMBU,636,MKONONA,63611,CHILUNDA,KILIMAHEWA
MTWARA,63,NANYUMBU,636,MKONONA,63611,CHILUNDA,MNAZIMOJA
MTWARA,63,NANYUMBU,636,MKONONA,63611,CHILUNDA,MAJENGO
MTWARA,63,NANYUMBU,636,MKONONA,63611,CHILUNDA,MAGOMENI
MTWARA,63,NANYUMBU,636,MKONONA,63611,NAMIJATI,DUKANI
MTWARA,63,NANYUMBU,636,MKONONA,63611,NAMIJATI,MISUFINI
MTWARA,63,NANYUMBU,636,MKONONA,63611,NAMIJATI,ZAHANATI
MTWARA,63,NANYUMBU,636,MKONONA,63611,NAMIJATI,MBUYUNI
MTWARA,63,NANYUMBU,636,MKONONA,63611,NAMIJATI,MADINA
MTWARA,63,NANYUMBU,636,MKONONA,63611,MBANGALA MBUYUNI,MBAGALA MBUYUNI
MTWARA,63,NANYUMBU,636,MKONONA,63611,MBANGALA MBUYUNI,WANIKA
MTWARA,63,NANYUMBU,636,MKONONA,63611,MBANGALA MBUYUNI,KILIMAHEWA
MTWARA,63,NANYUMBU,636,MKONONA,63611,MBANGALA MBUYUNI,LIVAMBANGOMA
MTWARA,63,NANYUMBU,636,NANDETE,63612,NANDETE,SIDO
MTWARA,63,NANYUMBU,636,NANDETE,63612,NANDETE,AZIMIO
MTWARA,63,NANYUMBU,636,NANDETE,63612,NANDETE,MIKUVA
MTWARA,63,NANYUMBU,636,NANDETE,63612,NANDETE,MHAKURU
MTWARA,63,NANYUMBU,636,NANDETE,63612,NANDETE,MIEMBE SABA
MTWARA,63,NANYUMBU,636,NANDETE,63612,NANDETE,KILIMAHEWA
MTWARA,63,NANYUMBU,636,NANDETE,63612,NANDETE,MZALENDO
MTWARA,63,NANYUMBU,636,NANDETE,63612,NANDETE,NAMACHUPA
MTWARA,63,NANYUMBU,636,NANDETE,63612,ULANGA,ELIMU
MTWARA,63,NANYUMBU,636,NANDETE,63612,ULANGA,SEMENI
MTWARA,63,NANYUMBU,636,NANDETE,63612,ULANGA,MAJENGO
MTWARA,63,NANYUMBU,636,NANDETE,63612,ULANGA,CHEMCHEM
MTWARA,63,NANYUMBU,636,NANDETE,63612,ULANGA,KILIMAHEWA
MTWARA,63,NANYUMBU,636,NANDETE,63612,CHIVIRIKITI,GHALANI
MTWARA,63,NANYUMBU,636,NANDETE,63612,CHIVIRIKITI,ELIMU
MTWARA,63,NANYUMBU,636,NANDETE,63612,CHIVIRIKITI,MSIKITINI
MTWARA,63,NANYUMBU,636,NANDETE,63612,CHIVIRIKITI,SAUTIMOJA
MTWARA,63,NANYUMBU,636,NANDETE,63612,CHIVIRIKITI,MBUYUNI
MTWARA,63,NANYUMBU,636,NANDETE,63612,CHIVIRIKITI,KILIMAHEWA
MTWARA,63,NANYUMBU,636,NANDETE,63612,CHIVIRIKITI,KAZAMOYO
MTWARA,63,NANYUMBU,636,NANDETE,63612,NAKOLE,ILALA
MTWARA,63,NANYUMBU,636,NANDETE,63612,NAKOLE,MAPUTO
MTWARA,63,NANYUMBU,636,NANDETE,63612,NAKOLE,MIEMBENI
MTWARA,63,NANYUMBU,636,NANDETE,63612,NAKOLE,KIKWAJUNI
MTWARA,63,NANYUMBU,636,NANDETE,63612,NAKOLE,MKARAKATE
MTWARA,63,NANYUMBU,636,NANDETE,63612,NAKOLE,KALOLENI
MTWARA,63,NANYUMBU,636,NANDETE,63612,NAKOLE,KISIWANI
MTWARA,63,NANYUMBU,636,NANDETE,63612,NAKOLE,BOMBAMBILI
MTWARA,63,NANYUMBU,636,NANDETE,63612,MTALIKACHAU,KARIAKOO
MTWARA,63,NANYUMBU,636,NANDETE,63612,MTALIKACHAU,MISUFINI
MTWARA,63,NANYUMBU,636,NANDETE,63612,MTALIKACHAU,AZIMIO
MTWARA,63,NANYUMBU,636,NANDETE,63612,MTALIKACHAU,TUPENDANE
MTWARA,63,NANYUMBU,636,NANDETE,63612,MTALIKACHAU,MUUNGANO
MTWARA,63,NANYUMBU,636,NANDETE,63612,MTALIKACHAU,AMANI
MTWARA,63,NANYUMBU,636,NANDETE,63612,MTALIKACHAU,ELIIMU
MTWARA,63,NANYUMBU,636,MANGAKA,63613,MANGAKA,MCHANGANI
MTWARA,63,NANYUMBU,636,MANGAKA,63613,MANGAKA,KUMBUKUMBU
MTWARA,63,NANYUMBU,636,MANGAKA,63613,MANGAKA,SAUTIMOJA
MTWARA,63,NANYUMBU,636,MANGAKA,63613,MANGAKA,NAMPUNGU
MTWARA,63,NANYUMBU,636,MANGAKA,63613,MANGAKA,"MAPINUZI  ""A"""
MTWARA,63,NANYUMBU,636,MANGAKA,63613,MANGAKA,"MAPINUZI  ""B"""
MTWARA,63,NANYUMBU,636,MANGAKA,63613,MANGAKA,CDC MAJENGO
MTWARA,63,NANYUMBU,636,MANGAKA,63613,MANGAKA,CHANG'OMBE
MTWARA,63,NANYUMBU,636,MANGAKA,63613,NAHAWARA,MIGOMBANI
MTWARA,63,NANYUMBU,636,MANGAKA,63613,NAHAWARA,MITUMBATI
MTWARA,63,NANYUMBU,636,MANGAKA,63613,NAHAWARA,MIGONGO
MTWARA,63,NANYUMBU,636,MANGAKA,63613,NAHAWARA,MWAMBANI
MTWARA,63,NANYUMBU,636,MANGAKA,63613,NAHAWARA,MZALENDO
MTWARA,63,NANYUMBU,636,MANGAKA,63613,NDWIKA,MISUFINI
MTWARA,63,NANYUMBU,636,MANGAKA,63613,NDWIKA,MAGOMENI
MTWARA,63,NANYUMBU,636,MANGAKA,63613,NDWIKA,TUKAEWOTE
MTWARA,63,NANYUMBU,636,MANGAKA,63613,NDWIKA,MNAZIMMOJA
MTWARA,63,NANYUMBU,636,MANGAKA,63613,NDWIKA,MSIKITINI
MTWARA,63,NANYUMBU,636,MANGAKA,63613,NDWIKA,NASOMBA
MTWARA,63,NANYUMBU,636,MANGAKA,63613,NDWIKA,NAMAKAMBALE
MTWARA,63,NANYUMBU,636,MANGAKA,63613,NDWIKA,JIUNGENI
MTWARA,63,NANYUMBU,636,MANGAKA,63613,NDWIKA,MZALENDO
MTWARA,63,NANYUMBU,636,MANGAKA,63613,MTOKORA,SAUTIMOJA
MTWARA,63,NANYUMBU,636,MANGAKA,63613,MTOKORA,KIJIWENI
MTWARA,63,NANYUMBU,636,MANGAKA,63613,MTOKORA,IKULU
MTWARA,63,NANYUMBU,636,MANGAKA,63613,MTOKORA,TEMEKE
MTWARA,63,NANYUMBU,636,MANGAKA,63613,MTOKORA,NAKATETE
MTWARA,63,NANYUMBU,636,MNANJE,63614,NGUPE,MAJENGO
MTWARA,63,NANYUMBU,636,MNANJE,63614,NGUPE,TANDIKA
MTWARA,63,NANYUMBU,636,MNANJE,63614,NGUPE,BONDENI ROAD
MTWARA,63,NANYUMBU,636,MNANJE,63614,NGUPE,KILIMAHEWA
MTWARA,63,NANYUMBU,636,MNANJE,63614,NGUPE,SABASABA
MTWARA,63,NANYUMBU,636,MNANJE,63614,HOLOLA,MASHINENI
MTWARA,63,NANYUMBU,636,MNANJE,63614,HOLOLA,MNAZIMOJA
MTWARA,63,NANYUMBU,636,MNANJE,63614,HOLOLA,BOMBANI
MTWARA,63,NANYUMBU,636,MNANJE,63614,HOLOLA,SHULENI
MTWARA,63,NANYUMBU,636,MNANJE,63614,HOLOLA,KAGERA
MTWARA,63,NANYUMBU,636,MNANJE,63614,HOLOLA,MKUTI
MTWARA,63,NANYUMBU,636,MNANJE,63614,MIKUVA,RAHALEO
MTWARA,63,NANYUMBU,636,MNANJE,63614,MIKUVA,MIKUVA
MTWARA,63,NANYUMBU,636,MNANJE,63614,MIKUVA,MNAZIMOJA
MTWARA,63,NANYUMBU,636,MNANJE,63614,MIKUVA,ILALA
MTWARA,63,NANYUMBU,636,MNANJE,63614,MIKUVA,MASASI
MTWARA,63,NANYUMBU,636,MNANJE,63614,MIKUVA,NASINDI
MTWARA,63,NANYUMBU,636,MNANJE,63614,MIKUVA,CHANG'OMBE
MTWARA,63,NANYUMBU,636,MNANJE,63614,MIKUVA,KILIMAHEWA
MTWARA,63,NANYUMBU,636,MNANJE,63614,MIKUVA,KAZAMOYO
MTWARA,63,NANYUMBU,636,MNANJE,63614,CHIKUNJA II,KAZAMOYO
MTWARA,63,NANYUMBU,636,MNANJE,63614,CHIKUNJA II,ELIMU
MTWARA,63,NANYUMBU,636,MNANJE,63614,CHIKUNJA II,KILIMANIHEWA
MTWARA,63,NANYUMBU,636,MNANJE,63614,MNANJE A,MWINYI
MTWARA,63,NANYUMBU,636,MNANJE,63614,MNANJE A,MIEMBENI
MTWARA,63,NANYUMBU,636,MNANJE,63614,MNANJE A,MAENDELEO
MTWARA,63,NANYUMBU,636,MNANJE,63614,MNANJE A,MANDELA
MTWARA,63,NANYUMBU,636,MNANJE,63614,MNANJE B,BOMBAMBILI
MTWARA,63,NANYUMBU,636,MNANJE,63614,MNANJE B,KAWAWA
MTWARA,63,NANYUMBU,636,MNANJE,63614,MNANJE B,MAPINDUZI
MTWARA,63,NANYUMBU,636,MNANJE,63614,MNANJE B,KARIBUNI
MTWARA,63,NANYUMBU,636,MNANJE,63614,MNANJE B,UMOJA
MTWARA,63,NANYUMBU,636,MNANJE,63614,MNANJE B,CHELEWENI
MTWARA,63,NANYUMBU,636,KAMUNDI,63615,NAHIMBA,MWONGOZO
MTWARA,63,NANYUMBU,636,KAMUNDI,63615,NAHIMBA,MNAZIMMOJA
MTWARA,63,NANYUMBU,636,KAMUNDI,63615,NAHIMBA,MIGONGO
MTWARA,63,NANYUMBU,636,KAMUNDI,63615,NAHIMBA,JIDA
MTWARA,63,NANYUMBU,636,KAMUNDI,63615,NAHIMBA,SONGAMBELE
MTWARA,63,NANYUMBU,636,KAMUNDI,63615,NAHIMBA,NAMBUNDA
MTWARA,63,NANYUMBU,636,KAMUNDI,63615,NANGARAMO,AMANI
MTWARA,63,NANYUMBU,636,KAMUNDI,63615,NANGARAMO,DODOMA
MTWARA,63,NANYUMBU,636,KAMUNDI,63615,NANGARAMO,RAHALEO
MTWARA,63,NANYUMBU,636,KAMUNDI,63615,NANGARAMO,MAJENGO
MTWARA,63,NANYUMBU,636,KAMUNDI,63615,NANGARAMO,BOMBAMBILI
MTWARA,63,NANYUMBU,636,KAMUNDI,63615,NANGARAMO,MIFUGO
MTWARA,63,NANYUMBU,636,KAMUNDI,63615,NANGARAMO,MNAZIMMOJA
MTWARA,63,NANYUMBU,636,KAMUNDI,63615,MKAMBATA,CHELEWENI
MTWARA,63,NANYUMBU,636,KAMUNDI,63615,MKAMBATA,AMANI II
MTWARA,63,NANYUMBU,636,KAMUNDI,63615,MKAMBATA,MIVULENI
MTWARA,63,NANYUMBU,636,KAMUNDI,63615,MKAMBATA,JUHUDI TELE
MTWARA,63,NANYUMBU,636,KAMUNDI,63615,KAMUNDI,MAJENGO
MTWARA,63,NANYUMBU,636,KAMUNDI,63615,KAMUNDI,MNAZIMMOJA
MTWARA,63,NANYUMBU,636,KAMUNDI,63615,KAMUNDI,TEMEKE
MTWARA,63,NANYUMBU,636,KAMUNDI,63615,KAMUNDI,MAJIMAJI
MTWARA,63,NANYUMBU,636,KAMUNDI,63615,KAMUNDI,CHITANDI
MTWARA,63,NANYUMBU,636,KAMUNDI,63615,KAMUNDI,KISIWANI
MTWARA,63,NANYUMBU,636,KAMUNDI,63615,NAWAJE,MAENDELEO
MTWARA,63,NANYUMBU,636,KAMUNDI,63615,NAWAJE,MADINA
MTWARA,63,NANYUMBU,636,KAMUNDI,63615,NAWAJE,MAJIMAJI
MTWARA,63,NANYUMBU,636,KAMUNDI,63615,NAWAJE,JUHUDI
MTWARA,63,NANYUMBU,636,KAMUNDI,63615,NAWAJE,AZIMIO
MTWARA,63,NANYUMBU,636,KAMUNDI,63615,NAWAJE,SAYUNI
MTWARA,63,NANYUMBU,636,KAMUNDI,63615,NAWAJE,MUUNGANO
MTWARA,63,NANYUMBU,636,KILIMANIHEWA,63616,KILIMANIHEWA,MKWAJUNI
MTWARA,63,NANYUMBU,636,KILIMANIHEWA,63616,KILIMANIHEWA,SOWETO
MTWARA,63,NANYUMBU,636,KILIMANIHEWA,63616,KILIMANIHEWA,MNAZIMMOJA
MTWARA,63,NANYUMBU,636,KILIMANIHEWA,63616,KILIMANIHEWA,SHULENI
MTWARA,63,NANYUMBU,636,KILIMANIHEWA,63616,KILIMANIHEWA,MZALENDO
MTWARA,63,NANYUMBU,636,KILIMANIHEWA,63616,KILIMANIHEWA,KISIWANI
MTWARA,63,NANYUMBU,636,KILIMANIHEWA,63616,KILIMANIHEWA,TANKINI
MTWARA,63,NANYUMBU,636,KILIMANIHEWA,63616,KILIMANIHEWA,UMOJA
MTWARA,63,NANYUMBU,636,KILIMANIHEWA,63616,LIDEDE,SEKONDARI
MTWARA,63,NANYUMBU,636,KILIMANIHEWA,63616,LIDEDE,MSIKITINI
MTWARA,63,NANYUMBU,636,KILIMANIHEWA,63616,LIDEDE,LIDEDE
MTWARA,63,NANYUMBU,636,KILIMANIHEWA,63616,LIDEDE,CDC AMANI
MTWARA,63,NANYUMBU,636,KILIMANIHEWA,63616,LIDEDE,KILIMANIHEWA
MTWARA,63,NANYUMBU,636,KILIMANIHEWA,63616,LIDEDE,IKULU
MTWARA,63,NANYUMBU,636,KILIMANIHEWA,63616,NGALINJE,SOWETO
MTWARA,63,NANYUMBU,636,KILIMANIHEWA,63616,NGALINJE,MZALENDO
MTWARA,63,NANYUMBU,636,KILIMANIHEWA,63616,NGALINJE,SOKOINE
MTWARA,63,NANYUMBU,636,KILIMANIHEWA,63616,NGALINJE,KAMBARAGE
MTWARA,63,NANYUMBU,636,KILIMANIHEWA,63616,NGALINJE,KAGERA
MTWARA,63,NANYUMBU,636,KILIMANIHEWA,63616,MNONIA,MAPINDUZI
MTWARA,63,NANYUMBU,636,KILIMANIHEWA,63616,MNONIA,AZIMIO
MTWARA,63,NANYUMBU,636,KILIMANIHEWA,63616,MNONIA,UMOJA
MTWARA,63,NANYUMBU,636,KILIMANIHEWA,63616,MNONIA,LEGEZAMWENDO
MTWARA,63,NANYUMBU,636,KILIMANIHEWA,63616,MNONIA,KALIPINDE
MTWARA,63,NANYUMBU,636,KILIMANIHEWA,63616,MNONIA,TUUNGANE
MTWARA,63,NANYUMBU,636,KILIMANIHEWA,63616,MNONIA,NAMIPAKA
MTWARA,63,NANYUMBU,636,KILIMANIHEWA,63616,MWAMBANI,MGOMBANI
MTWARA,63,NANYUMBU,636,KILIMANIHEWA,63616,MWAMBANI,MSIKITINI
MTWARA,63,NANYUMBU,636,KILIMANIHEWA,63616,MWAMBANI,SHULENI
MTWARA,63,NANYUMBU,636,MICHIGA,63617,MICHIGA,CHIVEVERA
MTWARA,63,NANYUMBU,636,MICHIGA,63617,MICHIGA,KILIMAHEWA
MTWARA,63,NANYUMBU,636,MICHIGA,63617,MICHIGA,MWENGE
MTWARA,63,NANYUMBU,636,MICHIGA,63617,MICHIGA,MNARANI
MTWARA,63,NANYUMBU,636,MICHIGA,63617,MNAZI MMOJA,KALOLENI
MTWARA,63,NANYUMBU,636,MICHIGA,63617,MNAZI MMOJA,MIKELE
MTWARA,63,NANYUMBU,636,MICHIGA,63617,MNAZI MMOJA,BOMBANI
MTWARA,63,NANYUMBU,636,MICHIGA,63617,MNAZI MMOJA,NYASA
MTWARA,63,NANYUMBU,636,MICHIGA,63617,MNAZI MMOJA,PEMBA
MTWARA,63,NANYUMBU,636,MICHIGA,63617,PACHANI,MZALENDO
MTWARA,63,NANYUMBU,636,MICHIGA,63617,PACHANI,MIGOMBANI
MTWARA,63,NANYUMBU,636,MICHIGA,63617,PACHANI,NAIPINGO
MTWARA,63,NANYUMBU,636,MICHIGA,63617,PACHANI,MDIBWA
MTWARA,63,NANYUMBU,636,MICHIGA,63617,PACHANI,SEKONDARI
MTWARA,63,NANYUMBU,636,MICHIGA,63617,PACHANI,NAHIRA
MTWARA,63,NANYUMBU,636,MICHIGA,63617,PACHANI,KILWAKIVINJE
MTWARA,63,NANYUMBU,636,MICHIGA,63617,PACHANI,MAPOKEZI
MTWARA,63,NANYUMBU,636,MICHIGA,63617,PACHANI,MATANKINI
MTWARA,63,NANYUMBU,636,MICHIGA,63617,MAKONG'ONDERA,MSIKITINI
MTWARA,63,NANYUMBU,636,MICHIGA,63617,MAKONG'ONDERA,KANISANI
MTWARA,63,NANYUMBU,636,MICHIGA,63617,MAKONG'ONDERA,ZAHANATI
MTWARA,63,NANYUMBU,636,MICHIGA,63617,MAKONG'ONDERA,MILANGALE
MTWARA,63,NANYUMBU,636,MICHIGA,63617,MAKONG'ONDERA,KILWA MASOKO
MTWARA,63,NANYUMBU,636,MICHIGA,63617,MAKONG'ONDERA,LUKUGWE
MTWARA,63,NANYUMBU,636,MICHIGA,63617,MAKONG'ONDERA,GHALANI
