REGION,POSTCODE,DISTRICT,POSTCODE,WARD,POSTCODE,STREET,PLACES
NJOMBE,59,NJOMBE CBD,591,NJOMBE MJINI,59101,KWIVAHA,
NJOMBE,59,NJOMBE CBD,591,NJOMBE MJINI,59101,POSTA KATI,
NJOMBE,59,NJOMBE CBD,591,NJOMBE MJINI,59101,NHC,
NJOMBE,59,NJOMBE CBD,591,NJOMBE MJINI,59101,MGENDELA,
NJOMBE,59,NJOMBE CBD,591,NJOMBE MJINI,59101,KIHESA,
NJOMBE,59,NJOMBE CBD,591,NJOMBE MJINI,59101,SIDO,
NJOMBE,59,NJOMBE CBD,591,NJOMBE MJINI,59101,BUGURUNI,
NJOMBE,59,NJOMBE CBD,591,NJOMBE MJINI,59101,IDUNDILANGA,
NJOMBE,59,NJOMBE CBD,591,NJOMBE MJINI,59101,KAMBARAGE,
NJOMBE,59,NJOMBE CBD,591,LUPONDE,59102,MIVA,NGANGITAKULA
NJOMBE,59,NJOMBE CBD,591,LUPONDE,59102,MIVA,STOO
NJOMBE,59,NJOMBE CBD,591,LUPONDE,59102,MIVA,MIVA SHULENI
NJOMBE,59,NJOMBE CBD,591,LUPONDE,59102,MIVA,MWILONGELAGE
NJOMBE,59,NJOMBE CBD,591,LUPONDE,59102,MIVA,LUFINGU
NJOMBE,59,NJOMBE CBD,591,LUPONDE,59102,LUPONDE,MADOGO
NJOMBE,59,NJOMBE CBD,591,LUPONDE,59102,LUPONDE,MJIMWEMA
NJOMBE,59,NJOMBE CBD,591,LUPONDE,59102,LUPONDE,MLOGELWA
NJOMBE,59,NJOMBE CBD,591,LUPONDE,59102,LUPONDE,KEFEE
NJOMBE,59,NJOMBE CBD,591,LUPONDE,59102,LUPONDE,MAHOVE
NJOMBE,59,NJOMBE CBD,591,LUPONDE,59102,IGOLA,NGENDULI
NJOMBE,59,NJOMBE CBD,591,LUPONDE,59102,IGOLA,MAJENGO
NJOMBE,59,NJOMBE CBD,591,LUPONDE,59102,IGOLA,MWEMBETOGWA
NJOMBE,59,NJOMBE CBD,591,LUPONDE,59102,IGOLA,NJILIKWA
NJOMBE,59,NJOMBE CBD,591,LUPONDE,59102,IGOLA,IDUCHU
NJOMBE,59,NJOMBE CBD,591,LUPONDE,59102,LUSITU,"LUSITU ""A"""
NJOMBE,59,NJOMBE CBD,591,LUPONDE,59102,LUSITU,"LUSITU ""B"""
NJOMBE,59,NJOMBE CBD,591,LUPONDE,59102,LUSITU,UTIPILILE
NJOMBE,59,NJOMBE CBD,591,LUPONDE,59102,LUSITU,LUHOLOLO
NJOMBE,59,NJOMBE CBD,591,LUPONDE,59102,LUSITU,MKENGWA
NJOMBE,59,NJOMBE CBD,591,LUPONDE,59102,MADOBOLE,UNEWA
NJOMBE,59,NJOMBE CBD,591,LUPONDE,59102,MADOBOLE,MADOBOLE SHULENI
NJOMBE,59,NJOMBE CBD,591,LUPONDE,59102,MADOBOLE,SAGOMILE
NJOMBE,59,NJOMBE CBD,591,LUPONDE,59102,MADOBOLE,MATALAWE
NJOMBE,59,NJOMBE CBD,591,UWEMBA,59103,UWEMBA,
NJOMBE,59,NJOMBE CBD,591,UWEMBA,59103,UWEMBA,UWEMBA MAGHARIBI(B)
NJOMBE,59,NJOMBE CBD,591,UWEMBA,59103,UWEMBA,KINYANGESI (B)
NJOMBE,59,NJOMBE CBD,591,UWEMBA,59103,UWEMBA,SALIMU
NJOMBE,59,NJOMBE CBD,591,UWEMBA,59103,UWEMBA,GALILEYA
NJOMBE,59,NJOMBE CBD,591,UWEMBA,59103,UWEMBA,ICHENGA.
NJOMBE,59,NJOMBE CBD,591,UWEMBA,59103,KILENZI,MADATI CHINI
NJOMBE,59,NJOMBE CBD,591,UWEMBA,59103,KILENZI,MADATI JUU
NJOMBE,59,NJOMBE CBD,591,UWEMBA,59103,KILENZI,ITUNU
NJOMBE,59,NJOMBE CBD,591,UWEMBA,59103,KILENZI,PELAGA A
NJOMBE,59,NJOMBE CBD,591,UWEMBA,59103,KILENZI,PELAGA B
NJOMBE,59,NJOMBE CBD,591,UWEMBA,59103,MAGODA,ITIGA C
NJOMBE,59,NJOMBE CBD,591,UWEMBA,59103,MAGODA,ITIGA B
NJOMBE,59,NJOMBE CBD,591,UWEMBA,59103,MAGODA,ITIGA C
NJOMBE,59,NJOMBE CBD,591,UWEMBA,59103,MAKANJAULA,IDAGADAGA
NJOMBE,59,NJOMBE CBD,591,UWEMBA,59103,MAKANJAULA,INDIPA
NJOMBE,59,NJOMBE CBD,591,UWEMBA,59103,MAKANJAULA,NYAMALAMBO
NJOMBE,59,NJOMBE CBD,591,UWEMBA,59103,MAKANJAULA,ISILILO
NJOMBE,59,NJOMBE CBD,591,UWEMBA,59103,MAKANJAULA,MAKANJAULA KATI
NJOMBE,59,NJOMBE CBD,591,UWEMBA,59103,NJOOMLOLE,MOROGORO
NJOMBE,59,NJOMBE CBD,591,UWEMBA,59103,NJOOMLOLE,MBALANO
NJOMBE,59,NJOMBE CBD,591,UWEMBA,59103,NJOOMLOLE,NJOOMLOLE MAGHARIBI
NJOMBE,59,NJOMBE CBD,591,UWEMBA,59103,NJOOMLOLE,NJOOMLOLE MASHARIKI
NJOMBE,59,NJOMBE CBD,591,UWEMBA,59103,NJOOMLOLE,BOYI
NJOMBE,59,NJOMBE CBD,591,KIFANYA,59104,KIFANYA,KIBONDENI
NJOMBE,59,NJOMBE CBD,591,KIFANYA,59104,KIFANYA,MAKANDO
NJOMBE,59,NJOMBE CBD,591,KIFANYA,59104,KIFANYA,MAPERA
NJOMBE,59,NJOMBE CBD,591,KIFANYA,59104,KIFANYA,ITENGULE
NJOMBE,59,NJOMBE CBD,591,KIFANYA,59104,KIFANYA,MUUNGANO
NJOMBE,59,NJOMBE CBD,591,KIFANYA,59104,KIFANYA,IVAGALALA
NJOMBE,59,NJOMBE CBD,591,KIFANYA,59104,KIFANYA,CHANUCHA
NJOMBE,59,NJOMBE CBD,591,KIFANYA,59104,KIFANYA,KIWAGA-JUU
NJOMBE,59,NJOMBE CBD,591,KIFANYA,59104,MIKONGO,TOLONDO
NJOMBE,59,NJOMBE CBD,591,KIFANYA,59104,MIKONGO,MANGEREGESI
NJOMBE,59,NJOMBE CBD,591,KIFANYA,59104,MIKONGO,CHANGALAWE
NJOMBE,59,NJOMBE CBD,591,KIFANYA,59104,MIKONGO,MAPOSANE
NJOMBE,59,NJOMBE CBD,591,KIFANYA,59104,MIKONGO,IGAGALA
NJOMBE,59,NJOMBE CBD,591,KIFANYA,59104,LIWENGI,LIWENGI
NJOMBE,59,NJOMBE CBD,591,KIFANYA,59104,LIWENGI,IGAHILO
NJOMBE,59,NJOMBE CBD,591,KIFANYA,59104,LIWENGI,MBASA
NJOMBE,59,NJOMBE CBD,591,KIFANYA,59104,LIWENGI,MAKANJAULA
NJOMBE,59,NJOMBE CBD,591,KIFANYA,59104,LIWENGI,IGAWISENGA
NJOMBE,59,NJOMBE CBD,591,KIFANYA,59104,LILOMBWI,MAJENGO
NJOMBE,59,NJOMBE CBD,591,KIFANYA,59104,LILOMBWI,WANGINYI
NJOMBE,59,NJOMBE CBD,591,KIFANYA,59104,LILOMBWI,MLIMANI
NJOMBE,59,NJOMBE CBD,591,KIFANYA,59104,LILOMBWI,UZUNGUNI
NJOMBE,59,NJOMBE CBD,591,KIFANYA,59104,LILOMBWI,KIVULUNGE
NJOMBE,59,NJOMBE CBD,591,KIFANYA,59104,UTENGULE,UTENGULE
NJOMBE,59,NJOMBE CBD,591,KIFANYA,59104,UTENGULE,BONDENI
NJOMBE,59,NJOMBE CBD,591,KIFANYA,59104,UTENGULE,ULIWA
NJOMBE,59,NJOMBE CBD,591,KIFANYA,59104,UTENGULE,NGELELE
NJOMBE,59,NJOMBE CBD,591,KIFANYA,59104,LWANGU,LWAUGANGA
NJOMBE,59,NJOMBE CBD,591,KIFANYA,59104,LWANGU,NJIA PANDA
NJOMBE,59,NJOMBE CBD,591,KIFANYA,59104,LWANGU,LWANUNDU
NJOMBE,59,NJOMBE CBD,591,KIFANYA,59104,LWANGU,KIGAMBONI
NJOMBE,59,NJOMBE CBD,591,KIFANYA,59104,LWANGU,LWANGU KATI
NJOMBE,59,NJOMBE CBD,591,YAKOBI,59105,YAKOBI,UTULIMWANI
NJOMBE,59,NJOMBE CBD,591,YAKOBI,59105,YAKOBI,IGANGIDUMU
NJOMBE,59,NJOMBE CBD,591,YAKOBI,59105,YAKOBI,KALENGA
NJOMBE,59,NJOMBE CBD,591,YAKOBI,59105,YAKOBI,MAYAMBATU
NJOMBE,59,NJOMBE CBD,591,YAKOBI,59105,YAKOBI,LWAMHENGA
NJOMBE,59,NJOMBE CBD,591,YAKOBI,59105,LIMAGE,KIBONDENI
NJOMBE,59,NJOMBE CBD,591,YAKOBI,59105,LIMAGE,MFARANYAKI
NJOMBE,59,NJOMBE CBD,591,YAKOBI,59105,LIMAGE,MPOMBWI
NJOMBE,59,NJOMBE CBD,591,YAKOBI,59105,LIMAGE,CHAMANI
NJOMBE,59,NJOMBE CBD,591,YAKOBI,59105,LIMAGE,IBOHELO
NJOMBE,59,NJOMBE CBD,591,YAKOBI,59105,IDUNDA,MATEWELA
NJOMBE,59,NJOMBE CBD,591,YAKOBI,59105,IDUNDA,MATAMBA
NJOMBE,59,NJOMBE CBD,591,YAKOBI,59105,IDUNDA,LUWAMBALA
NJOMBE,59,NJOMBE CBD,591,YAKOBI,59105,IDUNDA,IGELANGO
NJOMBE,59,NJOMBE CBD,591,YAKOBI,59105,IDUNDA,WANGAMAGANGA
NJOMBE,59,NJOMBE CBD,591,YAKOBI,59105,IGOMINYI,UGUMBWE
NJOMBE,59,NJOMBE CBD,591,YAKOBI,59105,IGOMINYI,ZAHANATI
NJOMBE,59,NJOMBE CBD,591,YAKOBI,59105,IGOMINYI,KILANGALA A
NJOMBE,59,NJOMBE CBD,591,YAKOBI,59105,IGOMINYI,KILANGALA B
NJOMBE,59,NJOMBE CBD,591,YAKOBI,59105,IGOMINYI,MOYANGE
NJOMBE,59,NJOMBE CBD,591,YAKOBI,59105,NUNDU,IBOMA
NJOMBE,59,NJOMBE CBD,591,YAKOBI,59105,NUNDU,UHADZUTWA
NJOMBE,59,NJOMBE CBD,591,YAKOBI,59105,NUNDU,NJIA PANDA
NJOMBE,59,NJOMBE CBD,591,YAKOBI,59105,NUNDU,HAGAFILO
NJOMBE,59,NJOMBE CBD,591,YAKOBI,59105,NUNDU,CHAUPANGA
NJOMBE,59,NJOMBE CBD,591,IWUNGILO,59106,IWUNGILO,IWUNGILO(A)
NJOMBE,59,NJOMBE CBD,591,IWUNGILO,59106,IWUNGILO,IWUNGILO KATI
NJOMBE,59,NJOMBE CBD,591,IWUNGILO,59106,IWUNGILO,MAGIWI
NJOMBE,59,NJOMBE CBD,591,IWUNGILO,59106,IWUNGILO,TALING’EMELO
NJOMBE,59,NJOMBE CBD,591,IWUNGILO,59106,IWUNGILO,IPULWA
NJOMBE,59,NJOMBE CBD,591,IWUNGILO,59106,IGOMA,SUBUTA
NJOMBE,59,NJOMBE CBD,591,IWUNGILO,59106,IGOMA,IGOMA KATI
NJOMBE,59,NJOMBE CBD,591,IWUNGILO,59106,IGOMA,WANGAMA
NJOMBE,59,NJOMBE CBD,591,IWUNGILO,59106,IGOMA,FWEYA
NJOMBE,59,NJOMBE CBD,591,IWUNGILO,59106,IGOMA,LYAFU
NJOMBE,59,NJOMBE CBD,591,IWUNGILO,59106,ULIWA,KISANGULA
NJOMBE,59,NJOMBE CBD,591,IWUNGILO,59106,ULIWA,MAULA
NJOMBE,59,NJOMBE CBD,591,IWUNGILO,59106,ULIWA,KANISANI
NJOMBE,59,NJOMBE CBD,591,IWUNGILO,59106,ULIWA,ITOWA
NJOMBE,59,NJOMBE CBD,591,IWUNGILO,59106,ULIWA,KANADA
NJOMBE,59,NJOMBE CBD,591,IWUNGILO,59106,NGALANGA,BOMBA MBILI
NJOMBE,59,NJOMBE CBD,591,IWUNGILO,59106,NGALANGA,MFARANYAKI
NJOMBE,59,NJOMBE CBD,591,IWUNGILO,59106,NGALANGA,MJIMWEMA
NJOMBE,59,NJOMBE CBD,591,IWUNGILO,59106,NGALANGA,MWANGAZA
NJOMBE,59,NJOMBE CBD,591,RAMADHANI,59107,KIBENA HOSPITAL,
NJOMBE,59,NJOMBE CBD,591,RAMADHANI,59107,KIBENA KATI,
NJOMBE,59,NJOMBE CBD,591,RAMADHANI,59107,MPETO,
NJOMBE,59,NJOMBE CBD,591,RAMADHANI,59107,ITULIKE AMANI,
NJOMBE,59,NJOMBE CBD,591,RAMADHANI,59107,ITULIKE SHULENI,
NJOMBE,59,NJOMBE CBD,591,RAMADHANI,59107,MAHEVE,
NJOMBE,59,NJOMBE CBD,591,RAMADHANI,59107,WIKICHI,
NJOMBE,59,NJOMBE CBD,591,RAMADHANI,59107,MGODECHI,
NJOMBE,59,NJOMBE CBD,591,RAMADHANI,59107,RAMADHANI,
NJOMBE,59,NJOMBE CBD,591,MJI MWEMA,59108,MAKULA,
NJOMBE,59,NJOMBE CBD,591,MJI MWEMA,59108,MPOBOTA,
NJOMBE,59,NJOMBE CBD,591,MJI MWEMA,59108,NGALANGA,
NJOMBE,59,NJOMBE CBD,591,MJI MWEMA,59108,MJIMWEMA,
NJOMBE,59,NJOMBE CBD,591,MJI MWEMA,59108,NAZARETH,
NJOMBE,59,NJOMBE CBD,591,MJI MWEMA,59108,MELINZE,
NJOMBE,59,NJOMBE CBD,591,MJI MWEMA,59108,MPECHI,
NJOMBE,59,NJOMBE CBD,591,MJI MWEMA,59108,JOSHONI,
NJOMBE,59,NJOMBE CBD,591,MJI MWEMA,59108,LUNYANYWI,
NJOMBE,59,NJOMBE CBD,591,IHANGA,59109,IBOYA,MWANGATA
NJOMBE,59,NJOMBE CBD,591,IHANGA,59109,IBOYA,IGUNGULI
NJOMBE,59,NJOMBE CBD,591,IHANGA,59109,IBOYA,LUKELEMA
NJOMBE,59,NJOMBE CBD,591,IHANGA,59109,IBOYA,KANISANI
NJOMBE,59,NJOMBE CBD,591,IHANGA,59109,IBOYA,MJIMWEMA
NJOMBE,59,NJOMBE CBD,591,IHANGA,59109,MGALA,LUWENGI
NJOMBE,59,NJOMBE CBD,591,IHANGA,59109,MGALA,SHULENI
NJOMBE,59,NJOMBE CBD,591,IHANGA,59109,MGALA,MATAKALI
NJOMBE,59,NJOMBE CBD,591,IHANGA,59109,MGALA,MGALA- CHINI
NJOMBE,59,NJOMBE CBD,591,IHANGA,59109,IHANGA,MAHENYE
NJOMBE,59,NJOMBE CBD,591,IHANGA,59109,IHANGA,LULANDA
NJOMBE,59,NJOMBE CBD,591,IHANGA,59109,IHANGA,DULILA
NJOMBE,59,NJOMBE CBD,591,IHANGA,59109,IHANGA,MKALATI
NJOMBE,59,NJOMBE CBD,591,IHANGA,59109,IHANGA,MLIWATI
NJOMBE,59,NJOMBE CBD,591,IHANGA,59109,ITIPULA,ZANZIBERI
NJOMBE,59,NJOMBE CBD,591,IHANGA,59109,ITIPULA,KIBONDENI
NJOMBE,59,NJOMBE CBD,591,IHANGA,59109,ITIPULA,MAKAMBAKO
NJOMBE,59,NJOMBE CBD,591,IHANGA,59109,ITIPULA,KATI
NJOMBE,59,NJOMBE CBD,591,IHANGA,59109,ITIPULA,MAHENYE
NJOMBE,59,NJOMBE CBD,591,UTALINGORO,59110,MFEREKE,IDUNDA
NJOMBE,59,NJOMBE CBD,591,UTALINGORO,59110,MFEREKE,ILUNGA
NJOMBE,59,NJOMBE CBD,591,UTALINGORO,59110,MFEREKE,MFEREKE KATI
NJOMBE,59,NJOMBE CBD,591,UTALINGORO,59110,MFEREKE,MHEVE
NJOMBE,59,NJOMBE CBD,591,UTALINGORO,59110,MFEREKE,MFEREKE CHINI
NJOMBE,59,NJOMBE CBD,591,UTALINGORO,59110,UTALINGOLO,IGOMA
NJOMBE,59,NJOMBE CBD,591,UTALINGORO,59110,UTALINGOLO,RUHUJI
NJOMBE,59,NJOMBE CBD,591,UTALINGORO,59110,UTALINGOLO,ILIWA
NJOMBE,59,NJOMBE CBD,591,UTALINGORO,59110,UTALINGOLO,UTALINGOLO
NJOMBE,59,NJOMBE CBD,591,UTALINGORO,59110,UTALINGOLO,IFUNA
NJOMBE,59,NJOMBE CBD,591,UTALINGORO,59110,IHALULA,MPOMBWE
NJOMBE,59,NJOMBE CBD,591,UTALINGORO,59110,IHALULA,MAGEMA
NJOMBE,59,NJOMBE CBD,591,UTALINGORO,59110,IHALULA,MTAKUJA
NJOMBE,59,NJOMBE CBD,591,UTALINGORO,59110,IHALULA,LUKUNGU
NJOMBE,59,NJOMBE CBD,591,UTALINGORO,59110,IHALULA,MADIHANI
NJOMBE,59,NJOMBE CBD,591,UTALINGORO,59110,IHALULA,NG’IMBI
NJOMBE,59,NJOMBE CBD,591,UTALINGORO,59110,IHALULA,UJINDILE
NJOMBE,59,NJOMBE CBD,591,UTALINGORO,59110,IHALULA,KILOSA
NJOMBE,59,NJOMBE CBD,591,UTALINGORO,59110,IHALULA,NOLE
NJOMBE,59,NJOMBE CBD,591,UTALINGORO,59110,IHALULA,WIKICHI
NJOMBE,59,NJOMBE CBD,591,LUGENGE,59111,LUGENGE,UNYAMLE
NJOMBE,59,NJOMBE CBD,591,LUGENGE,59111,LUGENGE,IBARA
NJOMBE,59,NJOMBE CBD,591,LUGENGE,59111,LUGENGE,FILENGA
NJOMBE,59,NJOMBE CBD,591,LUGENGE,59111,LUGENGE,IHOLO
NJOMBE,59,NJOMBE CBD,591,LUGENGE,59111,KIYAULA,MADOBOLE
NJOMBE,59,NJOMBE CBD,591,LUGENGE,59111,KIYAULA,KADEGE
NJOMBE,59,NJOMBE CBD,591,LUGENGE,59111,KIYAULA,IDILU
NJOMBE,59,NJOMBE CBD,591,LUGENGE,59111,KIYAULA,IYAYI
NJOMBE,59,NJOMBE CBD,591,LUGENGE,59111,KIYAULA,MAKUFA
NJOMBE,59,NJOMBE CBD,591,LUGENGE,59111,KISILO,MHENYE
NJOMBE,59,NJOMBE CBD,591,LUGENGE,59111,KISILO,MAPILA
NJOMBE,59,NJOMBE CBD,591,LUGENGE,59111,KISILO,KISILO
NJOMBE,59,NJOMBE CBD,591,LUGENGE,59111,KISILO,LUGAO
NJOMBE,59,NJOMBE CBD,591,LUGENGE,59111,KISILO,MTELA
NJOMBE,59,NJOMBE CBD,591,LUGENGE,59111,IDIHANI,IHOMELO
NJOMBE,59,NJOMBE CBD,591,LUGENGE,59111,IDIHANI,ULINDIWA
NJOMBE,59,NJOMBE CBD,591,LUGENGE,59111,IDIHANI,UYAGILO
NJOMBE,59,NJOMBE CBD,591,LUGENGE,59111,IDIHANI,IDIHANI
NJOMBE,59,NJOMBE CBD,591,LUGENGE,59111,IDIHANI,MAWALA
NJOMBE,59,NJOMBE CBD,591,MAKOWO,59112,MAMONGOLO,KIDEWA
NJOMBE,59,NJOMBE CBD,591,MAKOWO,59112,MAMONGOLO,MAMONGOLO
NJOMBE,59,NJOMBE CBD,591,MAKOWO,59112,MAMONGOLO,KIBAONI
NJOMBE,59,NJOMBE CBD,591,MAKOWO,59112,MAMONGOLO,MABIBO
NJOMBE,59,NJOMBE CBD,591,MAKOWO,59112,MAMONGOLO,KINENULO
NJOMBE,59,NJOMBE CBD,591,MAKOWO,59112,MAKOWO,AMANI
NJOMBE,59,NJOMBE CBD,591,MAKOWO,59112,MAKOWO,MAHENYE
NJOMBE,59,NJOMBE CBD,591,MAKOWO,59112,MAKOWO,MAZOMBWE
NJOMBE,59,NJOMBE CBD,591,MAKOWO,59112,MAKOWO,IBARA
NJOMBE,59,NJOMBE CBD,591,MAKOWO,59112,MAKOWO,MJI MWEMA
NJOMBE,59,NJOMBE CBD,591,MAKOWO,59112,MAKOWO,IGOBI
NJOMBE,59,NJOMBE CBD,591,MAKOWO,59112,NG’ELAMO,MBIMA
NJOMBE,59,NJOMBE CBD,591,MAKOWO,59112,NG’ELAMO,AMANI
NJOMBE,59,NJOMBE CBD,591,MAKOWO,59112,NG’ELAMO,KICHIMBO
NJOMBE,59,NJOMBE CBD,591,MAKOWO,59112,NG’ELAMO,ULINDIWA
NJOMBE,59,NJOMBE CBD,591,MAKOWO,59112,NG’ELAMO,MAJENGO
NJOMBE,59,NJOMBE CBD,591,MAKAMBAKO,59113,JOGOO,
NJOMBE,59,NJOMBE CBD,591,MAKAMBAKO,59113,SOKONI,
NJOMBE,59,NJOMBE CBD,591,MAKAMBAKO,59113,MAGONGO,
NJOMBE,59,NJOMBE CBD,591,MAKAMBAKO,59113,MIZANI,
NJOMBE,59,NJOMBE CBD,591,MAKAMBAKO,59113,KIPAGAMO,
NJOMBE,59,NJOMBE CBD,591,MAKAMBAKO,59113,KIKULA,
NJOMBE,59,NJOMBE CBD,591,MJIMWEMA,59114,SOKO LA MBAO,
NJOMBE,59,NJOMBE CBD,591,MJIMWEMA,59114,SOKO LA NYAYA,
NJOMBE,59,NJOMBE CBD,591,MJIMWEMA,59114,BWAWANI,
NJOMBE,59,NJOMBE CBD,591,MJIMWEMA,59114,ITEBETALA,
NJOMBE,59,NJOMBE CBD,591,MJIMWEMA,59114,CHELESI,
NJOMBE,59,NJOMBE CBD,591,MJIMWEMA,59114,NDONDOLE,
NJOMBE,59,NJOMBE CBD,591,MJIMWEMA,59114,MLANDO,
NJOMBE,59,NJOMBE CBD,591,MJIMWEMA,59114,MANGULA,
NJOMBE,59,NJOMBE CBD,591,MJIMWEMA,59114,MKULIMA,
NJOMBE,59,NJOMBE CBD,591,MLOWA,59115,MLOWA,
NJOMBE,59,NJOMBE CBD,591,MLOWA,59115,IBUMILA,
NJOMBE,59,NJOMBE CBD,591,MLOWA,59115,MGEWALALA,
NJOMBE,59,NJOMBE CBD,591,MLOWA,59115,ITIPINGI,
NJOMBE,59,NJOMBE CBD,591,MLOWA,59115,IDOFI,
NJOMBE,59,NJOMBE CBD,591,MLOWA,59115,KIHANGA,
NJOMBE,59,NJOMBE CBD,591,MLOWA,59115,MKOLANGO,
NJOMBE,59,NJOMBE CBD,591,MLOWA,59115,MLUDZA,
NJOMBE,59,NJOMBE CBD,591,LYAMKENA,59116,LYAMKENA,
NJOMBE,59,NJOMBE CBD,591,LYAMKENA,59116,ILANGAMOTO,
NJOMBE,59,NJOMBE CBD,591,LYAMKENA,59116,MALOMBWE,
NJOMBE,59,NJOMBE CBD,591,LYAMKENA,59116,KIUMBA,
NJOMBE,59,NJOMBE CBD,591,LYAMKENA,59116,MUUNGANO,
NJOMBE,59,NJOMBE CBD,591,LYAMKENA,59116,MAKATANI,
NJOMBE,59,NJOMBE CBD,591,LYAMKENA,59116,IKWETE,
NJOMBE,59,NJOMBE CBD,591,LYAMKENA,59116,MAPINDUZI YA KIJANI,
NJOMBE,59,NJOMBE CBD,591,MWEMBETOGWA,59117,MWEMBETOGWA,
NJOMBE,59,NJOMBE CBD,591,MWEMBETOGWA,59117,LUMUMBA,
NJOMBE,59,NJOMBE CBD,591,MWEMBETOGWA,59117,AZIMIO,
NJOMBE,59,NJOMBE CBD,591,MATOLA,59118,MBEGA,KINYANGESI
NJOMBE,59,NJOMBE CBD,591,MATOLA,59118,MBEGA,MAJENGO
NJOMBE,59,NJOMBE CBD,591,MATOLA,59118,MBEGA,IGANGA
NJOMBE,59,NJOMBE CBD,591,MATOLA,59118,MBEGA,MWANAMONGA
NJOMBE,59,NJOMBE CBD,591,MATOLA,59118,MBEGA,ILONGO
NJOMBE,59,NJOMBE CBD,591,MATOLA,59118,MATOLA,LUKUNGU
NJOMBE,59,NJOMBE CBD,591,MATOLA,59118,MATOLA,WILIMYE
NJOMBE,59,NJOMBE CBD,591,MATOLA,59118,MATOLA,GULUMINGA
NJOMBE,59,NJOMBE CBD,591,MATOLA,59118,MATOLA,YERIKO
NJOMBE,59,NJOMBE CBD,591,MATOLA,59118,MATOLA,ILALA
NJOMBE,59,NJOMBE CBD,591,MATOLA,59118,KITULILA,DANSLAND
NJOMBE,59,NJOMBE CBD,591,MATOLA,59118,KITULILA,KONA
NJOMBE,59,NJOMBE CBD,591,MATOLA,59118,KITULILA,MKUNGA
NJOMBE,59,NJOMBE CBD,591,MATOLA,59118,KITULILA,MAZABADIZABA
NJOMBE,59,NJOMBE CBD,591,MATOLA,59118,KITULILA,MADOBOLE
NJOMBE,59,NJOMBE CBD,591,MATOLA,59118,MTILA,LIZABONI
NJOMBE,59,NJOMBE CBD,591,MATOLA,59118,MTILA,UKANYANGE
NJOMBE,59,NJOMBE CBD,591,MATOLA,59118,MTILA,MJIMWEMA
NJOMBE,59,NJOMBE CBD,591,MATOLA,59118,MTILA,NYAMNOGE
NJOMBE,59,NJOMBE CBD,591,MATOLA,59118,MTILA,MAYAVILE
NJOMBE,59,NJOMBE CBD,591,MATOLA,59118,MTILA,IHOLO
NJOMBE,59,NJOMBE CBD,591,MATOLA,59118,MTILA,MWEMBETOGWA
NJOMBE,59,NJOMBE CBD,591,MATOLA,59118,BOIMANDA,MPEMBATI
NJOMBE,59,NJOMBE CBD,591,MATOLA,59118,BOIMANDA,IGOMELO
NJOMBE,59,NJOMBE CBD,591,MATOLA,59118,BOIMANDA,GODAUNI
NJOMBE,59,NJOMBE CBD,591,MATOLA,59118,BOIMANDA,IKONDO
NJOMBE,59,NJOMBE CBD,591,MATOLA,59118,BOIMANDA,MSEKENALO
NJOMBE,59,NJOMBE CBD,591,MAGUVANI,59119,JESHINI,
NJOMBE,59,NJOMBE CBD,591,MAGUVANI,59119,UHURU,
NJOMBE,59,NJOMBE CBD,591,MAGUVANI,59119,MSHIKAMANO,
NJOMBE,59,NJOMBE CBD,591,MAGUVANI,59119,MATEMA,
NJOMBE,59,NJOMBE CBD,591,MAGUVANI,59119,SEKONDARI,
NJOMBE,59,NJOMBE CBD,591,MAGUVANI,59119,UZUNGUNI,
NJOMBE,59,NJOMBE CBD,591,MAJENGO,59120,MAJENGO,
NJOMBE,59,NJOMBE CBD,591,MAJENGO,59120,KILIMAHEWA,
NJOMBE,59,NJOMBE CBD,591,KITISI,59121,KAHAWA,
NJOMBE,59,NJOMBE CBD,591,KITISI,59121,GOLOGOTHA,
NJOMBE,59,NJOMBE CBD,591,KITISI,59121,KITISI,
NJOMBE,59,NJOMBE CBD,591,KITISI,59121,RAJABU/MAHAKAMANI,
NJOMBE,59,NJOMBE CBD,591,KITISI,59121,KISINGILE,
NJOMBE,59,NJOMBE CBD,591,KITISI,59121,LUPILA,
NJOMBE,59,NJOMBE CBD,591,KIVAVI,59122,KIBEDANGE,
NJOMBE,59,NJOMBE CBD,591,KIVAVI,59122,KIVAVI,
NJOMBE,59,NJOMBE CBD,591,KIVAVI,59122,IGANGIDUNG'U,
NJOMBE,59,NJOMBE CBD,591,KIVAVI,59122,MAGEGELE,
NJOMBE,59,NJOMBE CBD,591,KIVAVI,59122,ULIGILE,
NJOMBE,59,NJOMBE CBD,591,KIVAVI,59122,SIGRID,
NJOMBE,59,NJOMBE CBD,591,KITANDILILO,59123,KITANDILILO,UHURU
NJOMBE,59,NJOMBE CBD,591,KITANDILILO,59123,KITANDILILO,MWONGOZO
NJOMBE,59,NJOMBE CBD,591,KITANDILILO,59123,KITANDILILO,MADARAKA
NJOMBE,59,NJOMBE CBD,591,KITANDILILO,59123,KITANDILILO,ULINZI
NJOMBE,59,NJOMBE CBD,591,KITANDILILO,59123,KITANDILILO,MFUMBI
NJOMBE,59,NJOMBE CBD,591,KITANDILILO,59123,IBATU,IBATU
NJOMBE,59,NJOMBE CBD,591,KITANDILILO,59123,IBATU,ISAULA
NJOMBE,59,NJOMBE CBD,591,KITANDILILO,59123,NYAMANDE,UCHACHIKILE
NJOMBE,59,NJOMBE CBD,591,KITANDILILO,59123,NYAMANDE,NYAMANDE
NJOMBE,59,NJOMBE CBD,591,KITANDILILO,59123,MBUGANI,MBUGANI
NJOMBE,59,NJOMBE CBD,591,KITANDILILO,59123,MBUGANI,ILONGO
NJOMBE,59,NJOMBE CBD,591,KITANDILILO,59123,MBUGANI,MTENGA
NJOMBE,59,NJOMBE CBD,591,KITANDILILO,59123,MBUGANI,ITULIKE
NJOMBE,59,NJOMBE CBD,591,KITANDILILO,59123,MBUGANI,KICHANGANI
NJOMBE,59,NJOMBE CBD,591,MAHONGOLE,59124,MANGA,MANGA
NJOMBE,59,NJOMBE CBD,591,MAHONGOLE,59124,MANGA,"MANGA ""B"""
NJOMBE,59,NJOMBE CBD,591,MAHONGOLE,59124,MANGA,MVENGI
NJOMBE,59,NJOMBE CBD,591,MAHONGOLE,59124,MANGA,"MVENGI ""B"""
NJOMBE,59,NJOMBE CBD,591,MAHONGOLE,59124,MANGA,KIHANGA
NJOMBE,59,NJOMBE CBD,591,MAHONGOLE,59124,KIFUMBE,MATENGINI
NJOMBE,59,NJOMBE CBD,591,MAHONGOLE,59124,KIFUMBE,MSESULE
NJOMBE,59,NJOMBE CBD,591,MAHONGOLE,59124,KIFUMBE,ISAULA
NJOMBE,59,NJOMBE CBD,591,MAHONGOLE,59124,KIFUMBE,MJIMWEMA
NJOMBE,59,NJOMBE CBD,591,MAHONGOLE,59124,KIFUMBE,ILANGALI
NJOMBE,59,NJOMBE CBD,591,MAHONGOLE,59124,MAHONGOLE,"MAHONGOLE ""A"""
NJOMBE,59,NJOMBE CBD,591,MAHONGOLE,59124,MAHONGOLE,"MAHONGOLE ""B"""
NJOMBE,59,NJOMBE CBD,591,MAHONGOLE,59124,MAHONGOLE,IBEDANJA
NJOMBE,59,NJOMBE CBD,591,MAHONGOLE,59124,MAHONGOLE,NJIAPANDA
NJOMBE,59,NJOMBE CBD,591,MAHONGOLE,59124,MAHONGOLE,ILUNDA
NJOMBE,59,NJOMBE CBD,591,MAHONGOLE,59124,USETULE,USETULE
NJOMBE,59,NJOMBE CBD,591,MAHONGOLE,59124,USETULE,"MHOMELA ""A"""
NJOMBE,59,NJOMBE CBD,591,MAHONGOLE,59124,USETULE,"MHOMELA ""B"""
NJOMBE,59,NJOMBE CBD,591,MAHONGOLE,59124,USETULE,MAGOMATI
NJOMBE,59,NJOMBE CBD,591,MAHONGOLE,59124,USETULE,MELELA
NJOMBE,59,NJOMBE CBD,591,MAHONGOLE,59124,MTANGA,MAKENEKENE
NJOMBE,59,NJOMBE CBD,591,MAHONGOLE,59124,MTANGA,MTANGA
NJOMBE,59,NJOMBE CBD,591,MAHONGOLE,59124,MTANGA,NGALANGA
NJOMBE,59,NJOMBE CBD,591,MAHONGOLE,59124,MTANGA,NANG'ANO
NJOMBE,59,NJOMBE CBD,591,MAHONGOLE,59124,MTANGA,KIGODA
NJOMBE,59,NJOMBE CBD,591,UTENGULE,59125,UTENGULE,MBWENI
NJOMBE,59,NJOMBE CBD,591,UTENGULE,59125,UTENGULE,MLIMANI
NJOMBE,59,NJOMBE CBD,591,UTENGULE,59125,UTENGULE,LUNDUKALI
NJOMBE,59,NJOMBE CBD,591,UTENGULE,59125,MAWANDE,MJIMWEMA
NJOMBE,59,NJOMBE CBD,591,UTENGULE,59125,MAWANDE,MUUNGANO
NJOMBE,59,NJOMBE CBD,591,UTENGULE,59125,MAWANDE,LUGALO
NJOMBE,59,NJOMBE CBD,591,UTENGULE,59125,NGAMANGA,MAJENGO
NJOMBE,59,NJOMBE CBD,591,UTENGULE,59125,NGAMANGA,TUKUYU
NJOMBE,59,NJOMBE CBD,591,UTENGULE,59125,NGAMANGA,IHAMI
NJOMBE,59,NJOMBE CBD,591,UTENGULE,59125,NGAMANGA,KATI
NJOMBE,59,NJOMBE CBD,591,UTENGULE,59125,NGAMANGA,IGALAVI
NJOMBE,59,NJOMBE CBD,591,UTENGULE,59125,IKELU,IKELU
NJOMBE,59,NJOMBE CBD,591,UTENGULE,59125,IKELU,NYANDWITA
NJOMBE,59,NJOMBE CBD,591,UTENGULE,59125,IKELU,MJIMWEMA
NJOMBE,59,NJOMBE CBD,591,UTENGULE,59125,IKELU,MTAMBA
NJOMBE,59,NJOMBE CBD,591,UTENGULE,59125,IKELU,NYAMBOGO
NJOMBE,59,NJOMBE,592,IKONDO,59201,NYAVE,IDULI
NJOMBE,59,NJOMBE,592,IKONDO,59201,NYAVE,IGOMBOLA
NJOMBE,59,NJOMBE,592,IKONDO,59201,NYAVE,ILALA
NJOMBE,59,NJOMBE,592,IKONDO,59201,NYAVE,UCHANGE A
NJOMBE,59,NJOMBE,592,IKONDO,59201,NYAVE,UCHANGE B
NJOMBE,59,NJOMBE,592,IKONDO,59201,IKONDO,IDYADYA
NJOMBE,59,NJOMBE,592,IKONDO,59201,IKONDO,IGUMBILO
NJOMBE,59,NJOMBE,592,IKONDO,59201,IKONDO,MKONDOA
NJOMBE,59,NJOMBE,592,IKONDO,59201,IKONDO,UHENI
NJOMBE,59,NJOMBE,592,IKONDO,59201,IKONDO,MANYAMLE
NJOMBE,59,NJOMBE,592,IKONDO,59201,IKONDO,MTANGA
NJOMBE,59,NJOMBE,592,IKONDO,59201,IKONDO,ITOVA
NJOMBE,59,NJOMBE,592,KIDEGEMBYE,59202,IMAGE,ULINDANYI
NJOMBE,59,NJOMBE,592,KIDEGEMBYE,59202,IMAGE,MWONE
NJOMBE,59,NJOMBE,592,KIDEGEMBYE,59202,IMAGE,IGUNGULI
NJOMBE,59,NJOMBE,592,KIDEGEMBYE,59202,IMAGE,MTOWO
NJOMBE,59,NJOMBE,592,KIDEGEMBYE,59202,IMAGE,LUSAKANYO
NJOMBE,59,NJOMBE,592,KIDEGEMBYE,59202,KIDEGEMBYE,MATINDI
NJOMBE,59,NJOMBE,592,KIDEGEMBYE,59202,KIDEGEMBYE,MADETE
NJOMBE,59,NJOMBE,592,KIDEGEMBYE,59202,KIDEGEMBYE,NYANGA
NJOMBE,59,NJOMBE,592,KIDEGEMBYE,59202,KIDEGEMBYE,IKOMBE
NJOMBE,59,NJOMBE,592,KIDEGEMBYE,59202,KIDEGEMBYE,ISIMIKE
NJOMBE,59,NJOMBE,592,KIDEGEMBYE,59202,KIDEGEMBYE,CHAUGANGA
NJOMBE,59,NJOMBE,592,KIDEGEMBYE,59202,HAVANGA,LOLE
NJOMBE,59,NJOMBE,592,KIDEGEMBYE,59202,HAVANGA,MLANGALI
NJOMBE,59,NJOMBE,592,KIDEGEMBYE,59202,HAVANGA,HAVANGA
NJOMBE,59,NJOMBE,592,LUPEMBE,59203,LUPEMBE,BARAZANI
NJOMBE,59,NJOMBE,592,LUPEMBE,59203,LUPEMBE,IKETELO
NJOMBE,59,NJOMBE,592,LUPEMBE,59203,LUPEMBE,USAKILA
NJOMBE,59,NJOMBE,592,LUPEMBE,59203,LUPEMBE,MBINGU
NJOMBE,59,NJOMBE,592,LUPEMBE,59203,IGOMBOLA,IPANGA
NJOMBE,59,NJOMBE,592,LUPEMBE,59203,IGOMBOLA,KIBAO A
NJOMBE,59,NJOMBE,592,LUPEMBE,59203,IGOMBOLA,KIBAO B
NJOMBE,59,NJOMBE,592,LUPEMBE,59203,IGOMBOLA,IKAPANILO
NJOMBE,59,NJOMBE,592,LUPEMBE,59203,IGOMBOLA,NGAMBA
NJOMBE,59,NJOMBE,592,LUPEMBE,59203,IHANG'ANA,IHANG'ANA A
NJOMBE,59,NJOMBE,592,LUPEMBE,59203,IHANG'ANA,IHANG'ANA B
NJOMBE,59,NJOMBE,592,LUPEMBE,59203,KANIKELELE,MTONGA
NJOMBE,59,NJOMBE,592,LUPEMBE,59203,KANIKELELE,KIMBO
NJOMBE,59,NJOMBE,592,LUPEMBE,59203,KANIKELELE,NDAGO
NJOMBE,59,NJOMBE,592,LUPEMBE,59203,KANIKELELE,LUGANGA
NJOMBE,59,NJOMBE,592,LUPEMBE,59203,KANIKELELE,ITULI
NJOMBE,59,NJOMBE,592,LUPEMBE,59203,KANIKELELE,IBANAWANU
NJOMBE,59,NJOMBE,592,LUPEMBE,59203,KANIKELELE,IGOGA
NJOMBE,59,NJOMBE,592,MATEMBWE,59204,MATEMBWE,MAJENGO
NJOMBE,59,NJOMBE,592,MATEMBWE,59204,MATEMBWE,UKINGA
NJOMBE,59,NJOMBE,592,MATEMBWE,59204,MATEMBWE,ITUNDU
NJOMBE,59,NJOMBE,592,MATEMBWE,59204,MATEMBWE,LUNG'ANGALI
NJOMBE,59,NJOMBE,592,MATEMBWE,59204,MATEMBWE,MTAKUJA
NJOMBE,59,NJOMBE,592,MATEMBWE,59204,ISOLIWAYA,IHEMBO
NJOMBE,59,NJOMBE,592,MATEMBWE,59204,ISOLIWAYA,IKALILA
NJOMBE,59,NJOMBE,592,MATEMBWE,59204,ISOLIWAYA,MGUDE
NJOMBE,59,NJOMBE,592,MATEMBWE,59204,ISOLIWAYA,MNEMELE
NJOMBE,59,NJOMBE,592,MATEMBWE,59204,ISOLIWAYA,UTENGULE
NJOMBE,59,NJOMBE,592,MATEMBWE,59204,ISOLIWAYA,MPETO
NJOMBE,59,NJOMBE,592,MATEMBWE,59204,ISOLIWAYA,USAKILA
NJOMBE,59,NJOMBE,592,MATEMBWE,59204,WANGINYI,IVANGINYI
NJOMBE,59,NJOMBE,592,MATEMBWE,59204,WANGINYI,UDINDA
NJOMBE,59,NJOMBE,592,MATEMBWE,59204,WANGINYI,MAGWALE
NJOMBE,59,NJOMBE,592,MATEMBWE,59204,WANGINYI,UJENZI
NJOMBE,59,NJOMBE,592,MATEMBWE,59204,LYALALO,LYALALO
NJOMBE,59,NJOMBE,592,MATEMBWE,59204,LYALALO,IDAMU
NJOMBE,59,NJOMBE,592,MATEMBWE,59204,LYALALO,MFIPA
NJOMBE,59,NJOMBE,592,MATEMBWE,59204,LYALALO,MYAKAYA
NJOMBE,59,NJOMBE,592,MATEMBWE,59204,IYEMBELA,IYEMBELA A
NJOMBE,59,NJOMBE,592,MATEMBWE,59204,IYEMBELA,IYEMBELA B
NJOMBE,59,NJOMBE,592,IDAMBA,59205,IWAFI,IDAMBA
NJOMBE,59,NJOMBE,592,IDAMBA,59205,IWAFI,KANISANI
NJOMBE,59,NJOMBE,592,IDAMBA,59205,IWAFI,MASAULA
NJOMBE,59,NJOMBE,592,IDAMBA,59205,IWAFI,MADUKANI
NJOMBE,59,NJOMBE,592,IDAMBA,59205,IWAFI,NJOGOCHELO
NJOMBE,59,NJOMBE,592,IDAMBA,59205,IWAFI,WISTOFU
NJOMBE,59,NJOMBE,592,IDAMBA,59205,IWAFI,SPEKI
NJOMBE,59,NJOMBE,592,IDAMBA,59205,IWAFI,KAMELIA
NJOMBE,59,NJOMBE,592,IDAMBA,59205,IWAFI,MGOLOLO
NJOMBE,59,NJOMBE,592,IDAMBA,59205,LWANZALI,IGURUKA
NJOMBE,59,NJOMBE,592,IDAMBA,59205,LWANZALI,LUPALALI
NJOMBE,59,NJOMBE,592,IDAMBA,59205,LWANZALI,IDUNDA
NJOMBE,59,NJOMBE,592,IDAMBA,59205,LWANZALI,NYAGAMU
NJOMBE,59,NJOMBE,592,IDAMBA,59205,LWANZALI,MLANGALI
NJOMBE,59,NJOMBE,592,MFRIGA,59206,ITAMBO,MWEMBETOGWA
NJOMBE,59,NJOMBE,592,MFRIGA,59206,ITAMBO,NDEVALONGESWELA
NJOMBE,59,NJOMBE,592,MFRIGA,59206,ITAMBO,MTIVIKE
NJOMBE,59,NJOMBE,592,MFRIGA,59206,ITAMBO,LAINI
NJOMBE,59,NJOMBE,592,MFRIGA,59206,ITAMBO,IDETE
NJOMBE,59,NJOMBE,592,MFRIGA,59206,IKANG'ASI,IKINDA
NJOMBE,59,NJOMBE,592,MFRIGA,59206,IKANG'ASI,KIHELEMA
NJOMBE,59,NJOMBE,592,MFRIGA,59206,IKANG'ASI,MDAMBA
NJOMBE,59,NJOMBE,592,MFRIGA,59206,IKANG'ASI,MTINU
NJOMBE,59,NJOMBE,592,MFRIGA,59206,MFRIGA,MFRIGA A
NJOMBE,59,NJOMBE,592,MFRIGA,59206,MFRIGA,MFRIGA B
NJOMBE,59,NJOMBE,592,MFRIGA,59206,MFRIGA,KITUMBI
NJOMBE,59,NJOMBE,592,MFRIGA,59206,MFRIGA,ILAWA
NJOMBE,59,NJOMBE,592,MFRIGA,59206,MFRIGA,IDAVI
NJOMBE,59,NJOMBE,592,MFRIGA,59206,MFRIGA,IGUGU
NJOMBE,59,NJOMBE,592,MFRIGA,59206,MFRIGA,KILINDIMA
NJOMBE,59,NJOMBE,592,MFRIGA,59206,MADEKE,MADEKE SHULENI
NJOMBE,59,NJOMBE,592,MFRIGA,59206,MADEKE,KIPWAJI
NJOMBE,59,NJOMBE,592,MFRIGA,59206,MADEKE,MJI MWEMA
NJOMBE,59,NJOMBE,592,IKUNA,59207,MATIGANJOLA,MADUMA
NJOMBE,59,NJOMBE,592,IKUNA,59207,MATIGANJOLA,VALAKUNGA
NJOMBE,59,NJOMBE,592,IKUNA,59207,MATIGANJOLA,MATIGANJOLA KATI
NJOMBE,59,NJOMBE,592,IKUNA,59207,MATIGANJOLA,MTWARA
NJOMBE,59,NJOMBE,592,IKUNA,59207,MATIGANJOLA,NYIMBO
NJOMBE,59,NJOMBE,592,IKUNA,59207,NYOMBO,MAPINDUZI
NJOMBE,59,NJOMBE,592,IKUNA,59207,NYOMBO,ISITU A
NJOMBE,59,NJOMBE,592,IKUNA,59207,NYOMBO,ISITU B
NJOMBE,59,NJOMBE,592,IKUNA,59207,NYOMBO,MAHALULE
NJOMBE,59,NJOMBE,592,IKUNA,59207,NYOMBO,IBOHOLA
NJOMBE,59,NJOMBE,592,IKUNA,59207,NYOMBO,IGOMINYI
NJOMBE,59,NJOMBE,592,IKUNA,59207,NYOMBO,MAGOLA
NJOMBE,59,NJOMBE,592,IKUNA,59207,NYOMBO,MAPEMBEDZA
NJOMBE,59,NJOMBE,592,IKUNA,59207,IKUNA,UHURU
NJOMBE,59,NJOMBE,592,IKUNA,59207,IKUNA,MPETO
NJOMBE,59,NJOMBE,592,IKUNA,59207,IKUNA,MAGEGERE
NJOMBE,59,NJOMBE,592,IKUNA,59207,IKUNA,MPETO B
NJOMBE,59,NJOMBE,592,IKUNA,59207,IKUNA,MAHATA
NJOMBE,59,NJOMBE,592,IKUNA,59207,IKUNA,MANYUNYU
NJOMBE,59,NJOMBE,592,IKUNA,59207,LOLE,KITEWELE
NJOMBE,59,NJOMBE,592,IKUNA,59207,LOLE,MTAMBA A
NJOMBE,59,NJOMBE,592,IKUNA,59207,LOLE,LOLE KATI
NJOMBE,59,NJOMBE,592,IKUNA,59207,LOLE,MTAMBA B
NJOMBE,59,NJOMBE,592,IKUNA,59207,LOLE,IDONGERA A
NJOMBE,59,NJOMBE,592,IKUNA,59207,LOLE,IDONGERA B
NJOMBE,59,NJOMBE,592,IKUNA,59207,LOLE,SIYAULA
NJOMBE,59,NJOMBE,592,NINGA,59208,NINGA,NINGA KATI
NJOMBE,59,NJOMBE,592,NINGA,59208,NINGA,WAHE
NJOMBE,59,NJOMBE,592,NINGA,59208,NINGA,MAGOMATI
NJOMBE,59,NJOMBE,592,NINGA,59208,NINGA,MADAMBA
NJOMBE,59,NJOMBE,592,NINGA,59208,NINGA,MLANGALI
NJOMBE,59,NJOMBE,592,NINGA,59208,LIMA,ULINZI
NJOMBE,59,NJOMBE,592,NINGA,59208,LIMA,IGELEHEDZA
NJOMBE,59,NJOMBE,592,NINGA,59208,LIMA,MJIMWEMA
NJOMBE,59,NJOMBE,592,NINGA,59208,LIMA,LIMA KATI
NJOMBE,59,NJOMBE,592,NINGA,59208,ISITU,MASAGALA
NJOMBE,59,NJOMBE,592,NINGA,59208,ISITU,ISITU KATI
NJOMBE,59,NJOMBE,592,NINGA,59208,ISITU,NGABUYA
NJOMBE,59,NJOMBE,592,NINGA,59208,ISITU,MHANU
NJOMBE,59,NJOMBE,592,NINGA,59208,ISITU,LANDANI
NJOMBE,59,NJOMBE,592,IGONGOLO,59209,IBIKI,NDANULA
NJOMBE,59,NJOMBE,592,IGONGOLO,59209,IBIKI,IBIKI KATI
NJOMBE,59,NJOMBE,592,IGONGOLO,59209,IBIKI,MAYANGA
NJOMBE,59,NJOMBE,592,IGONGOLO,59209,IBIKI,IBIKI B
NJOMBE,59,NJOMBE,592,IGONGOLO,59209,IBIKI,MATANANA
NJOMBE,59,NJOMBE,592,IGONGOLO,59209,IGONGOLO,IGONGOLO A
NJOMBE,59,NJOMBE,592,IGONGOLO,59209,IGONGOLO,IGONGOLO B
NJOMBE,59,NJOMBE,592,IGONGOLO,59209,IGONGOLO,MAGUVANI
NJOMBE,59,NJOMBE,592,IGONGOLO,59209,IGONGOLO,NYAFIFI
NJOMBE,59,NJOMBE,592,IGONGOLO,59209,IGONGOLO,IGONGOLO MAGHARIBI
NJOMBE,59,NJOMBE,592,IGONGOLO,59209,ITIPINGI,MAJENGO
NJOMBE,59,NJOMBE,592,IGONGOLO,59209,ITIPINGI,MJIMWEMA
NJOMBE,59,NJOMBE,592,IGONGOLO,59209,ITIPINGI,MBATA
NJOMBE,59,NJOMBE,592,IGONGOLO,59209,ITIPINGI,LYANDAMBO
NJOMBE,59,NJOMBE,592,IGONGOLO,59209,ITIPINGI,MAGUNGA
NJOMBE,59,NJOMBE,592,IGONGOLO,59209,TAGAMENDA,TAGAMENDA A
NJOMBE,59,NJOMBE,592,IGONGOLO,59209,TAGAMENDA,IGOMINYI
NJOMBE,59,NJOMBE,592,IGONGOLO,59209,TAGAMENDA,MYOMBWE
NJOMBE,59,NJOMBE,592,IGONGOLO,59209,TAGAMENDA,TAGAMENDA B
NJOMBE,59,NJOMBE,592,IGONGOLO,59209,TAGAMENDA,MATALAWE C
NJOMBE,59,NJOMBE,592,IGONGOLO,59209,KIVITU,KIPAGAMO
NJOMBE,59,NJOMBE,592,IGONGOLO,59209,KIVITU,MPEME
NJOMBE,59,NJOMBE,592,IGONGOLO,59209,KIVITU,LUNGUYA
NJOMBE,59,NJOMBE,592,IGONGOLO,59209,KIVITU,UKEGA
NJOMBE,59,NJOMBE,592,IGONGOLO,59209,KIVITU,IHANZINYI
NJOMBE,59,NJOMBE,592,MTWANGO,59210,LUNGUYA,MTONINGANGA
NJOMBE,59,NJOMBE,592,MTWANGO,59210,LUNGUYA,SOKONI
NJOMBE,59,NJOMBE,592,MTWANGO,59210,LUNGUYA,LUNGUYA
NJOMBE,59,NJOMBE,592,MTWANGO,59210,LUNGUYA,MAGANGAGASENGA
NJOMBE,59,NJOMBE,592,MTWANGO,59210,ITUNDUMA,IBUMILAYINGA
NJOMBE,59,NJOMBE,592,MTWANGO,59210,ITUNDUMA,IKORINTHO
NJOMBE,59,NJOMBE,592,MTWANGO,59210,ITUNDUMA,IKWEGA
NJOMBE,59,NJOMBE,592,MTWANGO,59210,ITUNDUMA,NYAMAGALA
NJOMBE,59,NJOMBE,592,MTWANGO,59210,ITUNDUMA,MALOLO
NJOMBE,59,NJOMBE,592,MTWANGO,59210,ILUNDA,LYALAMU
NJOMBE,59,NJOMBE,592,MTWANGO,59210,ILUNDA,LIMAKWALE
NJOMBE,59,NJOMBE,592,MTWANGO,59210,ILUNDA,LINGABENA
NJOMBE,59,NJOMBE,592,MTWANGO,59210,ILUNDA,MATELEVADZI
NJOMBE,59,NJOMBE,592,MTWANGO,59210,WELELA,MAPINDUZI
NJOMBE,59,NJOMBE,592,MTWANGO,59210,WELELA,AZIMIO
NJOMBE,59,NJOMBE,592,MTWANGO,59210,WELELA,MUUNGANO
NJOMBE,59,NJOMBE,592,MTWANGO,59210,WELELA,MAJENGO
NJOMBE,59,NJOMBE,592,MTWANGO,59210,WELELA,ILONGA
NJOMBE,59,NJOMBE,592,MTWANGO,59210,SOVI,SAKAPONZI
NJOMBE,59,NJOMBE,592,MTWANGO,59210,SOVI,NYAMADODA
NJOMBE,59,NJOMBE,592,MTWANGO,59210,SOVI,NYUNZI
NJOMBE,59,NJOMBE,592,UKALAWA,59215,UKALAWA,KINGUDZILO
NJOMBE,59,NJOMBE,592,UKALAWA,59215,UKALAWA,MLANGALI
NJOMBE,59,NJOMBE,592,UKALAWA,59215,UKALAWA,MPONGOLO
NJOMBE,59,NJOMBE,592,UKALAWA,59215,UKALAWA,MNGATE
NJOMBE,59,NJOMBE,592,UKALAWA,59215,UKALAWA,ITULI
NJOMBE,59,NJOMBE,592,UKALAWA,59215,UKALAWA,KILANZI
NJOMBE,59,NJOMBE,592,UKALAWA,59215,UKALAWA,UKALAWA
NJOMBE,59,NJOMBE,592,UKALAWA,59215,UKALAWA,MKOMBI
NJOMBE,59,NJOMBE,592,UKALAWA,59215,KITOLE,KITOLE
NJOMBE,59,NJOMBE,592,UKALAWA,59215,KITOLE,KIPONGOLO
NJOMBE,59,NJOMBE,592,UKALAWA,59215,KITOLE,MWAKAILOLE
NJOMBE,59,NJOMBE,592,KICHIWA,59216,UPAMI,MKENG'E
NJOMBE,59,NJOMBE,592,KICHIWA,59216,UPAMI,ILALA A
NJOMBE,59,NJOMBE,592,KICHIWA,59216,UPAMI,ILALA B
NJOMBE,59,NJOMBE,592,KICHIWA,59216,UPAMI,ILAMBA
NJOMBE,59,NJOMBE,592,KICHIWA,59216,UPAMI,IGUMBIRO
NJOMBE,59,NJOMBE,592,KICHIWA,59216,KICHIWA,KICHIWA A
NJOMBE,59,NJOMBE,592,KICHIWA,59216,KICHIWA,KICHIWA B
NJOMBE,59,NJOMBE,592,KICHIWA,59216,KICHIWA,KICHIWA KATI
NJOMBE,59,NJOMBE,592,KICHIWA,59216,KICHIWA,MJIMWEMA
NJOMBE,59,NJOMBE,592,KICHIWA,59216,KICHIWA,MTAKUJA
NJOMBE,59,NJOMBE,592,KICHIWA,59216,IBUMILA,MUUNGANO
NJOMBE,59,NJOMBE,592,KICHIWA,59216,IBUMILA,IPONDA
NJOMBE,59,NJOMBE,592,KICHIWA,59216,IBUMILA,MJIMWEMA
NJOMBE,59,NJOMBE,592,KICHIWA,59216,IBUMILA,MAGEREZA
NJOMBE,59,NJOMBE,592,KICHIWA,59216,IBUMILA,MTAKUJA
NJOMBE,59,NJOMBE,592,KICHIWA,59216,IKANDO,ICHONGOMELO
NJOMBE,59,NJOMBE,592,KICHIWA,59216,IKANDO,MAGUDZI
NJOMBE,59,NJOMBE,592,KICHIWA,59216,IKANDO,MAWANDE
NJOMBE,59,NJOMBE,592,KICHIWA,59216,IKANDO,IPANG'ILA
NJOMBE,59,NJOMBE,592,KICHIWA,59216,IKANDO,IDUMULINYI
NJOMBE,59,NJOMBE,592,KICHIWA,59216,MADUMA,MADUMA A
NJOMBE,59,NJOMBE,592,KICHIWA,59216,MADUMA,MADUMA C
NJOMBE,59,NJOMBE,592,KICHIWA,59216,MADUMA,MHEZA
NJOMBE,59,NJOMBE,592,KICHIWA,59216,MADUMA,MADUMA B
NJOMBE,59,NJOMBE,592,KICHIWA,59216,MADUMA,IHONGE
NJOMBE,59,NJOMBE,592,KICHIWA,59216,ILENGITITU,IFUNDA
NJOMBE,59,NJOMBE,592,KICHIWA,59216,ILENGITITU,ILENGITITU KATI
NJOMBE,59,NJOMBE,592,KICHIWA,59216,ILENGITITU,ROMANI
NJOMBE,59,NJOMBE,592,KICHIWA,59216,ILENGITITU,MADAMBA
NJOMBE,59,NJOMBE,592,KICHIWA,59216,ILENGITITU,MASILU
NJOMBE,59,"WANGING'O
MBE",593,MDANDU,59301,ITAMBO,NGELELE
NJOMBE,59,"WANGING'O
MBE",593,MDANDU,59301,ITAMBO,CHALUHANGA
NJOMBE,59,"WANGING'O
MBE",593,MDANDU,59301,ITAMBO,KIDUDUME
NJOMBE,59,"WANGING'O
MBE",593,MDANDU,59301,ITAMBO,KIHANGA
NJOMBE,59,"WANGING'O
MBE",593,MDANDU,59301,ITAMBO,MAPILA
NJOMBE,59,"WANGING'O
MBE",593,MDANDU,59301,IHANJA,MLIMANI
NJOMBE,59,"WANGING'O
MBE",593,MDANDU,59301,IHANJA,NYAROMBO
NJOMBE,59,"WANGING'O
MBE",593,MDANDU,59301,IHANJA,IHANJA KATI
NJOMBE,59,"WANGING'O
MBE",593,MDANDU,59301,IHANJA,SALIMWANI
NJOMBE,59,"WANGING'O
MBE",593,MDANDU,59301,IHANJA,MALANGALI
NJOMBE,59,"WANGING'O
MBE",593,MDANDU,59301,MUNGATE,KILOLELO
NJOMBE,59,"WANGING'O
MBE",593,MDANDU,59301,MUNGATE,MAYAVILE
NJOMBE,59,"WANGING'O
MBE",593,MDANDU,59301,MUNGATE,LUKANI
NJOMBE,59,"WANGING'O
MBE",593,MDANDU,59301,MUNGATE,MONDELO
NJOMBE,59,"WANGING'O
MBE",593,MDANDU,59301,ITOWO,ITOWOKATI
NJOMBE,59,"WANGING'O
MBE",593,MDANDU,59301,ITOWO,KIHANGA
NJOMBE,59,"WANGING'O
MBE",593,MDANDU,59301,ITOWO,SADAN
NJOMBE,59,"WANGING'O
MBE",593,MDANDU,59301,ITOWO,ISUPILO
NJOMBE,59,"WANGING'O
MBE",593,MDANDU,59301,ITOWO,IDODI
NJOMBE,59,"WANGING'O
MBE",593,MDANDU,59301,MDANDU,"NGELELE ""A"""
NJOMBE,59,"WANGING'O
MBE",593,MDANDU,59301,MDANDU,"NGELELE ""B"""
NJOMBE,59,"WANGING'O
MBE",593,MDANDU,59301,MDANDU,MSINDO
NJOMBE,59,"WANGING'O
MBE",593,MDANDU,59301,MDANDU,MDANDU KATI
NJOMBE,59,"WANGING'O
MBE",593,MDANDU,59301,MDANDU,YERIKO
NJOMBE,59,"WANGING'O
MBE",593,MDANDU,59301,MDANDU,MAHONGOLE
NJOMBE,59,"WANGING'O
MBE",593,IGIMA,59302,MLEVELA,USHIRIKA
NJOMBE,59,"WANGING'O
MBE",593,IGIMA,59302,MLEVELA,KIBEDAGOGORO
NJOMBE,59,"WANGING'O
MBE",593,IGIMA,59302,MLEVELA,NYWAGE
NJOMBE,59,"WANGING'O
MBE",593,IGIMA,59302,MLEVELA,UCHILIWALA
NJOMBE,59,"WANGING'O
MBE",593,IGIMA,59302,MLEVELA,MLEVELAKATI
NJOMBE,59,"WANGING'O
MBE",593,IGIMA,59302,IGIMA,UKAMBA
NJOMBE,59,"WANGING'O
MBE",593,IGIMA,59302,IGIMA,IGIMA KATI
NJOMBE,59,"WANGING'O
MBE",593,IGIMA,59302,IGIMA,MLIMANI
NJOMBE,59,"WANGING'O
MBE",593,IGIMA,59302,IGIMA,ITOMBOLOLO
NJOMBE,59,"WANGING'O
MBE",593,IGIMA,59302,LUSISI,LUSISI KATI
NJOMBE,59,"WANGING'O
MBE",593,IGIMA,59302,LUSISI,ZAHANATI
NJOMBE,59,"WANGING'O
MBE",593,IGIMA,59302,LUSISI,MALAGALIDZI
NJOMBE,59,"WANGING'O
MBE",593,IGIMA,59302,LUSISI,GEZAULOLE
NJOMBE,59,"WANGING'O
MBE",593,IGIMA,59302,LUSISI,MTAKUJA
NJOMBE,59,"WANGING'O
MBE",593,IGIMA,59302,MHADZI,SHULENI MHADZI
NJOMBE,59,"WANGING'O
MBE",593,IGIMA,59302,MHADZI,NGELELE
NJOMBE,59,"WANGING'O
MBE",593,IGIMA,59302,MHADZI,MAWINDI
NJOMBE,59,"WANGING'O
MBE",593,IGIMA,59302,NYUMBANITU,IDOPEDOPE
NJOMBE,59,"WANGING'O
MBE",593,IGIMA,59302,NYUMBANITU,LUTOWO
NJOMBE,59,"WANGING'O
MBE",593,IGIMA,59302,NYUMBANITU,MLANGALI
NJOMBE,59,"WANGING'O
MBE",593,IGIMA,59302,NYUMBANITU,UKALAWA
NJOMBE,59,"WANGING'O
MBE",593,IGIMA,59302,LULANZI,LULANZI
NJOMBE,59,"WANGING'O
MBE",593,IGIMA,59302,LULANZI,IGAILO
NJOMBE,59,"WANGING'O
MBE",593,IGIMA,59302,LULANZI,IKONDO
NJOMBE,59,"WANGING'O
MBE",593,IGIMA,59302,LULANZI,LOLE
NJOMBE,59,"WANGING'O
MBE",593,IGIMA,59302,MAWINDI,KIPANGA
NJOMBE,59,"WANGING'O
MBE",593,IGIMA,59302,MAWINDI,MANGA
NJOMBE,59,"WANGING'O
MBE",593,IGIMA,59302,MAWINDI,BEACH
NJOMBE,59,"WANGING'O
MBE",593,IGIMA,59302,MAWINDI,MAWINDI
NJOMBE,59,"WANGING'O
MBE",593,USUKA,59303,MATOWO,IKEMEDZA
NJOMBE,59,"WANGING'O
MBE",593,USUKA,59303,MATOWO,SHULENI
NJOMBE,59,"WANGING'O
MBE",593,USUKA,59303,MATOWO,KIHANGA
NJOMBE,59,"WANGING'O
MBE",593,USUKA,59303,MATOWO,MATOWO KATI
NJOMBE,59,"WANGING'O
MBE",593,USUKA,59303,MATOWO,MAGEGELE
NJOMBE,59,"WANGING'O
MBE",593,USUKA,59303,LUGODA,LUGODA KATI
NJOMBE,59,"WANGING'O
MBE",593,USUKA,59303,LUGODA,IGWALANGE
NJOMBE,59,"WANGING'O
MBE",593,USUKA,59303,LUGODA,IGANDO
NJOMBE,59,"WANGING'O
MBE",593,USUKA,59303,LUGODA,IHANGA
NJOMBE,59,"WANGING'O
MBE",593,USUKA,59303,LUGODA,ULIGILE
NJOMBE,59,"WANGING'O
MBE",593,USUKA,59303,USUKA,MMANA
NJOMBE,59,"WANGING'O
MBE",593,USUKA,59303,USUKA,IHANJA
NJOMBE,59,"WANGING'O
MBE",593,USUKA,59303,USUKA,"ITULA ""A"""
NJOMBE,59,"WANGING'O
MBE",593,USUKA,59303,USUKA,"ITULA ""B"""
NJOMBE,59,"WANGING'O
MBE",593,USUKA,59303,USUKA,MATIPU
NJOMBE,59,"WANGING'O
MBE",593,USUKA,59303,IKWEGA,MLANGALI
NJOMBE,59,"WANGING'O
MBE",593,USUKA,59303,IKWEGA,IGAILO
NJOMBE,59,"WANGING'O
MBE",593,USUKA,59303,IKWEGA,IKWEGA KATI
NJOMBE,59,"WANGING'O
MBE",593,USUKA,59303,IKWEGA,MJIMWEMA
NJOMBE,59,"WANGING'O
MBE",593,USUKA,59303,IKWEGA,IHANG'ANA
NJOMBE,59,"WANGING'O
MBE",593,USUKA,59303,ITENI,ITENI KATI
NJOMBE,59,"WANGING'O
MBE",593,USUKA,59303,ITENI,IDITIMA
NJOMBE,59,"WANGING'O
MBE",593,USUKA,59303,ITENI,MAKAMBAKO
NJOMBE,59,"WANGING'O
MBE",593,USUKA,59303,ITENI,IKEMEDZA
NJOMBE,59,"WANGING'O
MBE",593,USUKA,59303,ITENI,KISANGANI
NJOMBE,59,"WANGING'O
MBE",593,LUDUGA,59304,LUDUGA,HARAMBEE
NJOMBE,59,"WANGING'O
MBE",593,LUDUGA,59304,LUDUGA,MHIMBILI
NJOMBE,59,"WANGING'O
MBE",593,LUDUGA,59304,LUDUGA,KISOSOLA
NJOMBE,59,"WANGING'O
MBE",593,LUDUGA,59304,LUDUGA,MLIMANI
NJOMBE,59,"WANGING'O
MBE",593,LUDUGA,59304,LUDUGA,MLANGALI
NJOMBE,59,"WANGING'O
MBE",593,LUDUGA,59304,MAMBEGU,YERIKO
NJOMBE,59,"WANGING'O
MBE",593,LUDUGA,59304,MAMBEGU,KATI
NJOMBE,59,"WANGING'O
MBE",593,LUDUGA,59304,MAMBEGU,MAYOMBONI
NJOMBE,59,"WANGING'O
MBE",593,LUDUGA,59304,MAMBEGU,AZIMIO
NJOMBE,59,"WANGING'O
MBE",593,LUDUGA,59304,MAMBEGU,MTEWELA
NJOMBE,59,"WANGING'O
MBE",593,LUDUGA,59304,KORINTHO,LUDENGELE
NJOMBE,59,"WANGING'O
MBE",593,LUDUGA,59304,KORINTHO,UFIPILE
NJOMBE,59,"WANGING'O
MBE",593,LUDUGA,59304,KORINTHO,ILALA
NJOMBE,59,"WANGING'O
MBE",593,LUDUGA,59304,KORINTHO,MHANDO
NJOMBE,59,"WANGING'O
MBE",593,LUDUGA,59304,KORINTHO,MWEMBENI
NJOMBE,59,"WANGING'O
MBE",593,LUDUGA,59304,HANJAWANU,NYAMBOGO
NJOMBE,59,"WANGING'O
MBE",593,LUDUGA,59304,HANJAWANU,MTAMBANI
NJOMBE,59,"WANGING'O
MBE",593,LUDUGA,59304,HANJAWANU,MKOMBOZI
NJOMBE,59,"WANGING'O
MBE",593,LUDUGA,59304,HANJAWANU,MTAKUJA
NJOMBE,59,"WANGING'O
MBE",593,LUDUGA,59304,HANJAWANU,HANJAWANU
NJOMBE,59,"WANGING'O
MBE",593,LUDUGA,59304,IGANDO,IGANDO
NJOMBE,59,"WANGING'O
MBE",593,LUDUGA,59304,IGANDO,CHANGEPA
NJOMBE,59,"WANGING'O
MBE",593,LUDUGA,59304,IGANDO,NYAMTOWO
NJOMBE,59,"WANGING'O
MBE",593,LUDUGA,59304,IGANDO,MIHO
NJOMBE,59,"WANGING'O
MBE",593,LUDUGA,59304,IGANDO,MBILILI
NJOMBE,59,"WANGING'O
MBE",593,LUDUGA,59304,IYAYI,TONONEKA
NJOMBE,59,"WANGING'O
MBE",593,LUDUGA,59304,IYAYI,CHANGARAWE
NJOMBE,59,"WANGING'O
MBE",593,LUDUGA,59304,IYAYI,IYAYI KATI
NJOMBE,59,"WANGING'O
MBE",593,LUDUGA,59304,IYAYI,MJIMWEMA
NJOMBE,59,"WANGING'O
MBE",593,LUDUGA,59304,IYAYI,KIHOWA
NJOMBE,59,"WANGING'O
MBE",593,ILEMBULA,59305,ILEMBULA,"ILEMBULA “A”,"
NJOMBE,59,"WANGING'O
MBE",593,ILEMBULA,59305,ILEMBULA,"ILEMBULA “B”,"
NJOMBE,59,"WANGING'O
MBE",593,ILEMBULA,59305,ILEMBULA,MAVENGI
NJOMBE,59,"WANGING'O
MBE",593,ILEMBULA,59305,ILEMBULA,MABUMAGE
NJOMBE,59,"WANGING'O
MBE",593,ILEMBULA,59305,ILEMBULA,CHAMSOHOLO
NJOMBE,59,"WANGING'O
MBE",593,ILEMBULA,59305,IGELEHEDZA,IGELEHEDZA A
NJOMBE,59,"WANGING'O
MBE",593,ILEMBULA,59305,IGELEHEDZA,IGELEHEDZA B
NJOMBE,59,"WANGING'O
MBE",593,ILEMBULA,59305,IGELEHEDZA,MTAKUJA
NJOMBE,59,"WANGING'O
MBE",593,ILEMBULA,59305,IGELEHEDZA,KILIMAHEWA
NJOMBE,59,"WANGING'O
MBE",593,ILEMBULA,59305,IGELEHEDZA,KIBANGADA
NJOMBE,59,"WANGING'O
MBE",593,ILEMBULA,59305,IGELEHEDZA,IVIGO
NJOMBE,59,"WANGING'O
MBE",593,ILEMBULA,59305,IGELEHEDZA,MJIMWEMA
NJOMBE,59,"WANGING'O
MBE",593,ILEMBULA,59305,IGULA,IGULA
NJOMBE,59,"WANGING'O
MBE",593,ILEMBULA,59305,IGULA,KIDEGEMBYE
NJOMBE,59,"WANGING'O
MBE",593,ILEMBULA,59305,IGULA,MLOWA
NJOMBE,59,"WANGING'O
MBE",593,ILEMBULA,59305,IGULA,MUUNGANO
NJOMBE,59,"WANGING'O
MBE",593,ILEMBULA,59305,IGULA,KIGINGA
NJOMBE,59,"WANGING'O
MBE",593,ILEMBULA,59305,IPONDA,"IPONDA ""A"""
NJOMBE,59,"WANGING'O
MBE",593,ILEMBULA,59305,IPONDA,NGALANGA B
NJOMBE,59,"WANGING'O
MBE",593,ILEMBULA,59305,IPONDA,NG'ALANGA
NJOMBE,59,"WANGING'O
MBE",593,ILEMBULA,59305,IPONDA,MUUNGANO
NJOMBE,59,"WANGING'O
MBE",593,ILEMBULA,59305,IPONDA,MTEWELE
NJOMBE,59,"WANGING'O
MBE",593,ILEMBULA,59305,KANAMALENGA,IMAGE
NJOMBE,59,"WANGING'O
MBE",593,ILEMBULA,59305,KANAMALENGA,ISIMIKINYI
NJOMBE,59,"WANGING'O
MBE",593,ILEMBULA,59305,KANAMALENGA,MJIMWEMA
NJOMBE,59,"WANGING'O
MBE",593,ILEMBULA,59305,KANAMALENGA,KITELEVADZI
NJOMBE,59,"WANGING'O
MBE",593,ILEMBULA,59305,KANAMALENGA,KANAMALENGA
NJOMBE,59,"WANGING'O
MBE",593,UHAMBULE,59306,UJINDILE,MJIMWEMA
NJOMBE,59,"WANGING'O
MBE",593,UHAMBULE,59306,UJINDILE,UJINDILE KATI
NJOMBE,59,"WANGING'O
MBE",593,UHAMBULE,59306,UJINDILE,MAGOHANI
NJOMBE,59,"WANGING'O
MBE",593,UHAMBULE,59306,UJINDILE,MTAMBA
NJOMBE,59,"WANGING'O
MBE",593,UHAMBULE,59306,UJINDILE,MJIMWEMA B
NJOMBE,59,"WANGING'O
MBE",593,UHAMBULE,59306,MTEWELE,MDONYA
NJOMBE,59,"WANGING'O
MBE",593,UHAMBULE,59306,MTEWELE,KIHANGA
NJOMBE,59,"WANGING'O
MBE",593,UHAMBULE,59306,MTEWELE,KANISANI
NJOMBE,59,"WANGING'O
MBE",593,UHAMBULE,59306,MTEWELE,BARABARANI
NJOMBE,59,"WANGING'O
MBE",593,UHAMBULE,59306,MTEWELE,IHWESA
NJOMBE,59,"WANGING'O
MBE",593,UHAMBULE,59306,UHAMBULE,NGENYANGO
NJOMBE,59,"WANGING'O
MBE",593,UHAMBULE,59306,UHAMBULE,IGOMINYI
NJOMBE,59,"WANGING'O
MBE",593,UHAMBULE,59306,UHAMBULE,CHAFWIMI
NJOMBE,59,"WANGING'O
MBE",593,UHAMBULE,59306,UHAMBULE,UHAMBULE KATI
NJOMBE,59,"WANGING'O
MBE",593,UHAMBULE,59306,UHAMBULE,MASASATI
NJOMBE,59,"WANGING'O
MBE",593,UHAMBULE,59306,WANGUTWA,WANGUTWA KATI
NJOMBE,59,"WANGING'O
MBE",593,UHAMBULE,59306,WANGUTWA,LOGA
NJOMBE,59,"WANGING'O
MBE",593,UHAMBULE,59306,WANGUTWA,MUUNGANO
NJOMBE,59,"WANGING'O
MBE",593,UHAMBULE,59306,WANGUTWA,LUTEWELE
NJOMBE,59,"WANGING'O
MBE",593,UHAMBULE,59306,WANGUTWA,WAHE
NJOMBE,59,"WANGING'O
MBE",593,UHAMBULE,59306,IGELANGO,TALAMAGANGA
NJOMBE,59,"WANGING'O
MBE",593,UHAMBULE,59306,IGELANGO,MTAKUJA
NJOMBE,59,"WANGING'O
MBE",593,UHAMBULE,59306,IGELANGO,IGELANGO KATI
NJOMBE,59,"WANGING'O
MBE",593,UHAMBULE,59306,IGELANGO,UPENDO
NJOMBE,59,"WANGING'O
MBE",593,UHAMBULE,59306,IGELANGO,LUMUMBA
NJOMBE,59,"WANGING'O
MBE",593,UHAMBULE,59306,MSIMBAZI,KIHANGA
NJOMBE,59,"WANGING'O
MBE",593,UHAMBULE,59306,MSIMBAZI,MBUYUNI
NJOMBE,59,"WANGING'O
MBE",593,UHAMBULE,59306,MSIMBAZI,MAPOGORO
NJOMBE,59,"WANGING'O
MBE",593,UHAMBULE,59306,MSIMBAZI,LYANGO
NJOMBE,59,"WANGING'O
MBE",593,UHAMBULE,59306,MSIMBAZI,ILALA
NJOMBE,59,"WANGING'O
MBE",593,WANGING'OMBE,59307,WANGING'OMBE,WANGING’OMBE
NJOMBE,59,"WANGING'O
MBE",593,WANGING'OMBE,59307,WANGING'OMBE,KIHANGA
NJOMBE,59,"WANGING'O
MBE",593,WANGING'OMBE,59307,WANGING'OMBE,MNADANI
NJOMBE,59,"WANGING'O
MBE",593,WANGING'OMBE,59307,LITUNDU,WELELA
NJOMBE,59,"WANGING'O
MBE",593,WANGING'OMBE,59307,LITUNDU,WELELAMFUMBI
NJOMBE,59,"WANGING'O
MBE",593,WANGING'OMBE,59307,LITUNDU,LITUNDU
NJOMBE,59,"WANGING'O
MBE",593,WANGING'OMBE,59307,KATENGE,"KATENGE “A”,"
NJOMBE,59,"WANGING'O
MBE",593,WANGING'OMBE,59307,KATENGE,KATENGE “ B”
NJOMBE,59,"WANGING'O
MBE",593,WANGING'OMBE,59307,KATENGE,MAJENGO
NJOMBE,59,"WANGING'O
MBE",593,WANGING'OMBE,59307,KATENGE,KILIMAHEWA
NJOMBE,59,"WANGING'O
MBE",593,WANGING'OMBE,59307,MBEMBE,MUUNGANO
NJOMBE,59,"WANGING'O
MBE",593,WANGING'OMBE,59307,MBEMBE,ITULA
NJOMBE,59,"WANGING'O
MBE",593,WANGING'OMBE,59307,MBEMBE,UKOMBOZI
NJOMBE,59,"WANGING'O
MBE",593,WANGING'OMBE,59307,MBEMBE,KIGAMBONI
NJOMBE,59,"WANGING'O
MBE",593,WANGING'OMBE,59307,MBEMBE,SALIMWANI
NJOMBE,59,"WANGING'O
MBE",593,WANGING'OMBE,59307,MBEMBE,MBEMBE
NJOMBE,59,"WANGING'O
MBE",593,WANGING'OMBE,59307,UTIGA,UTIGA KATI
NJOMBE,59,"WANGING'O
MBE",593,WANGING'OMBE,59307,UTIGA,TAMBUKARELI
NJOMBE,59,"WANGING'O
MBE",593,WANGING'OMBE,59307,UTIGA,UTIGA MAGHARIBI
NJOMBE,59,"WANGING'O
MBE",593,WANGING'OMBE,59307,UTIGA,UTIGA MASHARIKI
NJOMBE,59,"WANGING'O
MBE",593,WANGING'OMBE,59307,UTIGA,MAJENGO
NJOMBE,59,"WANGING'O
MBE",593,WANGING'OMBE,59307,UTIGA,ITAMBA
NJOMBE,59,"WANGING'O
MBE",593,WANGING'OMBE,59307,UFWALA,MBUYUNI
NJOMBE,59,"WANGING'O
MBE",593,WANGING'OMBE,59307,UFWALA,CHALUFILILI
NJOMBE,59,"WANGING'O
MBE",593,WANGING'OMBE,59307,UFWALA,SOLIWAYA KATI
NJOMBE,59,"WANGING'O
MBE",593,WANGING'OMBE,59307,UFWALA,MPALANJI
NJOMBE,59,"WANGING'O
MBE",593,WANGING'OMBE,59307,UFWALA,MTENDELEJI
NJOMBE,59,"WANGING'O
MBE",593,WANGING'OMBE,59307,MNG'ELENGE,IKOMEJA
NJOMBE,59,"WANGING'O
MBE",593,WANGING'OMBE,59307,MNG'ELENGE,MAJENGO
NJOMBE,59,"WANGING'O
MBE",593,WANGING'OMBE,59307,MNG'ELENGE,IKINGULA KATI
NJOMBE,59,"WANGING'O
MBE",593,WANGING'OMBE,59307,MNG'ELENGE,MAGOFU
NJOMBE,59,"WANGING'O
MBE",593,WANGING'OMBE,59307,MNG'ELENGE,MNG'ELENGE
NJOMBE,59,"WANGING'O
MBE",593,WANGING'OMBE,59307,MAYALE,MABALONI
NJOMBE,59,"WANGING'O
MBE",593,WANGING'OMBE,59307,MAYALE,SINING'OMBE
NJOMBE,59,"WANGING'O
MBE",593,WANGING'OMBE,59307,MAYALE,MTAKUJA
NJOMBE,59,"WANGING'O
MBE",593,WANGING'OMBE,59307,MAYALE,MAYALE KATI
NJOMBE,59,"WANGING'O
MBE",593,WANGING'OMBE,59307,MAYALE,HALALI
NJOMBE,59,"WANGING'O
MBE",593,WANGING'OMBE,59307,ITANDULA,GOMAHENJA
NJOMBE,59,"WANGING'O
MBE",593,WANGING'OMBE,59307,ITANDULA,MJIMWEMA
NJOMBE,59,"WANGING'O
MBE",593,WANGING'OMBE,59307,ITANDULA,LULANGA
NJOMBE,59,"WANGING'O
MBE",593,WANGING'OMBE,59307,ITANDULA,"ITANDULA ""A"""
NJOMBE,59,"WANGING'O
MBE",593,WANGING'OMBE,59307,ITANDULA,"ITANDULA ""B"""
NJOMBE,59,"WANGING'O
MBE",593,KIJOMBE,59308,LYADEBWE,MAJENGO
NJOMBE,59,"WANGING'O
MBE",593,KIJOMBE,59308,LYADEBWE,MDOGA
NJOMBE,59,"WANGING'O
MBE",593,KIJOMBE,59308,LYADEBWE,MBUYUNI
NJOMBE,59,"WANGING'O
MBE",593,KIJOMBE,59308,LYADEBWE,IGUMBILO
NJOMBE,59,"WANGING'O
MBE",593,KIJOMBE,59308,LYADEBWE,CHAMVANGA
NJOMBE,59,"WANGING'O
MBE",593,KIJOMBE,59308,KIJOMBE,MDAGALA
NJOMBE,59,"WANGING'O
MBE",593,KIJOMBE,59308,KIJOMBE,MSIKITINI
NJOMBE,59,"WANGING'O
MBE",593,KIJOMBE,59308,KIJOMBE,MLIMANI
NJOMBE,59,"WANGING'O
MBE",593,KIJOMBE,59308,KIJOMBE,WANGAMA
NJOMBE,59,"WANGING'O
MBE",593,KIJOMBE,59308,KIJOMBE,MGOGOJI
NJOMBE,59,"WANGING'O
MBE",593,KIJOMBE,59308,UKOMOLA,MKAVU
NJOMBE,59,"WANGING'O
MBE",593,KIJOMBE,59308,UKOMOLA,UKOMOLA KATI
NJOMBE,59,"WANGING'O
MBE",593,KIJOMBE,59308,UKOMOLA,KIBUGA
NJOMBE,59,"WANGING'O
MBE",593,KIJOMBE,59308,UKOMOLA,CHELEJI
NJOMBE,59,"WANGING'O
MBE",593,KIJOMBE,59308,UKOMOLA,NYAMKO
NJOMBE,59,"WANGING'O
MBE",593,KIJOMBE,59308,LYAMLUKI,CHANG'ANGA
NJOMBE,59,"WANGING'O
MBE",593,KIJOMBE,59308,LYAMLUKI,MNADANI
NJOMBE,59,"WANGING'O
MBE",593,KIJOMBE,59308,LYAMLUKI,MBUYUNI
NJOMBE,59,"WANGING'O
MBE",593,KIJOMBE,59308,LYAMLUKI,MTWILA
NJOMBE,59,"WANGING'O
MBE",593,KIJOMBE,59308,LYAMLUKI,AMAN
NJOMBE,59,"WANGING'O
MBE",593,KIJOMBE,59308,IKWAVILA,IKWAVILA
NJOMBE,59,"WANGING'O
MBE",593,KIJOMBE,59308,IKWAVILA,IBULA
NJOMBE,59,"WANGING'O
MBE",593,KIJOMBE,59308,IKWAVILA,MBUYUNI
NJOMBE,59,"WANGING'O
MBE",593,KIJOMBE,59308,IKWAVILA,NGELELE
NJOMBE,59,"WANGING'O
MBE",593,KIJOMBE,59308,IKWAVILA,IKWAVIKA KATI
NJOMBE,59,"WANGING'O
MBE",593,SAJA,59309,SAJA,SAJA KATI
NJOMBE,59,"WANGING'O
MBE",593,SAJA,59309,SAJA,KAZIMOTO
NJOMBE,59,"WANGING'O
MBE",593,SAJA,59309,SAJA,ILOLE
NJOMBE,59,"WANGING'O
MBE",593,SAJA,59309,SAJA,MUUNGANO
NJOMBE,59,"WANGING'O
MBE",593,SAJA,59309,SAJA,MAKONDO KATI
NJOMBE,59,"WANGING'O
MBE",593,SAJA,59309,IGENGE,MISUFINI
NJOMBE,59,"WANGING'O
MBE",593,SAJA,59309,IGENGE,MTWANGO
NJOMBE,59,"WANGING'O
MBE",593,SAJA,59309,IGENGE,IGENGELIMEMBE
NJOMBE,59,"WANGING'O
MBE",593,SAJA,59309,IGENGE,KIBUGUMO
NJOMBE,59,"WANGING'O
MBE",593,SAJA,59309,IGENGE,IGENGE KATI
NJOMBE,59,"WANGING'O
MBE",593,SAJA,59309,IGOMBA,IGELEKE
NJOMBE,59,"WANGING'O
MBE",593,SAJA,59309,IGOMBA,IGOMBA KATI
NJOMBE,59,"WANGING'O
MBE",593,SAJA,59309,IGOMBA,ISINING'OMBE
NJOMBE,59,"WANGING'O
MBE",593,SAJA,59309,IGOMBA,NG'ONDOVI
NJOMBE,59,"WANGING'O
MBE",593,SAJA,59309,IGOMBA,UNYANYE
NJOMBE,59,"WANGING'O
MBE",593,SAJA,59309,ISIMIKE,IBANAVANU
NJOMBE,59,"WANGING'O
MBE",593,SAJA,59309,ISIMIKE,UHAMBULE
NJOMBE,59,"WANGING'O
MBE",593,SAJA,59309,ISIMIKE,MULELULETE
NJOMBE,59,"WANGING'O
MBE",593,SAJA,59309,ISIMIKE,IGANGASENGA
NJOMBE,59,"WANGING'O
MBE",593,SAJA,59309,ISIMIKE,IJENGELIMEMBE
NJOMBE,59,"WANGING'O
MBE",593,SAJA,59309,IDENYIMEMBE,IDENYIMEMBE
NJOMBE,59,"WANGING'O
MBE",593,SAJA,59309,IDENYIMEMBE,UJINDILE
NJOMBE,59,"WANGING'O
MBE",593,SAJA,59309,IDENYIMEMBE,MAWESABA
NJOMBE,59,"WANGING'O
MBE",593,SAJA,59309,IDENYIMEMBE,MPAKANI
NJOMBE,59,"WANGING'O
MBE",593,SAJA,59309,IDENYIMEMBE,MTAKUJA
NJOMBE,59,"WANGING'O
MBE",593,IGOSI,59310,IGOSI,MLIMANI
NJOMBE,59,"WANGING'O
MBE",593,IGOSI,59310,IGOSI,NG'ANGE
NJOMBE,59,"WANGING'O
MBE",593,IGOSI,59310,IGOSI,NDULAMO
NJOMBE,59,"WANGING'O
MBE",593,IGOSI,59310,IGOSI,IKUFWA
NJOMBE,59,"WANGING'O
MBE",593,IGOSI,59310,IGOSI,IGELANGO
NJOMBE,59,"WANGING'O
MBE",593,IGOSI,59310,IGOSI,MAJENGOMAPYA
NJOMBE,59,"WANGING'O
MBE",593,IGOSI,59310,IVIGO,CHAUNG'ENG'E
NJOMBE,59,"WANGING'O
MBE",593,IGOSI,59310,IVIGO,IFUNDA
NJOMBE,59,"WANGING'O
MBE",593,IGOSI,59310,IVIGO,ITULA
NJOMBE,59,"WANGING'O
MBE",593,IGOSI,59310,IVIGO,MLIMANI
NJOMBE,59,"WANGING'O
MBE",593,IGOSI,59310,IVIGO,IPOGOLO
NJOMBE,59,"WANGING'O
MBE",593,IGOSI,59310,UJINDILE,ITAMBA
NJOMBE,59,"WANGING'O
MBE",593,IGOSI,59310,UJINDILE,LWIKULA
NJOMBE,59,"WANGING'O
MBE",593,IGOSI,59310,UJINDILE,MBAMBALA
NJOMBE,59,"WANGING'O
MBE",593,IGOSI,59310,UJINDILE,TEGAMATWA
NJOMBE,59,"WANGING'O
MBE",593,IGOSI,59310,UJINDILE,MTITAFU
NJOMBE,59,"WANGING'O
MBE",593,IGOSI,59310,UJINDILE,FUKA
NJOMBE,59,"WANGING'O
MBE",593,WANGAMA,59311,WANGAMA,WANGAMA
NJOMBE,59,"WANGING'O
MBE",593,WANGAMA,59311,WANGAMA,MDANDU
NJOMBE,59,"WANGING'O
MBE",593,WANGAMA,59311,WANGAMA,UTUNIDZA
NJOMBE,59,"WANGING'O
MBE",593,WANGAMA,59311,WANGAMA,LUTOWELO
NJOMBE,59,"WANGING'O
MBE",593,WANGAMA,59311,WANGAMA,NGELELE
NJOMBE,59,"WANGING'O
MBE",593,WANGAMA,59311,IKANGA,MATALAWANDA
NJOMBE,59,"WANGING'O
MBE",593,WANGAMA,59311,IKANGA,MTWIVILA
NJOMBE,59,"WANGING'O
MBE",593,WANGAMA,59311,IKANGA,IKANGA
NJOMBE,59,"WANGING'O
MBE",593,WANGAMA,59311,IKANGA,IHALAFU
NJOMBE,59,"WANGING'O
MBE",593,WANGAMA,59311,IMALILO,"ILULA ""A"""
NJOMBE,59,"WANGING'O
MBE",593,WANGAMA,59311,IMALILO,"ILULA ""B"""
NJOMBE,59,"WANGING'O
MBE",593,WANGAMA,59311,IMALILO,MSAADA
NJOMBE,59,"WANGING'O
MBE",593,WANGAMA,59311,IMALILO,KIBENA
NJOMBE,59,"WANGING'O
MBE",593,WANGAMA,59311,IMALILO,MTAKUJA
NJOMBE,59,"WANGING'O
MBE",593,WANGAMA,59311,IMALILO,NGONGOMU
NJOMBE,59,"WANGING'O
MBE",593,KIDUGALA,59312,KIDUGALA,LUGEMBA
NJOMBE,59,"WANGING'O
MBE",593,KIDUGALA,59312,KIDUGALA,SENGERE
NJOMBE,59,"WANGING'O
MBE",593,KIDUGALA,59312,KIDUGALA,UGUNGULE
NJOMBE,59,"WANGING'O
MBE",593,KIDUGALA,59312,KIDUGALA,MWALIVALE
NJOMBE,59,"WANGING'O
MBE",593,KIDUGALA,59312,MKEHA,"MKEHA ""A"""
NJOMBE,59,"WANGING'O
MBE",593,KIDUGALA,59312,MKEHA,"MKEHA ""B"""
NJOMBE,59,"WANGING'O
MBE",593,KIDUGALA,59312,MKEHA,MJIMWEMA
NJOMBE,59,"WANGING'O
MBE",593,KIDUGALA,59312,MKEHA,KILAGANO
NJOMBE,59,"WANGING'O
MBE",593,KIDUGALA,59312,MKEHA,MAWINDI
NJOMBE,59,"WANGING'O
MBE",593,KIDUGALA,59312,GONELAMAFUTA,GONELAMAFUTA
NJOMBE,59,"WANGING'O
MBE",593,KIDUGALA,59312,GONELAMAFUTA,KALENGA
NJOMBE,59,"WANGING'O
MBE",593,KIDUGALA,59312,GONELAMAFUTA,MHANGA
NJOMBE,59,"WANGING'O
MBE",593,KIDUGALA,59312,GONELAMAFUTA,AZIMIO
NJOMBE,59,"WANGING'O
MBE",593,KIDUGALA,59312,GONELAMAFUTA,MLANGA
NJOMBE,59,"WANGING'O
MBE",593,KIDUGALA,59312,MASILU,MASILU KATI
NJOMBE,59,"WANGING'O
MBE",593,KIDUGALA,59312,MASILU,MASILU CHINI
NJOMBE,59,"WANGING'O
MBE",593,KIDUGALA,59312,MASILU,MFUNGATI
NJOMBE,59,"WANGING'O
MBE",593,KIDUGALA,59312,MASILU,ITEGELELA
NJOMBE,59,"WANGING'O
MBE",593,KIDUGALA,59312,MASILU,MASILU JUU
NJOMBE,59,"WANGING'O
MBE",593,KIDUGALA,59312,MASAGE,KIWULUNGE
NJOMBE,59,"WANGING'O
MBE",593,KIDUGALA,59312,MASAGE,UHAMILE
NJOMBE,59,"WANGING'O
MBE",593,KIDUGALA,59312,MASAGE,MJIMWEMA
NJOMBE,59,"WANGING'O
MBE",593,KIDUGALA,59312,MASAGE,KIHANGA
NJOMBE,59,"WANGING'O
MBE",593,KIDUGALA,59312,MASAGE,WIYANDAGE
NJOMBE,59,"WANGING'O
MBE",593,ULEMBWE,59313,ULEMBWE,ULEMBWE
NJOMBE,59,"WANGING'O
MBE",593,ULEMBWE,59313,ULEMBWE,BONDEA
NJOMBE,59,"WANGING'O
MBE",593,ULEMBWE,59313,ULEMBWE,IKINGULA
NJOMBE,59,"WANGING'O
MBE",593,ULEMBWE,59313,ULEMBWE,LYANULA
NJOMBE,59,"WANGING'O
MBE",593,ULEMBWE,59313,ULEMBWE,IPANGALA
NJOMBE,59,"WANGING'O
MBE",593,ULEMBWE,59313,ULEMBWE,MADASI
NJOMBE,59,"WANGING'O
MBE",593,ULEMBWE,59313,ULEMBWE,MGOLA
NJOMBE,59,"WANGING'O
MBE",593,ULEMBWE,59313,ULEMBWE,MLANGALI
NJOMBE,59,"WANGING'O
MBE",593,ULEMBWE,59313,ULEMBWE,MTEMBELELE
NJOMBE,59,"WANGING'O
MBE",593,ULEMBWE,59313,USITA,KITICHI
NJOMBE,59,"WANGING'O
MBE",593,ULEMBWE,59313,USITA,UTENGULE
NJOMBE,59,"WANGING'O
MBE",593,ULEMBWE,59313,USITA,MPONGOLO
NJOMBE,59,"WANGING'O
MBE",593,ULEMBWE,59313,USITA,USITA
NJOMBE,59,"WANGING'O
MBE",593,ULEMBWE,59313,USITA,MALAMBA
NJOMBE,59,"WANGING'O
MBE",593,ULEMBWE,59313,IGAGALA,IDUNDA
NJOMBE,59,"WANGING'O
MBE",593,ULEMBWE,59313,IGAGALA,IGAGALA
NJOMBE,59,"WANGING'O
MBE",593,ULEMBWE,59313,IGAGALA,UHEPELA
NJOMBE,59,"WANGING'O
MBE",593,ULEMBWE,59313,IGAGALA,MAPEBASI
NJOMBE,59,"WANGING'O
MBE",593,ULEMBWE,59313,IGAGALA,NJIA PANDA
NJOMBE,59,"WANGING'O
MBE",593,ULEMBWE,59313,IGAGALA,IGELANGO
NJOMBE,59,"WANGING'O
MBE",593,ULEMBWE,59313,USALULE,USALULE
NJOMBE,59,"WANGING'O
MBE",593,ULEMBWE,59313,USALULE,NDOLELA
NJOMBE,59,"WANGING'O
MBE",593,ULEMBWE,59313,USALULE,IDONO
NJOMBE,59,"WANGING'O
MBE",593,ULEMBWE,59313,USALULE,BONDEA
NJOMBE,59,"WANGING'O
MBE",593,ULEMBWE,59313,USALULE,IGELANGO
NJOMBE,59,"WANGING'O
MBE",593,KIPENGELE,59314,KIPENGELE,IGURUKILO
NJOMBE,59,"WANGING'O
MBE",593,KIPENGELE,59314,KIPENGELE,IHENYE
NJOMBE,59,"WANGING'O
MBE",593,KIPENGELE,59314,KIPENGELE,LUPEMA
NJOMBE,59,"WANGING'O
MBE",593,KIPENGELE,59314,KIPENGELE,NAZARETI
NJOMBE,59,"WANGING'O
MBE",593,KIPENGELE,59314,KIPENGELE,MUMBALA
NJOMBE,59,"WANGING'O
MBE",593,KIPENGELE,59314,MWILAMBA,TOWE
NJOMBE,59,"WANGING'O
MBE",593,KIPENGELE,59314,MWILAMBA,ISITU
NJOMBE,59,"WANGING'O
MBE",593,KIPENGELE,59314,MWILAMBA,TEMEKE
NJOMBE,59,"WANGING'O
MBE",593,KIPENGELE,59314,MWILAMBA,MAJENGO
NJOMBE,59,"WANGING'O
MBE",593,KIPENGELE,59314,MWILAMBA,MJIMWEMA
NJOMBE,59,"WANGING'O
MBE",593,KIPENGELE,59314,MAFINGA,IGUDZI
NJOMBE,59,"WANGING'O
MBE",593,KIPENGELE,59314,MAFINGA,MTENDELI
NJOMBE,59,"WANGING'O
MBE",593,KIPENGELE,59314,MAFINGA,MAKELA
NJOMBE,59,"WANGING'O
MBE",593,KIPENGELE,59314,MORONGA,KILANZI
NJOMBE,59,"WANGING'O
MBE",593,KIPENGELE,59314,MORONGA,IKOWO
NJOMBE,59,"WANGING'O
MBE",593,KIPENGELE,59314,MORONGA,KITINDISWA
NJOMBE,59,"WANGING'O
MBE",593,KIPENGELE,59314,MORONGA,MATWAKI
NJOMBE,59,"WANGING'O
MBE",593,KIPENGELE,59314,MORONGA,ISIKITILA
NJOMBE,59,"WANGING'O
MBE",593,KIPENGELE,59314,ING'ENYANGO,IPOLOTO
NJOMBE,59,"WANGING'O
MBE",593,KIPENGELE,59314,ING'ENYANGO,"ING'ENYANGO ""A"""
NJOMBE,59,"WANGING'O
MBE",593,KIPENGELE,59314,ING'ENYANGO,"ING'ENYANGO ""B"""
NJOMBE,59,"WANGING'O
MBE",593,MAKOGA,59315,NG'ANDA,LUDONDE
NJOMBE,59,"WANGING'O
MBE",593,MAKOGA,59315,NG'ANDA,MAFUMBA
NJOMBE,59,"WANGING'O
MBE",593,MAKOGA,59315,NG'ANDA,VUDZANGE
NJOMBE,59,"WANGING'O
MBE",593,MAKOGA,59315,NG'ANDA,MADILU
NJOMBE,59,"WANGING'O
MBE",593,MAKOGA,59315,NG'ANDA,UHENAMO
NJOMBE,59,"WANGING'O
MBE",593,MAKOGA,59315,SAMARIA,UVANGWA
NJOMBE,59,"WANGING'O
MBE",593,MAKOGA,59315,SAMARIA,USAGALWA
NJOMBE,59,"WANGING'O
MBE",593,MAKOGA,59315,SAMARIA,NGONGOTI
NJOMBE,59,"WANGING'O
MBE",593,MAKOGA,59315,SAMARIA,IGONGWI
NJOMBE,59,"WANGING'O
MBE",593,MAKOGA,59315,SAMARIA,NYALULE
NJOMBE,59,"WANGING'O
MBE",593,MAKOGA,59315,IDUNDA,MJIMWEMA
NJOMBE,59,"WANGING'O
MBE",593,MAKOGA,59315,IDUNDA,MATALAWE
NJOMBE,59,"WANGING'O
MBE",593,MAKOGA,59315,IDUNDA,KIHESA
NJOMBE,59,"WANGING'O
MBE",593,MAKOGA,59315,UTELEWE,LUDEWA
NJOMBE,59,"WANGING'O
MBE",593,MAKOGA,59315,UTELEWE,IKUNGU
NJOMBE,59,"WANGING'O
MBE",593,MAKOGA,59315,UTELEWE,MTUNA
NJOMBE,59,"WANGING'O
MBE",593,MAKOGA,59315,UTELEWE,KIHANGA
NJOMBE,59,"WANGING'O
MBE",593,MAKOGA,59315,UTELEWE,MHANGA
NJOMBE,59,"WANGING'O
MBE",593,MAKOGA,59315,MAKOGA,MAKUNGU
NJOMBE,59,"WANGING'O
MBE",593,MAKOGA,59315,MAKOGA,MPOCHO
NJOMBE,59,"WANGING'O
MBE",593,MAKOGA,59315,MAKOGA,ILOVI
NJOMBE,59,"WANGING'O
MBE",593,MAKOGA,59315,MAKOGA,IFYAGILILO
NJOMBE,59,"WANGING'O
MBE",593,MAKOGA,59315,MAKOGA,ILANDACHI
NJOMBE,59,"WANGING'O
MBE",593,MAKOGA,59315,UHEKULE,MIFUGO
NJOMBE,59,"WANGING'O
MBE",593,MAKOGA,59315,UHEKULE,ISIMIKINYI
NJOMBE,59,"WANGING'O
MBE",593,MAKOGA,59315,UHEKULE,NYAMAJIWA
NJOMBE,59,"WANGING'O
MBE",593,MAKOGA,59315,UHEKULE,MGUTI
NJOMBE,59,"WANGING'O
MBE",593,MAKOGA,59315,UHEKULE,IPOMBWE
NJOMBE,59,"WANGING'O
MBE",593,MAKOGA,59315,MDASI,IGOTO
NJOMBE,59,"WANGING'O
MBE",593,MAKOGA,59315,MDASI,MGODA
NJOMBE,59,"WANGING'O
MBE",593,MAKOGA,59315,MDASI,CHALUKUNGU
NJOMBE,59,"WANGING'O
MBE",593,MAKOGA,59315,MDASI,KIBAONI
NJOMBE,59,"WANGING'O
MBE",593,MAKOGA,59315,MDASI,ISANZIKE
NJOMBE,59,"WANGING'O
MBE",593,IMALINYI,59316,IMALINYI,ITULA
NJOMBE,59,"WANGING'O
MBE",593,IMALINYI,59316,IMALINYI,IHINGILO
NJOMBE,59,"WANGING'O
MBE",593,IMALINYI,59316,IMALINYI,MTWANGO
NJOMBE,59,"WANGING'O
MBE",593,IMALINYI,59316,IMALINYI,LUDEWA
NJOMBE,59,"WANGING'O
MBE",593,IMALINYI,59316,IMALINYI,UKEYA
NJOMBE,59,"WANGING'O
MBE",593,IMALINYI,59316,KINENULO,IKANGAMWANI
NJOMBE,59,"WANGING'O
MBE",593,IMALINYI,59316,KINENULO,IKEMEDZA
NJOMBE,59,"WANGING'O
MBE",593,IMALINYI,59316,KINENULO,AMANI
NJOMBE,59,"WANGING'O
MBE",593,IMALINYI,59316,KINENULO,MAPAINA
NJOMBE,59,"WANGING'O
MBE",593,IMALINYI,59316,KINENULO,KINENULO
NJOMBE,59,"WANGING'O
MBE",593,IMALINYI,59316,MASAULWA,UHEMI
NJOMBE,59,"WANGING'O
MBE",593,IMALINYI,59316,MASAULWA,BOMANI
NJOMBE,59,"WANGING'O
MBE",593,IMALINYI,59316,MASAULWA,YERIKO
NJOMBE,59,"WANGING'O
MBE",593,IMALINYI,59316,MASAULWA,IKAULA
NJOMBE,59,"WANGING'O
MBE",593,IMALINYI,59316,MASAULWA,KILONGO
NJOMBE,59,"WANGING'O
MBE",593,IMALINYI,59316,IGODIVAHA,KIDEGEMANGA
NJOMBE,59,"WANGING'O
MBE",593,IMALINYI,59316,IGODIVAHA,IBOBE
NJOMBE,59,"WANGING'O
MBE",593,IMALINYI,59316,IGODIVAHA,MATANANA
NJOMBE,59,"WANGING'O
MBE",593,IMALINYI,59316,IGODIVAHA,ITIMBU
NJOMBE,59,"WANGING'O
MBE",593,IMALINYI,59316,IGODIVAHA,MUHANGA
NJOMBE,59,"WANGING'O
MBE",593,IMALINYI,59316,ILULU,IBUMILA JUU
NJOMBE,59,"WANGING'O
MBE",593,IMALINYI,59316,ILULU,IBUMILA KATI
NJOMBE,59,"WANGING'O
MBE",593,IMALINYI,59316,ILULU,IBUMILA CHINI
NJOMBE,59,"WANGING'O
MBE",593,IMALINYI,59316,ILULU,"LUGALO ""A"""
NJOMBE,59,"WANGING'O
MBE",593,IMALINYI,59316,ILULU,"LUGALO ""B"""
NJOMBE,59,"WANGING'O
MBE",593,ITULAHUMBA,59317,SAKALENGA,ITANDULA
NJOMBE,59,"WANGING'O
MBE",593,ITULAHUMBA,59317,SAKALENGA,MTAKUJA
NJOMBE,59,"WANGING'O
MBE",593,ITULAHUMBA,59317,SAKALENGA,NYALAVA
NJOMBE,59,"WANGING'O
MBE",593,ITULAHUMBA,59317,SAKALENGA,ISINDAGOSI
NJOMBE,59,"WANGING'O
MBE",593,ITULAHUMBA,59317,ISINDAGOSI,IGANGA
NJOMBE,59,"WANGING'O
MBE",593,ITULAHUMBA,59317,ISINDAGOSI,MPWAPWA
NJOMBE,59,"WANGING'O
MBE",593,ITULAHUMBA,59317,ISINDAGOSI,IDUNDA
NJOMBE,59,"WANGING'O
MBE",593,ITULAHUMBA,59317,ITULAHUMBA,WANIKE
NJOMBE,59,"WANGING'O
MBE",593,ITULAHUMBA,59317,ITULAHUMBA,"NYAMAGANA ""A"""
NJOMBE,59,"WANGING'O
MBE",593,ITULAHUMBA,59317,ITULAHUMBA,ITULAHUMBA KATI
NJOMBE,59,"WANGING'O
MBE",593,ITULAHUMBA,59317,IHANZUTWA,IHANZUTWA
NJOMBE,59,"WANGING'O
MBE",593,ITULAHUMBA,59317,IHANZUTWA,"NYAMAGANA “B”,"
NJOMBE,59,"WANGING'O
MBE",593,ITULAHUMBA,59317,IHANZUTWA,IWAWA
NJOMBE,59,"WANGING'O
MBE",593,ITULAHUMBA,59317,IHANZUTWA,MANZESE
NJOMBE,59,"WANGING'O
MBE",593,IGWACHANYA,59318,IDINDILIMUNYO,IDINDILIMUNYO KATI
NJOMBE,59,"WANGING'O
MBE",593,IGWACHANYA,59318,IDINDILIMUNYO,KIWHELE
NJOMBE,59,"WANGING'O
MBE",593,IGWACHANYA,59318,IDINDILIMUNYO,MAKOGA
NJOMBE,59,"WANGING'O
MBE",593,IGWACHANYA,59318,IDINDILIMUNYO,MWALIDETE
NJOMBE,59,"WANGING'O
MBE",593,IGWACHANYA,59318,IDINDILIMUNYO,NYAWENGA
NJOMBE,59,"WANGING'O
MBE",593,IGWACHANYA,59318,IGWACHANYA,IGWACHANYA KATI
NJOMBE,59,"WANGING'O
MBE",593,IGWACHANYA,59318,IGWACHANYA,IGOMBATAVANGU
NJOMBE,59,"WANGING'O
MBE",593,IGWACHANYA,59318,IGWACHANYA,ULANGA
NJOMBE,59,"WANGING'O
MBE",593,IGWACHANYA,59318,IGWACHANYA,MAKUNGU
NJOMBE,59,"WANGING'O
MBE",593,IGWACHANYA,59318,IGWACHANYA,MAYALE
NJOMBE,59,"WANGING'O
MBE",593,IGWACHANYA,59318,CHALOWE,CHALOWE KATI
NJOMBE,59,"WANGING'O
MBE",593,IGWACHANYA,59318,CHALOWE,WANGAMA
NJOMBE,59,"WANGING'O
MBE",593,IGWACHANYA,59318,CHALOWE,TANILING'ANI
NJOMBE,59,"WANGING'O
MBE",593,IGWACHANYA,59318,CHALOWE,MSASA
NJOMBE,59,"WANGING'O
MBE",593,IGWACHANYA,59318,CHALOWE,MDEMI
NJOMBE,59,"WANGING'O
MBE",593,IGWACHANYA,59318,DULAMU,DULAMU
NJOMBE,59,"WANGING'O
MBE",593,IGWACHANYA,59318,DULAMU,LYALAMU
NJOMBE,59,"WANGING'O
MBE",593,IGWACHANYA,59318,DULAMU,MBEYA
NJOMBE,59,"WANGING'O
MBE",593,IGWACHANYA,59318,DULAMU,LIMTENI
NJOMBE,59,"WANGING'O
MBE",593,IGWACHANYA,59318,DULAMU,MJIMWEMA
NJOMBE,59,"WANGING'O
MBE",593,IGWACHANYA,59318,KANANI,LUKALA
NJOMBE,59,"WANGING'O
MBE",593,IGWACHANYA,59318,KANANI,MAWANDE
NJOMBE,59,"WANGING'O
MBE",593,IGWACHANYA,59318,KANANI,MAGADZU
NJOMBE,59,"WANGING'O
MBE",593,IGWACHANYA,59318,KANANI,KITOVUNI
NJOMBE,59,"WANGING'O
MBE",593,IGWACHANYA,59318,KANANI,LUSAKA
NJOMBE,59,"WANGING'O
MBE",593,IGWACHANYA,59318,PALANGAWANU,IKINGULA
NJOMBE,59,"WANGING'O
MBE",593,IGWACHANYA,59318,PALANGAWANU,MKANIVENGA
NJOMBE,59,"WANGING'O
MBE",593,IGWACHANYA,59318,PALANGAWANU,IHEGE
NJOMBE,59,"WANGING'O
MBE",593,IGWACHANYA,59318,PALANGAWANU,LUKEHEYA
NJOMBE,59,"WANGING'O
MBE",593,IGWACHANYA,59318,PALANGAWANU,MGEDULE
NJOMBE,59,"WANGING'O
MBE",593,IGWACHANYA,59318,MTAPA,MTAPA KATI
NJOMBE,59,"WANGING'O
MBE",593,IGWACHANYA,59318,MTAPA,SWELA
NJOMBE,59,"WANGING'O
MBE",593,IGWACHANYA,59318,MTAPA,MAGUNGA
NJOMBE,59,"WANGING'O
MBE",593,IGWACHANYA,59318,MTAPA,MWAKISI
NJOMBE,59,"WANGING'O
MBE",593,IGWACHANYA,59318,MTAPA,YERIKO
NJOMBE,59,"WANGING'O
MBE",593,UHENGA,59319,IKULIMAMBO,MAYAVILE
NJOMBE,59,"WANGING'O
MBE",593,UHENGA,59319,IKULIMAMBO,MBUGI
NJOMBE,59,"WANGING'O
MBE",593,UHENGA,59319,IKULIMAMBO,MLANGALI
NJOMBE,59,"WANGING'O
MBE",593,UHENGA,59319,IKULIMAMBO,MUNYANG'OZI
NJOMBE,59,"WANGING'O
MBE",593,UHENGA,59319,IKULIMAMBO,IGOMELO
NJOMBE,59,"WANGING'O
MBE",593,UHENGA,59319,ITENGELO,IPONDA
NJOMBE,59,"WANGING'O
MBE",593,UHENGA,59319,ITENGELO,UTIPULE
NJOMBE,59,"WANGING'O
MBE",593,UHENGA,59319,ITENGELO,ITENGELO KATI
NJOMBE,59,"WANGING'O
MBE",593,UHENGA,59319,ITENGELO,CHANG'ENG'ENE
NJOMBE,59,"WANGING'O
MBE",593,UHENGA,59319,ITENGELO,MAJENGO
NJOMBE,59,"WANGING'O
MBE",593,UHENGA,59319,UHENGA,MPURURU
NJOMBE,59,"WANGING'O
MBE",593,UHENGA,59319,UHENGA,ULAPILWA
NJOMBE,59,"WANGING'O
MBE",593,UHENGA,59319,UHENGA,KITELEVADZI
NJOMBE,59,"WANGING'O
MBE",593,UHENGA,59319,UHENGA,KARIAKOO
NJOMBE,59,"WANGING'O
MBE",593,UHENGA,59319,MAPOGORO,MLINGO
NJOMBE,59,"WANGING'O
MBE",593,UHENGA,59319,MAPOGORO,MWANG’ANDE
NJOMBE,59,"WANGING'O
MBE",593,UHENGA,59319,MAPOGORO,KAZAMOYO
NJOMBE,59,"WANGING'O
MBE",593,UHENGA,59319,MAPOGORO,MAPOGORO
NJOMBE,59,"WANGING'O
MBE",593,UDONJA,59320,UDONJA,MUUNGANO
NJOMBE,59,"WANGING'O
MBE",593,UDONJA,59320,UDONJA,MSHIKAMANO
NJOMBE,59,"WANGING'O
MBE",593,UDONJA,59320,UDONJA,UDONJA
NJOMBE,59,"WANGING'O
MBE",593,UDONJA,59320,UDONJA,MGACHU
NJOMBE,59,"WANGING'O
MBE",593,UDONJA,59320,UDONJA,TANU
NJOMBE,59,"WANGING'O
MBE",593,UDONJA,59320,UJANGE,KITEDE
NJOMBE,59,"WANGING'O
MBE",593,UDONJA,59320,UJANGE,UJANGE KATI
NJOMBE,59,"WANGING'O
MBE",593,UDONJA,59320,UJANGE,MILIMANI
NJOMBE,59,"WANGING'O
MBE",593,UDONJA,59320,UJANGE,MTAMBA
NJOMBE,59,"WANGING'O
MBE",593,UDONJA,59320,UJANGE,UJANGE
NJOMBE,59,"WANGING'O
MBE",593,UDONJA,59320,KASAGALA,MAJENGO
NJOMBE,59,"WANGING'O
MBE",593,UDONJA,59320,KASAGALA,MLANGALI
NJOMBE,59,"WANGING'O
MBE",593,UDONJA,59320,KASAGALA,CHANDAVALA
NJOMBE,59,"WANGING'O
MBE",593,UDONJA,59320,KASAGALA,KASAGALA KATI
NJOMBE,59,"WANGING'O
MBE",593,UDONJA,59320,KASAGALA,UHWANGA
NJOMBE,59,"WANGING'O
MBE",593,UDONJA,59320,BANAWANU,BANAWANU
NJOMBE,59,"WANGING'O
MBE",593,UDONJA,59320,BANAWANU,MJIMWEMA
NJOMBE,59,"WANGING'O
MBE",593,UDONJA,59320,BANAWANU,TALIBATU
NJOMBE,59,"WANGING'O
MBE",593,UDONJA,59320,BANAWANU,NYAMAGELA
NJOMBE,59,"WANGING'O
MBE",593,UDONJA,59320,MPULULU,MLANGALI
NJOMBE,59,"WANGING'O
MBE",593,UDONJA,59320,MPULULU,MJIMWEMA
NJOMBE,59,"WANGING'O
MBE",593,UDONJA,59320,MPULULU,KANAMALENGA
NJOMBE,59,"WANGING'O
MBE",593,UDONJA,59320,MPULULU,MPULULU KATI
NJOMBE,59,"WANGING'O
MBE",593,UDONJA,59320,MPULULU,MLOMBOJI
NJOMBE,59,"WANGING'O
MBE",593,UDONJA,59320,MPULULU,IGAILO
NJOMBE,59,"WANGING'O
MBE",593,MALANGALI,59321,MPANGA,IGALATILO
NJOMBE,59,"WANGING'O
MBE",593,MALANGALI,59321,MPANGA,MSAMALA
NJOMBE,59,"WANGING'O
MBE",593,MALANGALI,59321,MPANGA,MPANGA KATI
NJOMBE,59,"WANGING'O
MBE",593,MALANGALI,59321,MPANGA,BALALI
NJOMBE,59,"WANGING'O
MBE",593,MALANGALI,59321,MPANGA,DARAJANI
NJOMBE,59,"WANGING'O
MBE",593,MALANGALI,59321,MPANGA,MSUFINI
NJOMBE,59,"WANGING'O
MBE",593,MALANGALI,59321,MALANGALI,UHUNGUJA
NJOMBE,59,"WANGING'O
MBE",593,MALANGALI,59321,MALANGALI,IBAMANZI
NJOMBE,59,"WANGING'O
MBE",593,MALANGALI,59321,MALANGALI,MALANGALI KATI
NJOMBE,59,"WANGING'O
MBE",593,MALANGALI,59321,MALANGALI,ITAMBA
NJOMBE,59,"WANGING'O
MBE",593,MALANGALI,59321,MALANGALI,WELELA
NJOMBE,59,"WANGING'O
MBE",593,MALANGALI,59321,WANGAMIKO,SOLIWAYA
NJOMBE,59,"WANGING'O
MBE",593,MALANGALI,59321,WANGAMIKO,CHAMJOMBE
NJOMBE,59,"WANGING'O
MBE",593,MALANGALI,59321,WANGAMIKO,NYANJA
NJOMBE,59,"WANGING'O
MBE",593,MALANGALI,59321,WANGAMIKO,WANGAMIKO KATI
NJOMBE,59,LUDEWA,594,LUDEWA,59401,LUDEWA MJINI,KANISA A
NJOMBE,59,LUDEWA,594,LUDEWA,59401,LUDEWA MJINI,KANISA B
NJOMBE,59,LUDEWA,594,LUDEWA,59401,LUDEWA MJINI,MKONDACHI
NJOMBE,59,LUDEWA,594,LUDEWA,59401,LUDEWA MJINI,MAGOMAMOTO
NJOMBE,59,LUDEWA,594,LUDEWA,59401,LUDEWA MJINI,KIMBILA
NJOMBE,59,LUDEWA,594,LUDEWA,59401,LUDEWA MJINI,IBANI
NJOMBE,59,LUDEWA,594,LUDEWA,59401,LUDEWA MJINI,KILIMAHEWA
NJOMBE,59,LUDEWA,594,LUDEWA,59401,LUDEWA MJINI,MDAMBANYAFU
NJOMBE,59,LUDEWA,594,LUDEWA,59401,LUDEWA MJINI,MAJENGO
NJOMBE,59,LUDEWA,594,LUDEWA,59401,LUDEWA MJINI,NYAMAPINDA
NJOMBE,59,LUDEWA,594,LUDEWA,59401,LUDEWA MJINI,KIYOMBO
NJOMBE,59,LUDEWA,594,LUDEWA,59401,LUDEWA KIJIJINI,MATALAWE
NJOMBE,59,LUDEWA,594,LUDEWA,59401,LUDEWA KIJIJINI,NGONGANO
NJOMBE,59,LUDEWA,594,LUDEWA,59401,LUDEWA KIJIJINI,LIKELULILO
NJOMBE,59,LUDEWA,594,LUDEWA,59401,LUDEWA KIJIJINI,NGALAWALE
NJOMBE,59,LUDEWA,594,LUDEWA,59401,LUDEWA KIJIJINI,NDONGOME
NJOMBE,59,LUDEWA,594,LUDEWA,59401,LUDEWA KIJIJINI,MAKORONGONI
NJOMBE,59,LUDEWA,594,LUDEWA,59401,LUDEWA KIJIJINI,NKONDACHI
NJOMBE,59,LUDEWA,594,LUANA,59402,LUANA,MGOWELO
NJOMBE,59,LUDEWA,594,LUANA,59402,LUANA,MKWEKIDOTO
NJOMBE,59,LUDEWA,594,LUANA,59402,LUANA,MALATU
NJOMBE,59,LUDEWA,594,LUANA,59402,LUANA,ULONGE
NJOMBE,59,LUDEWA,594,LUANA,59402,LUANA,ITUNI
NJOMBE,59,LUDEWA,594,LUANA,59402,LUANA,MAJENGO
NJOMBE,59,LUDEWA,594,LUANA,59402,MBWILA,MBWILA KATI
NJOMBE,59,LUDEWA,594,LUANA,59402,MBWILA,NG'ANGALILA
NJOMBE,59,LUDEWA,594,LUANA,59402,MBWILA,MGUGUCHI
NJOMBE,59,LUDEWA,594,LUANA,59402,MBWILA,MAGOMENI
NJOMBE,59,LUDEWA,594,LUANA,59402,MBWILA,MASAULA
NJOMBE,59,LUDEWA,594,LUANA,59402,MBWILA,LUSASA
NJOMBE,59,LUDEWA,594,LUANA,59402,MHOLO,SANJIMWANA
NJOMBE,59,LUDEWA,594,LUANA,59402,MHOLO,MLWILO
NJOMBE,59,LUDEWA,594,LUANA,59402,MHOLO,MHOLO MJINI
NJOMBE,59,LUDEWA,594,MAWENGI,59403,MAWENGI,MAWENGI
NJOMBE,59,LUDEWA,594,MAWENGI,59403,MAWENGI,LUTANANA
NJOMBE,59,LUDEWA,594,MAWENGI,59403,MAWENGI,KIWANJA
NJOMBE,59,LUDEWA,594,MAWENGI,59403,MAWENGI,MKIMBO
NJOMBE,59,LUDEWA,594,MAWENGI,59403,MAWENGI,MATEKELEO
NJOMBE,59,LUDEWA,594,MAWENGI,59403,MAWENGI,SAMBALA
NJOMBE,59,LUDEWA,594,MAWENGI,59403,MAWENGI,NG'ENGEJA
NJOMBE,59,LUDEWA,594,MAWENGI,59403,MAWENGI,NEWELE
NJOMBE,59,LUDEWA,594,MAWENGI,59403,MAWENGI,IKULU
NJOMBE,59,LUDEWA,594,MAWENGI,59403,MAWENGI,MHEZA
NJOMBE,59,LUDEWA,594,MAWENGI,59403,MAWENGI,MANYANYA
NJOMBE,59,LUDEWA,594,MAWENGI,59403,MADUNDA,KISAUNI
NJOMBE,59,LUDEWA,594,MAWENGI,59403,MADUNDA,MTEWELE
NJOMBE,59,LUDEWA,594,MAWENGI,59403,MADUNDA,UNENA
NJOMBE,59,LUDEWA,594,MAWENGI,59403,MADUNDA,MOROGORO
NJOMBE,59,LUDEWA,594,MAWENGI,59403,KIWE,KISUTI
NJOMBE,59,LUDEWA,594,MAWENGI,59403,KIWE,WECHA
NJOMBE,59,LUDEWA,594,MAWENGI,59403,KIWE,MPUNGU
NJOMBE,59,LUDEWA,594,MAWENGI,59403,KIWE,LUMBILA
NJOMBE,59,LUDEWA,594,MAWENGI,59403,LUPANDE,LUSAPO
NJOMBE,59,LUDEWA,594,MAWENGI,59403,LUPANDE,IYUNGUYA
NJOMBE,59,LUDEWA,594,MAWENGI,59403,LUPANDE,MAHANJA
NJOMBE,59,LUDEWA,594,MAWENGI,59403,LUPANDE,VIGANGA
NJOMBE,59,LUDEWA,594,MAWENGI,59403,LUPANDE,LUPANDE KATI
NJOMBE,59,LUDEWA,594,MAWENGI,59403,LUPANDE,ITACHI
NJOMBE,59,LUDEWA,594,MAWENGI,59403,LUPANDE,MATANDALA
NJOMBE,59,LUDEWA,594,MAWENGI,59403,KITEWELE,MAPELELE
NJOMBE,59,LUDEWA,594,MAWENGI,59403,KITEWELE,LUTIKA
NJOMBE,59,LUDEWA,594,MAWENGI,59403,KITEWELE,MDONGA
NJOMBE,59,LUDEWA,594,MAKONDE,59404,MAKONDE,MAKONDE
NJOMBE,59,LUDEWA,594,MAKONDE,59404,MAKONDE,NDAMBA
NJOMBE,59,LUDEWA,594,MAKONDE,59404,MAKONDE,LUSOTA
NJOMBE,59,LUDEWA,594,MAKONDE,59404,MAKONDE,MBWEYA
NJOMBE,59,LUDEWA,594,MAKONDE,59404,MAKONDE,LUNYANGI
NJOMBE,59,LUDEWA,594,MAKONDE,59404,NDOWA,LULANDAO
NJOMBE,59,LUDEWA,594,MAKONDE,59404,NDOWA,LUSISI
NJOMBE,59,LUDEWA,594,MAKONDE,59404,NDOWA,NDOWA
NJOMBE,59,LUDEWA,594,MAKONDE,59404,NDOWA,LIUNJI
NJOMBE,59,LUDEWA,594,MAKONDE,59404,NDOWA,MWELISYE
NJOMBE,59,LUDEWA,594,MAKONDE,59404,NDOWA,LUKUU
NJOMBE,59,LUDEWA,594,MAKONDE,59404,NDOWA,MPUNDA
NJOMBE,59,LUDEWA,594,MAKONDE,59404,KIMATA,NTULIKI
NJOMBE,59,LUDEWA,594,MAKONDE,59404,KIMATA,LIKWAKWA
NJOMBE,59,LUDEWA,594,MAKONDE,59404,KIMATA,KIMATA KATI
NJOMBE,59,LUDEWA,594,MAKONDE,59404,KIMATA,MPUNDA
NJOMBE,59,LUDEWA,594,MAKONDE,59404,LUVUYO,UHUNJI
NJOMBE,59,LUDEWA,594,MAKONDE,59404,LUVUYO,MALANGANGA
NJOMBE,59,LUDEWA,594,MAKONDE,59404,LUVUYO,MJIMWEMA
NJOMBE,59,LUDEWA,594,MAKONDE,59404,LUVUYO,MKING'INO
NJOMBE,59,LUDEWA,594,LUPINGU,59405,LUPINGU,ISANGA
NJOMBE,59,LUDEWA,594,LUPINGU,59405,LUPINGU,LUKUYUSI
NJOMBE,59,LUDEWA,594,LUPINGU,59405,LUPINGU,LUPINGU
NJOMBE,59,LUDEWA,594,LUPINGU,59405,NINDI,IPOMBO
NJOMBE,59,LUDEWA,594,LUPINGU,59405,NINDI,NINDI KATI
NJOMBE,59,LUDEWA,594,LUPINGU,59405,NINDI,NINDI JUU
NJOMBE,59,LUDEWA,594,LUPINGU,59405,NINDI,NJELELA
NJOMBE,59,LUDEWA,594,LUPINGU,59405,NTUMBATI,KISEKE
NJOMBE,59,LUDEWA,594,LUPINGU,59405,NTUMBATI,LIWILI
NJOMBE,59,LUDEWA,594,LUPINGU,59405,NTUMBATI,IKANDU
NJOMBE,59,LUDEWA,594,LUPINGU,59405,NTUMBATI,ILOMBE
NJOMBE,59,LUDEWA,594,LUPINGU,59405,NKWIMBILI,YIGHA
NJOMBE,59,LUDEWA,594,LUPINGU,59405,NKWIMBILI,IRINGA
NJOMBE,59,LUDEWA,594,LUPINGU,59405,NKWIMBILI,MOROGORO
NJOMBE,59,LUDEWA,594,LUPINGU,59405,NKWIMBILI,KILAMBO
NJOMBE,59,LUDEWA,594,LUMBILA,59406,LUMBILA,MABATINI
NJOMBE,59,LUDEWA,594,LUMBILA,59406,LUMBILA,MAKELA
NJOMBE,59,LUDEWA,594,LUMBILA,59406,LUMBILA,KINA
NJOMBE,59,LUDEWA,594,LUMBILA,59406,CHANJALE,CHANJALE
NJOMBE,59,LUDEWA,594,LUMBILA,59406,CHANJALE,ISANGA
NJOMBE,59,LUDEWA,594,LUMBILA,59406,CHANJALE,KAPUNGU
NJOMBE,59,LUDEWA,594,LUMBILA,59406,CHANJALE,MBIMBI
NJOMBE,59,LUDEWA,594,LUMBILA,59406,NKANDA,ITULI
NJOMBE,59,LUDEWA,594,LUMBILA,59406,NKANDA,NKANDA
NJOMBE,59,LUDEWA,594,LUMBILA,59406,NKANDA,KILANDALA
NJOMBE,59,LUDEWA,594,KILONDO,59407,KILONDO,KILONDO
NJOMBE,59,LUDEWA,594,KILONDO,59407,KILONDO,MBULA
NJOMBE,59,LUDEWA,594,KILONDO,59407,KILONDO,UGINDU
NJOMBE,59,LUDEWA,594,KILONDO,59407,KILONDO,IFUNGU
NJOMBE,59,LUDEWA,594,KILONDO,59407,NSELE,IPENJA
NJOMBE,59,LUDEWA,594,KILONDO,59407,NSELE,NSELE
NJOMBE,59,LUDEWA,594,KILONDO,59407,NSELE,SANGE
NJOMBE,59,LUDEWA,594,KILONDO,59407,NSELE,WOYO
NJOMBE,59,LUDEWA,594,LIFUMA,59408,NSISI,NTALAWANDA
NJOMBE,59,LUDEWA,594,LIFUMA,59408,NSISI,NSISI
NJOMBE,59,LUDEWA,594,LIFUMA,59408,NSISI,KINYWESI
NJOMBE,59,LUDEWA,594,LIFUMA,59408,LIFUMA,LWAMBO
NJOMBE,59,LUDEWA,594,LIFUMA,59408,LIFUMA,KILINDI
NJOMBE,59,LUDEWA,594,LIFUMA,59408,LIFUMA,LIFUMA
NJOMBE,59,LUDEWA,594,LIFUMA,59408,LIFUMA,NTUNGU
NJOMBE,59,LUDEWA,594,LIFUMA,59408,LIFUMA,KIWIGILI
NJOMBE,59,LUDEWA,594,LUDENDE,59409,LUDENDE,LUDENDE A
NJOMBE,59,LUDEWA,594,LUDENDE,59409,LUDENDE,LUDENDE B
NJOMBE,59,LUDEWA,594,LUDENDE,59409,LUDENDE,MASITA
NJOMBE,59,LUDEWA,594,LUDENDE,59409,LUDENDE,MSEKE
NJOMBE,59,LUDEWA,594,LUDENDE,59409,LUDENDE,MPUMBWI
NJOMBE,59,LUDEWA,594,LUDENDE,59409,MAHOLONG'WA,MAHOLONG'WA
NJOMBE,59,LUDEWA,594,LUDENDE,59409,MAHOLONG'WA,MABOGA
NJOMBE,59,LUDEWA,594,LUDENDE,59409,MAHOLONG'WA,KIHENYENA
NJOMBE,59,LUDEWA,594,LUDENDE,59409,MAHOLONG'WA,MAKASI
NJOMBE,59,LUDEWA,594,LUDENDE,59409,MAHOLONG'WA,NDILIMA
NJOMBE,59,LUDEWA,594,LUDENDE,59409,MADINDO,MLANJE
NJOMBE,59,LUDEWA,594,LUDENDE,59409,MADINDO,MADINDO
NJOMBE,59,LUDEWA,594,LUDENDE,59409,MADINDO,NG'OCHI
NJOMBE,59,LUDEWA,594,LUDENDE,59409,MADINDO,MLULU
NJOMBE,59,LUDEWA,594,LUDENDE,59409,MADINDO,LUSHOTO
NJOMBE,59,LUDEWA,594,MILO,59410,MILO,MABANDE
NJOMBE,59,LUDEWA,594,MILO,59410,MILO,MSIKITINI
NJOMBE,59,LUDEWA,594,MILO,59410,MILO,IGOSI
NJOMBE,59,LUDEWA,594,MILO,59410,MAVALA,MAVALA KATI
NJOMBE,59,LUDEWA,594,MILO,59410,MAVALA,ILALA
NJOMBE,59,LUDEWA,594,MILO,59410,MAVALA,LWEPELE
NJOMBE,59,LUDEWA,594,MILO,59410,MAVALA,LUVUNGO
NJOMBE,59,LUDEWA,594,MILO,59410,MAPOGORO,SHANG'UMBA
NJOMBE,59,LUDEWA,594,MILO,59410,MAPOGORO,CHANGARAWE
NJOMBE,59,LUDEWA,594,MILO,59410,MAPOGORO,MAHANJE
NJOMBE,59,LUDEWA,594,MILO,59410,MAPOGORO,MPOCHO
NJOMBE,59,LUDEWA,594,MILO,59410,MAPOGORO,MAFIGA
NJOMBE,59,LUDEWA,594,MILO,59410,MAPOGORO,MASHARIKI
NJOMBE,59,LUDEWA,594,MILO,59410,MAPOGORO,ISAULA
NJOMBE,59,LUDEWA,594,MILO,59410,MAPOGORO,IKALO
NJOMBE,59,LUDEWA,594,MLANGALI,59411,ITUNDU,LIWIGI
NJOMBE,59,LUDEWA,594,MLANGALI,59411,ITUNDU,UBELA
NJOMBE,59,LUDEWA,594,MLANGALI,59411,ITUNDU,MJINI
NJOMBE,59,LUDEWA,594,MLANGALI,59411,ITUNDU,MALAPULA
NJOMBE,59,LUDEWA,594,MLANGALI,59411,ITUNDU,KIDINGILI
NJOMBE,59,LUDEWA,594,MLANGALI,59411,MLANGALI,MLANGALI NDANI
NJOMBE,59,LUDEWA,594,MLANGALI,59411,MLANGALI,ULAYASI
NJOMBE,59,LUDEWA,594,MLANGALI,59411,MLANGALI,MADINDU
NJOMBE,59,LUDEWA,594,MLANGALI,59411,MLANGALI,NG'ALIKE
NJOMBE,59,LUDEWA,594,MLANGALI,59411,LIGUMBIRO,UDUTI
NJOMBE,59,LUDEWA,594,MLANGALI,59411,LIGUMBIRO,LIGUMBIRO
NJOMBE,59,LUDEWA,594,MLANGALI,59411,LIGUMBIRO,MAKIMBA
NJOMBE,59,LUDEWA,594,MLANGALI,59411,LIGUMBIRO,MASAULA
NJOMBE,59,LUDEWA,594,MLANGALI,59411,LIGUMBIRO,VIGANGA
NJOMBE,59,LUDEWA,594,MLANGALI,59411,LUFUMBU,MDETE
NJOMBE,59,LUDEWA,594,MLANGALI,59411,LUFUMBU,MADUKU
NJOMBE,59,LUDEWA,594,MLANGALI,59411,LUFUMBU,IHONJOGORO
NJOMBE,59,LUDEWA,594,MLANGALI,59411,LUFUMBU,MAGANGA
NJOMBE,59,LUDEWA,594,MLANGALI,59411,LUFUMBU,ITIWILI
NJOMBE,59,LUDEWA,594,MLANGALI,59411,LUFUMBU,ITOKI
NJOMBE,59,LUDEWA,594,LUPANGA,59412,LUPANGA,LUPANGA A
NJOMBE,59,LUDEWA,594,LUPANGA,59412,LUPANGA,LUPANGA B
NJOMBE,59,LUDEWA,594,LUPANGA,59412,LUPANGA,KINYIKA
NJOMBE,59,LUDEWA,594,LUPANGA,59412,LUPANGA,MAYOKOLA
NJOMBE,59,LUDEWA,594,LUPANGA,59412,LUPANGA,MAPYUFYA
NJOMBE,59,LUDEWA,594,LUPANGA,59412,LUPANGA,MCHALAWA
NJOMBE,59,LUDEWA,594,LUPANGA,59412,LUSALA,KIJIWENI
NJOMBE,59,LUDEWA,594,LUPANGA,59412,LUSALA,MOROGORO
NJOMBE,59,LUDEWA,594,LUPANGA,59412,LUSALA,KIVUKONI
NJOMBE,59,LUDEWA,594,LUPANGA,59412,LUSALA,IDETE
NJOMBE,59,LUDEWA,594,LUPANGA,59412,LUSALA,LUFUMBU
NJOMBE,59,LUDEWA,594,LUPANGA,59412,LUSALA,IKULUNGILO
NJOMBE,59,LUDEWA,594,LUPANGA,59412,UTILILI,MLUMBLU
NJOMBE,59,LUDEWA,594,LUPANGA,59412,UTILILI,JANZIKONA
NJOMBE,59,LUDEWA,594,LUPANGA,59412,UTILILI,MJANGE
NJOMBE,59,LUDEWA,594,LUPANGA,59412,UTILILI,MAHANJE
NJOMBE,59,LUDEWA,594,MADOPE,59413,MADOPE,KIDIWIKE
NJOMBE,59,LUDEWA,594,MADOPE,59413,MADOPE,NJIAPANDA
NJOMBE,59,LUDEWA,594,MADOPE,59413,MADOPE,MLINGANO
NJOMBE,59,LUDEWA,594,MADOPE,59413,MADOPE,MBUGANI
NJOMBE,59,LUDEWA,594,MADOPE,59413,MANGALANYENE,LIGOMELO
NJOMBE,59,LUDEWA,594,MADOPE,59413,MANGALANYENE,MDANDAMO
NJOMBE,59,LUDEWA,594,MADOPE,59413,MANGALANYENE,BATINI
NJOMBE,59,LUDEWA,594,MADOPE,59413,MANGALANYENE,LIGELANGO
NJOMBE,59,LUDEWA,594,MADILU,59414,MADILU,MADILU
NJOMBE,59,LUDEWA,594,MADILU,59414,MADILU,MANZESE
NJOMBE,59,LUDEWA,594,MADILU,59414,MADILU,TEMEKE
NJOMBE,59,LUDEWA,594,MADILU,59414,MADILU,LIFUNGULU
NJOMBE,59,LUDEWA,594,MADILU,59414,MADILU,MATUNDU
NJOMBE,59,LUDEWA,594,MADILU,59414,MANGA,ILALA
NJOMBE,59,LUDEWA,594,MADILU,59414,MANGA,MANGA JUU
NJOMBE,59,LUDEWA,594,MADILU,59414,MANGA,ULYALYA
NJOMBE,59,LUDEWA,594,MADILU,59414,MANGA,LUBINDI
NJOMBE,59,LUDEWA,594,MADILU,59414,MFALASI,MFALASI
NJOMBE,59,LUDEWA,594,MADILU,59414,MFALASI,MPOCHO
NJOMBE,59,LUDEWA,594,MADILU,59414,MFALASI,MDETELE
NJOMBE,59,LUDEWA,594,MADILU,59414,ILAWA,ILALA
NJOMBE,59,LUDEWA,594,MADILU,59414,ILAWA,NJOMLOLE
NJOMBE,59,LUDEWA,594,MADILU,59414,ILAWA,MJI MWEMA
NJOMBE,59,LUDEWA,594,MADILU,59414,ILININDA,ILININDA MJINI
NJOMBE,59,LUDEWA,594,MADILU,59414,ILININDA,MANGE
NJOMBE,59,LUDEWA,594,MADILU,59414,ILININDA,MJIMWEMA
NJOMBE,59,LUDEWA,594,MADILU,59414,ILININDA,NJODEKO
NJOMBE,59,LUDEWA,594,MADILU,59414,ILININDA,TEMEKE
NJOMBE,59,LUDEWA,594,MUNDINDI,59415,MUNDINDI,MYOLUA
NJOMBE,59,LUDEWA,594,MUNDINDI,59415,MUNDINDI,MNYUSI A
NJOMBE,59,LUDEWA,594,MUNDINDI,59415,MUNDINDI,MNYUSI B
NJOMBE,59,LUDEWA,594,MUNDINDI,59415,MUNDINDI,ILONGI
NJOMBE,59,LUDEWA,594,MUNDINDI,59415,AMANI,LUHAHA
NJOMBE,59,LUDEWA,594,MUNDINDI,59415,AMANI,CHIMBO (DODOMA)
NJOMBE,59,LUDEWA,594,MUNDINDI,59415,AMANI,MALULUMA
NJOMBE,59,LUDEWA,594,MUNDINDI,59415,AMANI,MASILU
NJOMBE,59,LUDEWA,594,MUNDINDI,59415,AMANI,ULEMBWE
NJOMBE,59,LUDEWA,594,MUNDINDI,59415,NJELELA,MWEMBETOGWA
NJOMBE,59,LUDEWA,594,MUNDINDI,59415,NJELELA,MABATINI
NJOMBE,59,LUDEWA,594,MUNDINDI,59415,NJELELA,MBUGANI
NJOMBE,59,LUDEWA,594,MAVANGA,59416,MAVANGA,MJIMWEMA
NJOMBE,59,LUDEWA,594,MAVANGA,59416,MAVANGA,MAVANGA
NJOMBE,59,LUDEWA,594,MAVANGA,59416,MAVANGA,MFARANYAKI
NJOMBE,59,LUDEWA,594,MAVANGA,59416,MAVANGA,MANZESE
NJOMBE,59,LUDEWA,594,MAVANGA,59416,MAVANGA,MGOMBEZI
NJOMBE,59,LUDEWA,594,MAVANGA,59416,MBUGANI,MBUGANI
NJOMBE,59,LUDEWA,594,MAVANGA,59416,MBUGANI,MKUSI
NJOMBE,59,LUDEWA,594,MAVANGA,59416,MBUGANI,MAPENDO
NJOMBE,59,LUDEWA,594,MAVANGA,59416,MBUGANI,USHINDI
NJOMBE,59,LUDEWA,594,MAVANGA,59416,MBUGANI,MGOMBEZI
NJOMBE,59,LUDEWA,594,MAVANGA,59416,MBUGANI,RUHUHU
NJOMBE,59,LUDEWA,594,IBUMI,59417,IBUMI,MOROGORO
NJOMBE,59,LUDEWA,594,IBUMI,59417,IBUMI,MAGOMENI
NJOMBE,59,LUDEWA,594,IBUMI,59417,IBUMI,MSUMBIJI
NJOMBE,59,LUDEWA,594,IBUMI,59417,IBUMI,NYAMALAMBA
NJOMBE,59,LUDEWA,594,IBUMI,59417,IBUMI,MKEREMA
NJOMBE,59,LUDEWA,594,IBUMI,59417,IBUMI,MPANGA
NJOMBE,59,LUDEWA,594,IBUMI,59417,MASIMAVALAFU,MASHARIKI
NJOMBE,59,LUDEWA,594,IBUMI,59417,MASIMAVALAFU,MAGHARIBI
NJOMBE,59,LUDEWA,594,LUGARAWA,59418,LUGARAWA,LUPEFU
NJOMBE,59,LUDEWA,594,LUGARAWA,59418,LUGARAWA,LUHOLOMELO
NJOMBE,59,LUDEWA,594,LUGARAWA,59418,LUGARAWA,MHAWIKE
NJOMBE,59,LUDEWA,594,LUGARAWA,59418,LUGARAWA,UKINDO
NJOMBE,59,LUDEWA,594,LUGARAWA,59418,LUGARAWA,LWAFYO JUU
NJOMBE,59,LUDEWA,594,LUGARAWA,59418,LUGARAWA,LWAFYO CHINI
NJOMBE,59,LUDEWA,594,LUGARAWA,59418,LUGARAWA,MSANYO
NJOMBE,59,LUDEWA,594,LUGARAWA,59418,SHAURIMOYO,AMKATWENDE
NJOMBE,59,LUDEWA,594,LUGARAWA,59418,SHAURIMOYO,SONGAMBELE
NJOMBE,59,LUDEWA,594,LUGARAWA,59418,SHAURIMOYO,MJIMWEMA
NJOMBE,59,LUDEWA,594,LUGARAWA,59418,SHAURIMOYO,MYOMBO
NJOMBE,59,LUDEWA,594,LUGARAWA,59418,SHAURIMOYO,MWENDAPOLE
NJOMBE,59,LUDEWA,594,LUGARAWA,59418,MDILIDILI,MATIKA
NJOMBE,59,LUDEWA,594,LUGARAWA,59418,MDILIDILI,LUSAPO
NJOMBE,59,LUDEWA,594,LUGARAWA,59418,MDILIDILI,LUSHOTO
NJOMBE,59,LUDEWA,594,LUGARAWA,59418,MDILIDILI,MAVULA
NJOMBE,59,LUDEWA,594,MKONGOBAKI,59419,LIPANGALA,MNOGE
NJOMBE,59,LUDEWA,594,MKONGOBAKI,59419,LIPANGALA,LUPEPO
NJOMBE,59,LUDEWA,594,MKONGOBAKI,59419,LIPANGALA,MHUMBI
NJOMBE,59,LUDEWA,594,MKONGOBAKI,59419,LIPANGALA,KIDINGILI
NJOMBE,59,LUDEWA,594,MKONGOBAKI,59419,MKONGOBAKI,USHIRIKIANO
NJOMBE,59,LUDEWA,594,MKONGOBAKI,59419,MKONGOBAKI,MPOCHI
NJOMBE,59,LUDEWA,594,MKONGOBAKI,59419,MKONGOBAKI,MWANGAZA
NJOMBE,59,LUDEWA,594,MKONGOBAKI,59419,MKONGOBAKI,MALAGANGA
NJOMBE,59,LUDEWA,594,MKONGOBAKI,59419,MKONGOBAKI,LUWANDE
NJOMBE,59,LUDEWA,594,MKONGOBAKI,59419,UGERA,KIGINA
NJOMBE,59,LUDEWA,594,MKONGOBAKI,59419,UGERA,USHIRIKIANO
NJOMBE,59,LUDEWA,594,MKONGOBAKI,59419,UGERA,MLANGALI NDANI
NJOMBE,59,LUDEWA,594,NKOMANG'OMBE,59420,NKOMANG'OMBE,NKOMANG'OMBE
NJOMBE,59,LUDEWA,594,NKOMANG'OMBE,59420,NKOMANG'OMBE,NTIULE
NJOMBE,59,LUDEWA,594,NKOMANG'OMBE,59420,NKOMANG'OMBE,IDUSI
NJOMBE,59,LUDEWA,594,NKOMANG'OMBE,59420,NKOMANG'OMBE,NYAMALAPI
NJOMBE,59,LUDEWA,594,NKOMANG'OMBE,59420,NKOMANG'OMBE,MHUMBI
NJOMBE,59,LUDEWA,594,NKOMANG'OMBE,59420,NKOMANG'OMBE,MHAMBALASI A
NJOMBE,59,LUDEWA,594,NKOMANG'OMBE,59420,NKOMANG'OMBE,MHAMBALASI B
NJOMBE,59,LUDEWA,594,NKOMANG'OMBE,59420,KIMELEMBE,KIMELEMBE KATI
NJOMBE,59,LUDEWA,594,NKOMANG'OMBE,59420,KIMELEMBE,IGUNGA
NJOMBE,59,LUDEWA,594,NKOMANG'OMBE,59420,KIMELEMBE,NDILIMA
NJOMBE,59,LUDEWA,594,NKOMANG'OMBE,59420,KIMELEMBE,MKAVILONDO
NJOMBE,59,LUDEWA,594,NKOMANG'OMBE,59420,KIMELEMBE,MJIMWEMA
NJOMBE,59,LUDEWA,594,LUILO,59421,LUILO,LUILO ASILIA
NJOMBE,59,LUDEWA,594,LUILO,59421,LUILO,LUILO KATI
NJOMBE,59,LUDEWA,594,LUILO,59421,LUILO,MBUYUNI
NJOMBE,59,LUDEWA,594,LUILO,59421,LUILO,KIBO
NJOMBE,59,LUDEWA,594,LUILO,59421,KIPANGALA,UHANJE
NJOMBE,59,LUDEWA,594,LUILO,59421,KIPANGALA,NTUNDUWALO
NJOMBE,59,LUDEWA,594,LUILO,59421,KIPANGALA,KIPANGALA KATI
NJOMBE,59,LUDEWA,594,LUILO,59421,KIPANGALA,KIPANGALA ASILIA
NJOMBE,59,LUDEWA,594,LUILO,59421,KIPANGALA,MALAMBA
NJOMBE,59,LUDEWA,594,LUILO,59421,LIFUA,LIFUA SAFI
NJOMBE,59,LUDEWA,594,LUILO,59421,LIFUA,MAPOGORO
NJOMBE,59,LUDEWA,594,LUILO,59421,LIFUA,NKINILA
NJOMBE,59,LUDEWA,594,LUILO,59421,LIFUA,LIUMBA
NJOMBE,59,LUDEWA,594,LUILO,59421,LIUGHAI,LIUGHAI
NJOMBE,59,LUDEWA,594,LUILO,59421,LIUGHAI,NDAMBASI
NJOMBE,59,LUDEWA,594,MASASI,59422,KINGOLE,KINGOLE
NJOMBE,59,LUDEWA,594,MASASI,59422,KINGOLE,MASASI
NJOMBE,59,LUDEWA,594,MASASI,59422,KINGOLE,MAKALI
NJOMBE,59,LUDEWA,594,MASASI,59422,LIHAGULE,NKONGOLEKO
NJOMBE,59,LUDEWA,594,MASASI,59422,LIHAGULE,LIHAGULE KATI
NJOMBE,59,LUDEWA,594,MASASI,59422,LIHAGULE,NDENGELE
NJOMBE,59,LUDEWA,594,MASASI,59422,KIYOGO,KIYOGO CHINI
NJOMBE,59,LUDEWA,594,MASASI,59422,KIYOGO,KIYOGO ASILIA
NJOMBE,59,LUDEWA,594,MASASI,59422,KIYOGO,NDIKA
NJOMBE,59,LUDEWA,594,MANDA,59423,NSUNGU,BOMA
NJOMBE,59,LUDEWA,594,MANDA,59423,NSUNGU,NSUNGU KATI
NJOMBE,59,LUDEWA,594,MANDA,59423,NSUNGU,CHINGOLI
NJOMBE,59,LUDEWA,594,MANDA,59423,NSUNGU,SAGALU
NJOMBE,59,LUDEWA,594,MANDA,59423,NSUNGU,NYANYAMA
NJOMBE,59,LUDEWA,594,MANDA,59423,MBONGO,MBONGO
NJOMBE,59,LUDEWA,594,MANDA,59423,MBONGO,ISETA
NJOMBE,59,LUDEWA,594,MANDA,59423,MBONGO,LUTALA
NJOMBE,59,LUDEWA,594,MANDA,59423,MBONGO,MBANDE
NJOMBE,59,LUDEWA,594,MANDA,59423,MBONGO,KISAULA
NJOMBE,59,LUDEWA,594,MANDA,59423,MBONGO,MAGINA
NJOMBE,59,LUDEWA,594,MANDA,59423,IGALU,MWILI
NJOMBE,59,LUDEWA,594,MANDA,59423,IGALU,KIPULILO
NJOMBE,59,LUDEWA,594,RUHUHU,59424,ILELA,LULIMBO
NJOMBE,59,LUDEWA,594,RUHUHU,59424,ILELA,IBUGULU
NJOMBE,59,LUDEWA,594,RUHUHU,59424,ILELA,KISONGO
NJOMBE,59,LUDEWA,594,RUHUHU,59424,KIPINGU,PANTONI
NJOMBE,59,LUDEWA,594,RUHUHU,59424,KIPINGU,NSAFIRI
NJOMBE,59,LUDEWA,594,RUHUHU,59424,KIPINGU,NDEMBE
NJOMBE,59,LUDEWA,594,RUHUHU,59424,NGELENGE,MAGULANDI
NJOMBE,59,LUDEWA,594,RUHUHU,59424,NGELENGE,KIVUKONI
NJOMBE,59,LUDEWA,594,RUHUHU,59424,NGELENGE,CCM TAWI
NJOMBE,59,LUDEWA,594,RUHUHU,59424,NGELENGE,FOKLAND
NJOMBE,59,LUDEWA,594,RUHUHU,59424,NGELENGE,SHULENI
NJOMBE,59,LUDEWA,594,IWELA,59425,IWELA,KILOMSI
NJOMBE,59,LUDEWA,594,IWELA,59425,IWELA,NDETE
NJOMBE,59,LUDEWA,594,IWELA,59425,IWELA,MAKATA
NJOMBE,59,LUDEWA,594,IWELA,59425,IWELA,NGOWALELA
NJOMBE,59,LUDEWA,594,IWELA,59425,IWELA,KISEKELA
NJOMBE,59,LUDEWA,594,LUBONDE,59426,MKIU,LUBONDE
NJOMBE,59,LUDEWA,594,LUBONDE,59426,MKIU,MKIU
NJOMBE,59,LUDEWA,594,LUBONDE,59426,MKIU,MAGASIVALALE
NJOMBE,59,LUDEWA,594,LUBONDE,59426,MKIU,CHANGARAWE
NJOMBE,59,LUDEWA,594,LUBONDE,59426,MKIU,NYAMWIHAKE
NJOMBE,59,LUDEWA,594,LUBONDE,59426,KIYOMBO,KIYOMBO
NJOMBE,59,LUDEWA,594,LUBONDE,59426,KIYOMBO,LUKUWILO
NJOMBE,59,LUDEWA,594,LUBONDE,59426,KIYOMBO,LUTEMALUCHI
NJOMBE,59,LUDEWA,594,LUBONDE,59426,MASIMBWE,MSELESELE
NJOMBE,59,LUDEWA,594,LUBONDE,59426,MASIMBWE,MASHARIKI
NJOMBE,59,LUDEWA,594,LUBONDE,59426,MASIMBWE,MATINGA
NJOMBE,59,LUDEWA,594,LUBONDE,59426,MASIMBWE,CHANGARAWE
NJOMBE,59,LUDEWA,594,LUBONDE,59426,MASIMBWE,IGELANGO
NJOMBE,59,MAKETE,595,IWAWA,59501,IWAWA,LUGELEGENZI
NJOMBE,59,MAKETE,595,IWAWA,59501,IWAWA,DUKA LA KIJIJI
NJOMBE,59,MAKETE,595,IWAWA,59501,IWAWA,MATIPO
NJOMBE,59,MAKETE,595,IWAWA,59501,IWAWA,KIVANGA
NJOMBE,59,MAKETE,595,IWAWA,59501,IWAWA,IVILIGU
NJOMBE,59,MAKETE,595,IWAWA,59501,IWAWA,MPANGALA
NJOMBE,59,MAKETE,595,IWAWA,59501,IWAWA,CHAMANI
NJOMBE,59,MAKETE,595,IWAWA,59501,IWAWA,DOMBWELA
NJOMBE,59,MAKETE,595,IWAWA,59501,IWAWA,MWONGOLO
NJOMBE,59,MAKETE,595,IWAWA,59501,IWAWA,MADANDA
NJOMBE,59,MAKETE,595,IWAWA,59501,IWAWA,ILOVOKO A
NJOMBE,59,MAKETE,595,IWAWA,59501,IWAWA,ILOVOKO B
NJOMBE,59,MAKETE,595,IWAWA,59501,IWAWA,KIKUSI
NJOMBE,59,MAKETE,595,IWAWA,59501,IWAWA,IKILIGANO
NJOMBE,59,MAKETE,595,IWAWA,59501,IWAWA,UDIDE
NJOMBE,59,MAKETE,595,IWAWA,59501,IWAWA,MATULA
NJOMBE,59,MAKETE,595,IWAWA,59501,IWAWA,NDULAMO A
NJOMBE,59,MAKETE,595,IWAWA,59501,IWAWA,NDULAMO B
NJOMBE,59,MAKETE,595,IWAWA,59501,IWAWA,KIDUGA
NJOMBE,59,MAKETE,595,IWAWA,59501,IWAWA,KILANJI A
NJOMBE,59,MAKETE,595,IWAWA,59501,IWAWA,KILANJI B
NJOMBE,59,MAKETE,595,IWAWA,59501,IWAWA,MBOZI
NJOMBE,59,MAKETE,595,IWAWA,59501,IWAWA,KWA YUTA
NJOMBE,59,MAKETE,595,IWAWA,59501,IWAWA,NGIU
NJOMBE,59,MAKETE,595,IWAWA,59501,IWAWA,USALAMA
NJOMBE,59,MAKETE,595,IWAWA,59501,IWAWA,MAJENGO
NJOMBE,59,MAKETE,595,IWAWA,59501,IWAWA,LWASANDAGA
NJOMBE,59,MAKETE,595,IWAWA,59501,IWAWA,LUTOKILE
NJOMBE,59,MAKETE,595,MANG'OTO,59502,USUNGILO,KIPAMBAWE
NJOMBE,59,MAKETE,595,MANG'OTO,59502,USUNGILO,LUTENGANO
NJOMBE,59,MAKETE,595,MANG'OTO,59502,USUNGILO,USUNGILO
NJOMBE,59,MAKETE,595,MANG'OTO,59502,USUNGILO,INTEMA
NJOMBE,59,MAKETE,595,MANG'OTO,59502,USUNGILO,CHANGALAWE
NJOMBE,59,MAKETE,595,MANG'OTO,59502,MAKANGALAWE,LWIMATILO
NJOMBE,59,MAKETE,595,MANG'OTO,59502,MAKANGALAWE,UTEGE
NJOMBE,59,MAKETE,595,MANG'OTO,59502,MAKANGALAWE,USILILO
NJOMBE,59,MAKETE,595,MANG'OTO,59502,MAKANGALAWE,RUDI
NJOMBE,59,MAKETE,595,MANG'OTO,59502,MAKANGALAWE,KINYAMWELELO
NJOMBE,59,MAKETE,595,MANG'OTO,59502,MANG'OTO,SIVALATSE
NJOMBE,59,MAKETE,595,MANG'OTO,59502,MANG'OTO,MABANDE
NJOMBE,59,MAKETE,595,MANG'OTO,59502,MANG'OTO,KIDIHANI
NJOMBE,59,MAKETE,595,MANG'OTO,59502,MANG'OTO,HAZINA
NJOMBE,59,MAKETE,595,MANG'OTO,59502,MANG'OTO,IPULULU
NJOMBE,59,MAKETE,595,MANG'OTO,59502,MANG'OTO,UDANE
NJOMBE,59,MAKETE,595,MANG'OTO,59502,IBAGA,CHAMANI
NJOMBE,59,MAKETE,595,MANG'OTO,59502,IBAGA,NDULAMO
NJOMBE,59,MAKETE,595,MANG'OTO,59502,IBAGA,MATALAWE
NJOMBE,59,MAKETE,595,MANG'OTO,59502,IBAGA,MWALIMOGO
NJOMBE,59,MAKETE,595,MANG'OTO,59502,MALEMBULI,JASIKA
NJOMBE,59,MAKETE,595,MANG'OTO,59502,MALEMBULI,IKOVO
NJOMBE,59,MAKETE,595,MANG'OTO,59502,MALEMBULI,LUNDIPU
NJOMBE,59,MAKETE,595,MANG'OTO,59502,MALEMBULI,UGANGA
NJOMBE,59,MAKETE,595,MANG'OTO,59502,ILINDIWE,IKUNGULA
NJOMBE,59,MAKETE,595,MANG'OTO,59502,ILINDIWE,IHAGALA
NJOMBE,59,MAKETE,595,LUPALILO,59503,LUPALILO,SOKONI
NJOMBE,59,MAKETE,595,LUPALILO,59503,LUPALILO,IKILIGANO
NJOMBE,59,MAKETE,595,LUPALILO,59503,LUPALILO,KIDIMILO
NJOMBE,59,MAKETE,595,LUPALILO,59503,LUPALILO,IPENZA
NJOMBE,59,MAKETE,595,LUPALILO,59503,LUPALILO,MTAKUJA
NJOMBE,59,MAKETE,595,LUPALILO,59503,LUPALILO,LUDEWA
NJOMBE,59,MAKETE,595,LUPALILO,59503,MAGO,KISINO
NJOMBE,59,MAKETE,595,LUPALILO,59503,MAGO,MAKOVO
NJOMBE,59,MAKETE,595,LUPALILO,59503,MAGO,IDALIKILO
NJOMBE,59,MAKETE,595,LUPALILO,59503,MAGO,LUWILO
NJOMBE,59,MAKETE,595,LUPALILO,59503,MAGO,IDEGE
NJOMBE,59,MAKETE,595,LUPALILO,59503,KISINGA,MAPINDUZI
NJOMBE,59,MAKETE,595,LUPALILO,59503,KISINGA,SOKONI
NJOMBE,59,MAKETE,595,LUPALILO,59503,KISINGA,LUGONGOTI
NJOMBE,59,MAKETE,595,LUPALILO,59503,KISINGA,MALIMBA
NJOMBE,59,MAKETE,595,LUPALILO,59503,KISINGA,KYOSI
NJOMBE,59,MAKETE,595,LUPALILO,59503,ILEVELO,UKENZA
NJOMBE,59,MAKETE,595,LUPALILO,59503,ILEVELO,IPULULU
NJOMBE,59,MAKETE,595,LUPALILO,59503,ILEVELO,NYAMWIKO
NJOMBE,59,MAKETE,595,LUPALILO,59503,UGABWA,IPULULU
NJOMBE,59,MAKETE,595,LUPALILO,59503,UGABWA,UGABWA MJINI
NJOMBE,59,MAKETE,595,LUPALILO,59503,UGABWA,LUSULE
NJOMBE,59,MAKETE,595,LUPALILO,59503,UGABWA,UPINGWA
NJOMBE,59,MAKETE,595,LUPALILO,59503,UGABWA,WANYELE
NJOMBE,59,MAKETE,595,LUPALILO,59503,UGABWA,KILOVOKO
NJOMBE,59,MAKETE,595,UKWAMA,59504,UKWAMA,KIMBILI
NJOMBE,59,MAKETE,595,UKWAMA,59504,UKWAMA,NYOLOLO
NJOMBE,59,MAKETE,595,UKWAMA,59504,UKWAMA,KIKUNGA
NJOMBE,59,MAKETE,595,UKWAMA,59504,UKWAMA,IKOVO
NJOMBE,59,MAKETE,595,UKWAMA,59504,UKWAMA,LUPATE
NJOMBE,59,MAKETE,595,UKWAMA,59504,UKWAMA,IKOMBO
NJOMBE,59,MAKETE,595,UKWAMA,59504,UKWAMA,LUMULI
NJOMBE,59,MAKETE,595,UKWAMA,59504,IHANGA,LUPULE
NJOMBE,59,MAKETE,595,UKWAMA,59504,IHANGA,IHANGA MJINI
NJOMBE,59,MAKETE,595,UKWAMA,59504,IHANGA,NSASA
NJOMBE,59,MAKETE,595,UKWAMA,59504,IHANGA,IKILIGANO
NJOMBE,59,MAKETE,595,UKWAMA,59504,IHANGA,MPOCHO
NJOMBE,59,MAKETE,595,UKWAMA,59504,MASISIWE,IHOBWELA
NJOMBE,59,MAKETE,595,UKWAMA,59504,MASISIWE,MADIDIGA
NJOMBE,59,MAKETE,595,UKWAMA,59504,MASISIWE,MASISIWE
NJOMBE,59,MAKETE,595,UKWAMA,59504,MASISIWE,ILEVELO
NJOMBE,59,MAKETE,595,UKWAMA,59504,UTWEVE,MAKOVO
NJOMBE,59,MAKETE,595,UKWAMA,59504,UTWEVE,KINGOKOLA
NJOMBE,59,MAKETE,595,UKWAMA,59504,UTWEVE,IGASI
NJOMBE,59,MAKETE,595,ISAPULANO,59505,LUVULUNGE,MBETE
NJOMBE,59,MAKETE,595,ISAPULANO,59505,LUVULUNGE,LUVULUNGE
NJOMBE,59,MAKETE,595,ISAPULANO,59505,ISAPULANO,MAPOKEO
NJOMBE,59,MAKETE,595,ISAPULANO,59505,ISAPULANO,USALAMA
NJOMBE,59,MAKETE,595,ISAPULANO,59505,ISAPULANO,MANZESE
NJOMBE,59,MAKETE,595,ISAPULANO,59505,ISAPULANO,TUNDUMA
NJOMBE,59,MAKETE,595,ISAPULANO,59505,ISAPULANO,ILALA
NJOMBE,59,MAKETE,595,ISAPULANO,59505,ISAPULANO,STENDI
NJOMBE,59,MAKETE,595,ISAPULANO,59505,ISAPULANO,MTUKULA
NJOMBE,59,MAKETE,595,ISAPULANO,59505,IVILIKINGE,INOGA
NJOMBE,59,MAKETE,595,ISAPULANO,59505,IVILIKINGE,MULUBUTA
NJOMBE,59,MAKETE,595,ISAPULANO,59505,IVILIKINGE,IDABA
NJOMBE,59,MAKETE,595,TANDALA,59506,TANDALA,POSTA
NJOMBE,59,MAKETE,595,TANDALA,59506,TANDALA,KILOVOKO
NJOMBE,59,MAKETE,595,TANDALA,59506,TANDALA,UTSEWA
NJOMBE,59,MAKETE,595,TANDALA,59506,TANDALA,CHUONI
NJOMBE,59,MAKETE,595,TANDALA,59506,TANDALA,LWANGILO
NJOMBE,59,MAKETE,595,TANDALA,59506,TANDALA,SINGIDA
NJOMBE,59,MAKETE,595,TANDALA,59506,IKONDA,LUTSALA
NJOMBE,59,MAKETE,595,TANDALA,59506,IKONDA,GONGOTI
NJOMBE,59,MAKETE,595,TANDALA,59506,IKONDA,BARA
NJOMBE,59,MAKETE,595,TANDALA,59506,IKONDA,IKONDA BONDENI
NJOMBE,59,MAKETE,595,TANDALA,59506,IHELA,MAGANGA
NJOMBE,59,MAKETE,595,TANDALA,59506,IHELA,UJOVELA
NJOMBE,59,MAKETE,595,TANDALA,59506,IHELA,USIMWA
NJOMBE,59,MAKETE,595,TANDALA,59506,IHELA,NTAGALA
NJOMBE,59,MAKETE,595,TANDALA,59506,IHELA,IHELA SHULENI
NJOMBE,59,MAKETE,595,TANDALA,59506,USAGATIKWA,IPONDO
NJOMBE,59,MAKETE,595,TANDALA,59506,USAGATIKWA,KIDASI
NJOMBE,59,MAKETE,595,TANDALA,59506,USAGATIKWA,KINA
NJOMBE,59,MAKETE,595,TANDALA,59506,USAGATIKWA,KIDIMILO
NJOMBE,59,MAKETE,595,TANDALA,59506,USAGATIKWA,WAMBULIWA
NJOMBE,59,MAKETE,595,IKUWO,59507,IKUWO,IKUWO
NJOMBE,59,MAKETE,595,IKUWO,59507,IKUWO,IGHALA
NJOMBE,59,MAKETE,595,IKUWO,59507,NKONDO,NKONDO
NJOMBE,59,MAKETE,595,IKUWO,59507,NKONDO,LULONGOTI
NJOMBE,59,MAKETE,595,IKUWO,59507,NKONDO,MASESE
NJOMBE,59,MAKETE,595,IKUWO,59507,NKONDO,IPUGI
NJOMBE,59,MAKETE,595,IKUWO,59507,MATENGA,KINGULULU
NJOMBE,59,MAKETE,595,IKUWO,59507,MATENGA,CHANGONDE
NJOMBE,59,MAKETE,595,IKUWO,59507,MATENGA,LUPOMBO
NJOMBE,59,MAKETE,595,IKUWO,59507,MATENGA,ISINGA
NJOMBE,59,MAKETE,595,MFUMBI,59508,USALIMWANI,ILALAJI
NJOMBE,59,MAKETE,595,MFUMBI,59508,USALIMWANI,ITAMBA
NJOMBE,59,MAKETE,595,MFUMBI,59508,USALIMWANI,IHUMBI
NJOMBE,59,MAKETE,595,MFUMBI,59508,IKOVO,MJI MWEMA
NJOMBE,59,MAKETE,595,MFUMBI,59508,KIMANI,UBAMBA A
NJOMBE,59,MAKETE,595,MFUMBI,59508,KIMANI,UBAMBA B
NJOMBE,59,MAKETE,595,MFUMBI,59508,KIMANI,MLANGALI
NJOMBE,59,MAKETE,595,MFUMBI,59508,MFUMBI,ITENDE
NJOMBE,59,MAKETE,595,MFUMBI,59508,MFUMBI,UYASIMWA
NJOMBE,59,MAKETE,595,MFUMBI,59508,MFUMBI,LUHOVELO
NJOMBE,59,MAKETE,595,MFUMBI,59508,RUAHA,LUSEGO
NJOMBE,59,MAKETE,595,MFUMBI,59508,RUAHA,LUVALANDE
NJOMBE,59,MAKETE,595,KIGALA,59509,MLENGU,MLENGU
NJOMBE,59,MAKETE,595,KIGALA,59509,MLENGU,WANGAMIHO
NJOMBE,59,MAKETE,595,KIGALA,59509,MLENGU,MPUMBWE
NJOMBE,59,MAKETE,595,KIGALA,59509,MLENGU,MBIGILI
NJOMBE,59,MAKETE,595,KIGALA,59509,KIGALA,KIGALA JUU
NJOMBE,59,MAKETE,595,KIGALA,59509,KIGALA,KIGALA CHINI
NJOMBE,59,MAKETE,595,KIGALA,59509,KIGALA,MAHENYE
NJOMBE,59,MAKETE,595,KIGALA,59509,KIGALA,MLOVO
NJOMBE,59,MAKETE,595,KIGALA,59509,KIGALA,MASWAGU
NJOMBE,59,MAKETE,595,KIGALA,59509,KIGALA,KITWANGE
NJOMBE,59,MAKETE,595,MATAMBA,59510,MATAMBA,KUVAHA
NJOMBE,59,MAKETE,595,MATAMBA,59510,MATAMBA,MPOMPO
NJOMBE,59,MAKETE,595,MATAMBA,59510,MATAMBA,KILOVO
NJOMBE,59,MAKETE,595,MATAMBA,59510,MATAMBA,AMANI
NJOMBE,59,MAKETE,595,MATAMBA,59510,MATAMBA,STENDI
NJOMBE,59,MAKETE,595,MATAMBA,59510,MPANGALA,KITETE
NJOMBE,59,MAKETE,595,MATAMBA,59510,MPANGALA,SHULENI
NJOMBE,59,MAKETE,595,MATAMBA,59510,MPANGALA,UGALAMA
NJOMBE,59,MAKETE,595,MATAMBA,59510,MPANGALA,ITEVE
NJOMBE,59,MAKETE,595,MATAMBA,59510,MPANGALA,LUNYIKA
NJOMBE,59,MAKETE,595,MATAMBA,59510,NGOJE,UKONGOLA
NJOMBE,59,MAKETE,595,MATAMBA,59510,NGOJE,MAJENGO
NJOMBE,59,MAKETE,595,MATAMBA,59510,NGOJE,KANISANI
NJOMBE,59,MAKETE,595,MATAMBA,59510,NGOJE,KITEKELO
NJOMBE,59,MAKETE,595,MATAMBA,59510,MAHANJI,KYIMBILA
NJOMBE,59,MAKETE,595,MATAMBA,59510,MAHANJI,MLANGALI
NJOMBE,59,MAKETE,595,MATAMBA,59510,MAHANJI,NTAMBA
NJOMBE,59,MAKETE,595,KITULO,59511,UJUNI,BOMANI
NJOMBE,59,MAKETE,595,KITULO,59511,UJUNI,MANG'OTO
NJOMBE,59,MAKETE,595,KITULO,59511,UJUNI,KAWELELE
NJOMBE,59,MAKETE,595,KITULO,59511,UJUNI,IKILIGANO
NJOMBE,59,MAKETE,595,KITULO,59511,UJUNI,KILAMBO
NJOMBE,59,MAKETE,595,KITULO,59511,UJUNI,UTATUGWA
NJOMBE,59,MAKETE,595,KITULO,59511,UJUNI,KITULO FARM
NJOMBE,59,MAKETE,595,KITULO,59511,NKENJA,MPULO
NJOMBE,59,MAKETE,595,KITULO,59511,NKENJA,MSUMBIJI
NJOMBE,59,MAKETE,595,KITULO,59511,NKENJA,IGAWA
NJOMBE,59,MAKETE,595,KITULO,59511,NKENJA,USALAMA
NJOMBE,59,MAKETE,595,MLONDWE,59512,MLONDWE,KITAMBA
NJOMBE,59,MAKETE,595,MLONDWE,59512,MLONDWE,MASOLI
NJOMBE,59,MAKETE,595,MLONDWE,59512,MLONDWE,IPYAGHILA
NJOMBE,59,MAKETE,595,MLONDWE,59512,MLONDWE,MLONDWE
NJOMBE,59,MAKETE,595,MLONDWE,59512,MBELA,MBELA
NJOMBE,59,MAKETE,595,MLONDWE,59512,MBELA,BUGURUNI A
NJOMBE,59,MAKETE,595,MLONDWE,59512,MBELA,NYAMELE
NJOMBE,59,MAKETE,595,MLONDWE,59512,MBELA,RC
NJOMBE,59,MAKETE,595,MLONDWE,59512,MBELA,BUGURUNI B
NJOMBE,59,MAKETE,595,MLONDWE,59512,MBELA,IGUMBILO
NJOMBE,59,MAKETE,595,MLONDWE,59512,MBELA,MOLA
NJOMBE,59,MAKETE,595,MLONDWE,59512,MBELA,KISAULA
NJOMBE,59,MAKETE,595,MLONDWE,59512,NG'ONDE,NG'ONDE
NJOMBE,59,MAKETE,595,MLONDWE,59512,NG'ONDE,LUBITWA
NJOMBE,59,MAKETE,595,MLONDWE,59512,NG'ONDE,NTEVELE
NJOMBE,59,MAKETE,595,MLONDWE,59512,NG'ONDE,ITANI
NJOMBE,59,MAKETE,595,ITUNDU,59513,IKUNGULA,IKUNGULA
NJOMBE,59,MAKETE,595,ITUNDU,59513,IKUNGULA,ITETE
NJOMBE,59,MAKETE,595,ITUNDU,59513,IKUNGULA,ATOMIKI
NJOMBE,59,MAKETE,595,ITUNDU,59513,IKUNGULA,MASALA
NJOMBE,59,MAKETE,595,ITUNDU,59513,MAGOYE,ITAMBALILO
NJOMBE,59,MAKETE,595,ITUNDU,59513,MAGOYE,MAGOYE
NJOMBE,59,MAKETE,595,ITUNDU,59513,MAGOYE,NKWILA
NJOMBE,59,MAKETE,595,ITUNDU,59513,MAGOYE,NSENGO
NJOMBE,59,MAKETE,595,ITUNDU,59513,LUGODA,LUGODA
NJOMBE,59,MAKETE,595,ITUNDU,59513,LUGODA,IPELELE
NJOMBE,59,MAKETE,595,ITUNDU,59513,IGENGE,IGENGE
NJOMBE,59,MAKETE,595,ITUNDU,59513,IGENGE,ND'APO
NJOMBE,59,MAKETE,595,ITUNDU,59513,IGENGE,IJELA
NJOMBE,59,MAKETE,595,ITUNDU,59513,MAKUSI,MAKUSI
NJOMBE,59,MAKETE,595,ITUNDU,59513,MAKUSI,MENGELE
NJOMBE,59,MAKETE,595,ITUNDU,59513,MAKUSI,CHAMANI
NJOMBE,59,MAKETE,595,ITUNDU,59513,MAKUSI,ITUNDU
NJOMBE,59,MAKETE,595,BULONGWA,59514,BULONGWA,AMANI
NJOMBE,59,MAKETE,595,BULONGWA,59514,BULONGWA,IHOMEKE
NJOMBE,59,MAKETE,595,BULONGWA,59514,BULONGWA,LUPASO
NJOMBE,59,MAKETE,595,BULONGWA,59514,BULONGWA,KIVUMBA
NJOMBE,59,MAKETE,595,BULONGWA,59514,BULONGWA,UTEGE
NJOMBE,59,MAKETE,595,BULONGWA,59514,ILOLO,MABESENI
NJOMBE,59,MAKETE,595,BULONGWA,59514,ILOLO,SIVINDI
NJOMBE,59,MAKETE,595,BULONGWA,59514,UTANZIWA,UTANZIWA
NJOMBE,59,MAKETE,595,BULONGWA,59514,UTANZIWA,CHANGARAWE
NJOMBE,59,MAKETE,595,BULONGWA,59514,UTANZIWA,IKOVOKOVO
NJOMBE,59,MAKETE,595,BULONGWA,59514,UTANZIWA,KISIVA
NJOMBE,59,MAKETE,595,BULONGWA,59514,UTANZIWA,MASALALA
NJOMBE,59,MAKETE,595,BULONGWA,59514,IMEHE,UDAGWA
NJOMBE,59,MAKETE,595,BULONGWA,59514,IMEHE,LUPESO
NJOMBE,59,MAKETE,595,BULONGWA,59514,IMEHE,IDASI
NJOMBE,59,MAKETE,595,BULONGWA,59514,IDENDE,LUSAMBO
NJOMBE,59,MAKETE,595,BULONGWA,59514,IDENDE,MADABA
NJOMBE,59,MAKETE,595,BULONGWA,59514,IDENDE,UTAUKA
NJOMBE,59,MAKETE,595,LUWUMBU,59515,UNENAMWA,NYIUNDE
NJOMBE,59,MAKETE,595,LUWUMBU,59515,UNENAMWA,IBOMA
NJOMBE,59,MAKETE,595,LUWUMBU,59515,UNENAMWA,LUDIHANI
NJOMBE,59,MAKETE,595,LUWUMBU,59515,UNENAMWA,UNYAMBIPWA
NJOMBE,59,MAKETE,595,LUWUMBU,59515,UNENAMWA,NG'INGI
NJOMBE,59,MAKETE,595,LUWUMBU,59515,UGANGA,UHEKWA
NJOMBE,59,MAKETE,595,LUWUMBU,59515,UGANGA,KIGOME
NJOMBE,59,MAKETE,595,LUWUMBU,59515,UGANGA,IGOLWA
NJOMBE,59,MAKETE,595,LUWUMBU,59515,UGANGA,UGANGA
NJOMBE,59,MAKETE,595,LUWUMBU,59515,UGANGA,MAGUSU
NJOMBE,59,MAKETE,595,LUWUMBU,59515,LUGAO,MABADE
NJOMBE,59,MAKETE,595,LUWUMBU,59515,LUGAO,LUMINO
NJOMBE,59,MAKETE,595,LUWUMBU,59515,LUGAO,KYIVILI
NJOMBE,59,MAKETE,595,LUWUMBU,59515,LUGAO,KIHUYI
NJOMBE,59,MAKETE,595,LUWUMBU,59515,USILILO,ILEKI
NJOMBE,59,MAKETE,595,LUWUMBU,59515,USILILO,KYAMALANZI
NJOMBE,59,MAKETE,595,LUWUMBU,59515,USILILO,KIPENULA
NJOMBE,59,MAKETE,595,LUWUMBU,59515,USILILO,IJYUNGI
NJOMBE,59,MAKETE,595,LUWUMBU,59515,LUWUMBU,LINDI
NJOMBE,59,MAKETE,595,LUWUMBU,59515,LUWUMBU,MBOSA
NJOMBE,59,MAKETE,595,LUWUMBU,59515,LUWUMBU,LUSAPO
NJOMBE,59,MAKETE,595,LUWUMBU,59515,LUWUMBU,LUTUBA
NJOMBE,59,MAKETE,595,LUWUMBU,59515,LUWUMBU,LUWUMBU
NJOMBE,59,MAKETE,595,LUWUMBU,59515,LUWUMBU,MAVENGI
NJOMBE,59,MAKETE,595,KAPAGALO,59516,IYOKA,UNYASANGA
NJOMBE,59,MAKETE,595,KAPAGALO,59516,IYOKA,IGALUKI
NJOMBE,59,MAKETE,595,KAPAGALO,59516,IYOKA,MANYASI
NJOMBE,59,MAKETE,595,KAPAGALO,59516,IYOKA,ULUMBA
NJOMBE,59,MAKETE,595,KAPAGALO,59516,IYOKA,FIKOVO
NJOMBE,59,MAKETE,595,KAPAGALO,59516,IYOKA,MASAMI
NJOMBE,59,MAKETE,595,KAPAGALO,59516,MADIHANI,NDULIKO
NJOMBE,59,MAKETE,595,KAPAGALO,59516,MADIHANI,UFUVILO
NJOMBE,59,MAKETE,595,KAPAGALO,59516,MADIHANI,NDIMA
NJOMBE,59,MAKETE,595,KAPAGALO,59516,KITULA,UNYAMPAKE
NJOMBE,59,MAKETE,595,KAPAGALO,59516,KITULA,KIVULUNGE
NJOMBE,59,MAKETE,595,KAPAGALO,59516,KITULA,ILAMBA
NJOMBE,59,MAKETE,595,KAPAGALO,59516,KITULA,IDUNDA
NJOMBE,59,MAKETE,595,KAPAGALO,59516,MAHULU,IKANDO
NJOMBE,59,MAKETE,595,KAPAGALO,59516,MAHULU,KAWALE
NJOMBE,59,MAKETE,595,KAPAGALO,59516,MAHULU,KATENGA
NJOMBE,59,MAKETE,595,KAPAGALO,59516,MAHULU,MAPWELA
NJOMBE,59,MAKETE,595,KAPAGALO,59516,UNYANGALA,MAVAGA
NJOMBE,59,MAKETE,595,KAPAGALO,59516,UNYANGALA,ILEVELO
NJOMBE,59,MAKETE,595,KAPAGALO,59516,UNYANGALA,KAVULE
NJOMBE,59,MAKETE,595,KAPAGALO,59516,UNYANGALA,UHOME
NJOMBE,59,MAKETE,595,KAPAGALO,59516,KILANJI,NDEVELWA
NJOMBE,59,MAKETE,595,KAPAGALO,59516,KILANJI,IPULULU
NJOMBE,59,MAKETE,595,KAPAGALO,59516,KILANJI,UNYAMBOGELA
NJOMBE,59,MAKETE,595,KAPAGALO,59516,UTENGULE,ILAMBA
NJOMBE,59,MAKETE,595,KAPAGALO,59516,UTENGULE,LUGILIMWA
NJOMBE,59,MAKETE,595,IPEPO,59517,IPEPO,ULUWE
NJOMBE,59,MAKETE,595,IPEPO,59517,IPEPO,KINYONYU
NJOMBE,59,MAKETE,595,IPEPO,59517,IPEPO,IPEPO KATI
NJOMBE,59,MAKETE,595,IPEPO,59517,IPEPO,NTERA
NJOMBE,59,MAKETE,595,IPEPO,59517,IPEPO,MATUNDU
NJOMBE,59,MAKETE,595,IPEPO,59517,IGOLWA,SIKELEMA
NJOMBE,59,MAKETE,595,IPEPO,59517,IGOLWA,LUJUGE
NJOMBE,59,MAKETE,595,IPEPO,59517,IGOLWA,ISUGA
NJOMBE,59,MAKETE,595,IPEPO,59517,IGOLWA,LUBINDI
NJOMBE,59,MAKETE,595,IPEPO,59517,IGOLWA,MJI MWEMA
NJOMBE,59,MAKETE,595,IPEPO,59517,IGOLWA,IPULULU
NJOMBE,59,MAKETE,595,IPEPO,59517,IGOLWA,ILONGA
NJOMBE,59,MAKETE,595,IPEPO,59517,IGOLWA,MPONGOLO
NJOMBE,59,MAKETE,595,IPEPO,59517,IGOLWA,NKWENZULU
NJOMBE,59,MAKETE,595,IPEPO,59517,IGOLWA,LEGEZA
NJOMBE,59,MAKETE,595,IPEPO,59517,ILUNGU,ITUNDU
NJOMBE,59,MAKETE,595,IPEPO,59517,ILUNGU,MOTELE
NJOMBE,59,MAKETE,595,IPEPO,59517,ILUNGU,IHEKA
NJOMBE,59,MAKETE,595,IPEPO,59517,ILUNGU,UGWILO
NJOMBE,59,MAKETE,595,IPEPO,59517,ILUNGU,ILUNGU
NJOMBE,59,MAKETE,595,IPEPO,59517,ILUNGU,ULININDA
NJOMBE,59,MAKETE,595,IPEPO,59517,ILUNGU,SINGILO
NJOMBE,59,MAKETE,595,IPEPO,59517,ILUNGU,KINYAMBAGALE
NJOMBE,59,MAKETE,595,IPEPO,59517,IKETE,LUKUNGA
NJOMBE,59,MAKETE,595,IPEPO,59517,IKETE,MASASATO
NJOMBE,59,MAKETE,595,IPEPO,59517,IKETE,LUHOLYA
NJOMBE,59,MAKETE,595,IPEPO,59517,IKETE,ITAMBALASU
NJOMBE,59,MAKETE,595,IPEPO,59517,MALIWA,NG'ANG'A
NJOMBE,59,MAKETE,595,IPEPO,59517,MALIWA,MAULI
NJOMBE,59,MAKETE,595,IPEPO,59517,MALIWA,LUPUMBWE
NJOMBE,59,MAKETE,595,IPEPO,59517,MALIWA,KIPIPULE
NJOMBE,59,MAKETE,595,IPEPO,59517,MALIWA,WIKOSILE
NJOMBE,59,MAKETE,595,IPEPO,59517,MALIWA,WANASIALE
NJOMBE,59,MAKETE,595,IPEPO,59517,MALIWA,LUHULU
NJOMBE,59,MAKETE,595,IPEPO,59517,MALIWA,KITENGA
NJOMBE,59,MAKETE,595,LUPILA,59518,LUPILA,CHUNYA
NJOMBE,59,MAKETE,595,LUPILA,59518,LUPILA,KIGODA
NJOMBE,59,MAKETE,595,LUPILA,59518,LUPILA,IKOWO
NJOMBE,59,MAKETE,595,LUPILA,59518,LUPILA,MAKYALA
NJOMBE,59,MAKETE,595,LUPILA,59518,LUPILA,UPAKILWA KATI
NJOMBE,59,MAKETE,595,LUPILA,59518,LUPILA,IDANGAJA
NJOMBE,59,MAKETE,595,LUPILA,59518,LUPILA,UKWELELA
NJOMBE,59,MAKETE,595,LUPILA,59518,MALANDUKU,NGINGIDA
NJOMBE,59,MAKETE,595,LUPILA,59518,MALANDUKU,KILANGILA
NJOMBE,59,MAKETE,595,LUPILA,59518,MALANDUKU,MATUJE
NJOMBE,59,MAKETE,595,LUPILA,59518,MALANDUKU,KILANGALI
NJOMBE,59,MAKETE,595,LUPILA,59518,MALANDUKU,KIDINGULI
NJOMBE,59,MAKETE,595,LUPILA,59518,LUDILU,NJULIGE
NJOMBE,59,MAKETE,595,LUPILA,59518,LUDILU,MADEGE
NJOMBE,59,MAKETE,595,LUPILA,59518,LUDILU,ISULA
NJOMBE,59,MAKETE,595,LUPILA,59518,LUDILU,SUNJI
NJOMBE,59,MAKETE,595,LUPILA,59518,LUDILU,LUDILU
NJOMBE,59,MAKETE,595,LUPILA,59518,IGUMBILO,KISINGU
NJOMBE,59,MAKETE,595,LUPILA,59518,IGUMBILO,MKIGI
NJOMBE,59,MAKETE,595,LUPILA,59518,IGUMBILO,KISEKELEWE
NJOMBE,59,MAKETE,595,LUPILA,59518,IGUMBILO,IPULULU
NJOMBE,59,MAKETE,595,LUPILA,59518,IGUMBILO,IGUMBILO KATI
NJOMBE,59,MAKETE,595,LUPILA,59518,UKANGE,NZUTU
NJOMBE,59,MAKETE,595,LUPILA,59518,UKANGE,KIPETU
NJOMBE,59,MAKETE,595,LUPILA,59518,UKANGE,KASANGA
NJOMBE,59,MAKETE,595,LUPILA,59518,UKANGE,MASITU
NJOMBE,59,MAKETE,595,LUPILA,59518,UKANGE,IBONDE
NJOMBE,59,MAKETE,595,LUPILA,59518,UKANGE,LUPUMBWE
NJOMBE,59,MAKETE,595,LUPILA,59518,KIJIYOMBO,NGURUKA
NJOMBE,59,MAKETE,595,LUPILA,59518,KIJIYOMBO,IJEMBE
NJOMBE,59,MAKETE,595,LUPILA,59518,KIJIYOMBO,NSADA
NJOMBE,59,MAKETE,595,LUPILA,59518,KIJIYOMBO,NG'OGO
NJOMBE,59,MAKETE,595,LUPILA,59518,KIJIYOMBO,KIJIYOMBO
NJOMBE,59,MAKETE,595,MBALATSE,59519,KISASATU,MIFUGO
NJOMBE,59,MAKETE,595,MBALATSE,59519,KISASATU,TINDIGA
NJOMBE,59,MAKETE,595,MBALATSE,59519,KISASATU,TEMBILE
NJOMBE,59,MAKETE,595,MBALATSE,59519,KISASATU,MADUGA
NJOMBE,59,MAKETE,595,MBALATSE,59519,LUPOMBWE,MAVANGA
NJOMBE,59,MAKETE,595,MBALATSE,59519,LUPOMBWE,ULININDA
NJOMBE,59,MAKETE,595,MBALATSE,59519,LUPOMBWE,NYAKIGUBE
NJOMBE,59,MAKETE,595,MBALATSE,59519,LUPOMBWE,LUPOMBWE KATI
NJOMBE,59,MAKETE,595,MBALATSE,59519,MBALATSE,IDUDA
NJOMBE,59,MAKETE,595,MBALATSE,59519,MBALATSE,IGANGA
NJOMBE,59,MAKETE,595,MBALATSE,59519,MBALATSE,LUDODOLELO
NJOMBE,59,MAKETE,595,MBALATSE,59519,MBALATSE,MBALATSE
NJOMBE,59,MAKETE,595,IPELELE,59520,UBILIKO,UBILIKO
NJOMBE,59,MAKETE,595,IPELELE,59520,UBILIKO,LUTIFYA
NJOMBE,59,MAKETE,595,IPELELE,59520,UBILIKO,SANDOLILE
NJOMBE,59,MAKETE,595,IPELELE,59520,MBANGA,LUWE
NJOMBE,59,MAKETE,595,IPELELE,59520,MBANGA,NJUKI
NJOMBE,59,MAKETE,595,IPELELE,59520,MBANGA,KIPINGA
NJOMBE,59,MAKETE,595,IPELELE,59520,MBANGA,BONDENI
NJOMBE,59,MAKETE,595,IPELELE,59520,MBANGA,SANGANILO
NJOMBE,59,MAKETE,595,IPELELE,59520,IPELELE,ILAMBA
NJOMBE,59,MAKETE,595,IPELELE,59520,IPELELE,ILONGELO
NJOMBE,59,MAKETE,595,IPELELE,59520,IPELELE,USALAMA
NJOMBE,59,MAKETE,595,IPELELE,59520,IPELELE,YELUSALEM
NJOMBE,59,MAKETE,595,IPELELE,59520,IPELELE,MWALUSA
NJOMBE,59,MAKETE,595,IPELELE,59520,MAKEVE,KALALO
NJOMBE,59,MAKETE,595,IPELELE,59520,MAKEVE,MAKEVE
NJOMBE,59,MAKETE,595,IPELELE,59520,MAKEVE,LWIVA
NJOMBE,59,MAKETE,595,IPELELE,59520,MISIWA,KILUNDUWE
NJOMBE,59,MAKETE,595,IPELELE,59520,MISIWA,MAHEMU
NJOMBE,59,MAKETE,595,IPELELE,59520,MISIWA,ITETE
NJOMBE,59,MAKETE,595,IPELELE,59520,MISIWA,LUSIVA
NJOMBE,59,MAKETE,595,IPELELE,59520,MAKWARANGA,MWAMBELO
NJOMBE,59,MAKETE,595,IPELELE,59520,MAKWARANGA,MPULO
NJOMBE,59,MAKETE,595,IPELELE,59520,MAKWARANGA,NYITULE
NJOMBE,59,MAKETE,595,IPELELE,59520,MAKWARANGA,KANISANI
NJOMBE,59,MAKETE,595,KIGULU,59521,KIGULU,KATUMBA
NJOMBE,59,MAKETE,595,KIGULU,59521,KIGULU,NGALILE
NJOMBE,59,MAKETE,595,KIGULU,59521,KIGULU,UNYAMWILE
NJOMBE,59,MAKETE,595,KIGULU,59521,KIGULU,MLANDA
NJOMBE,59,MAKETE,595,KIGULU,59521,KIGULU,KIBUMBA
NJOMBE,59,MAKETE,595,KIGULU,59521,KIGULU,NDAMBA
NJOMBE,59,MAKETE,595,KIGULU,59521,KIGULU,MFUNGWE
NJOMBE,59,MAKETE,595,INIHO,59522,INIHO,MATURUGA
NJOMBE,59,MAKETE,595,INIHO,59522,INIHO,SWENGU
NJOMBE,59,MAKETE,595,INIHO,59522,INIHO,ITEVE
NJOMBE,59,MAKETE,595,INIHO,59522,INIHO,MGOMBEZI
NJOMBE,59,MAKETE,595,INIHO,59522,INIHO,KISIVA
NJOMBE,59,MAKETE,595,INIHO,59522,MWAKAUTA,MWERA
NJOMBE,59,MAKETE,595,INIHO,59522,MWAKAUTA,NDIVILA
NJOMBE,59,MAKETE,595,INIHO,59522,MWAKAUTA,MWAKAUTA
NJOMBE,59,MAKETE,595,INIHO,59522,NKUNGA,LUGAVILO
NJOMBE,59,MAKETE,595,INIHO,59522,NKUNGA,NKUNGA B
NJOMBE,59,MAKETE,595,INIHO,59522,NKUNGA,MAGENGE
NJOMBE,59,MAKETE,595,INIHO,59522,NKUNGA,ILUVILO
NJOMBE,59,MAKETE,595,INIHO,59522,NKUNGA,NKUNGA A
NJOMBE,59,MAKETE,595,INIHO,59522,UNYANGOGO,CHANGWANI
NJOMBE,59,MAKETE,595,INIHO,59522,UNYANGOGO,UNYANGONGO
NJOMBE,59,MAKETE,595,INIHO,59522,UNYANGOGO,MPEMBATI
NJOMBE,59,MAKETE,595,INIHO,59522,UNYANGOGO,IKATA
NJOMBE,59,MAKETE,595,INIHO,59522,LUMAGE,LUMAGE
NJOMBE,59,MAKETE,595,INIHO,59522,LUMAGE,LUANGWA
NJOMBE,59,MAKETE,595,INIHO,59522,LUMAGE,MATEMBE
NJOMBE,59,MAKETE,595,INIHO,59522,KIDOPE,MAGENGE
NJOMBE,59,MAKETE,595,INIHO,59522,KIDOPE,KIDOPE
NJOMBE,59,MAKETE,595,INIHO,59522,KIDOPE,MWAKIVOLELA
NJOMBE,59,MAKETE,595,INIHO,59522,KIDOPE,ISYETO
NJOMBE,59,MAKETE,595,INIHO,59522,KIDOPE,KIPINGA
NJOMBE,59,MAKETE,595,KINYIKA,59523,NHUNGU,LUJEWA
NJOMBE,59,MAKETE,595,KINYIKA,59523,NHUNGU,MTAANI
NJOMBE,59,MAKETE,595,KINYIKA,59523,NHUNGU,LUSITU
NJOMBE,59,MAKETE,595,KINYIKA,59523,NHUNGU,MPOMPO
NJOMBE,59,MAKETE,595,KINYIKA,59523,NHUNGU,MAJENGO
NJOMBE,59,MAKETE,595,KINYIKA,59523,N'DAPO,NDALENGA
NJOMBE,59,MAKETE,595,KINYIKA,59523,N'DAPO,N'DAPO
NJOMBE,59,MAKETE,595,KINYIKA,59523,N'DAPO,MALASI
NJOMBE,59,MAKETE,595,KINYIKA,59523,N'DAPO,MOSE
NJOMBE,59,MAKETE,595,KINYIKA,59523,N'DAPO,IWALE
NJOMBE,59,MAKETE,595,KINYIKA,59523,KINYIKA,CHAMANI
NJOMBE,59,MAKETE,595,KINYIKA,59523,KINYIKA,IVONDE
NJOMBE,59,MAKETE,595,KINYIKA,59523,KINYIKA,ULONGO
NJOMBE,59,MAKETE,595,KINYIKA,59523,KINYIKA,NKIVO
NJOMBE,59,MAKETE,595,KINYIKA,59523,KINYIKA,LUSESE
NJOMBE,59,MAKETE,595,KINYIKA,59523,KINYIKA,IGOFI
NJOMBE,59,MAKETE,595,KINYIKA,59523,KINYIKA,MLENGELA
