REGION,POSTCODE,DISTRICT,POSTCODE,WARD,POSTCODE,STREET,PLACES
PWANI,61,KIBAHA CBD,611,TUMBI,61101,MKOANI A,
PWANI,61,KIBAHA CBD,611,TUMBI,61101,MKOANI B,
PWANI,61,KIBAHA CBD,611,TUMBI,61101,BOKOTEMBONI,
PWANI,61,KIBAHA CBD,611,TUMBI,61101,BOKOTIMIZA,
PWANI,61,KIBAHA CBD,611,TUMBI,61101,MWANALUGALI,
PWANI,61,KIBAHA CBD,611,TUMBI,61101,MWANALUGALI B,
PWANI,61,KIBAHA CBD,611,MAILIMOJA,61102,MAILIMOJA A,
PWANI,61,KIBAHA CBD,611,MAILIMOJA,61102,UYAONI,
PWANI,61,KIBAHA CBD,611,MAILIMOJA,61102,SHULENI MAILIMOJA,
PWANI,61,KIBAHA CBD,611,MAILIMOJA,61102,MUHEZA,
PWANI,61,KIBAHA CBD,611,PANGANI,61103,PANGANI,
PWANI,61,KIBAHA CBD,611,PANGANI,61103,MTAKUJA,
PWANI,61,KIBAHA CBD,611,PANGANI,61103,KIDIMU,
PWANI,61,KIBAHA CBD,611,PANGANI,61103,LUMUMBA,
PWANI,61,KIBAHA CBD,611,PANGANI,61103,MKOMBOZI,
PWANI,61,KIBAHA CBD,611,PANGANI,61103,VIKAWE BONDENI,
PWANI,61,KIBAHA CBD,611,PANGANI,61103,VIKAWE SHULE,
PWANI,61,KIBAHA CBD,611,PANGANI,61103,MIWALE,
PWANI,61,KIBAHA CBD,611,PICHA YA NDEGE,61104,PICHA YA NDEGE,
PWANI,61,KIBAHA CBD,611,PICHA YA NDEGE,61104,LULANZI,
PWANI,61,KIBAHA CBD,611,PICHA YA NDEGE,61104,MUHARAKANI,
PWANI,61,KIBAHA CBD,611,MKUZA,61105,BUNGO,
PWANI,61,KIBAHA CBD,611,MKUZA,61105,KIBONDENI,
PWANI,61,KIBAHA CBD,611,MKUZA,61105,MKONGONI,
PWANI,61,KIBAHA CBD,611,MKUZA,61105,MBWATE,
PWANI,61,KIBAHA CBD,611,MKUZA,61105,MKUZA,
PWANI,61,KIBAHA CBD,611,MKUZA,61105,MPAKANI,
PWANI,61,KIBAHA CBD,611,MSANGANI,61106,KIDENGE,
PWANI,61,KIBAHA CBD,611,MSANGANI,61106,MSANGANI,
PWANI,61,KIBAHA CBD,611,MSANGANI,61106,SIMBANI,
PWANI,61,KIBAHA CBD,611,MSANGANI,61106,KUMBA,
PWANI,61,KIBAHA CBD,611,MSANGANI,61106,KIDENGE B,
PWANI,61,KIBAHA CBD,611,MSANGANI,61106,MADINA,
PWANI,61,KIBAHA CBD,611,KIBAHA,61107,MWENDAPOLE A,
PWANI,61,KIBAHA CBD,611,KIBAHA,61107,MWENDAPOLE B,
PWANI,61,KIBAHA CBD,611,KIBAHA,61107,KWAMFIPA,
PWANI,61,KIBAHA CBD,611,KIBAHA,61107,SIMBANI,
PWANI,61,KIBAHA CBD,611,KIBAHA,61107,KITENDE,
PWANI,61,KIBAHA CBD,611,KONGOWE,61108,MIEMBESABA A,
PWANI,61,KIBAHA CBD,611,KONGOWE,61108,MIEMBESABA B,
PWANI,61,KIBAHA CBD,611,KONGOWE,61108,MWAMBISI,
PWANI,61,KIBAHA CBD,611,KONGOWE,61108,BAMBA,
PWANI,61,KIBAHA CBD,611,KONGOWE,61108,UNGINDONI,
PWANI,61,KIBAHA CBD,611,KONGOWE,61108,KONGOWE,
PWANI,61,KIBAHA CBD,611,MISUGUSUGU,61109,MISUGUSUGU,
PWANI,61,KIBAHA CBD,611,MISUGUSUGU,61109,MIYOMBONI,
PWANI,61,KIBAHA CBD,611,MISUGUSUGU,61109,ZOGOWALE,
PWANI,61,KIBAHA CBD,611,MISUGUSUGU,61109,KARABAKA,
PWANI,61,KIBAHA CBD,611,MISUGUSUGU,61109,JONUG”HA,
PWANI,61,KIBAHA CBD,611,MISUGUSUGU,61109,SAENI,
PWANI,61,KIBAHA CBD,611,MISUGUSUGU,61109,VITENDO,
PWANI,61,KIBAHA CBD,611,VISIGA,61110,MADAFU,
PWANI,61,KIBAHA CBD,611,VISIGA,61110,MIWALENI,
PWANI,61,KIBAHA CBD,611,VISIGA,61110,ZEGERENI,
PWANI,61,KIBAHA CBD,611,VISIGA,61110,MAILI 35,
PWANI,61,KIBAHA CBD,611,VISIGA,61110,VISIGA KATI,
PWANI,61,KIBAHA CBD,611,VISIGA,61110,VISIGA  B,
PWANI,61,KIBAHA CBD,611,VISIGA,61110,KICHANGANI,
PWANI,61,KIBAHA CBD,611,MBWAWA,61111,MBWAWA,
PWANI,61,KIBAHA CBD,611,MBWAWA,61111,MKOLENI,
PWANI,61,KIBAHA CBD,611,MBWAWA,61111,MISWE DUKA,
PWANI,61,KIBAHA CBD,611,MBWAWA,61111,MISWE CHINI,
PWANI,61,KIBAHA CBD,611,TANGINI,61112,TANGINI,
PWANI,61,KIBAHA CBD,611,TANGINI,61112,MAILIMOJA B,
PWANI,61,KIBAHA CBD,611,TANGINI,61112,KILIMAHEWA,
PWANI,61,KIBAHA CBD,611,TANGINI,61112,MACHINJIONI,
PWANI,61,KIBAHA CBD,611,SOFU,61113,SOFU,
PWANI,61,KIBAHA CBD,611,SOFU,61113,MSUFINI,
PWANI,61,KIBAHA CBD,611,SOFU,61113,TWENDEPAMOJA,
PWANI,61,KIBAHA CBD,611,VIZIWA ZIWA,61114,VIZIWAZIWA,
PWANI,61,KIBAHA CBD,611,VIZIWA ZIWA,61114,MIKONGENI,
PWANI,61,KIBAHA CBD,611,VIZIWA ZIWA,61114,SAGALE KAMBINI,
PWANI,61,KIBAHA CBD,611,VIZIWA ZIWA,61114,SAGALE MAGENGENI,
PWANI,61,KIBAHA,612,MLANDIZI,61201,KIBAHA,MIHANDE
PWANI,61,KIBAHA,612,MLANDIZI,61201,KIBAHA,MLANDIZI MJINI
PWANI,61,KIBAHA,612,MLANDIZI,61201,KIBAHA,MLANDIZI KATI
PWANI,61,KIBAHA,612,MLANDIZI,61201,KIBAHA,MSUFINI
PWANI,61,KIBAHA,612,MLANDIZI,61201,KIBAHA,VIKURUTI MJINI
PWANI,61,KIBAHA,612,MLANDIZI,61201,KIBAHA,KIBWENDE
PWANI,61,KIBAHA,612,MLANDIZI,61201,KIBAHA,KITEMVU
PWANI,61,KIBAHA,612,KILANGALANGA,61202,KIBAHA,KILANGALANGA
PWANI,61,KIBAHA,612,KILANGALANGA,61202,KIBAHA,MADIMLA
PWANI,61,KIBAHA,612,KILANGALANGA,61202,KIBAHA,DISUNYARA
PWANI,61,KIBAHA,612,JANGA,61203,KIBAHA,JANGA
PWANI,61,KIBAHA,612,JANGA,61203,KIBAHA,KALOLENI
PWANI,61,KIBAHA,612,JANGA,61203,KIBAHA,MBAGALA
PWANI,61,KIBAHA,612,JANGA,61203,KIBAHA,MWEMBEBARAZA
PWANI,61,KIBAHA,612,KIKONGO,61204,KIBAHA,KIDAI
PWANI,61,KIBAHA,612,KIKONGO,61204,KIBAHA,MKINO
PWANI,61,KIBAHA,612,KIKONGO,61204,KIBAHA,MAKOTOPORA
PWANI,61,KIBAHA,612,KIKONGO,61204,KIBAHA,KIKONGO
PWANI,61,KIBAHA,612,KIKONGO,61204,KIBAHA,NGETA
PWANI,61,KIBAHA,612,KIKONGO,61204,KIBAHA,LUPUNGA
PWANI,61,KIBAHA,612,KIKONGO,61204,KIBAHA,MWANABWITO
PWANI,61,KIBAHA,612,RUVU,61205,RUVU STESHENI,RUVU MJINI
PWANI,61,KIBAHA,612,RUVU,61205,RUVU STESHENI,MIDIZINI
PWANI,61,KIBAHA,612,RUVU,61205,KITOMONDO,KITOMONDO
PWANI,61,KIBAHA,612,RUVU,61205,KITOMONDO,GUMBA
PWANI,61,KIBAHA,612,RUVU,61205,MINAZIMIKINDA,MINAZI MIKINDA
PWANI,61,KIBAHA,612,RUVU,61205,MINAZIMIKINDA,MNAZI
PWANI,61,KIBAHA,612,RUVU,61205,MINAZIMIKINDA,LUBUNGO
PWANI,61,KIBAHA,612,RUVU,61205,MINAZIMIKINDA,KIMBOZA
PWANI,61,KIBAHA,612,SOGA,61206,SOGA,KONGO
PWANI,61,KIBAHA,612,SOGA,61206,SOGA,ALAVI
PWANI,61,KIBAHA,612,SOGA,61206,SOGA,DENGWA
PWANI,61,KIBAHA,612,SOGA,61206,SOGA,BOMU
PWANI,61,KIBAHA,612,SOGA,61206,SOGA,SOGA
PWANI,61,KIBAHA,612,SOGA,61206,KIPANGEGE,KIPANGEGE
PWANI,61,KIBAHA,612,SOGA,61206,KIPANGEGE,CHAMGOHI
PWANI,61,KIBAHA,612,SOGA,61206,VIKUGE,VIKUGE
PWANI,61,KIBAHA,612,SOGA,61206,VIKUGE,NGOHINGO
PWANI,61,KIBAHA,612,SOGA,61206,VIKUGE,KIGERO
PWANI,61,KIBAHA,612,SOGA,61206,MISUFINI,MSUFINI
PWANI,61,KIBAHA,612,SOGA,61206,MISUFINI,KIBWE
PWANI,61,KIBAHA,612,BOKOMNEMELA,61207,BOKOMNEMELA,BOKOKATI
PWANI,61,KIBAHA,612,BOKOMNEMELA,61207,BOKOMNEMELA,MWALENI
PWANI,61,KIBAHA,612,BOKOMNEMELA,61207,BOKOMNEMELA,NJIA PANDA
PWANI,61,KIBAHA,612,BOKOMNEMELA,61207,BOKOMNEMELA,MKWAJUNI
PWANI,61,KIBAHA,612,BOKOMNEMELA,61207,MPIJI,MPIJI STESHENI
PWANI,61,KIBAHA,612,BOKOMNEMELA,61207,MPIJI,ZUMBA
PWANI,61,KIBAHA,612,BOKOMNEMELA,61207,MPIJI,CHANG'UDE
PWANI,61,KIBAHA,612,BOKOMNEMELA,61207,MNEMELA KIBAONI,KIBAONI
PWANI,61,KIBAHA,612,BOKOMNEMELA,61207,MNEMELA KIBAONI,MOJATA
PWANI,61,KIBAHA,612,BOKOMNEMELA,61207,MKALAMBATI,MKALAMBATI  KATI
PWANI,61,KIBAHA,612,BOKOMNEMELA,61207,MKALAMBATI,CHAMBUTWA
PWANI,61,KIBAHA,612,BOKOMNEMELA,61207,MKALAMBATI,MPAKANI
PWANI,61,KIBAHA,612,KWALA,61208,KWALA,KWALA
PWANI,61,KIBAHA,612,KWALA,61208,KWALA,WAYA
PWANI,61,KIBAHA,612,KWALA,61208,MPERAMUMBI,MPERAMUMBI
PWANI,61,KIBAHA,612,KWALA,61208,MPERAMUMBI,MSUA
PWANI,61,KIBAHA,612,DUTUMI,61209,MWEMBENGOZI,MWEMBENGOZI
PWANI,61,KIBAHA,612,DUTUMI,61209,DUTUMI,DUTUMI
PWANI,61,KIBAHA,612,DUTUMI,61209,MADEGE,MADEGE
PWANI,61,KIBAHA,612,GWATA,61210,GUMBA,GUMBA MJINI
PWANI,61,KIBAHA,612,GWATA,61210,GUMBA,MAVUHA
PWANI,61,KIBAHA,612,GWATA,61210,GUMBA,MIALENI
PWANI,61,KIBAHA,612,GWATA,61210,MILALAZI,MILALAZI
PWANI,61,KIBAHA,612,GWATA,61210,MILALAZI,BUGURUNI
PWANI,61,KIBAHA,612,GWATA,61210,MILALAZI,GUDE
PWANI,61,KIBAHA,612,GWATA,61210,GWATA,GWATA MJINI
PWANI,61,KIBAHA,612,GWATA,61210,GWATA,MGULUKA
PWANI,61,KIBAHA,612,GWATA,61210,NGWALE,VINYENZE
PWANI,61,KIBAHA,612,GWATA,61210,NGWALE,NGWALE MJINI
PWANI,61,KIBAHA,612,GWATA,61210,KIGODA,KIGODA
PWANI,61,KIBAHA,612,GWATA,61210,KIGODA,MTONGA B
PWANI,61,KIBAHA,612,GWATA,61210,NDWATI,MTONGA A
PWANI,61,KIBAHA,612,GWATA,61210,NDWATI,NDWATI MJINI
PWANI,61,KIBAHA,612,MAGINDU,61211,LUKENGE,MKONGA
PWANI,61,KIBAHA,612,MAGINDU,61211,LUKENGE,MZIZIMA
PWANI,61,KIBAHA,612,MAGINDU,61211,LUKENGE,KILUNGULE
PWANI,61,KIBAHA,612,MAGINDU,61211,LUKENGE,VIFONZE
PWANI,61,KIBAHA,612,MAGINDU,61211,LUKENGE,MUYOMBO KATI
PWANI,61,KIBAHA,612,MAGINDU,61211,LUKENGE,KISEKA
PWANI,61,KIBAHA,612,MAGINDU,61211,MAGINDU,MAGINDU MJINI
PWANI,61,KIBAHA,612,MAGINDU,61211,MAGINDU,MNYONGE
PWANI,61,KIBAHA,612,MAGINDU,61211,MAGINDU,LUKALASI
PWANI,61,KIBAHA,612,MAGINDU,61211,MAGINDU,MASAKI
PWANI,61,KIBAHA,612,MAGINDU,61211,MIZUGUNI,MIZUGUNI ‘A’
PWANI,61,KIBAHA,612,MAGINDU,61211,MIZUGUNI,MIZUGUNI ‘B’
PWANI,61,KIBAHA,612,MAGINDU,61211,MIZUGUNI,KUYU
PWANI,61,KIBAHA,612,MAGINDU,61211,MIZUGUNI,MUYOMBO UKULIMA
PWANI,61,KIBAHA,612,MTAMBANI,61212,MIZUGUNI,MTAMBANI
PWANI,61,KIBAHA,612,MTAMBANI,61212,MIZUGUNI,NJIA PANDA JKT
PWANI,61,KIBAHA,612,MTAMBANI,61212,MIZUGUNI,RUVU KWA DOSSA
PWANI,61,KIBAHA,612,MTAMBANI,61212,MIZUGUNI,SAIDI DOMO
PWANI,61,KIBAHA,612,MTAMBANI,61212,MIZUGUNI,MIHANDE BOMU
PWANI,61,KIBAHA,612,MTONGANI,61213,MIZUGUNI,KISABI
PWANI,61,KIBAHA,612,MTONGANI,61213,MIZUGUNI,MTONGANI
PWANI,61,KIBAHA,612,MTONGANI,61213,MIZUGUNI,USALAMA
PWANI,61,KIBAHA,612,KAWAWA,61214,MIZUGUNI,MSONGOLA
PWANI,61,KIBAHA,612,KAWAWA,61214,MIZUGUNI,MAKAZI MAPYA
PWANI,61,KIBAHA,612,KAWAWA,61214,MIZUGUNI,MATUGA
PWANI,61,KIBAHA,612,KAWAWA,61214,MIZUGUNI,KIMARA
PWANI,61,BAGAMOYO,613,DUNDA,61301,MIZUGUNI,DUNDA
PWANI,61,BAGAMOYO,613,DUNDA,61301,MIZUGUNI,MWAMBAO
PWANI,61,BAGAMOYO,613,DUNDA,61301,MIZUGUNI,TANDIKA
PWANI,61,BAGAMOYO,613,DUNDA,61301,MIZUGUNI,RAMIYA
PWANI,61,BAGAMOYO,613,DUNDA,61301,MIZUGUNI,MWANAKALENGE
PWANI,61,BAGAMOYO,613,DUNDA,61301,MIZUGUNI,MAJANI MAPANA
PWANI,61,BAGAMOYO,613,DUNDA,61301,MIZUGUNI,BENKI
PWANI,61,BAGAMOYO,613,DUNDA,61301,MIZUGUNI,SOKO JIPYA
PWANI,61,BAGAMOYO,613,DUNDA,61301,MIZUGUNI,MANGESANI
PWANI,61,BAGAMOYO,613,DUNDA,61301,MIZUGUNI,SHAURIMOYO
PWANI,61,BAGAMOYO,613,DUNDA,61301,MIZUGUNI,KAOLE UFUNDI
PWANI,61,BAGAMOYO,613,DUNDA,61301,MIZUGUNI,MITI MINGI
PWANI,61,BAGAMOYO,613,DUNDA,61301,MIZUGUNI,BONDENI
PWANI,61,BAGAMOYO,613,DUNDA,61301,MIZUGUNI,MADUKANI
PWANI,61,BAGAMOYO,613,DUNDA,61301,MIZUGUNI,UKUNI
PWANI,61,BAGAMOYO,613,DUNDA,61301,MIZUGUNI,MTO WA NYANZA
PWANI,61,BAGAMOYO,613,MAGOMENI,61302,MIZUGUNI,MAJI COAST
PWANI,61,BAGAMOYO,613,MAGOMENI,61302,MIZUGUNI,BONG”WA
PWANI,61,BAGAMOYO,613,MAGOMENI,61302,MIZUGUNI,MAGOMENI “C”
PWANI,61,BAGAMOYO,613,MAGOMENI,61302,MIZUGUNI,SANZALE
PWANI,61,BAGAMOYO,613,MAGOMENI,61302,MIZUGUNI,MJI MPYA
PWANI,61,BAGAMOYO,613,KIROMO,61303,MIZUGUNI,KIROMO “A”
PWANI,61,BAGAMOYO,613,KIROMO,61303,MIZUGUNI,KIROMO “B”
PWANI,61,BAGAMOYO,613,KIROMO,61303,MIZUGUNI,MANDAWE
PWANI,61,BAGAMOYO,613,KIROMO,61303,MIZUGUNI,CHAGGA “A”
PWANI,61,BAGAMOYO,613,KIROMO,61303,MIZUGUNI,CHAGGA “B”
PWANI,61,BAGAMOYO,613,KIROMO,61303,MIZUGUNI,MBUYUNI
PWANI,61,BAGAMOYO,613,KIROMO,61303,MIZUGUNI,KITONGA A
PWANI,61,BAGAMOYO,613,KIROMO,61303,MIZUGUNI,KITONGA B
PWANI,61,BAGAMOYO,613,KIROMO,61303,MIZUGUNI,KITOPENI “A”
PWANI,61,BAGAMOYO,613,KIROMO,61303,MIZUGUNI,KITOPENI “B”
PWANI,61,BAGAMOYO,613,KIROMO,61303,MIZUGUNI,MIGUDENI
PWANI,61,BAGAMOYO,613,KIROMO,61303,MIZUGUNI,MTO WA NYANZA
PWANI,61,BAGAMOYO,613,KIROMO,61303,MIZUGUNI,GOBA
PWANI,61,BAGAMOYO,613,KIROMO,61303,MIZUGUNI,MAGOLE
PWANI,61,BAGAMOYO,613,KIROMO,61303,MIZUGUNI,MATAYA BONDENI
PWANI,61,BAGAMOYO,613,KIROMO,61303,MIZUGUNI,BAUKANI “A”
PWANI,61,BAGAMOYO,613,KIROMO,61303,MIZUGUNI,BAUKANI “B”
PWANI,61,BAGAMOYO,613,KIROMO,61303,MIZUGUNI,KIMEREMETA
PWANI,61,BAGAMOYO,613,KIROMO,61303,MIZUGUNI,KIVUMO
PWANI,61,BAGAMOYO,613,KIROMO,61303,MIZUGUNI,MATAYA GONGONI
PWANI,61,BAGAMOYO,613,KIROMO,61303,MIZUGUNI,MAGHARIBI
PWANI,61,BAGAMOYO,613,KIROMO,61303,MIZUGUNI,MRATANGE
PWANI,61,BAGAMOYO,613,KIROMO,61303,MIZUGUNI,VIKINDU
PWANI,61,BAGAMOYO,613,KIROMO,61303,MIZUGUNI,CHANGOI
PWANI,61,BAGAMOYO,613,KIROMO,61303,MIZUGUNI,CHAMBEZI A
PWANI,61,BAGAMOYO,613,KIROMO,61303,MIZUGUNI,CHAMBEZI B
PWANI,61,BAGAMOYO,613,KIROMO,61303,MIZUGUNI,KIWANGWA
PWANI,61,BAGAMOYO,613,KIROMO,61303,MIZUGUNI,VIGONDA
PWANI,61,BAGAMOYO,613,ZINGA,61304,MIZUGUNI,KASIKI
PWANI,61,BAGAMOYO,613,ZINGA,61304,MIZUGUNI,KIKONGA
PWANI,61,BAGAMOYO,613,ZINGA,61304,MIZUGUNI,PANDE
PWANI,61,BAGAMOYO,613,ZINGA,61304,MIZUGUNI,MKUNGUNI
PWANI,61,BAGAMOYO,613,ZINGA,61304,MIZUGUNI,MBEGANI
PWANI,61,BAGAMOYO,613,ZINGA,61304,MIZUGUNI,MJI MPYA
PWANI,61,BAGAMOYO,613,ZINGA,61304,MIZUGUNI,KWA FAKI
PWANI,61,BAGAMOYO,613,ZINGA,61304,MIZUGUNI,BISIBISI
PWANI,61,BAGAMOYO,613,ZINGA,61304,MIZUGUNI,KIJIWENI
PWANI,61,BAGAMOYO,613,ZINGA,61304,MIZUGUNI,BONDENI
PWANI,61,BAGAMOYO,613,ZINGA,61304,MIZUGUNI,MBUYUNI
PWANI,61,BAGAMOYO,613,ZINGA,61304,MIZUGUNI,KIBUYUNI
PWANI,61,BAGAMOYO,613,ZINGA,61304,MIZUGUNI,KWADOSI
PWANI,61,BAGAMOYO,613,ZINGA,61304,MIZUGUNI,CHAPONDA
PWANI,61,BAGAMOYO,613,ZINGA,61304,MIZUGUNI,MWAJIMBO
PWANI,61,BAGAMOYO,613,ZINGA,61304,MIZUGUNI,GWAZO
PWANI,61,BAGAMOYO,613,ZINGA,61304,MIZUGUNI,GONGONI
PWANI,61,BAGAMOYO,613,ZINGA,61304,MIZUGUNI,KIGOVU
PWANI,61,BAGAMOYO,613,ZINGA,61304,MIZUGUNI,KONDO BONDENI
PWANI,61,BAGAMOYO,613,ZINGA,61304,MIZUGUNI,KIBUYUNI
PWANI,61,BAGAMOYO,613,ZINGA,61304,MIZUGUNI,KIKUBA
PWANI,61,BAGAMOYO,613,ZINGA,61304,MIZUGUNI,CHAPONDA
PWANI,61,BAGAMOYO,613,ZINGA,61304,MIZUGUNI,KIDUGU
PWANI,61,BAGAMOYO,613,ZINGA,61304,MIZUGUNI,KIBAWAGOGO
PWANI,61,BAGAMOYO,613,ZINGA,61304,MIZUGUNI,GONGONI
PWANI,61,BAGAMOYO,613,ZINGA,61304,MIZUGUNI,DAGAZA
PWANI,61,BAGAMOYO,613,ZINGA,61304,MIZUGUNI,MNAMATA
PWANI,61,BAGAMOYO,613,ZINGA,61304,MIZUGUNI,KITULI
PWANI,61,BAGAMOYO,613,ZINGA,61304,MIZUGUNI,CHAMBEO
PWANI,61,BAGAMOYO,613,ZINGA,61304,MIZUGUNI,KOKOTO
PWANI,61,BAGAMOYO,613,ZINGA,61304,MIZUGUNI,KIBURA
PWANI,61,BAGAMOYO,613,ZINGA,61304,MIZUGUNI,KIEGEA
PWANI,61,BAGAMOYO,613,ZINGA,61304,MIZUGUNI,MSOKA
PWANI,61,BAGAMOYO,613,ZINGA,61304,MIZUGUNI,MCHANGAKICHWA “A”
PWANI,61,BAGAMOYO,613,ZINGA,61304,MIZUGUNI,MCHANGAKICHWA “B”
PWANI,61,BAGAMOYO,613,ZINGA,61304,MIZUGUNI,CHANGULUWE
PWANI,61,BAGAMOYO,613,ZINGA,61304,MIZUGUNI,MKUNGALUNGO
PWANI,61,BAGAMOYO,613,KEREGE,61305,MIZUGUNI,KITONGA
PWANI,61,BAGAMOYO,613,KEREGE,61305,MIZUGUNI,KWA MANOFU
PWANI,61,BAGAMOYO,613,KEREGE,61305,MIZUGUNI,AMANI
PWANI,61,BAGAMOYO,613,KEREGE,61305,MIZUGUNI,NYAKAHAMBA
PWANI,61,BAGAMOYO,613,KEREGE,61305,MIZUGUNI,MATUMBINI
PWANI,61,BAGAMOYO,613,KEREGE,61305,MIZUGUNI,KWAKIWETE
PWANI,61,BAGAMOYO,613,KEREGE,61305,MIZUGUNI,KIBEMELA
PWANI,61,BAGAMOYO,613,YOMBO,61306,YOMBO,CHOMBE JUU
PWANI,61,BAGAMOYO,613,YOMBO,61306,YOMBO,LWAZI
PWANI,61,BAGAMOYO,613,YOMBO,61306,YOMBO,UKWAMANI
PWANI,61,BAGAMOYO,613,YOMBO,61306,YOMBO,GOBA
PWANI,61,BAGAMOYO,613,YOMBO,61306,YOMBO,USHAKOLANI
PWANI,61,BAGAMOYO,613,YOMBO,61306,YOMBO,FULWE
PWANI,61,BAGAMOYO,613,YOMBO,61306,YOMBO,YOMBO
PWANI,61,BAGAMOYO,613,YOMBO,61306,YOMBO,MAGOZA
PWANI,61,BAGAMOYO,613,YOMBO,61306,YOMBO,MASOGOLA
PWANI,61,BAGAMOYO,613,YOMBO,61306,YOMBO,KIEGEA “B”
PWANI,61,BAGAMOYO,613,YOMBO,61306,CHASIMBA,MIWALENI
PWANI,61,BAGAMOYO,613,YOMBO,61306,CHASIMBA,MFULU
PWANI,61,BAGAMOYO,613,YOMBO,61306,CHASIMBA,CHASIMBA
PWANI,61,BAGAMOYO,613,YOMBO,61306,CHASIMBA,SHANGWENI
PWANI,61,BAGAMOYO,613,YOMBO,61306,CHASIMBA,KIEGEA “A”
PWANI,61,BAGAMOYO,613,YOMBO,61306,CHASIMBA,BWEMBWENI
PWANI,61,BAGAMOYO,613,YOMBO,61306,KONGO,MKUNGE
PWANI,61,BAGAMOYO,613,YOMBO,61306,KONGO,SHULENI
PWANI,61,BAGAMOYO,613,YOMBO,61306,KONGO,NUWA ( KAMBINI)
PWANI,61,BAGAMOYO,613,YOMBO,61306,KONGO,KAJIUNGENI
PWANI,61,BAGAMOYO,613,YOMBO,61306,KONGO,CHOMBE
PWANI,61,BAGAMOYO,613,YOMBO,61306,KONGO,KONGO
PWANI,61,BAGAMOYO,613,YOMBO,61306,KONGO,UMAKONDENI
PWANI,61,BAGAMOYO,613,YOMBO,61306,KONGO,UZARAMONI
PWANI,61,BAGAMOYO,613,YOMBO,61306,KONGO,MZIZIMA
PWANI,61,BAGAMOYO,613,YOMBO,61306,MATIMBWA,NGOGOMONI
PWANI,61,BAGAMOYO,613,YOMBO,61306,MATIMBWA,KIMBEHENGWA
PWANI,61,BAGAMOYO,613,YOMBO,61306,MATIMBWA,CHAMKWELA
PWANI,61,BAGAMOYO,613,YOMBO,61306,MATIMBWA,KIKUICHOLA
PWANI,61,BAGAMOYO,613,YOMBO,61306,MATIMBWA,ZOMBENGALAWA
PWANI,61,BAGAMOYO,613,YOMBO,61306,MATIMBWA,MATIMBWA
PWANI,61,BAGAMOYO,613,FUKAYOSI,61307,FUKAYOSI,FUKAYOSI
PWANI,61,BAGAMOYO,613,FUKAYOSI,61307,FUKAYOSI,LUSAKO
PWANI,61,BAGAMOYO,613,FUKAYOSI,61307,FUKAYOSI,KALIMENI
PWANI,61,BAGAMOYO,613,FUKAYOSI,61307,FUKAYOSI,KULWI
PWANI,61,BAGAMOYO,613,FUKAYOSI,61307,FUKAYOSI,UMASAINI
PWANI,61,BAGAMOYO,613,FUKAYOSI,61307,FUKAYOSI,MTAKUJA  ‘A’
PWANI,61,BAGAMOYO,613,FUKAYOSI,61307,FUKAYOSI,MTAKUJA  ‘B’
PWANI,61,BAGAMOYO,613,FUKAYOSI,61307,FUKAYOSI,MWANAMVULI
PWANI,61,BAGAMOYO,613,FUKAYOSI,61307,FUKAYOSI,NDOLENI
PWANI,61,BAGAMOYO,613,FUKAYOSI,61307,MWAVI,MWAVI  “A”
PWANI,61,BAGAMOYO,613,FUKAYOSI,61307,MWAVI,MWAVI “B”
PWANI,61,BAGAMOYO,613,FUKAYOSI,61307,MWAVI,SENGASENGA
PWANI,61,BAGAMOYO,613,FUKAYOSI,61307,MWAVI,VIGWAZA
PWANI,61,BAGAMOYO,613,FUKAYOSI,61307,MWAVI,KUDIBAHA
PWANI,61,BAGAMOYO,613,FUKAYOSI,61307,MWAVI,SEGWA
PWANI,61,BAGAMOYO,613,FUKAYOSI,61307,MWAVI,ZEMBA
PWANI,61,BAGAMOYO,613,FUKAYOSI,61307,KIDOMOLE,RELINI
PWANI,61,BAGAMOYO,613,FUKAYOSI,61307,KIDOMOLE,KINYEMVULI
PWANI,61,BAGAMOYO,613,FUKAYOSI,61307,KIDOMOLE,USIGWA
PWANI,61,BAGAMOYO,613,FUKAYOSI,61307,KIDOMOLE,MWANASENGA
PWANI,61,BAGAMOYO,613,FUKAYOSI,61307,KIDOMOLE,VIHAGATE
PWANI,61,BAGAMOYO,613,FUKAYOSI,61307,MKENGE,MGORANI
PWANI,61,BAGAMOYO,613,FUKAYOSI,61307,MKENGE,CHANG’OMBE
PWANI,61,BAGAMOYO,613,FUKAYOSI,61307,MKENGE,MKWAMA
PWANI,61,BAGAMOYO,613,FUKAYOSI,61307,MKENGE,ENGELO
PWANI,61,BAGAMOYO,613,VIGWAZA,61308,BUYUNI,
PWANI,61,BAGAMOYO,613,VIGWAZA,61308,KIDOGOZERO,
PWANI,61,BAGAMOYO,613,VIGWAZA,61308,KITONGA,
PWANI,61,BAGAMOYO,613,VIGWAZA,61308,MILO,
PWANI,61,BAGAMOYO,613,VIGWAZA,61308,RUVU DARAJANI,
PWANI,61,BAGAMOYO,613,VIGWAZA,61308,VIGWAZA,
PWANI,61,BAGAMOYO,613,VIGWAZA,61308,VISEZI,
PWANI,61,BAGAMOYO,613,KIWANGWA,61309,KIWANGWA,
PWANI,61,BAGAMOYO,613,KIWANGWA,61309,BAGO,
PWANI,61,BAGAMOYO,613,KIWANGWA,61309,MSINUNE,
PWANI,61,BAGAMOYO,613,KIWANGWA,61309,MASUNGURU,
PWANI,61,BAGAMOYO,613,KIWANGWA,61309,MWETEMO,
PWANI,61,BAGAMOYO,613,MSATA,61310,KIHANGAIKO,
PWANI,61,BAGAMOYO,613,MSATA,61310,MKOKO,
PWANI,61,BAGAMOYO,613,MSATA,61310,MAZIZI,
PWANI,61,BAGAMOYO,613,MSATA,61310,MSATA,
PWANI,61,BAGAMOYO,613,MSATA,61310,PONGWE MSUNGURA,
PWANI,61,BAGAMOYO,613,LUGOBA,61311,MINDUTULIENI,
PWANI,61,BAGAMOYO,613,LUGOBA,61311,SALENI,
PWANI,61,BAGAMOYO,613,LUGOBA,61311,KINZAGU,
PWANI,61,BAGAMOYO,613,LUGOBA,61311,LUNGA,
PWANI,61,BAGAMOYO,613,LUGOBA,61311,MAKOMBE,
PWANI,61,BAGAMOYO,613,LUGOBA,61311,LUGOBA,
PWANI,61,BAGAMOYO,613,MSOGA,61312,DIOZILE,
PWANI,61,BAGAMOYO,613,MSOGA,61312,MBOGA,
PWANI,61,BAGAMOYO,613,MSOGA,61312,MSOGA,
PWANI,61,BAGAMOYO,613,MSOGA,61312,TONGA,
PWANI,61,BAGAMOYO,613,TALAWANDA,61313,MINDUKENE,
PWANI,61,BAGAMOYO,613,TALAWANDA,61313,MSIGI,
PWANI,61,BAGAMOYO,613,TALAWANDA,61313,MALIVUNDO,
PWANI,61,BAGAMOYO,613,TALAWANDA,61313,KISANGA,
PWANI,61,BAGAMOYO,613,TALAWANDA,61313,TALAWANDA,
PWANI,61,BAGAMOYO,613,TALAWANDA,61313,MAGLUMATARI,
PWANI,61,BAGAMOYO,613,PERA,61314,PERA,
PWANI,61,BAGAMOYO,613,PERA,61314,PINGO,
PWANI,61,BAGAMOYO,613,PERA,61314,CHAMAKWEZA,
PWANI,61,BAGAMOYO,613,PERA,61314,MALIVUNDO,
PWANI,61,BAGAMOYO,613,BWILINGU,61315,BWILINGU,
PWANI,61,BAGAMOYO,613,BWILINGU,61315,MSOLWA,
PWANI,61,BAGAMOYO,613,BWILINGU,61315,CHACHU,
PWANI,61,BAGAMOYO,613,BWILINGU,61315,MDAULA,
PWANI,61,BAGAMOYO,613,BWILINGU,61315,MATULI,
PWANI,61,BAGAMOYO,613,BWILINGU,61315,MAJENGO,
PWANI,61,BAGAMOYO,613,BWILINGU,61315,MTAMBANI,
PWANI,61,BAGAMOYO,613,UBENAZOMOZI,61316,UBENAZOMOZI,
PWANI,61,BAGAMOYO,613,UBENAZOMOZI,61316,TUKAMISASA,
PWANI,61,BAGAMOYO,613,UBENAZOMOZI,61316,MATULI,
PWANI,61,BAGAMOYO,613,UBENAZOMOZI,61316,MWIDU,
PWANI,61,BAGAMOYO,613,UBENAZOMOZI,61316,KALOLENI,
PWANI,61,BAGAMOYO,613,UBENAZOMOZI,61316,VISAKAZI,
PWANI,61,BAGAMOYO,613,MANDERA,61317,MANDERA,
PWANI,61,BAGAMOYO,613,MANDERA,61317,HONDOGO,
PWANI,61,BAGAMOYO,613,MANDERA,61317,KILEMERA,
PWANI,61,BAGAMOYO,613,MANDERA,61317,RUPUNGWI,
PWANI,61,BAGAMOYO,613,MANDERA,61317,MAKOLE,
PWANI,61,BAGAMOYO,613,MANDERA,61317,KIBAONI,
PWANI,61,BAGAMOYO,613,KIMANGE,61318,CHANGALIKWA,
PWANI,61,BAGAMOYO,613,KIMANGE,61318,KIMANGE,
PWANI,61,BAGAMOYO,613,KIMANGE,61318,KIFULETA,
PWANI,61,BAGAMOYO,613,KIMANGE,61318,KIKWANZU,
PWANI,61,BAGAMOYO,613,KIMANGE,61318,PONGWEKIONA,
PWANI,61,BAGAMOYO,613,KIMANGE,61318,PONGWEMNAZI,
PWANI,61,BAGAMOYO,613,MBWEWE,61319,MBWEWE,
PWANI,61,BAGAMOYO,613,MBWEWE,61319,MPAJI,
PWANI,61,BAGAMOYO,613,MBWEWE,61319,KWANG'ANDU,
PWANI,61,BAGAMOYO,613,MBWEWE,61319,KWARUHUMBO,
PWANI,61,BAGAMOYO,613,KIBINDU,61320,KIBINDU,
PWANI,61,BAGAMOYO,613,KIBINDU,61320,KWAMSANJA,
PWANI,61,BAGAMOYO,613,KIBINDU,61320,KWAMDUMA,
PWANI,61,BAGAMOYO,613,MIONO,61321,MIONO,
PWANI,61,BAGAMOYO,613,MIONO,61321,MASIMBANI,
PWANI,61,BAGAMOYO,613,MIONO,61321,KIKARO,
PWANI,61,BAGAMOYO,613,MIONO,61321,MANDERA,
PWANI,61,BAGAMOYO,613,MIONO,61321,MIHUGA,
PWANI,61,BAGAMOYO,613,MIONO,61321,KWEIKONJE,
PWANI,61,BAGAMOYO,613,MKANGE,61322,MKANGE,
PWANI,61,BAGAMOYO,613,MKANGE,61322,MATIPWILI,
PWANI,61,BAGAMOYO,613,MKANGE,61322,GONGO,
PWANI,61,BAGAMOYO,613,MKANGE,61322,MANDAMAZINGARA,
PWANI,61,BAGAMOYO,613,MKANGE,61322,SAADANI,
PWANI,61,BAGAMOYO,613,MAPINGA,61323,SAADANI,KIBOSHA
PWANI,61,BAGAMOYO,613,MAPINGA,61323,SAADANI,MTAMBANI
PWANI,61,BAGAMOYO,613,MAPINGA,61323,SAADANI,KIMELE
PWANI,61,BAGAMOYO,613,MAPINGA,61323,SAADANI,UDINDIVU
PWANI,61,BAGAMOYO,613,MAPINGA,61323,SAADANI,CHANGWAHELA
PWANI,61,BAGAMOYO,613,MAPINGA,61323,SAADANI,KIEMBENI
PWANI,61,BAGAMOYO,613,MAPINGA,61323,SAADANI,TUNGUTUNGU
PWANI,61,BAGAMOYO,613,MAPINGA,61323,SAADANI,KIHARAKA
PWANI,61,BAGAMOYO,613,NIA NJEMA,61324,SAADANI,KIMARANG’OMBE
PWANI,61,BAGAMOYO,613,NIA NJEMA,61324,SAADANI,MAGOMENI “B”
PWANI,61,BAGAMOYO,613,NIA NJEMA,61324,SAADANI,MAGOMENI “A”
PWANI,61,BAGAMOYO,613,NIA NJEMA,61324,SAADANI,NIA NJEMA A
PWANI,61,BAGAMOYO,613,NIA NJEMA,61324,SAADANI,NIA NJEMA B
PWANI,61,BAGAMOYO,613,NIA NJEMA,61324,SAADANI,NIA NJEMA C
PWANI,61,BAGAMOYO,613,KISUTU,61325,SAADANI,KISUTU
PWANI,61,BAGAMOYO,613,KISUTU,61325,SAADANI,MIANZINI “A”
PWANI,61,BAGAMOYO,613,KISUTU,61325,SAADANI,MIANZINI “B”
PWANI,61,BAGAMOYO,613,KISUTU,61325,SAADANI,MWEMBE MKOLE
PWANI,61,BAGAMOYO,613,MAKURUNGE,61326,SAADANI,MTONI
PWANI,61,BAGAMOYO,613,MAKURUNGE,61326,SAADANI,MKWAJUNI
PWANI,61,BAGAMOYO,613,MAKURUNGE,61326,SAADANI,GEZAULOLE
PWANI,61,BAGAMOYO,613,MAKURUNGE,61326,SAADANI,KIFUNDE
PWANI,61,BAGAMOYO,613,MAKURUNGE,61326,SAADANI,RAZABA
PWANI,61,BAGAMOYO,613,MAKURUNGE,61326,SAADANI,KITAME
PWANI,61,BAGAMOYO,613,MAKURUNGE,61326,SAADANI,KIBAONI
PWANI,61,KISARAWE,614,KISARAWE,61401,KISARAWE,KISARAWE
PWANI,61,KISARAWE,614,KISARAWE,61401,KISARAWE,BOMANI
PWANI,61,KISARAWE,614,KISARAWE,61401,KISARAWE,KIBAONI
PWANI,61,KISARAWE,614,KISARAWE,61401,KISARAWE,KIMANI
PWANI,61,KISARAWE,614,KILUVYA,61402,KISARAWE,KILUVYA
PWANI,61,KISARAWE,614,KILUVYA,61402,KISARAWE,MLONGANZILA
PWANI,61,KISARAWE,614,KILUVYA,61402,KISARAWE,MADUKANI
PWANI,61,KISARAWE,614,KILUVYA,61402,KISARAWE,MAKURUNGE
PWANI,61,KISARAWE,614,MASAKI,61403,MASAKI,MTWINI
PWANI,61,KISARAWE,614,MASAKI,61403,MASAKI,MASAKI MJINI
PWANI,61,KISARAWE,614,MASAKI,61403,MASAKI,KIDUGALO
PWANI,61,KISARAWE,614,MASAKI,61403,MASAKI,KIBESA
PWANI,61,KISARAWE,614,MASAKI,61403,MASAKI,MWALE
PWANI,61,KISARAWE,614,MASAKI,61403,MASAKI,KIBWEGELE
PWANI,61,KISARAWE,614,MASAKI,61403,SUNGWI,KIMBARANGANJI
PWANI,61,KISARAWE,614,MASAKI,61403,SUNGWI,SUNGWI MJINI
PWANI,61,KISARAWE,614,MASAKI,61403,SUNGWI,SUNGWI KATI
PWANI,61,KISARAWE,614,MASAKI,61403,SUNGWI,SUNGWI KASKAZINI
PWANI,61,KISARAWE,614,MASAKI,61403,SUNGWI,SUNGWI MASHARIKI
PWANI,61,KISARAWE,614,MASAKI,61403,KISANGA,KISANGA MJINI
PWANI,61,KISARAWE,614,MASAKI,61403,KISANGA,KOLA
PWANI,61,KISARAWE,614,MASAKI,61403,KISANGA,KIBWENI
PWANI,61,KISARAWE,614,MASAKI,61403,KISANGA,FUKWI
PWANI,61,KISARAWE,614,MASAKI,61403,KISANGA,KITUNDA
PWANI,61,KISARAWE,614,MASAKI,61403,KISANGA,NZASA
PWANI,61,KISARAWE,614,MASAKI,61403,GUMBA,GUMBA MJINI
PWANI,61,KISARAWE,614,MASAKI,61403,GUMBA,BOKELA
PWANI,61,KISARAWE,614,MASAKI,61403,GUMBA,MWANGELE
PWANI,61,KISARAWE,614,MASAKI,61403,GUMBA,NGUGU
PWANI,61,KISARAWE,614,MSIMBU,61404,GUMBA,MSIMBU
PWANI,61,KISARAWE,614,MSIMBU,61404,GUMBA,HOMBOZA
PWANI,61,KISARAWE,614,MSIMBU,61404,GUMBA,KITANGA
PWANI,61,KISARAWE,614,MSIMBU,61404,GUMBA,MAGURUWE
PWANI,61,KISARAWE,614,MSIMBU,61404,GUMBA,LUHANGAI
PWANI,61,KISARAWE,614,MSIMBU,61404,GUMBA,MWANZO MGUMU
PWANI,61,KISARAWE,614,MSIMBU,61404,GUMBA,CHAMBASI
PWANI,61,KISARAWE,614,MZENGA,61405,MZENGA ‘A’,MZENGA ‘A’
PWANI,61,KISARAWE,614,MZENGA,61405,MZENGA ‘A’,BEPELE
PWANI,61,KISARAWE,614,MZENGA,61405,MZENGA ‘A’,KIZUIANI
PWANI,61,KISARAWE,614,MZENGA,61405,MZENGA ‘A’,SUNGURA
PWANI,61,KISARAWE,614,MZENGA,61405,MZENGA ‘A’,BWAWANI
PWANI,61,KISARAWE,614,MZENGA,61405,MITENGWE,MITENGWE MASHARIKI
PWANI,61,KISARAWE,614,MZENGA,61405,MITENGWE,VIDETE
PWANI,61,KISARAWE,614,MZENGA,61405,MITENGWE,MTUKULA
PWANI,61,KISARAWE,614,MZENGA,61405,MITENGWE,MITENGWE MAGHARIBI
PWANI,61,KISARAWE,614,MZENGA,61405,MITENGWE,KICHANGANI
PWANI,61,KISARAWE,614,MZENGA,61405,MITENGWE,MWENDAPOLE
PWANI,61,KISARAWE,614,MZENGA,61405,VILABWA,VILABWA
PWANI,61,KISARAWE,614,MZENGA,61405,VILABWA,KIFURU  TIMTIM
PWANI,61,KISARAWE,614,MZENGA,61405,VILABWA,MTONGANI
PWANI,61,KISARAWE,614,MZENGA,61405,VILABWA,KINYEMVULU
PWANI,61,KISARAWE,614,MZENGA,61405,CHAKENGE,CHAKENGE
PWANI,61,KISARAWE,614,MZENGA,61405,CHAKENGE,TURINI
PWANI,61,KISARAWE,614,MZENGA,61405,CHAKENGE,MZAMBARAUNI
PWANI,61,KISARAWE,614,MZENGA,61405,CHAKENGE,MKENGE
PWANI,61,KISARAWE,614,VIHINGO,61406,CHAMALALE,BONDENI
PWANI,61,KISARAWE,614,VIHINGO,61406,CHAMALALE,CHAMALALE
PWANI,61,KISARAWE,614,VIHINGO,61406,MIHUGWE,BIDIGA
PWANI,61,KISARAWE,614,VIHINGO,61406,MIHUGWE,MIHUGWE
PWANI,61,KISARAWE,614,VIHINGO,61406,KIBWEMWENDA,GEZAULOLE
PWANI,61,KISARAWE,614,VIHINGO,61406,KIBWEMWENDA,MAKUTUPOLA
PWANI,61,KISARAWE,614,VIHINGO,61406,KIBWEMWENDA,MSESE
PWANI,61,KISARAWE,614,VIHINGO,61406,MZENGA ‘B’,MZENGA B
PWANI,61,KISARAWE,614,VIHINGO,61406,MZENGA ‘B’,KIZOTA
PWANI,61,KISARAWE,614,VIHINGO,61406,MZENGA ‘B’,KJANG'ANDE
PWANI,61,KISARAWE,614,VIHINGO,61406,MALANGALANGA,MALANGALANGA
PWANI,61,KISARAWE,614,VIHINGO,61406,MALANGALANGA,TALIANI
PWANI,61,KISARAWE,614,VIHINGO,61406,MALANGALANGA,MAYASA
PWANI,61,KISARAWE,614,VIHINGO,61406,SANGWE,CHANG’OMBE
PWANI,61,KISARAWE,614,VIHINGO,61406,SANGWE,MFURU
PWANI,61,KISARAWE,614,VIHINGO,61406,SANGWE,SANGWE MJINI
PWANI,61,KISARAWE,614,VIHINGO,61406,SANGWE,PANGANI .
PWANI,61,KISARAWE,614,VIHINGO,61406,VIHINGO,VIHINGO
PWANI,61,KISARAWE,614,KURUI,61407,KURUI,KURUI A
PWANI,61,KISARAWE,614,KURUI,61407,KURUI,KURUI B
PWANI,61,KISARAWE,614,KURUI,61407,ZEGERO,KIZOGOLO
PWANI,61,KISARAWE,614,KURUI,61407,ZEGERO,ZEGERO SHULENI
PWANI,61,KISARAWE,614,KURUI,61407,ZEGERO,NGOBWE
PWANI,61,KISARAWE,614,KURUI,61407,MTAKAYO,JARIBU TENA
PWANI,61,KISARAWE,614,KURUI,61407,MTAKAYO,MTAKAYO SHULENI
PWANI,61,KISARAWE,614,KURUI,61407,MTAKAYO,LUGOLOGOLO
PWANI,61,KISARAWE,614,KURUI,61407,KIDUGALO,MAJUMBA SITA
PWANI,61,KISARAWE,614,KURUI,61407,KIDUGALO,KIDUGALO
PWANI,61,KISARAWE,614,MARUI,61408,TITU,GEZA ULOLE
PWANI,61,KISARAWE,614,MARUI,61408,TITU,MAJUMBA SITA
PWANI,61,KISARAWE,614,MARUI,61408,TITU,SHULENI
PWANI,61,KISARAWE,614,MARUI,61408,KIHARE,NG’UTA
PWANI,61,KISARAWE,614,MARUI,61408,KIHARE,BIKI
PWANI,61,KISARAWE,614,MARUI,61408,KIHARE,BOZI
PWANI,61,KISARAWE,614,MARUI,61408,MNGWATA,MKERE
PWANI,61,KISARAWE,614,MARUI,61408,MNGWATA,KISOTI
PWANI,61,KISARAWE,614,MARUI,61408,MNGWATA,UVIHANGANI
PWANI,61,KISARAWE,614,MARUI,61408,KISANGIRE,KISANGIRE
PWANI,61,KISARAWE,614,MARUI,61408,KISANGIRE,BUDUGE
PWANI,61,KISARAWE,614,MARUI,61408,MIPERA,MIPERA
PWANI,61,KISARAWE,614,MARUI,61408,MIPERA,MWELANZI
PWANI,61,KISARAWE,614,MARUI,61408,MIPERA,MTUNANI
PWANI,61,KISARAWE,614,MARUI,61408,MIPERA,MGAMA
PWANI,61,KISARAWE,614,MAFIZI,61409,MAFIZI,MAFIZI
PWANI,61,KISARAWE,614,MAFIZI,61409,MAFIZI,BWEMBWELA
PWANI,61,KISARAWE,614,MAFIZI,61409,MAFIZI,MWANAMSEKWA
PWANI,61,KISARAWE,614,MAFIZI,61409,MAFIZI,VISIMA VITATU
PWANI,61,KISARAWE,614,MAFIZI,61409,MAFIZI,MAYAMBE
PWANI,61,KISARAWE,614,MAFIZI,61409,NYANI,KIMEREMETA
PWANI,61,KISARAWE,614,MAFIZI,61409,NYANI,TEMO
PWANI,61,KISARAWE,614,MAFIZI,61409,NYANI,NYANI SHULENI
PWANI,61,KISARAWE,614,MAFIZI,61409,KIMALAMISALE,KIMALAMISALE
PWANI,61,KISARAWE,614,MAFIZI,61409,KIMALAMISALE,KIGOGO
PWANI,61,KISARAWE,614,MAFIZI,61409,GWATA,KIPORA
PWANI,61,KISARAWE,614,MAFIZI,61409,GWATA,CHEKERENI
PWANI,61,KISARAWE,614,MAFIZI,61409,GWATA,VIZEMBE
PWANI,61,KISARAWE,614,MAFIZI,61409,GWATA,SOKONI
PWANI,61,KISARAWE,614,MAFIZI,61409,GWATA,DOLOLO
PWANI,61,KISARAWE,614,MAFIZI,61409,GWATA,MASIMBA
PWANI,61,KISARAWE,614,MAFIZI,61409,VING’ANDI,TAZARA
PWANI,61,KISARAWE,614,MAFIZI,61409,VING’ANDI,DOLOLO
PWANI,61,KISARAWE,614,MAFIZI,61409,VING’ANDI,MKUNDI
PWANI,61,KISARAWE,614,MARUMBO,61410,MARUMBO,TONDO
PWANI,61,KISARAWE,614,MARUMBO,61410,MARUMBO,BANGU
PWANI,61,KISARAWE,614,MARUMBO,61410,MARUMBO,MARUMBO
PWANI,61,KISARAWE,614,MARUMBO,61410,MARUMBO,ZUNGUNI
PWANI,61,KISARAWE,614,MARUMBO,61410,KITONGA,KITONGA CHINI
PWANI,61,KISARAWE,614,MARUMBO,61410,KITONGA,VIWEGE
PWANI,61,KISARAWE,614,MARUMBO,61410,PALAKA,PALAKA ‘A’
PWANI,61,KISARAWE,614,MARUMBO,61410,PALAKA,KIFURU
PWANI,61,KISARAWE,614,MARUMBO,61410,PALAKA,LUKOSE
PWANI,61,KISARAWE,614,MARUMBO,61410,PALAKA,PALAKA ‘B’
PWANI,61,KISARAWE,614,MARUMBO,61410,KIVUKONI,KIBERUBERU
PWANI,61,KISARAWE,614,MARUMBO,61410,KIVUKONI,MFURU
PWANI,61,KISARAWE,614,MARUMBO,61410,KIVUKONI,LUBANE
PWANI,61,KISARAWE,614,MARUMBO,61410,KIKWETE,KWA MALETA
PWANI,61,KISARAWE,614,MARUMBO,61410,KIKWETE,KWA MSIGA
PWANI,61,KISARAWE,614,MARUMBO,61410,CHANG’OMBE,KITAMBA
PWANI,61,KISARAWE,614,MARUMBO,61410,CHANG’OMBE,MANOLO
PWANI,61,KISARAWE,614,MSANGA,61411,MSANGA,MSANGA SOKONI
PWANI,61,KISARAWE,614,MSANGA,61411,MSANGA,GOME
PWANI,61,KISARAWE,614,MSANGA,61411,MSANGA,NGULUNGULU
PWANI,61,KISARAWE,614,MSANGA,61411,MIANZI,UKAMBANGWANI
PWANI,61,KISARAWE,614,MSANGA,61411,MIANZI,UMUOMBONI
PWANI,61,KISARAWE,614,MSANGA,61411,BEMBEZA,BEMBEZA
PWANI,61,KISARAWE,614,MSANGA,61411,BEMBEZA,KIBULULU
PWANI,61,KISARAWE,614,MSANGA,61411,VISIGA,VISIGA NJIA NNE
PWANI,61,KISARAWE,614,MSANGA,61411,VISIGA,VISIGA ‘B’
PWANI,61,KISARAWE,614,MANEROMANGO,61412,MANEROMANGO SOKONI,MIKUNGUGU
PWANI,61,KISARAWE,614,MANEROMANGO,61412,MANEROMANGO SOKONI,UBENANI
PWANI,61,KISARAWE,614,MANEROMANGO,61412,MANEROMANGO SOKONI,MADUGIKE
PWANI,61,KISARAWE,614,MANEROMANGO,61412,MANEROMANGO SOKONI,UMINDUNI
PWANI,61,KISARAWE,614,MANEROMANGO,61412,MANEROMANGO SOKONI,SOKONI
PWANI,61,KISARAWE,614,MANEROMANGO,61412,MANEROMANGO SOKONI,TUNGINI
PWANI,61,KISARAWE,614,MANEROMANGO,61412,MANAROMANGO KASKAZINI,KWASI
PWANI,61,KISARAWE,614,MANEROMANGO,61412,MANAROMANGO KASKAZINI,UMBONGONI
PWANI,61,KISARAWE,614,MANEROMANGO,61412,MANAROMANGO KASKAZINI,UMBWATENI
PWANI,61,KISARAWE,614,MANEROMANGO,61412,MANAROMANGO KASKAZINI,SEMBE
PWANI,61,KISARAWE,614,MANEROMANGO,61412,MSEGAMO,MSEGAMO ‘A’
PWANI,61,KISARAWE,614,MANEROMANGO,61412,MSEGAMO,MSEGAMO SHULENI
PWANI,61,KISARAWE,614,MANEROMANGO,61412,MSEGAMO,MSEGAMO B
PWANI,61,KISARAWE,614,MANEROMANGO,61412,KIDUGALO CHAKANGA,KIDUGALO KHANGA
PWANI,61,KISARAWE,614,MANEROMANGO,61412,KIDUGALO CHAKANGA,MNANILA
PWANI,61,KISARAWE,614,MANEROMANGO,61412,KIDUGALO CHAKANGA,VITUKA
PWANI,61,KISARAWE,614,MANEROMANGO,61412,KIDUGALO CHAKANGA,GELELO
PWANI,61,KISARAWE,614,KIBUTA,61413,MTAMBA,KISISO
PWANI,61,KISARAWE,614,KIBUTA,61413,MTAMBA,MTAMBA
PWANI,61,KISARAWE,614,KIBUTA,61413,MTAMBA,MPIGI
PWANI,61,KISARAWE,614,KIBUTA,61413,KAUZENI,KAUZENI JUU
PWANI,61,KISARAWE,614,KIBUTA,61413,KAUZENI,KAUZENI CHINI
PWANI,61,KISARAWE,614,KIBUTA,61413,KIBUTA,ULUGOMANI
PWANI,61,KISARAWE,614,KIBUTA,61413,KIBUTA,BEMBEZA
PWANI,61,KISARAWE,614,KIBUTA,61413,KIBUTA,KIBUTA SOKONI
PWANI,61,KISARAWE,614,KIBUTA,61413,MLOO,KIBITU
PWANI,61,KISARAWE,614,KIBUTA,61413,MLOO,MAJICHUMVI
PWANI,61,KISARAWE,614,KIBUTA,61413,MLOO,NG'HUZU
PWANI,61,KISARAWE,614,KIBUTA,61413,BWAMA,NYEGELEHU
PWANI,61,KISARAWE,614,KIBUTA,61413,BWAMA,KIBUNGO
PWANI,61,KISARAWE,614,KIBUTA,61413,BWAMA,VIKUNGWA
PWANI,61,KISARAWE,614,KIBUTA,61413,BWAMA,BWAMA
PWANI,61,KISARAWE,614,KIBUTA,61413,CHANG’OMBE ‘B’,MTORO
PWANI,61,KISARAWE,614,KIBUTA,61413,CHANG’OMBE ‘B’,NGULANGWA
PWANI,61,KISARAWE,614,KIBUTA,61413,MASANGANYA,CHAMGOI
PWANI,61,KISARAWE,614,KIBUTA,61413,MASANGANYA,BOMANI
PWANI,61,KISARAWE,614,KIBUTA,61413,MASANGANYA,MLEGELE
PWANI,61,KISARAWE,614,KIBUTA,61413,MASANGANYA,MFULUWILI
PWANI,61,KISARAWE,614,KIBUTA,61413,MUHAGA,KITONDWE ‘A’
PWANI,61,KISARAWE,614,KIBUTA,61413,MUHAGA,KITONDWE ‘B’
PWANI,61,KISARAWE,614,KIBUTA,61413,MUHAGA,MHAGA SHULENI
PWANI,61,KISARAWE,614,CHOLE,61414,CHOLE,KWA PONZA
PWANI,61,KISARAWE,614,CHOLE,61414,CHOLE,SHULENI
PWANI,61,KISARAWE,614,CHOLE,61414,CHOLE,CHOLE
PWANI,61,KISARAWE,614,CHOLE,61414,CHOLE,EGEYA
PWANI,61,KISARAWE,614,CHOLE,61414,CHOLE,MUWADA
PWANI,61,KISARAWE,614,CHOLE,61414,CHOLE,SEKONDARI
PWANI,61,KISARAWE,614,CHOLE,61414,KWALA,MBUGUNI
PWANI,61,KISARAWE,614,CHOLE,61414,KWALA,SOBONDOLE
PWANI,61,KISARAWE,614,CHOLE,61414,KWALA,KISETO
PWANI,61,KISARAWE,614,CHOLE,61414,KWALA,VIYOMBO
PWANI,61,KISARAWE,614,CHOLE,61414,KWALA,KWALA
PWANI,61,KISARAWE,614,CHOLE,61414,KWALA,SAMVULA
PWANI,61,KISARAWE,614,CHOLE,61414,KURUI,KURUI ‘A’
PWANI,61,KISARAWE,614,CHOLE,61414,KURUI,KURUI ‘B’
PWANI,61,KISARAWE,614,CHOLE,61414,YOMBO LUKINGA,BARABARANI
PWANI,61,KISARAWE,614,CHOLE,61414,YOMBO LUKINGA,NDOGOYO
PWANI,61,KISARAWE,614,CHOLE,61414,YOMBO LUKINGA,SHULENI
PWANI,61,KISARAWE,614,CHOLE,61414,MAFUMBI,SONGAMBELE
PWANI,61,KISARAWE,614,CHOLE,61414,MAFUMBI,UMOJA
PWANI,61,KISARAWE,614,CHOLE,61414,SOFU,SOFU
PWANI,61,KISARAWE,614,CHOLE,61414,SOFU,MKOGA
PWANI,61,KISARAWE,614,VIKUMBURU,61415,VIKUMBURU,SOKONI
PWANI,61,KISARAWE,614,VIKUMBURU,61415,VIKUMBURU,KWA MIGOKO
PWANI,61,KISARAWE,614,VIKUMBURU,61415,VIKUMBURU,KWA MBETELA
PWANI,61,KISARAWE,614,VIKUMBURU,61415,VIKUMBURU,KWA MTITU
PWANI,61,KISARAWE,614,VIKUMBURU,61415,KORESA,KWA MKWEWA
PWANI,61,KISARAWE,614,VIKUMBURU,61415,KORESA,KWA KIBANDA
PWANI,61,KISARAWE,614,VIKUMBURU,61415,KORESA,KWA TAMBUKA
PWANI,61,KISARAWE,614,VIKUMBURU,61415,KITONGA,KITONGA MJINI
PWANI,61,KISARAWE,614,VIKUMBURU,61415,KITONGA,KITONGA CHINI
PWANI,61,KISARAWE,614,VIKUMBURU,61415,MTUNANI,KWA LUHENGO
PWANI,61,KISARAWE,614,VIKUMBURU,61415,MTUNANI,MWEMBEHASARA
PWANI,61,KISARAWE,614,VIKUMBURU,61415,PANGA LA MWINGEREZA,KWA ZAVU
PWANI,61,KISARAWE,614,VIKUMBURU,61415,PANGA LA MWINGEREZA,KWA GOMA
PWANI,61,KISARAWE,614,VIKUMBURU,61415,PANGA LA MWINGEREZA,KWA MADOGO
PWANI,61,KISARAWE,614,BOGA,61416,MEGWA,MENGWA ‘A’
PWANI,61,KISARAWE,614,BOGA,61416,MEGWA,MAGOZA
PWANI,61,KISARAWE,614,BOGA,61416,BOGA,BOGA ‘A’
PWANI,61,KISARAWE,614,BOGA,61416,BOGA,BOGA ‘B’
PWANI,61,KISARAWE,614,BOGA,61416,BOGA,BOGA ‘C’
PWANI,61,KISARAWE,614,BOGA,61416,BOGA,MLIMA WA DHAMBI
PWANI,61,KISARAWE,614,BOGA,61416,NGONGELE,NGONGELE ‘A’
PWANI,61,KISARAWE,614,BOGA,61416,NGONGELE,NGONGELE ‘B’
PWANI,61,KISARAWE,614,BOGA,61416,CHALE,MSIKITINI
PWANI,61,KISARAWE,614,BOGA,61416,CHALE,SHULENI
PWANI,61,KISARAWE,614,BOGA,61416,CHALE,MANGUNGU
PWANI,61,KISARAWE,614,KAZIMZUMBWI,61417,CHALE,KAZIMZUMBWI
PWANI,61,KISARAWE,614,KAZIMZUMBWI,61417,CHALE,SANZE
PWANI,61,KISARAWE,614,KAZIMZUMBWI,61417,CHALE,KIFURU
PWANI,61,KISARAWE,614,KAZIMZUMBWI,61417,CHALE,VISEGESE
PWANI,61,MKURANGA,615,MKURANGA,61501,MKURANGA,MKURANGA A
PWANI,61,MKURANGA,615,MKURANGA,61501,MKURANGA,MKURANGA B
PWANI,61,MKURANGA,615,MKURANGA,61501,MKURANGA,MGAWA
PWANI,61,MKURANGA,615,MKURANGA,61501,MKURANGA,KIGUZA
PWANI,61,MKURANGA,615,MKURANGA,61501,MKURANGA,BIGWA
PWANI,61,MKURANGA,615,MKURANGA,61501,MKURANGA,MIALE
PWANI,61,MKURANGA,615,MKURANGA,61501,MKWALIA KITUMBO,KIDIDIMO
PWANI,61,MKURANGA,615,MKURANGA,61501,MKWALIA KITUMBO,MKWALIA
PWANI,61,MKURANGA,615,MKURANGA,61501,MKWALIA KITUMBO,KITUMBO
PWANI,61,MKURANGA,615,MKURANGA,61501,SUNGUVUNI,MWAPOFU
PWANI,61,MKURANGA,615,MKURANGA,61501,SUNGUVUNI,MWEMBEMAJI
PWANI,61,MKURANGA,615,MKURANGA,61501,SUNGUVUNI,KICHANGANI
PWANI,61,MKURANGA,615,MKURANGA,61501,DUNDANI,KWA KIBUGULU
PWANI,61,MKURANGA,615,MKURANGA,61501,DUNDANI,RABIKA
PWANI,61,MKURANGA,615,MKURANGA,61501,DUNDANI,KWA JUMA MZEE
PWANI,61,MKURANGA,615,MKURANGA,61501,DUNDANI,MWASANI
PWANI,61,MKURANGA,615,MKURANGA,61501,DUNDANI,BIGWA
PWANI,61,MKURANGA,615,KIPARANG'ANDA,61502,KIPARANG'ANDA A,KIKUNGO
PWANI,61,MKURANGA,615,KIPARANG'ANDA,61502,KIPARANG'ANDA A,MSASA
PWANI,61,MKURANGA,615,KIPARANG'ANDA,61502,KIPARANG'ANDA A,KIMANYILE
PWANI,61,MKURANGA,615,KIPARANG'ANDA,61502,KIPARANG'ANDA A,KEMBANI
PWANI,61,MKURANGA,615,KIPARANG'ANDA,61502,KIPARANG'ANDA A,ZALALA
PWANI,61,MKURANGA,615,KIPARANG'ANDA,61502,KIPARANG'ANDA A,FINZI
PWANI,61,MKURANGA,615,KIPARANG'ANDA,61502,KIPARANG'ANDA B,BARABARANI
PWANI,61,MKURANGA,615,KIPARANG'ANDA,61502,KIPARANG'ANDA B,MPILU
PWANI,61,MKURANGA,615,KIPARANG'ANDA,61502,KIPARANG'ANDA B,NYAMWALILE
PWANI,61,MKURANGA,615,KIPARANG'ANDA,61502,KIPARANG'ANDA B,ZEGERO
PWANI,61,MKURANGA,615,KIPARANG'ANDA,61502,KIPARANG'ANDA B,VIKONGE
PWANI,61,MKURANGA,615,KIPARANG'ANDA,61502,MAGOZA,KIDAI
PWANI,61,MKURANGA,615,KIPARANG'ANDA,61502,MAGOZA,CHOGA
PWANI,61,MKURANGA,615,KIPARANG'ANDA,61502,MAGOZA,MAGOZA
PWANI,61,MKURANGA,615,KIPARANG'ANDA,61502,MAGOZA,BOMBWE
PWANI,61,MKURANGA,615,KIPARANG'ANDA,61502,MAGOZA,LUBAMBAWE
PWANI,61,MKURANGA,615,KIPARANG'ANDA,61502,MAGOZA,NGALAMBEMBA
PWANI,61,MKURANGA,615,KIPARANG'ANDA,61502,KIBULULU,KIBULULU
PWANI,61,MKURANGA,615,KIPARANG'ANDA,61502,KIBULULU,MKANZI
PWANI,61,MKURANGA,615,KIPARANG'ANDA,61502,KIBULULU,CHOGONI
PWANI,61,MKURANGA,615,KIPARANG'ANDA,61502,KISE,BUKINI
PWANI,61,MKURANGA,615,KIPARANG'ANDA,61502,KISE,KISE
PWANI,61,MKURANGA,615,KIPARANG'ANDA,61502,KISE,KANGAJA
PWANI,61,MKURANGA,615,KIPARANG'ANDA,61502,KISE,KIDAI
PWANI,61,MKURANGA,615,KIPARANG'ANDA,61502,KISE,CHOGA
PWANI,61,MKURANGA,615,MBEZI,61503,MIHEKELA,MIHEKELA A
PWANI,61,MKURANGA,615,MBEZI,61503,MIHEKELA,KIMBOKEHA
PWANI,61,MKURANGA,615,MBEZI,61503,MIHEKELA,MIHEKELA B
PWANI,61,MKURANGA,615,MBEZI,61503,MPONGA,MPONGA KATI
PWANI,61,MKURANGA,615,MBEZI,61503,MPONGA,MISASA
PWANI,61,MKURANGA,615,MBEZI,61503,MPONGA,TUNDU
PWANI,61,MKURANGA,615,MBEZI,61503,MPONGA,MGOLA
PWANI,61,MKURANGA,615,MBEZI,61503,MPONGA,MAHINGA
PWANI,61,MKURANGA,615,MBEZI,61503,NGARAMBE,NGARAMBE KATI
PWANI,61,MKURANGA,615,MBEZI,61503,NGARAMBE,NGARAMBE KUBWA
PWANI,61,MKURANGA,615,MBEZI,61503,NGARAMBE,MLOWE
PWANI,61,MKURANGA,615,MBEZI,61503,NGARAMBE,KWA MOSHI
PWANI,61,MKURANGA,615,MBEZI,61503,NGARAMBE,UMASENGANI
PWANI,61,MKURANGA,615,MBEZI,61503,MSUFINI/KIDETE,MSUFINI
PWANI,61,MKURANGA,615,MBEZI,61503,MSUFINI/KIDETE,MSOROKELO
PWANI,61,MKURANGA,615,MBEZI,61503,MSUFINI/KIDETE,GONGONI
PWANI,61,MKURANGA,615,MBEZI,61503,MSUFINI/KIDETE,KIDETE
PWANI,61,MKURANGA,615,MBEZI,61503,MSUFINI/KIDETE,MANGEHELE
PWANI,61,MKURANGA,615,MBEZI,61503,MSUFINI/KIDETE,KIVULALE
PWANI,61,MKURANGA,615,MBEZI,61503,MWANZENGA,KIMBILI
PWANI,61,MKURANGA,615,MBEZI,61503,MWANZENGA,MIHANDE
PWANI,61,MKURANGA,615,MBEZI,61503,MWANZENGA,MWANZENGA
PWANI,61,MKURANGA,615,MBEZI,61503,MWANZENGA,MWATEMO
PWANI,61,MKURANGA,615,MBEZI,61503,MWANZENGA,MBONZORO
PWANI,61,MKURANGA,615,MBEZI,61503,MWANZENGA,GOMAPEMBE
PWANI,61,MKURANGA,615,MBEZI,61503,MSORWA,MSORWA MJINI
PWANI,61,MKURANGA,615,MBEZI,61503,MSORWA,KIKOPE
PWANI,61,MKURANGA,615,MBEZI,61503,KISAYANI,KISAYANI MJINI
PWANI,61,MKURANGA,615,MBEZI,61503,KISAYANI,PAYO
PWANI,61,MKURANGA,615,MBEZI,61503,KISAYANI,KIKURWI
PWANI,61,MKURANGA,615,MBEZI,61503,KISAYANI,MKUBU
PWANI,61,MKURANGA,615,TAMBANI,61504,MLAMLENI,NYATANGA A
PWANI,61,MKURANGA,615,TAMBANI,61504,MLAMLENI,NYATANGA B
PWANI,61,MKURANGA,615,TAMBANI,61504,MLAMLENI,BINGUNI A
PWANI,61,MKURANGA,615,TAMBANI,61504,MLAMLENI,BINGUNI B
PWANI,61,MKURANGA,615,TAMBANI,61504,MLAMLENI,VIDETE
PWANI,61,MKURANGA,615,TAMBANI,61504,MLAMLENI,UTUNGEMWAGO
PWANI,61,MKURANGA,615,TAMBANI,61504,MLAMLENI,KIMBANGULILE B
PWANI,61,MKURANGA,615,TAMBANI,61504,MLAMLENI,CHURWI
PWANI,61,MKURANGA,615,TAMBANI,61504,MLAMLENI,KISASA
PWANI,61,MKURANGA,615,TAMBANI,61504,LUZANDO,UTUNGE A
PWANI,61,MKURANGA,615,TAMBANI,61504,LUZANDO,LUZANDO
PWANI,61,MKURANGA,615,TAMBANI,61504,LUZANDO,UTNGE B
PWANI,61,MKURANGA,615,TAMBANI,61504,LUZANDO,UTUNGE C
PWANI,61,MKURANGA,615,TAMBANI,61504,TAMBANI,TAMBANI A
PWANI,61,MKURANGA,615,TAMBANI,61504,TAMBANI,TAMBANI B
PWANI,61,MKURANGA,615,TAMBANI,61504,TAMBANI,MKOGA
PWANI,61,MKURANGA,615,TAMBANI,61504,TAMBANI,MIKENGENI
PWANI,61,MKURANGA,615,TAMBANI,61504,TAMBANI,MKOMBOZI
PWANI,61,MKURANGA,615,BUPU,61505,BUPU,BUPU
PWANI,61,MKURANGA,615,BUPU,61505,BUPU,MBEZI
PWANI,61,MKURANGA,615,BUPU,61505,BUPU,KITOHO
PWANI,61,MKURANGA,615,BUPU,61505,BUPU,KIKONGA
PWANI,61,MKURANGA,615,BUPU,61505,MAMDIMPERA,MAMDIMPERA
PWANI,61,MKURANGA,615,BUPU,61505,MAMDIMPERA,CHASIMBA
PWANI,61,MKURANGA,615,BUPU,61505,MAMDIKONGO,MAMDIKONGO
PWANI,61,MKURANGA,615,BUPU,61505,MAMDIKONGO,KONDO MWELANZI
PWANI,61,MKURANGA,615,BUPU,61505,MAMDIKONGO,CHUNGU
PWANI,61,MKURANGA,615,BUPU,61505,MAMDIKONGO,TABORA
PWANI,61,MKURANGA,615,BUPU,61505,TUNDU,TUNDU SHULENI
PWANI,61,MKURANGA,615,BUPU,61505,TUNDU,CHASIMBA
PWANI,61,MKURANGA,615,BUPU,61505,TUNDU,LUBANE
PWANI,61,MKURANGA,615,BUPU,61505,TUNDU,MKANE
PWANI,61,MKURANGA,615,VIKINDU,61506,VIKINDU,VIKINDU
PWANI,61,MKURANGA,615,VIKINDU,61506,VIKINDU,CHANUNGU
PWANI,61,MKURANGA,615,VIKINDU,61506,VIKINDU,NGUNGUTI
PWANI,61,MKURANGA,615,VIKINDU,61506,VIKINDU,MWAJASI
PWANI,61,MKURANGA,615,VIKINDU,61506,VIKINDU,PICHA YA NDEGE
PWANI,61,MKURANGA,615,VIKINDU,61506,KAZOLE,KAZOLE
PWANI,61,MKURANGA,615,VIKINDU,61506,KAZOLE,KAZOLE KUSINI
PWANI,61,MKURANGA,615,VIKINDU,61506,KAZOLE,CHETA
PWANI,61,MKURANGA,615,VIKINDU,61506,KAZOLE,KILONGONI
PWANI,61,MKURANGA,615,VIKINDU,61506,KAZOLE,KAZOLE MASHARIKI
PWANI,61,MKURANGA,615,VIKINDU,61506,PICHA YA NDEGE,PICHA YA NDEGE MJINI
PWANI,61,MKURANGA,615,VIKINDU,61506,PICHA YA NDEGE,KAMEGELE
PWANI,61,MKURANGA,615,VIKINDU,61506,PICHA YA NDEGE,KIDUGWA
PWANI,61,MKURANGA,615,VIKINDU,61506,PICHA YA NDEGE,PICHA YA NDEGE MASHARIKI
PWANI,61,MKURANGA,615,VIKINDU,61506,PICHA YA NDEGE,SOWETO
PWANI,61,MKURANGA,615,VIKINDU,61506,MAGODANI,MAGODANI
PWANI,61,MKURANGA,615,VIKINDU,61506,MAGODANI,FUNGONI
PWANI,61,MKURANGA,615,VIKINDU,61506,MAGODANI,KIGOBEDI
PWANI,61,MKURANGA,615,VIKINDU,61506,KISEMVULE,KISEMVULE
PWANI,61,MKURANGA,615,VIKINDU,61506,KISEMVULE,VIBULA
PWANI,61,MKURANGA,615,VIKINDU,61506,KISEMVULE,MIPERA
PWANI,61,MKURANGA,615,VIKINDU,61506,KISEMVULE,KITANGWI
PWANI,61,MKURANGA,615,VIKINDU,61506,KISEMVULE,UTUNGE
PWANI,61,MKURANGA,615,MWARUSEMBE,61507,MWARUSEMBE,MWARUSEMBE
PWANI,61,MKURANGA,615,MWARUSEMBE,61507,MWARUSEMBE,KITUMBO
PWANI,61,MKURANGA,615,MWARUSEMBE,61507,MWARUSEMBE,LUNYALA
PWANI,61,MKURANGA,615,MWARUSEMBE,61507,MWARUSEMBE,NYAVINONDO
PWANI,61,MKURANGA,615,MWARUSEMBE,61507,MWARUSEMBE,MITOBOTO
PWANI,61,MKURANGA,615,MWARUSEMBE,61507,KINENE,KINENE MJINI
PWANI,61,MKURANGA,615,MWARUSEMBE,61507,KINENE,NYANGOME
PWANI,61,MKURANGA,615,MWARUSEMBE,61507,KINENE,MINAKI
PWANI,61,MKURANGA,615,MWARUSEMBE,61507,KINENE,TIMAI
PWANI,61,MKURANGA,615,MWARUSEMBE,61507,BIGWA,BIGWA MJINI
PWANI,61,MKURANGA,615,MWARUSEMBE,61507,BIGWA,NYAMALAZWA
PWANI,61,MKURANGA,615,MWARUSEMBE,61507,BIGWA,BONG'OLA
PWANI,61,MKURANGA,615,MWARUSEMBE,61507,BIGWA,BIGWA KIBAONI
PWANI,61,MKURANGA,615,MWARUSEMBE,61507,KIZIKO,KIZIKO KATI
PWANI,61,MKURANGA,615,MWARUSEMBE,61507,KIZIKO,CHAKANDE
PWANI,61,MKURANGA,615,MWARUSEMBE,61507,KIZIKO,GWAZO
PWANI,61,MKURANGA,615,MWARUSEMBE,61507,KIZIKO,UZIZI KIZIKO
PWANI,61,MKURANGA,615,MWARUSEMBE,61507,KITONGA,KITONGA GENGENI
PWANI,61,MKURANGA,615,MWARUSEMBE,61507,KITONGA,NGOHOMOLE
PWANI,61,MKURANGA,615,MWARUSEMBE,61507,KITONGA,GOKO
PWANI,61,MKURANGA,615,MWARUSEMBE,61507,KITONGA,UZIZI KITONGA
PWANI,61,MKURANGA,615,SHUNGUBWENI,61508,SHUNGUBWENI,SHUNGUBWENI
PWANI,61,MKURANGA,615,SHUNGUBWENI,61508,SHUNGUBWENI,MDUZI
PWANI,61,MKURANGA,615,SHUNGUBWENI,61508,FUNZA,FUNZA CENTRE
PWANI,61,MKURANGA,615,SHUNGUBWENI,61508,FUNZA,KWAJANGWA
PWANI,61,MKURANGA,615,SHUNGUBWENI,61508,FUNZA,KIKURWI
PWANI,61,MKURANGA,615,SHUNGUBWENI,61508,BOZA,BOZA
PWANI,61,MKURANGA,615,SHUNGUBWENI,61508,BOZA,PALACHA KIPYA
PWANI,61,MKURANGA,615,SHUNGUBWENI,61508,KURUTI,KURUTI
PWANI,61,MKURANGA,615,SHUNGUBWENI,61508,KURUTI,PALACHA
PWANI,61,MKURANGA,615,KITOMONDO,61509,KITOMONDO,KITOMONDO
PWANI,61,MKURANGA,615,KITOMONDO,61509,KITOMONDO,MZAYA
PWANI,61,MKURANGA,615,KITOMONDO,61509,KITOMONDO,CHANUNGU
PWANI,61,MKURANGA,615,KITOMONDO,61509,KITOMONDO,KOKOBO
PWANI,61,MKURANGA,615,KITOMONDO,61509,MITARANDA,MITARANDA
PWANI,61,MKURANGA,615,KITOMONDO,61509,MITARANDA,KIKUMBO
PWANI,61,MKURANGA,615,KITOMONDO,61509,KIWAMBO,KIWAMBO
PWANI,61,MKURANGA,615,KITOMONDO,61509,KIWAMBO,MAHINGI
PWANI,61,MKURANGA,615,KITOMONDO,61509,KIWAMBO,NYANGUNGUTI KASKAZINI
PWANI,61,MKURANGA,615,KITOMONDO,61509,KIWAMBO,MKUGILO
PWANI,61,MKURANGA,615,KITOMONDO,61509,KIKOO,KIKOO/MITANZINI
PWANI,61,MKURANGA,615,KITOMONDO,61509,KIKOO,MAGUNGWI
PWANI,61,MKURANGA,615,KITOMONDO,61509,KIKOO,NYANGUNGUTI KUSINI
PWANI,61,MKURANGA,615,KITOMONDO,61509,KIPERA,KIPERA
PWANI,61,MKURANGA,615,KITOMONDO,61509,KIPERA,MCHIKICHINI
PWANI,61,MKURANGA,615,KITOMONDO,61509,KIPERA,NYAMBEGA
PWANI,61,MKURANGA,615,NJIANNE,61510,NJIANNE,NJIANNE
PWANI,61,MKURANGA,615,NJIANNE,61510,NJIANNE,MITAWA
PWANI,61,MKURANGA,615,NJIANNE,61510,NJIANNE,MITANGA
PWANI,61,MKURANGA,615,NJIANNE,61510,MIKERE,MANDELA
PWANI,61,MKURANGA,615,NJIANNE,61510,MIKERE,MATUNDU
PWANI,61,MKURANGA,615,NJIANNE,61510,MIKERE,KIDUGALO
PWANI,61,MKURANGA,615,NJIANNE,61510,MIKERE,UTANDILANI
PWANI,61,MKURANGA,615,NJIANNE,61510,MIKERE,MIKERE
PWANI,61,MKURANGA,615,NJIANNE,61510,MINGOMBE,MINGOMBE
PWANI,61,MKURANGA,615,NJIANNE,61510,MINGOMBE,NYAMBALA
PWANI,61,MKURANGA,615,NJIANNE,61510,MINGOMBE,KIDUGALO
PWANI,61,MKURANGA,615,NJIANNE,61510,MITEZA,MITEZA
PWANI,61,MKURANGA,615,NJIANNE,61510,MITEZA,RUGONGWE
PWANI,61,MKURANGA,615,NJIANNE,61510,MITEZA,MAKUMBI
PWANI,61,MKURANGA,615,NJIANNE,61510,MITEZA,MADIMKA
PWANI,61,MKURANGA,615,VIANZI,61511,MFURUMWAMBAO,MFURUMWAMBAO
PWANI,61,MKURANGA,615,VIANZI,61511,MFURUMWAMBAO,KIKONGA
PWANI,61,MKURANGA,615,VIANZI,61511,MFURUMWAMBAO,MSONGOLA
PWANI,61,MKURANGA,615,VIANZI,61511,MFURUMWAMBAO,KIBANE
PWANI,61,MKURANGA,615,VIANZI,61511,MFURUMWAMBAO,KIGOBENI
PWANI,61,MKURANGA,615,VIANZI,61511,MAROGORO,MAROGORO
PWANI,61,MKURANGA,615,VIANZI,61511,MAROGORO,MZINGEZINGE
PWANI,61,MKURANGA,615,VIANZI,61511,MAROGORO,SANGATINI
PWANI,61,MKURANGA,615,VIANZI,61511,YAVAYAVA,YAVAYAVA
PWANI,61,MKURANGA,615,VIANZI,61511,YAVAYAVA,BWENI
PWANI,61,MKURANGA,615,VIANZI,61511,YAVAYAVA,VIWEGE
PWANI,61,MKURANGA,615,VIANZI,61511,YAVAYAVA,LUKONDE
PWANI,61,MKURANGA,615,VIANZI,61511,MALELA,MALELA
PWANI,61,MKURANGA,615,VIANZI,61511,MALELA,KIZIMO
PWANI,61,MKURANGA,615,VIANZI,61511,MALELA,MAGOGO
PWANI,61,MKURANGA,615,VIANZI,61511,MALELA,CHANG'OMBE
PWANI,61,MKURANGA,615,VIANZI,61511,VIANZI,VIANZI MJINI
PWANI,61,MKURANGA,615,VIANZI,61511,VIANZI,KWA JOKOO
PWANI,61,MKURANGA,615,VIANZI,61511,VIANZI,NYAMISIKI
PWANI,61,MKURANGA,615,VIANZI,61511,VIANZI,MWAJASI
PWANI,61,MKURANGA,615,VIANZI,61511,VIANZI,CHANG'OMBE
PWANI,61,MKURANGA,615,KIMANZICHANA,61512,KIMANZICHANA KASKAZINI,KIMANZICHANA KWA GONGO
PWANI,61,MKURANGA,615,KIMANZICHANA,61512,KIMANZICHANA KASKAZINI,NYAMLA
PWANI,61,MKURANGA,615,KIMANZICHANA,61512,KIMANZICHANA KASKAZINI,KILIMAMKONGO
PWANI,61,MKURANGA,615,KIMANZICHANA,61512,KIMANZICHANA  KUSINI,NYAMBWAWA
PWANI,61,MKURANGA,615,KIMANZICHANA,61512,KIMANZICHANA  KUSINI,LISIMIKE
PWANI,61,MKURANGA,615,KIMANZICHANA,61512,KIMANZICHANA  KUSINI,UKWAMWA
PWANI,61,MKURANGA,615,KIMANZICHANA,61512,KIMANZICHANA MAGHARIBI,MATOPE
PWANI,61,MKURANGA,615,KIMANZICHANA,61512,KIMANZICHANA MAGHARIBI,KONG'OLO
PWANI,61,MKURANGA,615,KIMANZICHANA,61512,KIMANZICHANA MAGHARIBI,MAZOMLA
PWANI,61,MKURANGA,615,KIMANZICHANA,61512,KILIMAHEWA KASKAZINI,NGUNGULUKA
PWANI,61,MKURANGA,615,KIMANZICHANA,61512,KILIMAHEWA KASKAZINI,MADIMKA
PWANI,61,MKURANGA,615,KIMANZICHANA,61512,KILIMAHEWA KASKAZINI,MKWICHIMBI
PWANI,61,MKURANGA,615,KIMANZICHANA,61512,KILIMAHEWA KASKAZINI,NYAILONGO
PWANI,61,MKURANGA,615,KIMANZICHANA,61512,KILIMAHEWA KASKAZINI,KILIMAHEWA MASHARIKI
PWANI,61,MKURANGA,615,KIMANZICHANA,61512,KILIMAHEWA KASKAZINI,KILIMAHEWA MAGHARIBI
PWANI,61,MKURANGA,615,KIMANZICHANA,61512,MKWECHEMBE,MKWECHEMBE A
PWANI,61,MKURANGA,615,KIMANZICHANA,61512,MKWECHEMBE,MKWECHEMBE B
PWANI,61,MKURANGA,615,KIMANZICHANA,61512,MKWECHEMBE,MIKOLEKOLE
PWANI,61,MKURANGA,615,KIMANZICHANA,61512,KIIMBWANINDI,KIIMBWANINDI
PWANI,61,MKURANGA,615,KIMANZICHANA,61512,KIIMBWANINDI,BETA
PWANI,61,MKURANGA,615,KIMANZICHANA,61512,KIIMBWANINDI,NYAMIKALOGO
PWANI,61,MKURANGA,615,KISIJU,61513,KALOLE,MZAMBARAUNI
PWANI,61,MKURANGA,615,KISIJU,61513,KALOLE,KIWALANI
PWANI,61,MKURANGA,615,KISIJU,61513,KALOLE,KALOLE
PWANI,61,MKURANGA,615,KISIJU,61513,KALOLE,MKUNGUNI
PWANI,61,MKURANGA,615,KISIJU,61513,MAVUNJA,MSAMBANYAMANI
PWANI,61,MKURANGA,615,KISIJU,61513,MAVUNJA,MKUNDI
PWANI,61,MKURANGA,615,KISIJU,61513,MAVUNJA,MAVUNJA
PWANI,61,MKURANGA,615,KISIJU,61513,KOMA,KOMA
PWANI,61,MKURANGA,615,KISIJU,61513,KOMA,MPENDAE
PWANI,61,MKURANGA,615,KISIJU,61513,KOMA,KIUJUNI
PWANI,61,MKURANGA,615,KISIJU,61513,KWALE,KWALE
PWANI,61,MKURANGA,615,KISIJU,61513,KWALE,KASTAM
PWANI,61,MKURANGA,615,KISIJU,61513,KWALE,TONDO WAMAJI
PWANI,61,MKURANGA,615,KISIJU,61513,KISIJU PWANI,KISIJU PWANI
PWANI,61,MKURANGA,615,KISIJU,61513,KISIJU PWANI,MAPUTO
PWANI,61,MKURANGA,615,KISIJU,61513,KISIJU PWANI,ZIWEZIWE
PWANI,61,MKURANGA,615,KISIJU,61513,KEREKESE,MUHAGATANI
PWANI,61,MKURANGA,615,KISIJU,61513,KEREKESE,KEREKESE
PWANI,61,MKURANGA,615,MKAMBA,61514,KIKUNDI,RUGELE
PWANI,61,MKURANGA,615,MKAMBA,61514,KIKUNDI,NYINGEME
PWANI,61,MKURANGA,615,MKAMBA,61514,KIKUNDI,KISANGALAWE
PWANI,61,MKURANGA,615,MKAMBA,61514,KIKUNDI,KONG'ORO
PWANI,61,MKURANGA,615,MKAMBA,61514,KIKUNDI,KIKUNDI
PWANI,61,MKURANGA,615,MKAMBA,61514,KIZOMLA,KIZOMLA
PWANI,61,MKURANGA,615,MKAMBA,61514,KIZOMLA,MPOLIMBO
PWANI,61,MKURANGA,615,MKAMBA,61514,KIZOMLA,MBOPO
PWANI,61,MKURANGA,615,MKAMBA,61514,KIZOMLA,KOFI A
PWANI,61,MKURANGA,615,MKAMBA,61514,KIZOMLA,KOFI B
PWANI,61,MKURANGA,615,MKAMBA,61514,KIZAPALA,KIZAPALA
PWANI,61,MKURANGA,615,MKAMBA,61514,KIZAPALA,NDOLENI
PWANI,61,MKURANGA,615,MKAMBA,61514,KIZAPALA,NYIKENGE
PWANI,61,MKURANGA,615,MKAMBA,61514,TUNGI,TUNGI
PWANI,61,MKURANGA,615,MKAMBA,61514,TUNGI,MBOPO
PWANI,61,MKURANGA,615,MKAMBA,61514,LUPONDO,MKOLEKOLE
PWANI,61,MKURANGA,615,MKAMBA,61514,LUPONDO,NYAMBWAWA
PWANI,61,MKURANGA,615,MKAMBA,61514,LUPONDO,MSUFINI
PWANI,61,MKURANGA,615,MKAMBA,61514,LUPONDO,RUPANDE
PWANI,61,MKURANGA,615,MKAMBA,61514,LUPONDO,BWENGU
PWANI,61,MKURANGA,615,MKAMBA,61514,MKEREZANGE,MKEREZANGE
PWANI,61,MKURANGA,615,MKAMBA,61514,MKEREZANGE,MTUNDUMA
PWANI,61,MKURANGA,615,MKAMBA,61514,MKEREZANGE,MSUFINI
PWANI,61,MKURANGA,615,MKAMBA,61514,KIGODA,MITALAWANDA
PWANI,61,MKURANGA,615,MKAMBA,61514,KIGODA,VIDETE
PWANI,61,MKURANGA,615,MKAMBA,61514,KIGODA,KIGODA
PWANI,61,MKURANGA,615,MKAMBA,61514,KIBUNGUCHANA,KIDAI PWITA
PWANI,61,MKURANGA,615,MKAMBA,61514,KIBUNGUCHANA,KIBUNGUCHANA
PWANI,61,MKURANGA,615,MKAMBA,61514,KIBUNGUCHANA,NDOLENI
PWANI,61,MKURANGA,615,PANZUO,61515,KIBUYUNI,KIBUYUNI
PWANI,61,MKURANGA,615,PANZUO,61515,KIBUYUNI,KINZAE
PWANI,61,MKURANGA,615,PANZUO,61515,KIBUYUNI,MSANGAMWERU
PWANI,61,MKURANGA,615,PANZUO,61515,KIBUYUNI,MALIMKA
PWANI,61,MKURANGA,615,PANZUO,61515,KIBUYUNI,NG'OLE
PWANI,61,MKURANGA,615,PANZUO,61515,MKURUWILI,GONZANI
PWANI,61,MKURANGA,615,PANZUO,61515,MKURUWILI,KWEMBE
PWANI,61,MKURANGA,615,PANZUO,61515,NYATANGA,NYATANGA
PWANI,61,MKURANGA,615,PANZUO,61515,NYATANGA,NGARAWANI
PWANI,61,MKURANGA,615,PANZUO,61515,NYATANGA,CHANG'OMBE
PWANI,61,MKURANGA,615,PANZUO,61515,KIBUDI,KIBUDI
PWANI,61,MKURANGA,615,PANZUO,61515,MBULANI,KIDOKWE
PWANI,61,MKURANGA,615,PANZUO,61515,MBULANI,MZIAZI
PWANI,61,MKURANGA,615,PANZUO,61515,MBULANI,KIDALA
PWANI,61,MKURANGA,615,PANZUO,61515,MBULANI,MBULANI
PWANI,61,MKURANGA,615,PANZUO,61515,MBULANI,KILUNGULE
PWANI,61,MKURANGA,615,PANZUO,61515,KIBESA,KIBESA
PWANI,61,MKURANGA,615,PANZUO,61515,MBEZI MLUNGWANA,KALOLENI
PWANI,61,MKURANGA,615,PANZUO,61515,MBEZI MLUNGWANA,MLUNGWANA
PWANI,61,MKURANGA,615,PANZUO,61515,MBEZI MLUNGWANA,BUPU
PWANI,61,MKURANGA,615,PANZUO,61515,MBEZI MLUNGWANA,KIDUGALO
PWANI,61,MKURANGA,615,NYAMATO,61516,NYANDUTURU,NYANDUTURU A
PWANI,61,MKURANGA,615,NYAMATO,61516,NYANDUTURU,NYANDUTURU B
PWANI,61,MKURANGA,615,NYAMATO,61516,NYANDUTURU,NYAKAZORO
PWANI,61,MKURANGA,615,NYAMATO,61516,NYANDUTURU,KIZIMU
PWANI,61,MKURANGA,615,NYAMATO,61516,NYANDUTURU,MITAWA
PWANI,61,MKURANGA,615,NYAMATO,61516,MKIU,MKIU
PWANI,61,MKURANGA,615,NYAMATO,61516,MKIU,MILONDOLONDO
PWANI,61,MKURANGA,615,NYAMATO,61516,MKIU,PUNDI
PWANI,61,MKURANGA,615,NYAMATO,61516,MKIU,NYASIKINZE/KIZIMA
PWANI,61,MKURANGA,615,NYAMATO,61516,MVULENI,MVULENI MJINI
PWANI,61,MKURANGA,615,NYAMATO,61516,MVULENI,KISANGARAWE
PWANI,61,MKURANGA,615,NYAMATO,61516,MVULENI,MBEBETINI
PWANI,61,MKURANGA,615,NYAMATO,61516,NYAMATO TIPO,NYAKINYO
PWANI,61,MKURANGA,615,NYAMATO,61516,NYAMATO TIPO,NYAMATO BWAWANI
PWANI,61,MKURANGA,615,NYAMATO,61516,MKANOGE,NYAMARINGO
PWANI,61,MKURANGA,615,NYAMATO,61516,MKANOGE,NIKONGWA
PWANI,61,MKURANGA,615,NYAMATO,61516,MKANOGE,MKANOGE
PWANI,61,MKURANGA,615,NYAMATO,61516,KILAMBA,KILAMBA
PWANI,61,MKURANGA,615,NYAMATO,61516,KILAMBA,NGUVU KAZI
PWANI,61,MKURANGA,615,NYAMATO,61516,KILIMAHEWA KUSINI,RUVUNGWI
PWANI,61,MKURANGA,615,NYAMATO,61516,KILIMAHEWA KUSINI,BUNJU
PWANI,61,MKURANGA,615,NYAMATO,61516,KILIMAHEWA KUSINI,MWAKE
PWANI,61,MKURANGA,615,NYAMATO,61516,KILIMAHEWA KUSINI,NYAIRONGO
PWANI,61,MKURANGA,615,LUKANGA,61517,SANGALANI,SANGALANI
PWANI,61,MKURANGA,615,LUKANGA,61517,SANGALANI,NYAMIKUTA
PWANI,61,MKURANGA,615,LUKANGA,61517,SANGALANI,MTYEKE
PWANI,61,MKURANGA,615,LUKANGA,61517,SANGALANI,SHIMO LA UDONGO
PWANI,61,MKURANGA,615,LUKANGA,61517,MISASA,MISASA
PWANI,61,MKURANGA,615,LUKANGA,61517,MISASA,NYAKIOGO
PWANI,61,MKURANGA,615,LUKANGA,61517,MISASA,ZAKWATI
PWANI,61,MKURANGA,615,LUKANGA,61517,MISASA,KIBUPUNI
PWANI,61,MKURANGA,615,LUKANGA,61517,MISASA,MNELEI
PWANI,61,MKURANGA,615,LUKANGA,61517,MISASA,MKONGENI
PWANI,61,MKURANGA,615,LUKANGA,61517,MISASA,MALIBAMBA
PWANI,61,MKURANGA,615,LUKANGA,61517,LUKANGA,LUKANGA A
PWANI,61,MKURANGA,615,LUKANGA,61517,LUKANGA,KIPOTE
PWANI,61,MKURANGA,615,LUKANGA,61517,LUKANGA,KILEMBEA
PWANI,61,MKURANGA,615,LUKANGA,61517,LUKANGA,MILENDE
PWANI,61,MKURANGA,615,LUKANGA,61517,LUKANGA,LUKANGA B
PWANI,61,MKURANGA,615,LUKANGA,61517,MALENDA,MALENDA MJINI
PWANI,61,MKURANGA,615,LUKANGA,61517,MALENDA,NYANGOBO
PWANI,61,MKURANGA,615,LUKANGA,61517,MPIMIO,MPIMIO MJINI
PWANI,61,MKURANGA,615,LUKANGA,61517,MPIMIO,NYANDOLE
PWANI,61,MKURANGA,615,LUKANGA,61517,MPIMIO,NDOMBOKA
PWANI,61,MKURANGA,615,LUKANGA,61517,MPIMIO,NYANDAZI
PWANI,61,MKURANGA,615,LUKANGA,61517,NJOPEKA,NYAMALONDA
PWANI,61,MKURANGA,615,LUKANGA,61517,NJOPEKA,NJOPEKA
PWANI,61,MKURANGA,615,LUKANGA,61517,NJOPEKA,MIKWASU
PWANI,61,MKURANGA,615,LUKANGA,61517,NJOPEKA,KINGOMA
PWANI,61,MKURANGA,615,LUKANGA,61517,NJOPEKA,NYANGOBO
PWANI,61,MKURANGA,615,LUKANGA,61517,NJOPEKA,NDONDWA
PWANI,61,MKURANGA,615,LUKANGA,61517,MKOLA,MKOLA
PWANI,61,MKURANGA,615,LUKANGA,61517,MKOLA,NYAHORO
PWANI,61,MKURANGA,615,LUKANGA,61517,MKOLA,MNDONDO
PWANI,61,MKURANGA,615,LUKANGA,61517,MKOLA,MALONGONI
PWANI,61,MKURANGA,615,LUKANGA,61517,MKOLA,KISINGA
PWANI,61,MKURANGA,615,MAGAWA,61518,MAGAWA,NYAMWAGE
PWANI,61,MKURANGA,615,MAGAWA,61518,MAGAWA,NYAKELE
PWANI,61,MKURANGA,615,MAGAWA,61518,MAGAWA,TUNDUNI
PWANI,61,MKURANGA,615,MAGAWA,61518,MAGAWA,MAGAWA
PWANI,61,MKURANGA,615,MAGAWA,61518,MAKUMBEA,MAKUMBEA
PWANI,61,MKURANGA,615,MAGAWA,61518,MAKUMBEA,MISASA
PWANI,61,MKURANGA,615,MAGAWA,61518,MAKUMBEA,MPUMUNDE
PWANI,61,MKURANGA,615,MAGAWA,61518,MAKUMBEA,SANGARANI
PWANI,61,MKURANGA,615,MAGAWA,61518,KIFUMANGAO,KIFUMANGAO
PWANI,61,MKURANGA,615,MAGAWA,61518,KIFUMANGAO,KENGONI
PWANI,61,MKURANGA,615,MAGAWA,61518,KIFUMANGAO,MTETA
PWANI,61,MKURANGA,615,MAGAWA,61518,MDIMNI,KIDUGO
PWANI,61,MKURANGA,615,MAGAWA,61518,MDIMNI,GUNDANI
PWANI,61,MKURANGA,615,MAGAWA,61518,NGANJE,NGANJE A
PWANI,61,MKURANGA,615,MAGAWA,61518,NGANJE,NGANJE B
PWANI,61,MKURANGA,615,DONDO,61519,BINGA,BINGA MJINI
PWANI,61,MKURANGA,615,DONDO,61519,BINGA,DOMBAWALA
PWANI,61,MKURANGA,615,DONDO,61519,BINGA,BINGACHANA
PWANI,61,MKURANGA,615,DONDO,61519,BINGA,PALANI
PWANI,61,MKURANGA,615,DONDO,61519,SOTELE,SOTELE A
PWANI,61,MKURANGA,615,DONDO,61519,SOTELE,SOTELE B
PWANI,61,MKURANGA,615,DONDO,61519,SOTELE,SOTELE C
PWANI,61,MKURANGA,615,DONDO,61519,DONDO,TUTANI
PWANI,61,MKURANGA,615,DONDO,61519,DONDO,DOKAMBWA
PWANI,61,MKURANGA,615,DONDO,61519,DONDO,MBUNGO
PWANI,61,MKURANGA,615,DONDO,61519,DONDO,NYASANGARA
PWANI,61,MKURANGA,615,DONDO,61519,DONDO,GURUSI
PWANI,61,MKURANGA,615,DONDO,61519,MPAFU,MPAFU
PWANI,61,MKURANGA,615,DONDO,61519,MPAFU,MTUNDANI
PWANI,61,MKURANGA,615,DONDO,61519,MPAFU,MTAKUWA
PWANI,61,MKURANGA,615,DONDO,61519,MPAFU,MOE
PWANI,61,MKURANGA,615,DONDO,61519,KIBEWA,KIBEWA
PWANI,61,MKURANGA,615,DONDO,61519,KIBEWA,DENDENI
PWANI,61,MKURANGA,615,MSONGA,61520,MSONGA,MSONGA MAGHARIBI
PWANI,61,MKURANGA,615,MSONGA,61520,MSONGA,MSONGA KASKAZINI
PWANI,61,MKURANGA,615,MSONGA,61520,MSONGA,MSONGA KUSINI
PWANI,61,MKURANGA,615,MSONGA,61520,MTONGANI,TAMBALALE
PWANI,61,MKURANGA,615,MSONGA,61520,MTONGANI,MTONGANI
PWANI,61,MKURANGA,615,MSONGA,61520,MTONGANI,NAMANGA
PWANI,61,MKURANGA,615,MSONGA,61520,NASIBUGANI,ZEKELE
PWANI,61,MKURANGA,615,MSONGA,61520,NASIBUGANI,NASIBUGANI KUSINI
PWANI,61,MKURANGA,615,MSONGA,61520,NASIBUGANI,NASIBUGANI KASKAZINI
PWANI,61,MKURANGA,615,MSONGA,61520,SANGASANGA,SANGASANGA
PWANI,61,MKURANGA,615,MSONGA,61520,SANGASANGA,NYATUPA
PWANI,61,MKURANGA,615,MSONGA,61520,SANGASANGA,KIMOGOLA
PWANI,61,MKURANGA,615,MSONGA,61520,SANGASANGA,ZEKELELE
PWANI,61,MKURANGA,615,MSONGA,61520,SANGASANGA,MPWAPWA
PWANI,61,MKURANGA,615,MSONGA,61520,NYAMIHIMBO,MKOTOPE
PWANI,61,MKURANGA,615,MSONGA,61520,NYAMIHIMBO,NYAMIHIMBO
PWANI,61,MKURANGA,615,MSONGA,61520,NYAMIHIMBO,MKUKWI
PWANI,61,MKURANGA,615,MSONGA,61520,NYAMIHIMBO,MAHEKANI
PWANI,61,MKURANGA,615,KISEGESEGE,61521,KISEGESE,KISEGESE
PWANI,61,MKURANGA,615,KISEGESEGE,61521,KISEGESE,NYANDAGE
PWANI,61,MKURANGA,615,KISEGESEGE,61521,KISEGESE,KWALALA
PWANI,61,MKURANGA,615,KISEGESEGE,61521,KISEGESE,ZOLA DENDENI
PWANI,61,MKURANGA,615,KISEGESEGE,61521,VIANZI,MKONGO
PWANI,61,MKURANGA,615,KISEGESEGE,61521,VIANZI,CHANGEDERE
PWANI,61,MKURANGA,615,KISEGESEGE,61521,CHAMGOI,CHAMGOI
PWANI,61,MKURANGA,615,KISEGESEGE,61521,CHAMGOI,VIKEZE
PWANI,61,MKURANGA,615,BETA,61522,MATANZI,MANZE
PWANI,61,MKURANGA,615,BETA,61522,MATANZI,LIBWEZERO
PWANI,61,MKURANGA,615,BETA,61522,MATANZI,NGARAWANI
PWANI,61,MKURANGA,615,BETA,61522,MATANZI,KISANGARAWE
PWANI,61,MKURANGA,615,BETA,61522,MKENGE,MKENGE
PWANI,61,MKURANGA,615,BETA,61522,MKENGE,NYINGOME
PWANI,61,MKURANGA,615,BETA,61522,MKENGE,KISIMAPESA
PWANI,61,MKURANGA,615,BETA,61522,MKENGE,BETA
PWANI,61,MKURANGA,615,BETA,61522,NYANGUNGUTI,NYAMBUZA
PWANI,61,MKURANGA,615,BETA,61522,NYANGUNGUTI,MINAKI
PWANI,61,MKURANGA,615,BETA,61522,NYANGUNGUTI,NYANGUNGUTI KUSINI
PWANI,61,MKURANGA,615,BETA,61522,NYANGUNGUTI,NYANGUNGUTI KASKAZINI
PWANI,61,MKURANGA,615,TENGELEA,61523,TENGELEA,KING'ONGO
PWANI,61,MKURANGA,615,TENGELEA,61523,TENGELEA,KITOBOMBE
PWANI,61,MKURANGA,615,TENGELEA,61523,TENGELEA,TENGELEA
PWANI,61,MKURANGA,615,TENGELEA,61523,TENGELEA,MPERANI
PWANI,61,MKURANGA,615,TENGELEA,61523,TENGELEA,GOGO
PWANI,61,MKURANGA,615,TENGELEA,61523,HOYOYO,VIKANGALA
PWANI,61,MKURANGA,615,TENGELEA,61523,HOYOYO,MPELA
PWANI,61,MKURANGA,615,TENGELEA,61523,HOYOYO,HOYOYO
PWANI,61,MKURANGA,615,TENGELEA,61523,HOYOYO,GOGO
PWANI,61,MKURANGA,615,TENGELEA,61523,KOLAGWA,MVEMLE
PWANI,61,MKURANGA,615,TENGELEA,61523,KOLAGWA,KOLAGWA
PWANI,61,MKURANGA,615,TENGELEA,61523,KOLAGWA,TETA
PWANI,61,MKURANGA,615,TENGELEA,61523,DONDWE,KIWAWE
PWANI,61,MKURANGA,615,TENGELEA,61523,DONDWE,KIDEDEDE
PWANI,61,MKURANGA,615,TENGELEA,61523,DONDWE,RUBAMBAWE
PWANI,61,MKURANGA,615,TENGELEA,61523,DONDWE,DONDWE MJINI
PWANI,61,MKURANGA,615,MWANDEGE,61524,MWANDEGE,MWANDEGE
PWANI,61,MKURANGA,615,MWANDEGE,61524,MWANDEGE,CHATEMBO
PWANI,61,MKURANGA,615,MWANDEGE,61524,MWANDEGE,KILUNGULE
PWANI,61,MKURANGA,615,MWANDEGE,61524,MWANDEGE,VICHENJI
PWANI,61,MKURANGA,615,MWANDEGE,61524,KIPALA,KIPALA
PWANI,61,MKURANGA,615,MWANDEGE,61524,KIPALA,KIBELEWELE
PWANI,61,MKURANGA,615,MWANDEGE,61524,KIPALA,KICHANGANI
PWANI,61,MKURANGA,615,MWANDEGE,61524,MKOKOZI,MKOKOZI
PWANI,61,MKURANGA,615,MWANDEGE,61524,LUGWADU,LUGWADU KUSINI
PWANI,61,MKURANGA,615,MWANDEGE,61524,LUGWADU,LUGWADU MASHARIKI
PWANI,61,MKURANGA,615,MWANDEGE,61524,LUGWADU,LUGURUNI A
PWANI,61,MKURANGA,615,MWANDEGE,61524,LUGWADU,LUGURUNI B
PWANI,61,MKURANGA,615,MWANDEGE,61524,LUGWADU,MWANANANI
PWANI,61,MKURANGA,615,MIPEKO,61525,MIPEKO,MIPEKO A
PWANI,61,MKURANGA,615,MIPEKO,61525,MIPEKO,MIPEKO B
PWANI,61,MKURANGA,615,MIPEKO,61525,MIPEKO,MIPEKO C
PWANI,61,MKURANGA,615,MIPEKO,61525,MIPEKO,KIMBANGULILE A
PWANI,61,MKURANGA,615,MIPEKO,61525,KIBAMBA,KIBAMBA MJINI
PWANI,61,MKURANGA,615,MIPEKO,61525,KIBAMBA,MWANAKANIKA
PWANI,61,MKURANGA,615,MIPEKO,61525,KIBAMBA,RABIKA
PWANI,61,MKURANGA,615,MIPEKO,61525,KIBAMBA,MISUSURA
PWANI,61,MKURANGA,615,MIPEKO,61525,KIBAMBA,BOGORWA
PWANI,61,MKURANGA,615,MIPEKO,61525,KIBAMBA,MWAYANI
PWANI,61,MKURANGA,615,MIPEKO,61525,MWANAMBAYA,KILOWEKO
PWANI,61,MKURANGA,615,MIPEKO,61525,MWANAMBAYA,MAMANGWA
PWANI,61,MKURANGA,615,MIPEKO,61525,MWANAMBAYA,MIZUGU
PWANI,61,MKURANGA,615,MIPEKO,61525,MWANAMBAYA,KIBENEKE
PWANI,61,MKURANGA,615,MIPEKO,61525,MWANAMBAYA,MIVULE
PWANI,61,MKURANGA,615,MIPEKO,61525,MWANAMBAYA,MABATINI
PWANI,61,MKURANGA,615,MIPEKO,61525,MWANADILATU,LANGWENI
PWANI,61,MKURANGA,615,MIPEKO,61525,MWANADILATU,MWANADILATU MJINI
PWANI,61,MKURANGA,615,MIPEKO,61525,MWANADILATU,NASAKO
PWANI,61,MKURANGA,615,MIPEKO,61525,MWANADILATU,YOMBO
PWANI,61,MKURANGA,615,MIPEKO,61525,MWANADILATU,NZASA
PWANI,61,MKURANGA,615,MIPEKO,61525,MWANADILATU,MZEMLE
PWANI,61,RUFIJI,616,UTETE,61601,UTETE,SIASA
PWANI,61,RUFIJI,616,UTETE,61601,UTETE,KIWILI
PWANI,61,RUFIJI,616,UTETE,61601,UTETE,KITUNDU
PWANI,61,RUFIJI,616,CHEMCHEM,61602,UTETE,KINDWITWI
PWANI,61,RUFIJI,616,CHEMCHEM,61602,UTETE,NYANDAKATUNDU
PWANI,61,RUFIJI,616,CHEMCHEM,61602,UTETE,GOLANI
PWANI,61,RUFIJI,616,CHEMCHEM,61602,UTETE,KIPEI
PWANI,61,RUFIJI,616,CHEMCHEM,61602,UTETE,NYANDUMBI
PWANI,61,RUFIJI,616,CHEMCHEM,61602,UTETE,NYANGWAI
PWANI,61,RUFIJI,616,CHEMCHEM,61602,UTETE,NYAWANJE/NGWEMBELE
PWANI,61,RUFIJI,616,NGARAMBE,61603,UTETE,NGARAMBE MASHARIKI
PWANI,61,RUFIJI,616,NGARAMBE,61603,UTETE,NGARAMBE MAGHARIBI
PWANI,61,RUFIJI,616,NGARAMBE,61603,UTETE,TAPIKA
PWANI,61,RUFIJI,616,NGARAMBE,61603,UTETE,NAMAKONO
PWANI,61,RUFIJI,616,NGARAMBE,61603,UTETE,KUNGULWE
PWANI,61,RUFIJI,616,MKONGO,61604,MKONGO KASKAZINI,NYIPARA
PWANI,61,RUFIJI,616,MKONGO,61604,MKONGO KASKAZINI,RUSENDE
PWANI,61,RUFIJI,616,MKONGO,61604,MKONGO KASKAZINI,KARAKANA
PWANI,61,RUFIJI,616,MKONGO,61604,MBUNJU MVULENI,MBUNJU
PWANI,61,RUFIJI,616,MKONGO,61604,MBUNJU MVULENI,MVULENI
PWANI,61,RUFIJI,616,MKONGO,61604,MKONGO KUSINI,KITUNDU
PWANI,61,RUFIJI,616,MKONGO,61604,MKONGO KUSINI,KIWILI
PWANI,61,RUFIJI,616,MKONGO,61604,MKONGO KUSINI,MKUNGA
PWANI,61,RUFIJI,616,MKONGO,61604,MKONGO KUSINI,MAKOGE
PWANI,61,RUFIJI,616,MKONGO,61604,RUWE,BETA
PWANI,61,RUFIJI,616,MKONGO,61604,RUWE,KIPERA
PWANI,61,RUFIJI,616,MKONGO,61604,RUWE,NYARINGWE
PWANI,61,RUFIJI,616,MBWARA,61605,MBWARA,MBWARA MAGHARIBI
PWANI,61,RUFIJI,616,MBWARA,61605,MBWARA,MBWARA MASHARIKI
PWANI,61,RUFIJI,616,MBWARA,61605,MBWARA,MISIMBO
PWANI,61,RUFIJI,616,MBWARA,61605,NAMBUNJU,NAMAKONO
PWANI,61,RUFIJI,616,MBWARA,61605,NAMBUNJU,NAMBUNJU MASHARIKI
PWANI,61,RUFIJI,616,MBWARA,61605,NAMBUNJU,NAMBUNJU MAGHARIBI
PWANI,61,RUFIJI,616,MBWARA,61605,NAMBUNJU,MIANGALAYA
PWANI,61,RUFIJI,616,MBWARA,61605,NAMBUNJU,KIKIBU
PWANI,61,RUFIJI,616,MBWARA,61605,TAWI,KIKOBO
PWANI,61,RUFIJI,616,MBWARA,61605,TAWI,MKUKIKI
PWANI,61,RUFIJI,616,MBWARA,61605,TAWI,GEGE
PWANI,61,RUFIJI,616,MBWARA,61605,TAWI,MKWIRI
PWANI,61,RUFIJI,616,MBWARA,61605,NYAMWAGE,NYAMWAGE MAGHARIBI
PWANI,61,RUFIJI,616,MBWARA,61605,NYAMWAGE,NYAMWAGE MASHARIKI
PWANI,61,RUFIJI,616,MBWARA,61605,NYAMWAGE,SHAURI  MOYO
PWANI,61,RUFIJI,616,MBWARA,61605,KITAPI,KITAPI MASHARIKI
PWANI,61,RUFIJI,616,MBWARA,61605,KITAPI,KITAPI MAGHARIBI
PWANI,61,RUFIJI,616,MBWARA,61605,KITAPI,NAMAHAMBA
PWANI,61,RUFIJI,616,CHUMBI,61606,"CHUMBI ""A""",KIGOGO
PWANI,61,RUFIJI,616,CHUMBI,61606,"CHUMBI ""A""",TANGINI
PWANI,61,RUFIJI,616,CHUMBI,61606,"CHUMBI ""A""",KIEGELE
PWANI,61,RUFIJI,616,CHUMBI,61606,"CHUMBI ""A""",IPENGO
PWANI,61,RUFIJI,616,CHUMBI,61606,"CHUMBI ""B""",KIPOKA
PWANI,61,RUFIJI,616,CHUMBI,61606,"CHUMBI ""B""",KILINDI
PWANI,61,RUFIJI,616,CHUMBI,61606,"CHUMBI ""B""",MIKORWA
PWANI,61,RUFIJI,616,CHUMBI,61606,"CHUMBI ""B""",MSIKITINI
PWANI,61,RUFIJI,616,CHUMBI,61606,"CHUMBI ""B""",KIPOKA MSOMENI
PWANI,61,RUFIJI,616,CHUMBI,61606,"CHUMBI ""C""",KANGA
PWANI,61,RUFIJI,616,CHUMBI,61606,"CHUMBI ""C""",CHUMBI MAGHARIBI
PWANI,61,RUFIJI,616,CHUMBI,61606,"CHUMBI ""C""",NYAKIPANDE
PWANI,61,RUFIJI,616,CHUMBI,61606,"CHUMBI ""C""",NGARO
PWANI,61,RUFIJI,616,IKWIRIRI,61607,IKWIRIRI KASKAZINI,MTAKUJA
PWANI,61,RUFIJI,616,IKWIRIRI,61607,IKWIRIRI KASKAZINI,UJAMAA
PWANI,61,RUFIJI,616,IKWIRIRI,61607,IKWIRIRI KASKAZINI,MPARANGE
PWANI,61,RUFIJI,616,IKWIRIRI,61607,IKWIRIRI KASKAZINI,KAUNDA
PWANI,61,RUFIJI,616,IKWIRIRI,61607,IKWIRIRI KASKAZINI,MWENGE
PWANI,61,RUFIJI,616,IKWIRIRI,61607,IKWIRIRI KASKAZINI,KAZAMOYO
PWANI,61,RUFIJI,616,IKWIRIRI,61607,IKWIRIRI KATI,SIDO
PWANI,61,RUFIJI,616,IKWIRIRI,61607,IKWIRIRI KATI,TANGIMOJA
PWANI,61,RUFIJI,616,IKWIRIRI,61607,IKWIRIRI KATI,MSIKITINI
PWANI,61,RUFIJI,616,IKWIRIRI,61607,IKWIRIRI KATI,UMOJA
PWANI,61,RUFIJI,616,IKWIRIRI,61607,IKWIRIRI KATI,UPENDO
PWANI,61,RUFIJI,616,IKWIRIRI,61607,IKWIRIRI KATI,MWENGE
PWANI,61,RUFIJI,616,IKWIRIRI,61607,IKWIRIRI KATI,SISI KWA SISI
PWANI,61,RUFIJI,616,IKWIRIRI,61607,IKWIRIRI KATI,UJIRANI MWEMA
PWANI,61,RUFIJI,616,IKWIRIRI,61607,IKWIRIRI KUSINI,TANGIMBILI KUSINI
PWANI,61,RUFIJI,616,IKWIRIRI,61607,IKWIRIRI KUSINI,KAWAWA
PWANI,61,RUFIJI,616,IKWIRIRI,61607,IKWIRIRI KUSINI,NYERERE
PWANI,61,RUFIJI,616,IKWIRIRI,61607,IKWIRIRI KUSINI,POSTA
PWANI,61,RUFIJI,616,IKWIRIRI,61607,IKWIRIRI KUSINI,UHURU
PWANI,61,RUFIJI,616,IKWIRIRI,61607,IKWIRIRI KUSINI,KARUME
PWANI,61,RUFIJI,616,IKWIRIRI,61607,IKWIRIRI KUSINI,MUUNGANO
PWANI,61,RUFIJI,616,IKWIRIRI,61607,IKWIRIRI KUSINI,P/KISUMO
PWANI,61,RUFIJI,616,IKWIRIRI,61607,IKWIRIRI KUSINI,MALEMBA
PWANI,61,RUFIJI,616,IKWIRIRI,61607,IKWIRIRI KUSINI,MPIMA
PWANI,61,RUFIJI,616,IKWIRIRI,61607,IKWIRIRI KUSINI,UJAMAA
PWANI,61,RUFIJI,616,UMWE,61608,UMWE KASKAZINI,MPARANGE
PWANI,61,RUFIJI,616,UMWE,61608,UMWE KASKAZINI,VIWANDANI
PWANI,61,RUFIJI,616,UMWE,61608,UMWE KASKAZINI,MCHIKICHINI
PWANI,61,RUFIJI,616,UMWE,61608,UMWE KASKAZINI,MSIKITINI
PWANI,61,RUFIJI,616,UMWE,61608,UMWE KASKAZINI,KILWA
PWANI,61,RUFIJI,616,UMWE,61608,UMWE KASKAZINI,MJIMWEMA
PWANI,61,RUFIJI,616,UMWE,61608,UMWE KATI,UMWE
PWANI,61,RUFIJI,616,UMWE,61608,UMWE KATI,AZIMIO
PWANI,61,RUFIJI,616,UMWE,61608,UMWE KATI,UJAMAA
PWANI,61,RUFIJI,616,UMWE,61608,UMWE KATI,MSIKITINI
PWANI,61,RUFIJI,616,UMWE,61608,UMWE KATI,AMANI
PWANI,61,RUFIJI,616,UMWE,61608,UMWE KATI,SOKONI
PWANI,61,RUFIJI,616,UMWE,61608,UMWE KATI,SIASA
PWANI,61,RUFIJI,616,UMWE,61608,UMWE KATI,UMOJA
PWANI,61,RUFIJI,616,UMWE,61608,UMWE KUSINI,MSIKITINI
PWANI,61,RUFIJI,616,UMWE,61608,UMWE KUSINI,MWEMBE MUHORO
PWANI,61,RUFIJI,616,UMWE,61608,UMWE KUSINI,MAKONGE
PWANI,61,RUFIJI,616,UMWE,61608,UMWE KUSINI,NJOGORO
PWANI,61,RUFIJI,616,UMWE,61608,UMWE KUSINI,MBUYUNI
PWANI,61,RUFIJI,616,UMWE,61608,UMWE KUSINI,NGASINDA
PWANI,61,RUFIJI,616,UMWE,61608,UMWE KUSINI,MAKARAFATI
PWANI,61,RUFIJI,616,UMWE,61608,UMWE KUSINI,MAKUMBUSHO
PWANI,61,RUFIJI,616,MGOMBA,61609,MGOMBA KUSINI,MALIPIA
PWANI,61,RUFIJI,616,MGOMBA,61609,MGOMBA KUSINI,KINGWANDE
PWANI,61,RUFIJI,616,MGOMBA,61609,MGOMBA KUSINI,KIJONJO
PWANI,61,RUFIJI,616,MGOMBA,61609,MGOMBA KUSINI,NONGWA
PWANI,61,RUFIJI,616,MGOMBA,61609,MGOMBA KATI,MASENDA
PWANI,61,RUFIJI,616,MGOMBA,61609,MGOMBA KATI,KIAPO
PWANI,61,RUFIJI,616,MGOMBA,61609,MGOMBA KATI,MTUPA
PWANI,61,RUFIJI,616,MGOMBA,61609,MGOMBA KATI,MALENDA
PWANI,61,RUFIJI,616,MGOMBA,61609,MGOMBA KASKAZINI,UJAMAA
PWANI,61,RUFIJI,616,MGOMBA,61609,MGOMBA KASKAZINI,JITEGEMEE
PWANI,61,RUFIJI,616,MGOMBA,61609,MGOMBA KASKAZINI,SEKONDARI
PWANI,61,RUFIJI,616,MGOMBA,61609,MGOMBA KASKAZINI,MPIMA
PWANI,61,RUFIJI,616,BUNGU,61617,"BUNGU ""A""",MWONGOZO
PWANI,61,RUFIJI,616,BUNGU,61617,"BUNGU ""A""",NYAMANGO
PWANI,61,RUFIJI,616,BUNGU,61617,"BUNGU ""A""",MWENGE
PWANI,61,RUFIJI,616,BUNGU,61617,"BUNGU ""A""",MKUNDI
PWANI,61,RUFIJI,616,BUNGU,61617,BUNGU B,KINYAMALE
PWANI,61,RUFIJI,616,BUNGU,61617,BUNGU B,KIPENYA
PWANI,61,RUFIJI,616,BUNGU,61617,BUNGU B,KITULA
PWANI,61,RUFIJI,616,BUNGU,61617,BUNGU B,KIBWIBWI
PWANI,61,RUFIJI,616,BUNGU,61617,BUNGU B,KIBAONI
PWANI,61,RUFIJI,616,BUNGU,61617,NYAMBUNDA,BESABU
PWANI,61,RUFIJI,616,BUNGU,61617,NYAMBUNDA,NANGUNDU
PWANI,61,RUFIJI,616,BUNGU,61617,NYAMBUNDA,MKWANDARA
PWANI,61,RUFIJI,616,BUNGU,61617,NYAMBILI,NYAMBILI KASKAZINI
PWANI,61,RUFIJI,616,BUNGU,61617,NYAMBILI,NYAMBILI KUSINI
PWANI,61,RUFIJI,616,BUNGU,61617,NYAMBILI,DUNGUTU
PWANI,61,RUFIJI,616,BUNGU,61617,PAGAE,NYAMEKU
PWANI,61,RUFIJI,616,BUNGU,61617,PAGAE,LUGOME
PWANI,61,RUFIJI,616,BUNGU,61617,PAGAE,UNDEMBO
PWANI,61,RUFIJI,616,BUNGU,61617,PAGAE,MKALE
PWANI,61,RUFIJI,616,BUNGU,61617,MSAFIRI,BUNGU 'B'
PWANI,61,RUFIJI,616,BUNGU,61617,MSAFIRI,ZUMBE
PWANI,61,RUFIJI,616,BUNGU,61617,MSAFIRI,NGONGOLOKA
PWANI,61,RUFIJI,616,BUNGU,61617,MSAFIRI,MSAFIRI
PWANI,61,RUFIJI,616,BUNGU,61617,MSAFIRI,NYAKILO
PWANI,61,RUFIJI,616,BUNGU,61617,MANGOMBELA,NYAMANGO
PWANI,61,RUFIJI,616,BUNGU,61617,MANGOMBELA,AZIMIO
PWANI,61,RUFIJI,616,BUNGU,61617,MANGOMBELA,NYAUTIKA
PWANI,61,RUFIJI,616,BUNGU,61617,MANGOMBELA,NYAMPAKU MASHARIKI
PWANI,61,RUFIJI,616,BUNGU,61617,MANGOMBELA,CHAMWENGE
PWANI,61,RUFIJI,616,NGORONGO,61625,KILIMANI MASHARIKI,UNYONGE
PWANI,61,RUFIJI,616,NGORONGO,61625,KILIMANI MASHARIKI,MKUNGA
PWANI,61,RUFIJI,616,NGORONGO,61625,KILIMANI MASHARIKI,GEFU
PWANI,61,RUFIJI,616,NGORONGO,61625,KILIMANI MASHARIKI,GINNERY
PWANI,61,RUFIJI,616,NGORONGO,61625,KILIMANI MASHARIKI,MKONGENI
PWANI,61,RUFIJI,616,NGORONGO,61625,KILIMANI MAGHARIBI,MPANGANYA
PWANI,61,RUFIJI,616,NGORONGO,61625,KILIMANI MAGHARIBI,KILOMBERO
PWANI,61,RUFIJI,616,NGORONGO,61625,KILIMANI MAGHARIBI,KISAGAI
PWANI,61,RUFIJI,616,NGORONGO,61625,KILIMANI MAGHARIBI,TANGINI
PWANI,61,RUFIJI,616,NGORONGO,61625,KILIMANI MAGHARIBI,MBUYUNI
PWANI,61,RUFIJI,616,NGORONGO,61625,NGORONGO MASHARIKI,KIPENDA MOYO
PWANI,61,RUFIJI,616,NGORONGO,61625,NGORONGO MASHARIKI,NYALWIRU
PWANI,61,RUFIJI,616,NGORONGO,61625,NGORONGO MAGHARIBI,KIKONGONO
PWANI,61,RUFIJI,616,NGORONGO,61625,NGORONGO MAGHARIBI,NYASUNGWI
PWANI,61,RUFIJI,616,MWASENI,61626,MTANZA /MSONA,MSIGA
PWANI,61,RUFIJI,616,MWASENI,61626,MTANZA /MSONA,MTANZA
PWANI,61,RUFIJI,616,MWASENI,61626,MTANZA /MSONA,BIZI
PWANI,61,RUFIJI,616,MWASENI,61626,MTANZA /MSONA,MTURUMA
PWANI,61,RUFIJI,616,MWASENI,61626,MLOKA,NYAKISIKU
PWANI,61,RUFIJI,616,MWASENI,61626,MLOKA,MPANGANYA
PWANI,61,RUFIJI,616,MWASENI,61626,MLOKA,KWANGAZI
PWANI,61,RUFIJI,616,MWASENI,61626,MLOKA,MKANGE
PWANI,61,RUFIJI,616,MWASENI,61626,MWASENI,MWASENI
PWANI,61,RUFIJI,616,MWASENI,61626,MWASENI,MIBUYUSABA
PWANI,61,RUFIJI,616,MWASENI,61626,MWASENI,ZOMBE
PWANI,61,RUFIJI,616,KIPUGIRA,61628,KIPUGIRA,KIPUGIRA
PWANI,61,RUFIJI,616,KIPUGIRA,61628,KIPUGIRA,PANGAPANGA
PWANI,61,RUFIJI,616,KIPUGIRA,61628,NYAMINYWILI,NYAMINYWILI
PWANI,61,RUFIJI,616,KIPUGIRA,61628,NYAMINYWILI,MTALULA
PWANI,61,RUFIJI,616,KIPUGIRA,61628,NDUNDUNYIKANZA,TETEMA
PWANI,61,RUFIJI,616,KIPUGIRA,61628,KIPO,MAWILO
PWANI,61,RUFIJI,616,KIPUGIRA,61628,KIPO,MGOHORI
PWANI,61,RUFIJI,616,KIPUGIRA,61628,KIPO,MPANDE
PWANI,61,RUFIJI,616,KIPUGIRA,61628,KIPO,NYIKANZA
PWANI,61,RUFIJI,616,MOHORO,61629,SHELA,KINDWITWI
PWANI,61,RUFIJI,616,MOHORO,61629,SHELA,STAAND MIKOLWA
PWANI,61,RUFIJI,616,MOHORO,61629,SHELA,RANGITATU
PWANI,61,RUFIJI,616,MOHORO,61629,MOHORO MASHARIKI,NYAMPAKU BARA
PWANI,61,RUFIJI,616,MOHORO,61629,MOHORO MASHARIKI,NYAMPAKU PWANI
PWANI,61,RUFIJI,616,MOHORO,61629,MOHORO MASHARIKI,NYAUTIKA
PWANI,61,RUFIJI,616,MOHORO,61629,MOHORO MASHARIKI,NYAMPAKU MASHARIKI
PWANI,61,RUFIJI,616,MOHORO,61629,MOHORO MASHARIKI,CHAMWENGE
PWANI,61,RUFIJI,616,MOHORO,61629,KIWANGA,KIWANGA
PWANI,61,RUFIJI,616,MOHORO,61629,KIWANGA,MIHIRU
PWANI,61,RUFIJI,616,MOHORO,61629,KIWANGA,LONDONDO
PWANI,61,RUFIJI,616,MOHORO,61629,NDUNDUTAWA,MKENZI
PWANI,61,RUFIJI,616,MOHORO,61629,NDUNDUTAWA,MSIKITINI
PWANI,61,RUFIJI,616,MOHORO,61629,NDUNDUTAWA,NDUNDUTAWA
PWANI,61,RUFIJI,616,MOHORO,61629,NDUNDUTAWA,NYALINDI
PWANI,61,RUFIJI,616,MOHORO,61629,MOHORO MAGHARIBI,SUNGAPWANI
PWANI,61,RUFIJI,616,MOHORO,61629,MOHORO MAGHARIBI,SUNGA
PWANI,61,RUFIJI,616,MOHORO,61629,MOHORO MAGHARIBI,OLDMOHORO
PWANI,61,RUFIJI,616,MOHORO,61629,MOHORO MAGHARIBI,NYAKIKAI
PWANI,61,RUFIJI,616,MOHORO,61629,MOHORO MAGHARIBI,NYANDOTE
PWANI,61,RUFIJI,616,MOHORO,61629,MOHORO MAGHARIBI,MWANANI
PWANI,61,RUFIJI,616,MOHORO,61629,KING'ONG'O,KING'ONG'O
PWANI,61,RUFIJI,616,MOHORO,61629,KING'ONG'O,MPELEPELE
PWANI,61,RUFIJI,616,MOHORO,61629,KING'ONG'O,KISANGI
PWANI,61,RUFIJI,616,MOHORO,61629,KING'ONG'O,KWAMPAKWILA
PWANI,61,RUFIJI,616,MOHORO,61629,KING'ONG'O,CHAYONGE
PWANI,61,MAFIA,617,KILINDONI,61701,KILINDONI,MSUFINI
PWANI,61,MAFIA,617,KILINDONI,61701,KILINDONI,BWEJUU
PWANI,61,MAFIA,617,KILINDONI,61701,KILINDONI,BONDENI
PWANI,61,MAFIA,617,KILINDONI,61701,KILINDONI,KICHANGACHUI
PWANI,61,MAFIA,617,KILINDONI,61701,KILINDONI,KURUNGENI A
PWANI,61,MAFIA,617,KILINDONI,61701,KILINDONI,KURUNGENI B
PWANI,61,MAFIA,617,KILINDONI,61701,KILINDONI,VUNJA NAZI
PWANI,61,MAFIA,617,KILINDONI,61701,KILINDONI,ISMAILIA
PWANI,61,MAFIA,617,KILINDONI,61701,KILINDONI,MAJENGO
PWANI,61,MAFIA,617,KILINDONI,61701,KILINDONI,KIGAMBONI
PWANI,61,MAFIA,617,KILINDONI,61701,DONGO,DONGO KATI
PWANI,61,MAFIA,617,KILINDONI,61701,DONGO,KITUNDU
PWANI,61,MAFIA,617,KILINDONI,61701,DONGO,TERENI
PWANI,61,MAFIA,617,KILINDONI,61701,DONGO,SIKULA
PWANI,61,MAFIA,617,KILINDONI,61701,DONGO,MFURUNI
PWANI,61,MAFIA,617,KILINDONI,61701,DONGO,MAGEMANI
PWANI,61,MAFIA,617,KIEGEANI,61702,MARIMBANI,ZAMANG’OMBE
PWANI,61,MAFIA,617,KIEGEANI,61702,MARIMBANI,KITOMONDO
PWANI,61,MAFIA,617,KIEGEANI,61702,MARIMBANI,KIBISINI
PWANI,61,MAFIA,617,KIEGEANI,61702,MARIMBANI,MKARANGAMA
PWANI,61,MAFIA,617,KIEGEANI,61702,MARIMBANI,MBOGANI
PWANI,61,MAFIA,617,KIEGEANI,61702,MARIMBANI,MAJUPI
PWANI,61,MAFIA,617,KIEGEANI,61702,MARIMBANI,BUNGURA
PWANI,61,MAFIA,617,KIEGEANI,61702,KIEGEANI,UTENDE A
PWANI,61,MAFIA,617,KIEGEANI,61702,KIEGEANI,UTENDE B
PWANI,61,MAFIA,617,KIEGEANI,61702,KIEGEANI,KIEGEANI
PWANI,61,MAFIA,617,KIEGEANI,61702,KIEGEANI,PANDE
PWANI,61,MAFIA,617,KIEGEANI,61702,KIEGEANI,UNYAMBWA A
PWANI,61,MAFIA,617,KIEGEANI,61702,KIEGEANI,UNYAMBWA B
PWANI,61,MAFIA,617,KIEGEANI,61702,KIEGEANI,UKUNDA
PWANI,61,MAFIA,617,KIEGEANI,61702,KIEGEANI,MARUHUBI
PWANI,61,MAFIA,617,MIBURANI,61703,MIBURANI,KITONI
PWANI,61,MAFIA,617,MIBURANI,61703,MIBURANI,MIBURANI
PWANI,61,MAFIA,617,MIBURANI,61703,MIBURANI,NG’OMBENI
PWANI,61,MAFIA,617,MIBURANI,61703,MIBURANI,CHUKWANI
PWANI,61,MAFIA,617,MIBURANI,61703,MIBURANI,MDUNDANI
PWANI,61,MAFIA,617,MIBURANI,61703,MIBURANI,MPAFUNI
PWANI,61,MAFIA,617,MIBURANI,61703,MIBURANI,KILULI
PWANI,61,MAFIA,617,MIBURANI,61703,MLONGO,MZAMBARAUNI
PWANI,61,MAFIA,617,MIBURANI,61703,MLONGO,MLONGO BONDENI
PWANI,61,MAFIA,617,MIBURANI,61703,MLONGO,KISIMANI MAFIA
PWANI,61,MAFIA,617,MIBURANI,61703,MLONGO,MLONGO MADUKANI
PWANI,61,MAFIA,617,MIBURANI,61703,CHEMCHEM,PURURA
PWANI,61,MAFIA,617,MIBURANI,61703,CHEMCHEM,CHANGARAMA
PWANI,61,MAFIA,617,MIBURANI,61703,CHEMCHEM,USEWE
PWANI,61,MAFIA,617,MIBURANI,61703,CHEMCHEM,JONGANI
PWANI,61,MAFIA,617,MIBURANI,61703,CHEMCHEM,MKIMBILIE
PWANI,61,MAFIA,617,MIBURANI,61703,CHEMCHEM,MICHENI
PWANI,61,MAFIA,617,NDAGONI,61704,CHUNGURUMA,TUMBUJU
PWANI,61,MAFIA,617,NDAGONI,61704,CHUNGURUMA,MAVUMBI
PWANI,61,MAFIA,617,NDAGONI,61704,CHUNGURUMA,MATIKITINI
PWANI,61,MAFIA,617,NDAGONI,61704,CHUNGURUMA,CHUNGURUMA
PWANI,61,MAFIA,617,NDAGONI,61704,CHUNGURUMA,URUNGWI
PWANI,61,MAFIA,617,NDAGONI,61704,NDAGONI,MSHONZINI
PWANI,61,MAFIA,617,NDAGONI,61704,NDAGONI,KIPANDENI
PWANI,61,MAFIA,617,NDAGONI,61704,NDAGONI,MANYWAGA
PWANI,61,MAFIA,617,NDAGONI,61704,NDAGONI,UCHUNJWA
PWANI,61,MAFIA,617,NDAGONI,61704,NDAGONI,NDAGONI
PWANI,61,MAFIA,617,NDAGONI,61704,NDAGONI,SIMBA
PWANI,61,MAFIA,617,NDAGONI,61704,NDAGONI,TONDWA
PWANI,61,MAFIA,617,NDAGONI,61704,NDAGONI,UMBWERANI
PWANI,61,MAFIA,617,NDAGONI,61704,NDAGONI,MWAKUNI
PWANI,61,MAFIA,617,NDAGONI,61704,GONGE,GONGE A
PWANI,61,MAFIA,617,NDAGONI,61704,GONGE,GONGE B
PWANI,61,MAFIA,617,JIBONDO,61705,JIBONDO,SHINYANGA
PWANI,61,MAFIA,617,JIBONDO,61705,JIBONDO,JUUMAJI
PWANI,61,MAFIA,617,JIBONDO,61705,JIBONDO,PWANANDONI
PWANI,61,MAFIA,617,JIBONDO,61705,JIBONDO,SHANGAMOYO
PWANI,61,MAFIA,617,JIBONDO,61705,JIBONDO,MTENGA
PWANI,61,MAFIA,617,JIBONDO,61705,CHOLE,MWAPEPO
PWANI,61,MAFIA,617,JIBONDO,61705,CHOLE,MNYANGE
PWANI,61,MAFIA,617,JIBONDO,61705,CHOLE,KILIMANI
PWANI,61,MAFIA,617,JIBONDO,61705,JUANI,JUANI MJINI
PWANI,61,MAFIA,617,JIBONDO,61705,JUANI,JUANI SHULE
PWANI,61,MAFIA,617,JIBONDO,61705,JUANI,MANDA
PWANI,61,MAFIA,617,JIBONDO,61705,JUANI,VIKOMBA
PWANI,61,MAFIA,617,BALENI,61706,BALENI,MAKONGORONI
PWANI,61,MAFIA,617,BALENI,61706,BALENI,NGWENA
PWANI,61,MAFIA,617,BALENI,61706,BALENI,MICHEKEWANI
PWANI,61,MAFIA,617,BALENI,61706,BALENI,MADUNDANI
PWANI,61,MAFIA,617,BALENI,61706,BALENI,KIDELE
PWANI,61,MAFIA,617,BALENI,61706,BALENI,KIPUKA
PWANI,61,MAFIA,617,BALENI,61706,BALENI,KIWAWE
PWANI,61,MAFIA,617,BALENI,61706,KIFINGE,KIFINGE
PWANI,61,MAFIA,617,BALENI,61706,KIFINGE,MWAWANI
PWANI,61,MAFIA,617,BALENI,61706,KIFINGE,NDUJI
PWANI,61,MAFIA,617,BALENI,61706,KIFINGE,KIPORA
PWANI,61,MAFIA,617,BALENI,61706,KIBADA,KIBADA
PWANI,61,MAFIA,617,BALENI,61706,KIBADA,MKUNDUNI
PWANI,61,MAFIA,617,BALENI,61706,KIBADA,KIPINGWI
PWANI,61,MAFIA,617,BALENI,61706,KUNGWI,MLOLA
PWANI,61,MAFIA,617,BALENI,61706,KUNGWI,KILOMBERO A
PWANI,61,MAFIA,617,BALENI,61706,KUNGWI,KILOMBERO B
PWANI,61,MAFIA,617,BALENI,61706,KUNGWI,MCHANGANI
PWANI,61,MAFIA,617,BALENI,61706,KUNGWI,KITAKIRO
PWANI,61,MAFIA,617,KIRONGWE,61707,BANJA,KASKAZINI
PWANI,61,MAFIA,617,KIRONGWE,61707,BANJA,VUNGWI
PWANI,61,MAFIA,617,KIRONGWE,61707,BANJA,KIUNGANI
PWANI,61,MAFIA,617,KIRONGWE,61707,JOJO,MBOJANI
PWANI,61,MAFIA,617,KIRONGWE,61707,JOJO,MLUNDO
PWANI,61,MAFIA,617,KIRONGWE,61707,JOJO,TONGOLA
PWANI,61,MAFIA,617,KIRONGWE,61707,JOJO,KIROKWE
PWANI,61,MAFIA,617,KIRONGWE,61707,KIRONGWE,VULENI
PWANI,61,MAFIA,617,KIRONGWE,61707,KIRONGWE,DARAJANI
PWANI,61,MAFIA,617,KIRONGWE,61707,KIRONGWE,SHUNGU B
PWANI,61,MAFIA,617,KIRONGWE,61707,KIRONGWE,KIPORA
PWANI,61,MAFIA,617,KIRONGWE,61707,KIRONGWE,MIKONGONI
PWANI,61,MAFIA,617,KIRONGWE,61707,KIRONGWE,MIKOMANI
PWANI,61,MAFIA,617,KIRONGWE,61707,KIRONGWE,KIORONGWE MJINI
PWANI,61,MAFIA,617,KIRONGWE,61707,KIRONGWE,MJI KATI
PWANI,61,MAFIA,617,KIRONGWE,61707,KIRONGWE,MKAMBA
PWANI,61,MAFIA,617,KIRONGWE,61707,KIRONGWE,SHARAZA
PWANI,61,MAFIA,617,KIRONGWE,61707,KIRONGWE,SHUNGU A
PWANI,61,MAFIA,617,KIRONGWE,61707,KIRONGWE,KAMBINI
PWANI,61,MAFIA,617,KIRONGWE,61707,JIMBO,JIMBO MJINI
PWANI,61,MAFIA,617,KIRONGWE,61707,JIMBO,FUTA
PWANI,61,MAFIA,617,KIRONGWE,61707,JIMBO,RUMA
PWANI,61,MAFIA,617,KIRONGWE,61707,JIMBO,MALALI
PWANI,61,MAFIA,617,KIRONGWE,61707,JIMBO,TONGANI
PWANI,61,MAFIA,617,KIRONGWE,61707,JIMBO,KIVUNI
PWANI,61,MAFIA,617,KIRONGWE,61707,JIMBO,KIDIKA
PWANI,61,MAFIA,617,KANGA,61708,BWENI,HUKANDI
PWANI,61,MAFIA,617,KANGA,61708,BWENI,SADANI
PWANI,61,MAFIA,617,KANGA,61708,BWENI,KURUNGENI
PWANI,61,MAFIA,617,KANGA,61708,BWENI,MCHANI
PWANI,61,MAFIA,617,KANGA,61708,BWENI,LONGWANI
PWANI,61,MAFIA,617,KANGA,61708,BWENI,KIBIRA
PWANI,61,MAFIA,617,KANGA,61708,BWENI,MWAPUNDA
PWANI,61,MAFIA,617,KANGA,61708,BWENI,MNAZI MMOJA
PWANI,61,MAFIA,617,KANGA,61708,KANGA,KARIBUNI
PWANI,61,MAFIA,617,KANGA,61708,KANGA,KICHUNI
PWANI,61,MAFIA,617,KANGA,61708,KANGA,CHANGWA
PWANI,61,MAFIA,617,KANGA,61708,KANGA,MCHEKECHE
PWANI,61,MAFIA,617,KANGA,61708,KANGA,NG'OKWE
PWANI,61,MAFIA,617,KANGA,61708,KANGA,BARABARANI
PWANI,61,KIBITI,618,SALALE,61801,NYAMISATI,KIHINGIPWANI
PWANI,61,KIBITI,618,SALALE,61801,NYAMISATI,KIHINGI SHULE
PWANI,61,KIBITI,618,SALALE,61801,NYAMISATI,MJENGEA
PWANI,61,KIBITI,618,SALALE,61801,KIOMBONI,KIOMBONI PWANI
PWANI,61,KIBITI,618,SALALE,61801,KIOMBONI,TWANA
PWANI,61,KIBITI,618,SALALE,61801,KIOMBONI,URONGONI
PWANI,61,KIBITI,618,SALALE,61801,MCHINGA,KILWANI
PWANI,61,KIBITI,618,SALALE,61801,MCHINGA,SANINGA
PWANI,61,KIBITI,618,SALALE,61801,MCHINGA,MCHINGA
PWANI,61,KIBITI,618,SALALE,61801,MCHINGA,SALALE
PWANI,61,KIBITI,618,SALALE,61801,MCHINGA,SIMBA ULANGA
PWANI,61,KIBITI,618,SALALE,61801,MFISINI,MFISINI A
PWANI,61,KIBITI,618,SALALE,61801,MFISINI,MFISINI B
PWANI,61,KIBITI,618,SALALE,61801,MFISINI,MFISINI KATI
PWANI,61,KIBITI,618,KIONGORONI,61802,RUMA,NYAMIKAMBA
PWANI,61,KIBITI,618,KIONGORONI,61802,RUMA,BANDARINI
PWANI,61,KIBITI,618,KIONGORONI,61802,RUMA,EMELWA
PWANI,61,KIBITI,618,KIONGORONI,61802,RUMA,MTANGA
PWANI,61,KIBITI,618,KIONGORONI,61802,RUMA,KING'ONGO
PWANI,61,KIBITI,618,KIONGORONI,61802,JAJA,BUMBUAMANI
PWANI,61,KIBITI,618,KIONGORONI,61802,JAJA,MJIMWEMA
PWANI,61,KIBITI,618,KIONGORONI,61802,JAJA,KITONGANI
PWANI,61,KIBITI,618,KIONGORONI,61802,POMBWE,POMBWE KUBWA
PWANI,61,KIBITI,618,KIONGORONI,61802,POMBWE,SUNI
PWANI,61,KIBITI,618,KIONGORONI,61802,POMBWE,KILAMBANI
PWANI,61,KIBITI,618,KIONGORONI,61802,POMBWE,MBUNGWI
PWANI,61,KIBITI,618,KIONGORONI,61802,KIONGORONI,MAKWENDE
PWANI,61,KIBITI,618,KIONGORONI,61802,KIONGORONI,NYAOBE
PWANI,61,KIBITI,618,KIONGORONI,61802,KIONGORONI,BWENI
PWANI,61,KIBITI,618,MAPARONI,61803,KIECHURU,KITYANGA
PWANI,61,KIBITI,618,MAPARONI,61803,KIECHURU,KORONGO
PWANI,61,KIBITI,618,MAPARONI,61803,KIECHURU,KATI
PWANI,61,KIBITI,618,MAPARONI,61803,KIECHURU,MGAMBO
PWANI,61,KIBITI,618,MAPARONI,61803,MAPARONI,MBANGANI
PWANI,61,KIBITI,618,MAPARONI,61803,MAPARONI,TUWA
PWANI,61,KIBITI,618,MAPARONI,61803,MAPARONI,GINGI
PWANI,61,KIBITI,618,MAPARONI,61803,MAPARONI,USIMBE KIWANJANI
PWANI,61,KIBITI,618,MAPARONI,61803,MAPARONI,USIMBEKIDOGA
PWANI,61,KIBITI,618,MBUCHI,61804,MBUCHI,MNGANJE
PWANI,61,KIBITI,618,MBUCHI,61804,MBUCHI,MIKWANG'OMBE
PWANI,61,KIBITI,618,MBUCHI,61804,MBUCHI,BARABARANI
PWANI,61,KIBITI,618,MBUCHI,61804,MBUCHI,KITINGI
PWANI,61,KIBITI,618,MBUCHI,61804,MBUCHI,MAKONGORO
PWANI,61,KIBITI,618,MBUCHI,61804,MBUCHI,KIPOKA
PWANI,61,KIBITI,618,MBUCHI,61804,MBWERA MASHARIKI,MDAI
PWANI,61,KIBITI,618,MBUCHI,61804,MBWERA MASHARIKI,MBUMBURU
PWANI,61,KIBITI,618,MBUCHI,61804,MBWERA MASHARIKI,MARONGONI
PWANI,61,KIBITI,618,MBUCHI,61804,MBWERA MASHARIKI,MKIRIKA
PWANI,61,KIBITI,618,MBUCHI,61804,MBWERA MAGHARIBI,KUMBACHA
PWANI,61,KIBITI,618,MBUCHI,61804,MBWERA MAGHARIBI,MKURUMU
PWANI,61,KIBITI,618,MBUCHI,61804,MBWERA MAGHARIBI,MTAWATAWA
PWANI,61,KIBITI,618,MBUCHI,61804,MBWERA MAGHARIBI,MKEPA
PWANI,61,KIBITI,618,MBUCHI,61804,MBWERA MAGHARIBI,KIBUMBURU
PWANI,61,KIBITI,618,MBUCHI,61804,MBWERA MAGHARIBI,DOKA
PWANI,61,KIBITI,618,MBUCHI,61804,MBWERA MAGHARIBI,KIIONGORO
PWANI,61,KIBITI,618,MSALA,61805,MSALA,MBOMBONI
PWANI,61,KIBITI,618,MSALA,61805,MSALA,UKONGORO
PWANI,61,KIBITI,618,MSALA,61805,MSALA,MAJALIWA
PWANI,61,KIBITI,618,MSALA,61805,MSALA,MBALENI
PWANI,61,KIBITI,618,MSALA,61805,MSALA,WASAMADE
PWANI,61,KIBITI,618,MSALA,61805,KIASI,NUNU
PWANI,61,KIBITI,618,MSALA,61805,KIASI,NYUNGUNI
PWANI,61,KIBITI,618,MSALA,61805,KIASI,PLOT
PWANI,61,KIBITI,618,MSALA,61805,KIASI,UWANDANI
PWANI,61,KIBITI,618,MSALA,61805,TWASALIE,PLOT
PWANI,61,KIBITI,618,MSALA,61805,TWASALIE,TARACHO
PWANI,61,KIBITI,618,MSALA,61805,TWASALIE,KISIMBYA
PWANI,61,KIBITI,618,MSALA,61805,TWASALIE,NYAHIMBA
PWANI,61,KIBITI,618,MSALA,61805,TWASALIE,DOMWE
PWANI,61,KIBITI,618,MLANZI,61806,MLANZI,MLANZI MASHARIKI
PWANI,61,KIBITI,618,MLANZI,61806,MLANZI,MLANZI MAGHARIBI
PWANI,61,KIBITI,618,MLANZI,61806,MLANZI,KINGWETI
PWANI,61,KIBITI,618,MLANZI,61806,MLANZI,LIKE
PWANI,61,KIBITI,618,MLANZI,61806,MLANZI,MKWAJUNI
PWANI,61,KIBITI,618,MLANZI,61806,MLANZI,MILONZI
PWANI,61,KIBITI,618,MLANZI,61806,MLANZI,BORA
PWANI,61,KIBITI,618,MLANZI,61806,MLANZI,KIMBINDU
PWANI,61,KIBITI,618,MLANZI,61806,MLANZI,KIKIMBILI
PWANI,61,KIBITI,618,MLANZI,61806,MACHIPI,MANGIMBWAGE
PWANI,61,KIBITI,618,MLANZI,61806,MACHIPI,KIBUNI
PWANI,61,KIBITI,618,MLANZI,61806,MACHIPI,RUANDA
PWANI,61,KIBITI,618,MLANZI,61806,MACHIPI,NGONJA
PWANI,61,KIBITI,618,MLANZI,61806,MACHIPI,MSIKITINI
PWANI,61,KIBITI,618,MLANZI,61806,NYAMWIMBE,NYELELO
PWANI,61,KIBITI,618,MLANZI,61806,NYAMWIMBE,UMTANGA
PWANI,61,KIBITI,618,MLANZI,61806,NYAMWIMBE,MIPARANI
PWANI,61,KIBITI,618,MLANZI,61806,NYAMWIMBE,MALENDA
PWANI,61,KIBITI,618,MLANZI,61806,NYAMWIMBE,MALENDA HALISI
PWANI,61,KIBITI,618,MLANZI,61806,NGONDAI,BORA
PWANI,61,KIBITI,618,MLANZI,61806,NGONDAI,KILONJI
PWANI,61,KIBITI,618,MLANZI,61806,NGONDAI,NGONDAI
PWANI,61,KIBITI,618,MAHEGE,61807,MAHEGE,MAWICHI
PWANI,61,KIBITI,618,MAHEGE,61807,MAHEGE,NYAMKINGIA
PWANI,61,KIBITI,618,MAHEGE,61807,MAHEGE,MTAMBWE
PWANI,61,KIBITI,618,MAHEGE,61807,MAHEGE,UMBA
PWANI,61,KIBITI,618,MAHEGE,61807,NYAKINYO,SOSO/NYAKINYO
PWANI,61,KIBITI,618,MAHEGE,61807,NYAKINYO,NGONDAE/MLETE
PWANI,61,KIBITI,618,MAHEGE,61807,TOMONI,MIBUYUSABA
PWANI,61,KIBITI,618,MAHEGE,61807,TOMONI,NYAKIKONGO
PWANI,61,KIBITI,618,MAHEGE,61807,TOMONI,HALISI
PWANI,61,KIBITI,618,MAHEGE,61807,TOMONI,MKALI
PWANI,61,KIBITI,618,MAHEGE,61807,NYANJATI,MAPINDUZI
PWANI,61,KIBITI,618,MAHEGE,61807,NYANJATI,MWINYI
PWANI,61,KIBITI,618,MAHEGE,61807,NYANJATI,NYERERE
PWANI,61,KIBITI,618,MAHEGE,61807,NYANJATI,MREMA
PWANI,61,KIBITI,618,MAHEGE,61807,NYANJATI,SAUDIA
PWANI,61,KIBITI,618,MAHEGE,61807,NYANJATI,SOKOINE
PWANI,61,KIBITI,618,MAHEGE,61807,HANGA,NYAMBWANDA
PWANI,61,KIBITI,618,MAHEGE,61807,HANGA,KIMBOGO
PWANI,61,KIBITI,618,MAHEGE,61807,HANGA,MKIMA
PWANI,61,KIBITI,618,MAHEGE,61807,HANGA,NGAMBE
PWANI,61,KIBITI,618,MCHUKWI,61808,MCHUKWI A,UKITOMONDO
PWANI,61,KIBITI,618,MCHUKWI,61808,MCHUKWI A,UJONGONI
PWANI,61,KIBITI,618,MCHUKWI,61808,MCHUKWI A,MATIMBWANI
PWANI,61,KIBITI,618,MCHUKWI,61808,MCHUKWI A,NYAKAUMBANGA
PWANI,61,KIBITI,618,MCHUKWI,61808,MCHUKWI A,NYAMANJENGA
PWANI,61,KIBITI,618,MCHUKWI,61808,MCHUKWI  B,MIEMBENI
PWANI,61,KIBITI,618,MCHUKWI,61808,MCHUKWI  B,MSIKITINI
PWANI,61,KIBITI,618,MCHUKWI,61808,MCHUKWI  B,KICHANGANI
PWANI,61,KIBITI,618,MCHUKWI,61808,MCHUKWI  B,MBINDA
PWANI,61,KIBITI,618,MCHUKWI,61808,MCHUKWI  B,NYAUBI
PWANI,61,KIBITI,618,MCHUKWI,61808,MCHUKWI  B,SONGA
PWANI,61,KIBITI,618,MCHUKWI,61808,MANGWI,MNYONGOYA
PWANI,61,KIBITI,618,MCHUKWI,61808,MANGWI,RONDO
PWANI,61,KIBITI,618,MCHUKWI,61808,MANGWI,MISIMBO
PWANI,61,KIBITI,618,MCHUKWI,61808,MKUPUKA,MKUPUKA
PWANI,61,KIBITI,618,MCHUKWI,61808,MKUPUKA,BANI
PWANI,61,KIBITI,618,MCHUKWI,61808,MKUPUKA,NYUNGA
PWANI,61,KIBITI,618,MJAWA,61809,JARIBU MPAKANI,UJAMAA
PWANI,61,KIBITI,618,MJAWA,61809,JARIBU MPAKANI,MUUNGANO
PWANI,61,KIBITI,618,MJAWA,61809,JARIBU MPAKANI,MIKWALA
PWANI,61,KIBITI,618,MJAWA,61809,JARIBU MPAKANI,MOTOMOTO
PWANI,61,KIBITI,618,MJAWA,61809,JARIBU MPAKANI,MTUNDA
PWANI,61,KIBITI,618,MJAWA,61809,JARIBU MAGHARIBI,KIBUYUNI
PWANI,61,KIBITI,618,MJAWA,61809,JARIBU MAGHARIBI,JIWENI
PWANI,61,KIBITI,618,MJAWA,61809,JARIBU MAGHARIBI,MAPINDUZI
PWANI,61,KIBITI,618,MJAWA,61809,JARIBU MAGHARIBI,MKONGONI
PWANI,61,KIBITI,618,MJAWA,61809,MJAWA,MTETANI
PWANI,61,KIBITI,618,MJAWA,61809,MJAWA,DUTANI
PWANI,61,KIBITI,618,MJAWA,61809,MJAWA,BONJO
PWANI,61,KIBITI,618,MJAWA,61809,MJAWA,GOSA
PWANI,61,KIBITI,618,MJAWA,61809,MJAWA,NGALEMWA
PWANI,61,KIBITI,618,MJAWA,61809,UPONDA,UPONDA JUU
PWANI,61,KIBITI,618,MJAWA,61809,UPONDA,UPONDA CHINI
PWANI,61,KIBITI,618,MJAWA,61809,UPONDA,UCHEMBE
PWANI,61,KIBITI,618,MJAWA,61809,MOTOMOTO,GOLOATANGA
PWANI,61,KIBITI,618,MJAWA,61809,MOTOMOTO,MISOGOLE
PWANI,61,KIBITI,618,MJAWA,61809,UCHEMBE,UCHEMBE CHINI
PWANI,61,KIBITI,618,MJAWA,61809,UCHEMBE,UCHEMBE JUU
PWANI,61,KIBITI,618,MJAWA,61809,UCHEMBE,UCHEMBE
PWANI,61,KIBITI,618,MJAWA,61809,NGALENGWA,MSEGA
PWANI,61,KIBITI,618,MJAWA,61809,NGALENGWA,MTULUMA
PWANI,61,KIBITI,618,MTUNDA,61810,MTUNDA A,MBOGOLO
PWANI,61,KIBITI,618,MTUNDA,61810,MTUNDA A,MTUNDA A
PWANI,61,KIBITI,618,MTUNDA,61810,MTUNDA A,NGUARO
PWANI,61,KIBITI,618,MTUNDA,61810,MTUNDA A,MIKUNGUNI
PWANI,61,KIBITI,618,MTUNDA,61810,MTUNDA A,MBUMI
PWANI,61,KIBITI,618,MTUNDA,61810,MTUNDA B,MTUNDA B
PWANI,61,KIBITI,618,MTUNDA,61810,MTUNDA B,BETA
PWANI,61,KIBITI,618,MTUNDA,61810,MTUNDA B,NGANYAGA
PWANI,61,KIBITI,618,MTUNDA,61810,MTUNDA B,NYAFEDA
PWANI,61,KIBITI,618,MTUNDA,61810,MTUNDA B,MCHIKICHINI
PWANI,61,KIBITI,618,MTUNDA,61810,MUYUYU,MUYUYU
PWANI,61,KIBITI,618,MTUNDA,61810,MUYUYU,NJIANNE
PWANI,61,KIBITI,618,MTUNDA,61810,MUYUYU,SONYWE
PWANI,61,KIBITI,618,MTUNDA,61810,MUYUYU,MISUGURI
PWANI,61,KIBITI,618,MTUNDA,61810,MUYUYU,MKATA
PWANI,61,KIBITI,618,MTUNDA,61810,MUYUYU,MAGOMENI
PWANI,61,KIBITI,618,MTUNDA,61810,MUYUYU,NYAMBELE
PWANI,61,KIBITI,618,MTUNDA,61810,KIKALE,MAKOGE
PWANI,61,KIBITI,618,MTUNDA,61810,KIKALE,KIKALE
PWANI,61,KIBITI,618,MTUNDA,61810,KIKALE,KIKALEMTANDU
PWANI,61,KIBITI,618,MWAMBAO,61811,MCHUNGU,MITITIMBO
PWANI,61,KIBITI,618,MWAMBAO,61811,MCHUNGU,MPEKESO
PWANI,61,KIBITI,618,MWAMBAO,61811,"KIVINJA ""A""",KARIAKOO
PWANI,61,KIBITI,618,MWAMBAO,61811,"KIVINJA ""A""",KIGUNGULI
PWANI,61,KIBITI,618,MWAMBAO,61811,"KIVINJA ""A""",MASAKWI
PWANI,61,KIBITI,618,MWAMBAO,61811,"KIVINJA ""A""",KISANJANI KAYA
PWANI,61,KIBITI,618,MWAMBAO,61811,"KIVINJA ""B""",MFENESINI
PWANI,61,KIBITI,618,MWAMBAO,61811,"KIVINJA ""B""",MKEGETONI
PWANI,61,KIBITI,618,MWAMBAO,61811,"KIVINJA ""B""",MWEYUBARUTI
PWANI,61,KIBITI,618,MWAMBAO,61811,MSINDAJI,GENJU
PWANI,61,KIBITI,618,MWAMBAO,61811,MSINDAJI,MADUKANI
PWANI,61,KIBITI,618,MWAMBAO,61811,MKENDA,MKENDA
PWANI,61,KIBITI,618,MWAMBAO,61811,MKENDA,KIKOMBE
PWANI,61,KIBITI,618,MWAMBAO,61811,MKENDA,NGUNGULE
PWANI,61,KIBITI,618,MWAMBAO,61811,KIGUNGULI,MKOLE
PWANI,61,KIBITI,618,MWAMBAO,61811,KIGUNGULI,MSELEMA
PWANI,61,KIBITI,618,MWAMBAO,61811,KIGUNGULI,MPAFUNI
PWANI,61,KIBITI,618,RUARUKE,61812,RUARUKE,MWENGE
PWANI,61,KIBITI,618,RUARUKE,61812,RUARUKE,NYAMBALAPI
PWANI,61,KIBITI,618,RUARUKE,61812,RUARUKE,MBAWA
PWANI,61,KIBITI,618,RUARUKE,61812,RUARUKE,KINDANDE
PWANI,61,KIBITI,618,RUARUKE,61812,RUARUKE,KIWAGA
PWANI,61,KIBITI,618,RUARUKE,61812,NYAMATANGA,NYAMATANGA
PWANI,61,KIBITI,618,RUARUKE,61812,NYAMATANGA,MKOPI
PWANI,61,KIBITI,618,RUARUKE,61812,NYAMATANGA,MTOMBOLOKA
PWANI,61,KIBITI,618,RUARUKE,61812,KILULATAMBWE,KILULATAMBWE KATI
PWANI,61,KIBITI,618,RUARUKE,61812,KILULATAMBWE,MILONZI
PWANI,61,KIBITI,618,RUARUKE,61812,KILULATAMBWE,MBUSI
PWANI,61,KIBITI,618,RUARUKE,61812,RUNGUNGU,MKWENDE
PWANI,61,KIBITI,618,RUARUKE,61812,RUNGUNGU,MIWALENI
PWANI,61,KIBITI,618,RUARUKE,61812,RUNGUNGU,GARIBOVU
PWANI,61,KIBITI,618,RUARUKE,61812,RUNGUNGU,MUNGUTWA
PWANI,61,KIBITI,618,RUARUKE,61812,RUNGUNGU,RUNGUNGU
PWANI,61,KIBITI,618,RUARUKE,61812,RUARUKE B,MFULE MKUMBINI
PWANI,61,KIBITI,618,RUARUKE,61812,RUARUKE B,KIMBWERE FAMITI
PWANI,61,KIBITI,618,RUARUKE,61812,RUARUKE B,AANGWENI MATOSA
PWANI,61,KIBITI,618,RUARUKE,61812,RUARUKE B,NYANINDI - MAKOGE
PWANI,61,KIBITI,618,RUARUKE,61812,RUARUKE B,MGEREZINI
PWANI,61,KIBITI,618,KIBITI,61813,RUARUKE B,KINGWIRA
PWANI,61,KIBITI,618,KIBITI,61813,RUARUKE B,MAKAONI
PWANI,61,KIBITI,618,KIBITI,61813,RUARUKE B,MBEBETINI
PWANI,61,KIBITI,618,KIBITI,61813,RUARUKE B,SOKONI
PWANI,61,KIBITI,618,KIBITI,61813,RUARUKE B,RUNYOZI
PWANI,61,KIBITI,618,KIBITI,61813,RUARUKE B,ZIIMBWINI
PWANI,61,KIBITI,618,KIBITI,61813,RUARUKE B,NYATANGA
PWANI,61,KIBITI,618,KIBITI,61813,RUARUKE B,KIBITI KATI
PWANI,61,KIBITI,618,KIBITI,61813,RUARUKE B,KIBITI KUSINI
PWANI,61,KIBITI,618,KIBITI,61813,RUARUKE B,KITEMBO
PWANI,61,KIBITI,618,KIBITI,61813,RUARUKE B,MKUNDI
PWANI,61,KIBITI,618,KIBITI,61813,RUARUKE B,MKUPUKA
PWANI,61,KIBITI,618,KIBITI,61813,RUARUKE B,NYANGWEGO
PWANI,61,KIBITI,618,KIBITI,61813,RUARUKE B,NYAMAKINGILI
PWANI,61,KIBITI,618,KIBITI,61813,RUARUKE B,LUMIONZI
PWANI,61,KIBITI,618,MTAWANYA,61814,RUARUKE B,BUMBA
PWANI,61,KIBITI,618,MTAWANYA,61814,RUARUKE B,UGEZI
PWANI,61,KIBITI,618,MTAWANYA,61814,RUARUKE B,MSORO
PWANI,61,KIBITI,618,MTAWANYA,61814,RUARUKE B,MAGOGO MATATU
PWANI,61,KIBITI,618,MTAWANYA,61814,RUARUKE B,KINYANYA KATI
PWANI,61,KIBITI,618,MTAWANYA,61814,RUARUKE B,NDECHAMULA
PWANI,61,KIBITI,618,MTAWANYA,61814,RUARUKE B,ZOMBOKO
PWANI,61,KIBITI,618,MTAWANYA,61814,RUARUKE B,MATUMBI
PWANI,61,KIBITI,618,MTAWANYA,61814,RUARUKE B,NYAMLANI
PWANI,61,KIBITI,618,MTAWANYA,61814,RUARUKE B,MIKENDO
PWANI,61,KIBITI,618,MTAWANYA,61814,RUARUKE B,UMKUNAMA
PWANI,61,KIBITI,618,MTAWANYA,61814,RUARUKE B,UPAZI
PWANI,61,KIBITI,618,MTAWANYA,61814,RUARUKE B,ROJA
PWANI,61,KIBITI,618,MTAWANYA,61814,RUARUKE B,UMIKENDO
PWANI,61,KIBITI,618,DIMANI,61815,RUARUKE B,NGULAKULA
PWANI,61,KIBITI,618,DIMANI,61815,RUARUKE B,KILIMBILI
PWANI,61,KIBITI,618,DIMANI,61815,RUARUKE B,BONDENI
PWANI,61,KIBITI,618,DIMANI,61815,RUARUKE B,NG'AMBO
PWANI,61,KIBITI,618,DIMANI,61815,RUARUKE B,DIMANI A
PWANI,61,KIBITI,618,DIMANI,61815,RUARUKE B,PENDA
PWANI,61,KIBITI,618,DIMANI,61815,RUARUKE B,DIMANI B
PWANI,61,KIBITI,618,DIMANI,61815,RUARUKE B,KIMBUGA
PWANI,61,KIBITI,618,DIMANI,61815,RUARUKE B,NYAMBANGALA
PWANI,61,KIBITI,618,DIMANI,61815,RUARUKE B,DIMANI
PWANI,61,KIBITI,618,DIMANI,61815,RUARUKE B,PENDA
