REGION,POSTCODE,DISTRICT,POSTCODE,WARD,POSTCODE,STREET,PLACES
RUKWA,55,"SUMBAWANGA
CBD",551,SUMBAWANGA,55101,SUMBAWANGA,
RUKWA,55,"SUMBAWANGA
CBD",551,SUMBAWANGA,55101,KASWEPEPE,
RUKWA,55,"SUMBAWANGA
CBD",551,SUMBAWANGA,55101,MPASI,
RUKWA,55,"SUMBAWANGA
CBD",551,SUMBAWANGA,55101,YESWE,
RUKWA,55,"SUMBAWANGA
CBD",551,SUMBAWANGA,55101,KAMITA,
RUKWA,55,"SUMBAWANGA
CBD",551,SUMBAWANGA,55101,TAMBASI,
RUKWA,55,"SUMBAWANGA
CBD",551,SUMBAWANGA,55101,KATUMA,
RUKWA,55,"SUMBAWANGA
CBD",551,SUMBAWANGA,55101,MBALIKA,
RUKWA,55,"SUMBAWANGA
CBD",551,SUMBAWANGA,55101,HIJA,
RUKWA,55,"SUMBAWANGA
CBD",551,SUMBAWANGA,55101,MAKUTANO,
RUKWA,55,"SUMBAWANGA
CBD",551,SUMBAWANGA,55101,UFIPA,
RUKWA,55,"SUMBAWANGA
CBD",551,SUMBAWANGA,55101,CHISICHA MFIPA,
RUKWA,55,"SUMBAWANGA
CBD",551,SUMBAWANGA,55101,WAKUUNG'ANGA,
RUKWA,55,"SUMBAWANGA
CBD",551,SUMBAWANGA,55101,ISACHI,
RUKWA,55,"SUMBAWANGA
CBD",551,SUMBAWANGA,55101,KASONI,
RUKWA,55,"SUMBAWANGA
CBD",551,SUMBAWANGA,55101,KIATU,
RUKWA,55,"SUMBAWANGA
CBD",551,SUMBAWANGA,55101,KIMALAUNGA,
RUKWA,55,"SUMBAWANGA
CBD",551,SUMBAWANGA,55101,KAPUFI,
RUKWA,55,"SUMBAWANGA
CBD",551,SUMBAWANGA,55101,KATOLILE,
RUKWA,55,"SUMBAWANGA
CBD",551,SUMBAWANGA,55101,MOMOKA,
RUKWA,55,"SUMBAWANGA
CBD",551,SUMBAWANGA,55101,MTUMBUKA,
RUKWA,55,"SUMBAWANGA
CBD",551,SUMBAWANGA,55101,KATUSA,
RUKWA,55,"SUMBAWANGA
CBD",551,SUMBAWANGA,55101,NGALU,
RUKWA,55,"SUMBAWANGA
CBD",551,IZIA,55102,HALMASHAURI,
RUKWA,55,"SUMBAWANGA
CBD",551,IZIA,55102,IZIA,
RUKWA,55,"SUMBAWANGA
CBD",551,IZIA,55102,MTONI,
RUKWA,55,"SUMBAWANGA
CBD",551,IZIA,55102,MAKAZA,
RUKWA,55,"SUMBAWANGA
CBD",551,IZIA,55102,MANZITISWE,
RUKWA,55,"SUMBAWANGA
CBD",551,IZIA,55102,SHULE,
RUKWA,55,"SUMBAWANGA
CBD",551,IZIA,55102,BANGWE,
RUKWA,55,"SUMBAWANGA
CBD",551,IZIA,55102,MASIMBA,
RUKWA,55,"SUMBAWANGA
CBD",551,IZIA,55102,KATI,
RUKWA,55,"SUMBAWANGA
CBD",551,IZIA,55102,ZIMAMOTO,
RUKWA,55,"SUMBAWANGA
CBD",551,IZIA,55102,U/NDEGE,
RUKWA,55,"SUMBAWANGA
CBD",551,IZIA,55102,BURUDANI,
RUKWA,55,"SUMBAWANGA
CBD",551,IZIA,55102,SOKO,
RUKWA,55,"SUMBAWANGA
CBD",551,IZIA,55102,KAOZYA,
RUKWA,55,"SUMBAWANGA
CBD",551,IZIA,55102,MBUGANI,
RUKWA,55,"SUMBAWANGA
CBD",551,IZIA,55102,REGINAMUNDI,
RUKWA,55,"SUMBAWANGA
CBD",551,IZIA,55102,YATIMA,
RUKWA,55,"SUMBAWANGA
CBD",551,KATANDALA,55103,KATANDALA ‘C’,
RUKWA,55,"SUMBAWANGA
CBD",551,KATANDALA,55103,KATANDALA ‘D’,
RUKWA,55,"SUMBAWANGA
CBD",551,KATANDALA,55103,BOMANI,
RUKWA,55,"SUMBAWANGA
CBD",551,KATANDALA,55103,BOMANI ‘B’,
RUKWA,55,"SUMBAWANGA
CBD",551,KATANDALA,55103,MBIZI ‘C’,
RUKWA,55,"SUMBAWANGA
CBD",551,KATANDALA,55103,MBIZI ‘B’,
RUKWA,55,"SUMBAWANGA
CBD",551,KATANDALA,55103,COMUNITY CENTER,
RUKWA,55,"SUMBAWANGA
CBD",551,KATANDALA,55103,JANGWANI,
RUKWA,55,"SUMBAWANGA
CBD",551,KATANDALA,55103,NHC,
RUKWA,55,"SUMBAWANGA
CBD",551,KATANDALA,55103,BOMANI,
RUKWA,55,"SUMBAWANGA
CBD",551,KATANDALA,55103,SOKOMATOLA,
RUKWA,55,"SUMBAWANGA
CBD",551,KATANDALA,55103,ANGLIKAN 'A',
RUKWA,55,"SUMBAWANGA
CBD",551,KATANDALA,55103,ANGLIKAN 'B',
RUKWA,55,"SUMBAWANGA
CBD",551,KATANDALA,55103,MBIZI ‘A’,
RUKWA,55,"SUMBAWANGA
CBD",551,KATANDALA,55103,KATANDALA 'A',
RUKWA,55,"SUMBAWANGA
CBD",551,KATANDALA,55103,KATANDALA 'B',
RUKWA,55,"SUMBAWANGA
CBD",551,KATANDALA,55103,KASAKALAWE,
RUKWA,55,"SUMBAWANGA
CBD",551,MALANGALI,55104,NYENGELE,
RUKWA,55,"SUMBAWANGA
CBD",551,MALANGALI,55104,MUHAMA,
RUKWA,55,"SUMBAWANGA
CBD",551,MALANGALI,55104,MJI MWEMA,
RUKWA,55,"SUMBAWANGA
CBD",551,MALANGALI,55104,ISOFU,
RUKWA,55,"SUMBAWANGA
CBD",551,MALANGALI,55104,"KILIMAHEWA ""A""",
RUKWA,55,"SUMBAWANGA
CBD",551,MALANGALI,55104,"KILIMAHEWA ""B""",
RUKWA,55,"SUMBAWANGA
CBD",551,MALANGALI,55104,KATINDI,
RUKWA,55,"SUMBAWANGA
CBD",551,MALANGALI,55104,MALANGALI,
RUKWA,55,"SUMBAWANGA
CBD",551,MALANGALI,55104,MAKAZI MAPYA,
RUKWA,55,"SUMBAWANGA
CBD",551,KIZWITE,55105,SENTI,
RUKWA,55,"SUMBAWANGA
CBD",551,KIZWITE,55105,KALANGASA,
RUKWA,55,"SUMBAWANGA
CBD",551,KIZWITE,55105,MBUGANI,
RUKWA,55,"SUMBAWANGA
CBD",551,KIZWITE,55105,KAWAMA,
RUKWA,55,"SUMBAWANGA
CBD",551,KIZWITE,55105,BIBLE,
RUKWA,55,"SUMBAWANGA
CBD",551,KIZWITE,55105,SOKOLO,
RUKWA,55,"SUMBAWANGA
CBD",551,KIZWITE,55105,VUTA,
RUKWA,55,"SUMBAWANGA
CBD",551,KIZWITE,55105,OTC,
RUKWA,55,"SUMBAWANGA
CBD",551,KIZWITE,55105,NANTACHA,
RUKWA,55,"SUMBAWANGA
CBD",551,KIZWITE,55105,NDUA,
RUKWA,55,"SUMBAWANGA
CBD",551,KIZWITE,55105,MAJENGO,
RUKWA,55,"SUMBAWANGA
CBD",551,KIZWITE,55105,KIZWITE,
RUKWA,55,"SUMBAWANGA
CBD",551,KIZWITE,55105,TRM,
RUKWA,55,"SUMBAWANGA
CBD",551,KIZWITE,55105,MAKWASA,
RUKWA,55,"SUMBAWANGA
CBD",551,KIZWITE,55105,MTUMBUKA,
RUKWA,55,"SUMBAWANGA
CBD",551,MAZWI,55106,RTC,
RUKWA,55,"SUMBAWANGA
CBD",551,MAZWI,55106,TUKUYU,
RUKWA,55,"SUMBAWANGA
CBD",551,MAZWI,55106,NHC,
RUKWA,55,"SUMBAWANGA
CBD",551,MAZWI,55106,CLINIC,
RUKWA,55,"SUMBAWANGA
CBD",551,MAZWI,55106,LWICHE,
RUKWA,55,"SUMBAWANGA
CBD",551,MAZWI,55106,MSIKITINI,
RUKWA,55,"SUMBAWANGA
CBD",551,MAZWI,55106,KIMITI,
RUKWA,55,"SUMBAWANGA
CBD",551,MAZWI,55106,CHITEPO,
RUKWA,55,"SUMBAWANGA
CBD",551,MAZWI,55106,LYANGALILE,
RUKWA,55,"SUMBAWANGA
CBD",551,MAZWI,55106,NMC,
RUKWA,55,"SUMBAWANGA
CBD",551,MAZWI,55106,ZAMBEZI,
RUKWA,55,"SUMBAWANGA
CBD",551,MAZWI,55106,VIWANDA VIDOGO,
RUKWA,55,"SUMBAWANGA
CBD",551,MAZWI,55106,MASHINE,
RUKWA,55,"SUMBAWANGA
CBD",551,MAZWI,55106,MANDELA,
RUKWA,55,"SUMBAWANGA
CBD",551,MAZWI,55106,KARUME,
RUKWA,55,"SUMBAWANGA
CBD",551,MAZWI,55106,ITWELELE,
RUKWA,55,"SUMBAWANGA
CBD",551,MAZWI,55106,NKASI,
RUKWA,55,"SUMBAWANGA
CBD",551,MAZWI,55106,RURECU,
RUKWA,55,"SUMBAWANGA
CBD",551,MAZWI,55106,MAJENGO,
RUKWA,55,"SUMBAWANGA
CBD",551,MAJENGO,55107,MPONDA,
RUKWA,55,"SUMBAWANGA
CBD",551,MAJENGO,55107,NAMABANGASA,
RUKWA,55,"SUMBAWANGA
CBD",551,MAJENGO,55107,HIGHWAY,
RUKWA,55,"SUMBAWANGA
CBD",551,MAJENGO,55107,MAJENGO ‘B’,
RUKWA,55,"SUMBAWANGA
CBD",551,MAJENGO,55107,BWAWANI 'A',
RUKWA,55,"SUMBAWANGA
CBD",551,MAJENGO,55107,BWAWANI B',
RUKWA,55,"SUMBAWANGA
CBD",551,MAJENGO,55107,MAJENGO  'A',
RUKWA,55,"SUMBAWANGA
CBD",551,MAJENGO,55107,MAJENGO  'C',
RUKWA,55,"SUMBAWANGA
CBD",551,MAJENGO,55107,MAJENGO  'D',
RUKWA,55,"SUMBAWANGA
CBD",551,MAJENGO,55107,MTAKUJA  'A',
RUKWA,55,"SUMBAWANGA
CBD",551,MAJENGO,55107,MTAKUJA 'B',
RUKWA,55,"SUMBAWANGA
CBD",551,MAJENGO,55107,KRISTU MFALME,
RUKWA,55,"SUMBAWANGA
CBD",551,MAJENGO,55107,KALOLENI,
RUKWA,55,"SUMBAWANGA
CBD",551,MAJENGO,55107,KING'OMBE,
RUKWA,55,"SUMBAWANGA
CBD",551,CHANJI,55108,SOKODOGO,
RUKWA,55,"SUMBAWANGA
CBD",551,CHANJI,55108,MIANZI,
RUKWA,55,"SUMBAWANGA
CBD",551,CHANJI,55108,KAWAMA,
RUKWA,55,"SUMBAWANGA
CBD",551,CHANJI,55108,CHANJI ‘A’,
RUKWA,55,"SUMBAWANGA
CBD",551,CHANJI,55108,KICHANGANI,
RUKWA,55,"SUMBAWANGA
CBD",551,CHANJI,55108,NAMTEKETA,
RUKWA,55,"SUMBAWANGA
CBD",551,CHANJI,55108,NANKASI,
RUKWA,55,"SUMBAWANGA
CBD",551,CHANJI,55108,KATI,
RUKWA,55,"SUMBAWANGA
CBD",551,CHANJI,55108,BONDENI,
RUKWA,55,"SUMBAWANGA
CBD",551,CHANJI,55108,BOMBANI,
RUKWA,55,"SUMBAWANGA
CBD",551,CHANJI,55108,K/MAZOEZI,
RUKWA,55,"SUMBAWANGA
CBD",551,CHANJI,55108,HALI YA HEWA,
RUKWA,55,"SUMBAWANGA
CBD",551,CHANJI,55108,ST THERESIA,
RUKWA,55,"SUMBAWANGA
CBD",551,CHANJI,55108,VODACOM,
RUKWA,55,"SUMBAWANGA
CBD",551,CHANJI,55108,MKUYUNI,
RUKWA,55,"SUMBAWANGA
CBD",551,NTENDO,55109,LUWA,NAMWELE
RUKWA,55,"SUMBAWANGA
CBD",551,NTENDO,55109,LUWA,KANDE
RUKWA,55,"SUMBAWANGA
CBD",551,NTENDO,55109,LUWA,MTUKULA
RUKWA,55,"SUMBAWANGA
CBD",551,NTENDO,55109,LUWA,KATUKANYEZE
RUKWA,55,"SUMBAWANGA
CBD",551,NTENDO,55109,LUWA,KING'OMBE 'A'
RUKWA,55,"SUMBAWANGA
CBD",551,NTENDO,55109,LUWA,MTAKUJA
RUKWA,55,"SUMBAWANGA
CBD",551,NTENDO,55109,LUWA,"KINGOMBE 'B"""
RUKWA,55,"SUMBAWANGA
CBD",551,NTENDO,55109,LUWA,KATECHA
RUKWA,55,"SUMBAWANGA
CBD",551,NTENDO,55109,LUWA,KATANDALA
RUKWA,55,"SUMBAWANGA
CBD",551,NTENDO,55109,NTENDO,KITESI
RUKWA,55,"SUMBAWANGA
CBD",551,NTENDO,55109,NTENDO,GALUGILA
RUKWA,55,"SUMBAWANGA
CBD",551,NTENDO,55109,NTENDO,KING'OMBE
RUKWA,55,"SUMBAWANGA
CBD",551,NTENDO,55109,NTENDO,MNAZI
RUKWA,55,"SUMBAWANGA
CBD",551,NTENDO,55109,NTENDO,MTUMBUKA
RUKWA,55,"SUMBAWANGA
CBD",551,NTENDO,55109,NTENDO,KATETE
RUKWA,55,"SUMBAWANGA
CBD",551,NTENDO,55109,NTENDO,MKUYUNI
RUKWA,55,"SUMBAWANGA
CBD",551,NTENDO,55109,NTENDO,KASU
RUKWA,55,"SUMBAWANGA
CBD",551,NTENDO,55109,FYENGELEZYA,KATAI
RUKWA,55,"SUMBAWANGA
CBD",551,NTENDO,55109,FYENGELEZYA,ONGWE
RUKWA,55,"SUMBAWANGA
CBD",551,NTENDO,55109,FYENGELEZYA,ONDOKENI
RUKWA,55,"SUMBAWANGA
CBD",551,NTENDO,55109,FYENGELEZYA,KALEMASHA
RUKWA,55,"SUMBAWANGA
CBD",551,NTENDO,55109,FYENGELEZYA,MTAKUJA
RUKWA,55,"SUMBAWANGA
CBD",551,NTENDO,55109,KANONDO,PITO
RUKWA,55,"SUMBAWANGA
CBD",551,NTENDO,55109,KANONDO,NDULUI
RUKWA,55,"SUMBAWANGA
CBD",551,NTENDO,55109,KANONDO,KATI
RUKWA,55,"SUMBAWANGA
CBD",551,NTENDO,55109,KANONDO,MWENGE
RUKWA,55,"SUMBAWANGA
CBD",551,NTENDO,55109,KANONDO,NDULU II
RUKWA,55,"SUMBAWANGA
CBD",551,SENGA,55110,SENGA,KIFIFI
RUKWA,55,"SUMBAWANGA
CBD",551,SENGA,55110,SENGA,ILEMBA
RUKWA,55,"SUMBAWANGA
CBD",551,SENGA,55110,SENGA,MUVA
RUKWA,55,"SUMBAWANGA
CBD",551,SENGA,55110,SENGA,KALOLENI
RUKWA,55,"SUMBAWANGA
CBD",551,SENGA,55110,SENGA,MTAKUJA
RUKWA,55,"SUMBAWANGA
CBD",551,SENGA,55110,KANKWALE,KING'OMBE
RUKWA,55,"SUMBAWANGA
CBD",551,SENGA,55110,KANKWALE,MAMBA
RUKWA,55,"SUMBAWANGA
CBD",551,SENGA,55110,KANKWALE,KASISIWE
RUKWA,55,"SUMBAWANGA
CBD",551,SENGA,55110,KANKWALE,KACHESE
RUKWA,55,"SUMBAWANGA
CBD",551,SENGA,55110,KANKWALE,USHIRIKA
RUKWA,55,"SUMBAWANGA
CBD",551,SENGA,55110,KANKWALE,LWICHE
RUKWA,55,"SUMBAWANGA
CBD",551,SENGA,55110,KANKWALE,MALUMBILI
RUKWA,55,"SUMBAWANGA
CBD",551,SENGA,55110,KANKWALE,UZUNGUNI
RUKWA,55,"SUMBAWANGA
CBD",551,SENGA,55110,WIPANGA,WASAMBO  'A'
RUKWA,55,"SUMBAWANGA
CBD",551,SENGA,55110,WIPANGA,WASAMBO  'B'
RUKWA,55,"SUMBAWANGA
CBD",551,SENGA,55110,WIPANGA,KONKOLA
RUKWA,55,"SUMBAWANGA
CBD",551,SENGA,55110,WIPANGA,ONDOKENI
RUKWA,55,"SUMBAWANGA
CBD",551,SENGA,55110,WIPANGA,TIMBU
RUKWA,55,"SUMBAWANGA
CBD",551,SENGA,55110,WIPANGA,NATOKA
RUKWA,55,"SUMBAWANGA
CBD",551,MILANZI,55111,MLANDA B,TAFULA
RUKWA,55,"SUMBAWANGA
CBD",551,MILANZI,55111,MLANDA B,KAFIMA
RUKWA,55,"SUMBAWANGA
CBD",551,MILANZI,55111,MLANDA B,KATETE
RUKWA,55,"SUMBAWANGA
CBD",551,MILANZI,55111,MLANDA B,KISA
RUKWA,55,"SUMBAWANGA
CBD",551,MILANZI,55111,MLANDA B,MLIMANI
RUKWA,55,"SUMBAWANGA
CBD",551,MILANZI,55111,MLANDA B,MBITA
RUKWA,55,"SUMBAWANGA
CBD",551,MILANZI,55111,MLANDA B,NKOLE
RUKWA,55,"SUMBAWANGA
CBD",551,MILANZI,55111,MLANDA B,KINTAKWA
RUKWA,55,"SUMBAWANGA
CBD",551,MILANZI,55111,MILANZI,ILAMBILA
RUKWA,55,"SUMBAWANGA
CBD",551,MILANZI,55111,MILANZI,KATETE
RUKWA,55,"SUMBAWANGA
CBD",551,MILANZI,55111,MILANZI,MLANGALUA ASILI
RUKWA,55,"SUMBAWANGA
CBD",551,MILANZI,55111,MILANZI,KATONGWA
RUKWA,55,"SUMBAWANGA
CBD",551,MILANZI,55111,MILANZI,SENGA
RUKWA,55,"SUMBAWANGA
CBD",551,MILANZI,55111,MILANZI,MISESE
RUKWA,55,"SUMBAWANGA
CBD",551,MILANZI,55111,MILANZI,KILANGALA
RUKWA,55,"SUMBAWANGA
CBD",551,MILANZI,55111,MILANZI,KASISIWE
RUKWA,55,"SUMBAWANGA
CBD",551,MILANZI,55111,NAMBOGO,KIWELE
RUKWA,55,"SUMBAWANGA
CBD",551,MILANZI,55111,NAMBOGO,WASIMBA
RUKWA,55,"SUMBAWANGA
CBD",551,MILANZI,55111,NAMBOGO,MAKUTANO
RUKWA,55,"SUMBAWANGA
CBD",551,MILANZI,55111,NAMBOGO,NADOFYA
RUKWA,55,"SUMBAWANGA
CBD",551,MILANZI,55111,NAMBOGO,CHILUKA
RUKWA,55,"SUMBAWANGA
CBD",551,MILANZI,55111,NAMBOGO,NAMATANDA
RUKWA,55,"SUMBAWANGA
CBD",551,KASENSE,55112,KASENSE,TALA
RUKWA,55,"SUMBAWANGA
CBD",551,KASENSE,55112,KASENSE,MWENGE
RUKWA,55,"SUMBAWANGA
CBD",551,KASENSE,55112,KASENSE,NAKUPAMBA
RUKWA,55,"SUMBAWANGA
CBD",551,KASENSE,55112,KASENSE,NAUPANGALA
RUKWA,55,"SUMBAWANGA
CBD",551,KASENSE,55112,KASENSE,NKASHA
RUKWA,55,"SUMBAWANGA
CBD",551,KASENSE,55112,KASENSE,MOMBO
RUKWA,55,"SUMBAWANGA
CBD",551,KASENSE,55112,CHIPU,SESELA
RUKWA,55,"SUMBAWANGA
CBD",551,KASENSE,55112,CHIPU,MSONGWA
RUKWA,55,"SUMBAWANGA
CBD",551,KASENSE,55112,CHIPU,KASEKELA
RUKWA,55,"SUMBAWANGA
CBD",551,KASENSE,55112,CHIPU,WINGI
RUKWA,55,"SUMBAWANGA
CBD",551,KASENSE,55112,CHIPU,KATANDALA
RUKWA,55,"SUMBAWANGA
CBD",551,KASENSE,55112,CHIPU,MWANGA
RUKWA,55,"SUMBAWANGA
CBD",551,KASENSE,55112,CHIPU,KOPELA
RUKWA,55,"SUMBAWANGA
CBD",551,KASENSE,55112,CHIPU,KAMALAWI
RUKWA,55,"SUMBAWANGA
CBD",551,KASENSE,55112,MTIMBWA,KIBOLYE
RUKWA,55,"SUMBAWANGA
CBD",551,KASENSE,55112,MTIMBWA,KING'OMBE
RUKWA,55,"SUMBAWANGA
CBD",551,KASENSE,55112,MTIMBWA,MAJENGO
RUKWA,55,"SUMBAWANGA
CBD",551,KASENSE,55112,MTIMBWA,MBALA
RUKWA,55,"SUMBAWANGA
CBD",551,KASENSE,55112,MTIMBWA,KALOLE
RUKWA,55,"SUMBAWANGA
CBD",551,KASENSE,55112,MTIMBWA,MAGOMENI
RUKWA,55,"SUMBAWANGA
CBD",551,KASENSE,55112,MTIMBWA,KAMSISI
RUKWA,55,"SUMBAWANGA
CBD",551,KASENSE,55112,MTIMBWA,TYULA
RUKWA,55,"SUMBAWANGA
CBD",551,KASENSE,55112,MTIMBWA,LYACHITALA
RUKWA,55,"SUMBAWANGA
CBD",551,KASENSE,55112,MTIMBWA,ILAMBILA
RUKWA,55,"SUMBAWANGA
CBD",551,KASENSE,55112,MTIMBWA,NAKATETE
RUKWA,55,"SUMBAWANGA
CBD",551,KASENSE,55112,MTIMBWA,MAWENI
RUKWA,55,"SUMBAWANGA
CBD",551,KASENSE,55112,MTIMBWA,MAWENZUSI
RUKWA,55,"SUMBAWANGA
CBD",551,KASENSE,55112,MTIMBWA,KATI
RUKWA,55,"SUMBAWANGA
CBD",551,KASENSE,55112,MTIMBWA,LANDANI
RUKWA,55,"SUMBAWANGA
CBD",551,KASENSE,55112,MTIMBWA,BANGWE
RUKWA,55,"SUMBAWANGA
CBD",551,KASENSE,55112,MTIMBWA,DAFCO
RUKWA,55,"SUMBAWANGA
CBD",551,KASENSE,55112,MTIMBWA,SENKENYA
RUKWA,55,"SUMBAWANGA
CBD",551,KASENSE,55112,MTIMBWA,JANGWANI
RUKWA,55,"SUMBAWANGA
CBD",551,KASENSE,55112,MTIMBWA,KATI
RUKWA,55,"SUMBAWANGA
CBD",551,KASENSE,55112,MTIMBWA,NDUA
RUKWA,55,"SUMBAWANGA
CBD",551,KASENSE,55112,MTIMBWA,IBONDE
RUKWA,55,"SUMBAWANGA
CBD",551,KASENSE,55112,MTIMBWA,YELUSALEM
RUKWA,55,"SUMBAWANGA
CBD",551,KASENSE,55112,MTIMBWA,NKOKWA
RUKWA,55,"SUMBAWANGA
CBD",551,KASENSE,55112,MTIMBWA,ISESA
RUKWA,55,"SUMBAWANGA
CBD",551,KASENSE,55112,MTIMBWA,MTAKUJA
RUKWA,55,"SUMBAWANGA
CBD",551,KASENSE,55112,MTIMBWA,MAGOMENI
RUKWA,55,"SUMBAWANGA
CBD",551,KASENSE,55112,MTIMBWA,LUSANZI
RUKWA,55,"SUMBAWANGA
CBD",551,KASENSE,55112,MTIMBWA,AMANI
RUKWA,55,"SUMBAWANGA
CBD",551,KASENSE,55112,MTIMBWA,NEWLAND
RUKWA,55,"SUMBAWANGA
CBD",551,KASENSE,55112,MTIMBWA,UTENGULE
RUKWA,55,"SUMBAWANGA
CBD",551,KASENSE,55112,MTIMBWA,TANKI
RUKWA,55,"SUMBAWANGA
CBD",551,KASENSE,55112,MTIMBWA,GHALA
RUKWA,55,"SUMBAWANGA
CBD",551,KASENSE,55112,MTIMBWA,BANGWE 'A'
RUKWA,55,"SUMBAWANGA
CBD",551,KASENSE,55112,MTIMBWA,BANGWE 'B'
RUKWA,55,"SUMBAWANGA
CBD",551,KASENSE,55112,MTIMBWA,MKASA
RUKWA,55,"SUMBAWANGA
CBD",551,KASENSE,55112,MTIMBWA,MAKUKA
RUKWA,55,"SUMBAWANGA
CBD",551,KASENSE,55112,MTIMBWA,CHASI
RUKWA,55,"SUMBAWANGA
CBD",551,KASENSE,55112,MTIMBWA,KINAMWANGA
RUKWA,55,"SUMBAWANGA
CBD",551,MOLLO,55113,MALONJE,MAWENI
RUKWA,55,"SUMBAWANGA
CBD",551,MOLLO,55113,MALONJE,MAWENZUSI
RUKWA,55,"SUMBAWANGA
CBD",551,MOLLO,55113,MALONJE,KATI
RUKWA,55,"SUMBAWANGA
CBD",551,MOLLO,55113,MALONJE,LANDANI
RUKWA,55,"SUMBAWANGA
CBD",551,MOLLO,55113,MALONJE,BANGWE
RUKWA,55,"SUMBAWANGA
CBD",551,MOLLO,55113,ULINJI,DAFCO
RUKWA,55,"SUMBAWANGA
CBD",551,MOLLO,55113,ULINJI,SENKENYA
RUKWA,55,"SUMBAWANGA
CBD",551,MOLLO,55113,ULINJI,JANGWANI
RUKWA,55,"SUMBAWANGA
CBD",551,MOLLO,55113,ULINJI,KATI
RUKWA,55,"SUMBAWANGA
CBD",551,MOLLO,55113,ULINJI,NDUA
RUKWA,55,"SUMBAWANGA
CBD",551,MOLLO,55113,ULINJI,IBONDE
RUKWA,55,"SUMBAWANGA
CBD",551,MOLLO,55113,ISESA,YELUSALEM
RUKWA,55,"SUMBAWANGA
CBD",551,MOLLO,55113,ISESA,NKOKWA
RUKWA,55,"SUMBAWANGA
CBD",551,MOLLO,55113,ISESA,ISESA
RUKWA,55,"SUMBAWANGA
CBD",551,MOLLO,55113,ISESA,MTAKUJA
RUKWA,55,"SUMBAWANGA
CBD",551,MOLLO,55113,ISESA,MAGOMENI
RUKWA,55,"SUMBAWANGA
CBD",551,MOLLO,55113,ISESA,LUSANZI
RUKWA,55,"SUMBAWANGA
CBD",551,MOLLO,55113,ISESA,AMANI
RUKWA,55,"SUMBAWANGA
CBD",551,MOLLO,55113,ISESA,NEWLAND
RUKWA,55,"SUMBAWANGA
CBD",551,MOLLO,55113,MAWENZUSI,UTENGULE
RUKWA,55,"SUMBAWANGA
CBD",551,MOLLO,55113,MAWENZUSI,TANKI
RUKWA,55,"SUMBAWANGA
CBD",551,MOLLO,55113,MAWENZUSI,GHALA
RUKWA,55,"SUMBAWANGA
CBD",551,MOLLO,55113,MAWENZUSI,BANGWE 'A'
RUKWA,55,"SUMBAWANGA
CBD",551,MOLLO,55113,MAWENZUSI,BANGWE 'B'
RUKWA,55,"SUMBAWANGA
CBD",551,MOLLO,55113,MAWENZUSI,MKASA
RUKWA,55,"SUMBAWANGA
CBD",551,MOLLO,55113,MAWENZUSI,MAKUKA
RUKWA,55,"SUMBAWANGA
CBD",551,MOLLO,55113,MAWENZUSI,CHASI
RUKWA,55,"SUMBAWANGA
CBD",551,MOLLO,55113,MAWENZUSI,KINAMWANGA
RUKWA,55,"SUMBAWANGA
CBD",551,MATANGA,55114,MATANGA,KALOLENI
RUKWA,55,"SUMBAWANGA
CBD",551,MATANGA,55114,MATANGA,MKUYUNI
RUKWA,55,"SUMBAWANGA
CBD",551,MATANGA,55114,MATANGA,MASOMO
RUKWA,55,"SUMBAWANGA
CBD",551,MATANGA,55114,MATANGA,MALENGWA
RUKWA,55,"SUMBAWANGA
CBD",551,MATANGA,55114,MATANGA,NATENE 'A'
RUKWA,55,"SUMBAWANGA
CBD",551,MATANGA,55114,MATANGA,NATENE 'B'
RUKWA,55,"SUMBAWANGA
CBD",551,MATANGA,55114,MATANGA,KIKOMA 'A'
RUKWA,55,"SUMBAWANGA
CBD",551,MATANGA,55114,MATANGA,KIKOMA 'B'
RUKWA,55,"SUMBAWANGA
CBD",551,MATANGA,55114,KISUMBA,NALILIWA
RUKWA,55,"SUMBAWANGA
CBD",551,MATANGA,55114,KISUMBA,NGULUMO
RUKWA,55,"SUMBAWANGA
CBD",551,MATANGA,55114,KISUMBA,MALWILO
RUKWA,55,"SUMBAWANGA
CBD",551,MATANGA,55114,KISUMBA,NAKUPAMBA
RUKWA,55,"SUMBAWANGA
CBD",551,MATANGA,55114,KISUMBA,MWENE KAPUFI
RUKWA,55,"SUMBAWANGA
CBD",551,MATANGA,55114,KISUMBA,SUWENDA
RUKWA,55,"SUMBAWANGA
CBD",551,MATANGA,55114,KISUMBA,ZAHANATI
RUKWA,55,"SUMBAWANGA
CBD",551,MATANGA,55114,CHELENGANYA,KAMETENJE
RUKWA,55,"SUMBAWANGA
CBD",551,MATANGA,55114,CHELENGANYA,MBULO
RUKWA,55,"SUMBAWANGA
CBD",551,MATANGA,55114,CHELENGANYA,LYANGALILE
RUKWA,55,"SUMBAWANGA
CBD",551,MATANGA,55114,CHELENGANYA,MAJENGO
RUKWA,55,"SUMBAWANGA
CBD",551,MATANGA,55114,CHELENGANYA,SONGABELE
RUKWA,55,"SUMBAWANGA
CBD",551,MATANGA,55114,CHELENGANYA,MATULA
RUKWA,55,"SUMBAWANGA
CBD",551,MATANGA,55114,CHELENGANYA,MASIPA
RUKWA,55,"SUMBAWANGA
CBD",551,PITO,55115,KATUMBA AZIMIO,GODAUNI
RUKWA,55,"SUMBAWANGA
CBD",551,PITO,55115,KATUMBA AZIMIO,ZANZIBAR
RUKWA,55,"SUMBAWANGA
CBD",551,PITO,55115,KATUMBA AZIMIO,KILOMBERO
RUKWA,55,"SUMBAWANGA
CBD",551,PITO,55115,KATUMBA AZIMIO,RC
RUKWA,55,"SUMBAWANGA
CBD",551,PITO,55115,KATUMBA AZIMIO,CCM
RUKWA,55,"SUMBAWANGA
CBD",551,PITO,55115,KATUMBA AZIMIO,DALINI
RUKWA,55,"SUMBAWANGA
CBD",551,PITO,55115,KATUMBA AZIMIO,MTAKUJA
RUKWA,55,"SUMBAWANGA
CBD",551,PITO,55115,TAMASENGA,MPWITA
RUKWA,55,"SUMBAWANGA
CBD",551,PITO,55115,TAMASENGA,KAFICHONI
RUKWA,55,"SUMBAWANGA
CBD",551,PITO,55115,TAMASENGA,NANDEKA
RUKWA,55,"SUMBAWANGA
CBD",551,PITO,55115,TAMASENGA,MICHECHE
RUKWA,55,"SUMBAWANGA
CBD",551,PITO,55115,TAMASENGA,WASUKASUKA
RUKWA,55,"SUMBAWANGA
CBD",551,PITO,55115,TAMASENGA,NSELWA
RUKWA,55,"SUMBAWANGA
CBD",551,PITO,55115,TAMASENGA,MALGANO-NTUCHI
RUKWA,55,"SUMBAWANGA
CBD",551,PITO,55115,TAMASENGA,KATECHA
RUKWA,55,"SUMBAWANGA
CBD",551,PITO,55115,TAMASENGA,GALILAYA
RUKWA,55,"SUMBAWANGA
CBD",551,PITO,55115,TAMASENGA,GODOWN
RUKWA,55,"SUMBAWANGA
CBD",551,PITO,55115,MALAGANO,NAWIMI
RUKWA,55,"SUMBAWANGA
CBD",551,PITO,55115,MALAGANO,KAMWELA
RUKWA,55,"SUMBAWANGA
CBD",551,PITO,55115,MALAGANO,IPEPA
RUKWA,55,"SUMBAWANGA
CBD",551,PITO,55115,MALAGANO,MIPUTU
RUKWA,55,"SUMBAWANGA
CBD",551,PITO,55115,MALAGANO,MOVU
RUKWA,55,"SUMBAWANGA
CBD",551,PITO,55115,MALAGANO,KAWANDO
RUKWA,55,"SUMBAWANGA
CBD",551,PITO,55115,MALAGANO,LWICHE
RUKWA,55,"SUMBAWANGA
CBD",551,PITO,55115,PITO,ITISWE
RUKWA,55,"SUMBAWANGA
CBD",551,PITO,55115,PITO,LYANGALUA
RUKWA,55,"SUMBAWANGA
CBD",551,PITO,55115,PITO,NANKA
RUKWA,55,"SUMBAWANGA
CBD",551,PITO,55115,PITO,TUMBUNWE
RUKWA,55,"SUMBAWANGA
CBD",551,PITO,55115,PITO,MPOTO
RUKWA,55,"SUMBAWANGA
CBD",551,PITO,55115,PITO,MISHENI
RUKWA,55,"SUMBAWANGA
CBD",551,MAFULALA,55116,MAFULALA,
RUKWA,55,"SUMBAWANGA
CBD",551,MAFULALA,55116,K.K.K.T,
RUKWA,55,"SUMBAWANGA
CBD",551,MAFULALA,55116,TANESCO,
RUKWA,55,"SUMBAWANGA
CBD",551,MAFULALA,55116,SIDO,
RUKWA,55,"SUMBAWANGA
CBD",551,MAFULALA,55116,MALECHELA,
RUKWA,55,"SUMBAWANGA
CBD",551,MAFULALA,55116,TRANSFOMA,
RUKWA,55,"SUMBAWANGA
CBD",551,MAFULALA,55116,NKANA,
RUKWA,55,"SUMBAWANGA
CBD",551,MAFULALA,55116,KANISA,
RUKWA,55,"SUMBAWANGA
CBD",551,MAFULALA,55116,JOLA,
RUKWA,55,"SUMBAWANGA
CBD",551,MAFULALA,55116,MADUKA,
RUKWA,55,"SUMBAWANGA
CBD",551,MAFULALA,55116,MOMOKA,
RUKWA,55,"SUMBAWANGA
CBD",551,MAFULALA,55116,SEKONDARI,
RUKWA,55,"SUMBAWANGA
CBD",551,MSUA,55117,MSUA,
RUKWA,55,"SUMBAWANGA
CBD",551,MSUA,55117,MAWENI,
RUKWA,55,"SUMBAWANGA
CBD",551,MSUA,55117,CHEMCHEM,
RUKWA,55,"SUMBAWANGA
CBD",551,MSUA,55117,CHEMKA,
RUKWA,55,"SUMBAWANGA
CBD",551,MSUA,55117,KING’OMBE,
RUKWA,55,"SUMBAWANGA
CBD",551,MSUA,55117,KISIWANI,
RUKWA,55,"SUMBAWANGA
CBD",551,MSUA,55117,KILIMANI,
RUKWA,55,"SUMBAWANGA
CBD",551,MSUA,55117,MZEE NYANYA,
RUKWA,55,"SUMBAWANGA
CBD",551,MSUA,55117,SHULE,
RUKWA,55,"SUMBAWANGA
CBD",551,MSUA,55117,FR. LUKA,
RUKWA,55,"SUMBAWANGA
CBD",551,MSUA,55117,KICHANGANI,
RUKWA,55,"SUMBAWANGA
CBD",551,MSUA,55117,MALINGA,
RUKWA,55,"SUMBAWANGA
CBD",551,MSUA,55117,MAWENI,
RUKWA,55,"SUMBAWANGA
CBD",551,MOMOKA,55118,KASHAI,
RUKWA,55,"SUMBAWANGA
CBD",551,MOMOKA,55118,RETCO,
RUKWA,55,"SUMBAWANGA
CBD",551,MOMOKA,55118,EDENI  ‘A’,
RUKWA,55,"SUMBAWANGA
CBD",551,MOMOKA,55118,EDENI  ‘B’,
RUKWA,55,"SUMBAWANGA
CBD",551,MOMOKA,55118,MTAKUMBUKA,
RUKWA,55,"SUMBAWANGA
CBD",551,LWICHE,55119,UTENGULE,
RUKWA,55,"SUMBAWANGA
CBD",551,LWICHE,55119,LWICHE,
RUKWA,55,"SUMBAWANGA
CBD",551,LWICHE,55119,SHENGETELA,
RUKWA,55,"SUMBAWANGA
CBD",551,LWICHE,55119,KAUNGWA,
RUKWA,55,"SUMBAWANGA
CBD",551,LWICHE,55119,MAJUMBASITA,
RUKWA,55,"SUMBAWANGA
CBD",551,LWICHE,55119,KATAI,
RUKWA,55,"SUMBAWANGA
CBD",551,LWICHE,55119,KAFUMBUSI,
RUKWA,55,"SUMBAWANGA
CBD",551,LWICHE,55119,MAGOMENI,
RUKWA,55,SUMBAWANGA,552,LAELA,55201,MAGOMENI,LAELA
RUKWA,55,SUMBAWANGA,552,LAELA,55201,MAGOMENI,KASAKALAWE
RUKWA,55,SUMBAWANGA,552,LAELA,55201,MAGOMENI,KIVUKOMTETA
RUKWA,55,SUMBAWANGA,552,LAELA,55201,MAGOMENI,KANATONDWE
RUKWA,55,SUMBAWANGA,552,LAELA,55201,MAGOMENI,MALAMBO
RUKWA,55,SUMBAWANGA,552,LAELA,55201,MAGOMENI,POSTA
RUKWA,55,SUMBAWANGA,552,LAELA,55201,MAGOMENI,POKOPOKO
RUKWA,55,SUMBAWANGA,552,LAELA,55201,MAGOMENI,KATAMULONDO
RUKWA,55,SUMBAWANGA,552,LAELA,55201,MAGOMENI,KIPANDE
RUKWA,55,SUMBAWANGA,552,LAELA,55201,MAGOMENI,KIWANDA
RUKWA,55,SUMBAWANGA,552,LAELA,55201,MAGOMENI,KATONTO
RUKWA,55,SUMBAWANGA,552,LAELA,55201,MAGOMENI,MTUNYU
RUKWA,55,SUMBAWANGA,552,LAELA,55201,MAGOMENI,MTINDILO
RUKWA,55,SUMBAWANGA,552,LAELA,55201,MAGOMENI,CHUNYA
RUKWA,55,SUMBAWANGA,552,LAELA,55201,MAGOMENI,VUTA
RUKWA,55,SUMBAWANGA,552,LAELA,55201,MAGOMENI,MWANGA
RUKWA,55,SUMBAWANGA,552,LAELA,55201,MAGOMENI,KAMYALILE
RUKWA,55,SUMBAWANGA,552,LAELA,55201,MAGOMENI,MAPOROMOKO
RUKWA,55,SUMBAWANGA,552,LAELA,55201,MAGOMENI,NDELEMA
RUKWA,55,SUMBAWANGA,552,KAENGESA,55202,KAENGESA A,KAWALA “A”
RUKWA,55,SUMBAWANGA,552,KAENGESA,55202,KAENGESA A,KAWALA “B”
RUKWA,55,SUMBAWANGA,552,KAENGESA,55202,KAENGESA A,MAJENGO
RUKWA,55,SUMBAWANGA,552,KAENGESA,55202,KAENGESA A,KALEMASHA
RUKWA,55,SUMBAWANGA,552,KAENGESA,55202,LYAPONA,ILAMBILA
RUKWA,55,SUMBAWANGA,552,KAENGESA,55202,LYAPONA,BANGWE
RUKWA,55,SUMBAWANGA,552,KAENGESA,55202,LYAPONA,KAFUNDO
RUKWA,55,SUMBAWANGA,552,KAENGESA,55202,LYAPONA,MTAZYA
RUKWA,55,SUMBAWANGA,552,KAENGESA,55202,MKUNDA,MSOKO
RUKWA,55,SUMBAWANGA,552,KAENGESA,55202,MKUNDA,SENGA
RUKWA,55,SUMBAWANGA,552,KAENGESA,55202,MKUNDA,KIPOKO
RUKWA,55,SUMBAWANGA,552,KAENGESA,55202,MKUNDA,KAZIMWANDA
RUKWA,55,SUMBAWANGA,552,KAENGESA,55202,MKUNDA,MSISHINDWE
RUKWA,55,SUMBAWANGA,552,KAENGESA,55202,LTELA,ITELA
RUKWA,55,SUMBAWANGA,552,KAENGESA,55202,LTELA,ITETEMYA
RUKWA,55,SUMBAWANGA,552,KAENGESA,55202,LTELA,MULANONDO
RUKWA,55,SUMBAWANGA,552,KAENGESA,55202,KAENGESA B,MPONA
RUKWA,55,SUMBAWANGA,552,KAENGESA,55202,KAENGESA B,MLANDIZI
RUKWA,55,SUMBAWANGA,552,KAENGESA,55202,KAENGESA B,MAGOMENI
RUKWA,55,SUMBAWANGA,552,MPUI,55203,MPUI A,MPUI KATI
RUKWA,55,SUMBAWANGA,552,MPUI,55203,MPUI A,BUTIAMA
RUKWA,55,SUMBAWANGA,552,MPUI,55203,MPUI A,KAMNYALILE
RUKWA,55,SUMBAWANGA,552,MPUI,55203,MPUI A,MIAKASI
RUKWA,55,SUMBAWANGA,552,MPUI,55203,ILEMBO,KALEKETE
RUKWA,55,SUMBAWANGA,552,MPUI,55203,ILEMBO,ILEMBO KATI
RUKWA,55,SUMBAWANGA,552,MPUI,55203,ILEMBO,TUKUMA
RUKWA,55,SUMBAWANGA,552,MPUI,55203,ILEMBO,MANWAKALA
RUKWA,55,SUMBAWANGA,552,MPUI,55203,NTUMBI,NTUMBI KATI
RUKWA,55,SUMBAWANGA,552,MPUI,55203,NTUMBI,NKUKWA
RUKWA,55,SUMBAWANGA,552,MPUI,55203,NTUMBI,MALAPWA
RUKWA,55,SUMBAWANGA,552,MPUI,55203,NTUMBI,KUNGWE
RUKWA,55,SUMBAWANGA,552,MPUI,55203,MPUI B,MANTAKIA
RUKWA,55,SUMBAWANGA,552,MPUI,55203,MPUI B,ILALA
RUKWA,55,SUMBAWANGA,552,MPUI,55203,MPUI B,MOROGORO
RUKWA,55,SUMBAWANGA,552,MPUI,55203,MPUI B,BANGWE
RUKWA,55,SUMBAWANGA,552,MPUI,55203,MKIMA,NANKANGA
RUKWA,55,SUMBAWANGA,552,MPUI,55203,MKIMA,KASINGA
RUKWA,55,SUMBAWANGA,552,MPUI,55203,KAPEWA,KAPOKA
RUKWA,55,SUMBAWANGA,552,MPUI,55203,KAPEWA,KWELA
RUKWA,55,SUMBAWANGA,552,MPUI,55203,MTETEZI,IKOZI
RUKWA,55,SUMBAWANGA,552,MPUI,55203,MTETEZI,IVUKUTWA
RUKWA,55,SUMBAWANGA,552,SANDULULA,55204,SANDULULA,MLINGA
RUKWA,55,SUMBAWANGA,552,SANDULULA,55204,SANDULULA,MWATI
RUKWA,55,SUMBAWANGA,552,SANDULULA,55204,SANDULULA,MAWENI
RUKWA,55,SUMBAWANGA,552,SANDULULA,55204,SANDULULA,ISUKU
RUKWA,55,SUMBAWANGA,552,SANDULULA,55204,MUMBA,KAMBAUTWA
RUKWA,55,SUMBAWANGA,552,SANDULULA,55204,MUMBA,CHUNGWE
RUKWA,55,SUMBAWANGA,552,SANDULULA,55204,MUMBA,MUMBAKATI
RUKWA,55,SUMBAWANGA,552,SANDULULA,55204,JANGWANI,PANTA
RUKWA,55,SUMBAWANGA,552,SANDULULA,55204,JANGWANI,MLIMANI
RUKWA,55,SUMBAWANGA,552,SANDULULA,55204,JANGWANI,MTAKUJA
RUKWA,55,SUMBAWANGA,552,SANDULULA,55204,JANGWANI,MNADANI
RUKWA,55,SUMBAWANGA,552,SANDULULA,55204,JANGWANI,KATI
RUKWA,55,SUMBAWANGA,552,SANDULULA,55204,KALOLE,KANCHO
RUKWA,55,SUMBAWANGA,552,SANDULULA,55204,KALOLE,VISELA
RUKWA,55,SUMBAWANGA,552,SANDULULA,55204,KALOLE,KALOLE
RUKWA,55,SUMBAWANGA,552,SANDULULA,55204,KALOLE,KAMINALA
RUKWA,55,SUMBAWANGA,552,SANDULULA,55204,KALOLE,TULAMBWE
RUKWA,55,SUMBAWANGA,552,KALAMBANZITE,55205,KALAMBAZITE,NAMPUZI
RUKWA,55,SUMBAWANGA,552,KALAMBANZITE,55205,KALAMBAZITE,IPANGA
RUKWA,55,SUMBAWANGA,552,KALAMBANZITE,55205,KALAMBAZITE,NINDE
RUKWA,55,SUMBAWANGA,552,KALAMBANZITE,55205,KALAMBAZITE,KALAMBAZITE
RUKWA,55,SUMBAWANGA,552,KALAMBANZITE,55205,MLECHE,KASINGA
RUKWA,55,SUMBAWANGA,552,KALAMBANZITE,55205,MLECHE,KAPOKA
RUKWA,55,SUMBAWANGA,552,KALAMBANZITE,55205,MLECHE,KWELA
RUKWA,55,SUMBAWANGA,552,KALAMBANZITE,55205,MLECHE,IKOZI
RUKWA,55,SUMBAWANGA,552,KALAMBANZITE,55205,KILEMBO,KASAMVU
RUKWA,55,SUMBAWANGA,552,KALAMBANZITE,55205,KILEMBO,NAKUPATA
RUKWA,55,SUMBAWANGA,552,KALAMBANZITE,55205,KILEMBO,KIMBILI
RUKWA,55,SUMBAWANGA,552,KALAMBANZITE,55205,KILEMBO,ITALA
RUKWA,55,SUMBAWANGA,552,KALAMBANZITE,55205,MSHANI,KISA
RUKWA,55,SUMBAWANGA,552,KALAMBANZITE,55205,MSHANI,MAJENGO
RUKWA,55,SUMBAWANGA,552,KALAMBANZITE,55205,MSHANI,NANDEKA
RUKWA,55,SUMBAWANGA,552,KALAMBANZITE,55205,MSHANI,KALAMBO
RUKWA,55,SUMBAWANGA,552,KALAMBANZITE,55205,MLOMBO,MLOMBO
RUKWA,55,SUMBAWANGA,552,KALAMBANZITE,55205,MLOMBO,KIPOMA
RUKWA,55,SUMBAWANGA,552,KALAMBANZITE,55205,MLOMBO,MSINE
RUKWA,55,SUMBAWANGA,552,MILEPA,55206,MILEPA,MANENGWE
RUKWA,55,SUMBAWANGA,552,MILEPA,55206,MILEPA,NIWE
RUKWA,55,SUMBAWANGA,552,MILEPA,55206,MILEPA,MBULU
RUKWA,55,SUMBAWANGA,552,MILEPA,55206,MILEPA,MWILA
RUKWA,55,SUMBAWANGA,552,MILEPA,55206,MILEPA,MILEPA
RUKWA,55,SUMBAWANGA,552,MILEPA,55206,KINAMBO,LUNDI
RUKWA,55,SUMBAWANGA,552,MILEPA,55206,KINAMBO,UNYELE
RUKWA,55,SUMBAWANGA,552,MILEPA,55206,KINAMBO,KANYALA
RUKWA,55,SUMBAWANGA,552,MILEPA,55206,KINAMBO,KINAMBO
RUKWA,55,SUMBAWANGA,552,MILEPA,55206,MAYENJE,CHIKOMA
RUKWA,55,SUMBAWANGA,552,MILEPA,55206,MAYENJE,KALEMBO
RUKWA,55,SUMBAWANGA,552,MILEPA,55206,MAYENJE,NSONGOLE
RUKWA,55,SUMBAWANGA,552,MILEPA,55206,KISA,KALOLE
RUKWA,55,SUMBAWANGA,552,MILEPA,55206,KISA,MISUFINI
RUKWA,55,SUMBAWANGA,552,MILEPA,55206,KISA,KISULO
RUKWA,55,SUMBAWANGA,552,MILEPA,55206,KISA,MASISI
RUKWA,55,SUMBAWANGA,552,MILEPA,55206,KISA,KISA
RUKWA,55,SUMBAWANGA,552,MILEPA,55206,KISA,NGALA
RUKWA,55,SUMBAWANGA,552,MILEPA,55206,TALANDA,KAKOMA
RUKWA,55,SUMBAWANGA,552,MILEPA,55206,TALANDA,NAMATEMBA
RUKWA,55,SUMBAWANGA,552,MILEPA,55206,MSIA,NZOVWE
RUKWA,55,SUMBAWANGA,552,MILEPA,55206,MSIA,KALELELYA
RUKWA,55,SUMBAWANGA,552,MILEPA,55206,MSIA,NTAPI
RUKWA,55,SUMBAWANGA,552,MILEPA,55206,MSIA,NINGA
RUKWA,55,SUMBAWANGA,552,MTOWISA,55207,MTOWISA A,MTOWISA A
RUKWA,55,SUMBAWANGA,552,MTOWISA,55207,MTOWISA A,ICHESE
RUKWA,55,SUMBAWANGA,552,MTOWISA,55207,MTOWISA A,MTOWISA KATI
RUKWA,55,SUMBAWANGA,552,MTOWISA,55207,MTOWISA A,DODOMA
RUKWA,55,SUMBAWANGA,552,MTOWISA,55207,MTOWISA A,KATAMBALA
RUKWA,55,SUMBAWANGA,552,MTOWISA,55207,SONTAUKIA,MAJENGO
RUKWA,55,SUMBAWANGA,552,MTOWISA,55207,SONTAUKIA,KATINDI
RUKWA,55,SUMBAWANGA,552,MTOWISA,55207,SONTAUKIA,KICHANGANI
RUKWA,55,SUMBAWANGA,552,MTOWISA,55207,SONTAUKIA,SONTAUKIA
RUKWA,55,SUMBAWANGA,552,MTOWISA,55207,MTOWISA B,RANCHI
RUKWA,55,SUMBAWANGA,552,MTOWISA,55207,MTOWISA B,MADUKANI
RUKWA,55,SUMBAWANGA,552,MTOWISA,55207,MTOWISA B,ILOLESHA
RUKWA,55,SUMBAWANGA,552,MTOWISA,55207,MTOWISA B,MTETEZI
RUKWA,55,SUMBAWANGA,552,MTOWISA,55207,MTOWISA B,ILEMELA
RUKWA,55,SUMBAWANGA,552,MTOWISA,55207,MTOWISA B,NAMALAWI
RUKWA,55,SUMBAWANGA,552,MTOWISA,55207,MTOWISA B,KATANDALA
RUKWA,55,SUMBAWANGA,552,MTOWISA,55207,MTOWISA B,MWELA
RUKWA,55,SUMBAWANGA,552,MTOWISA,55207,NG'ONGO,MWANGA
RUKWA,55,SUMBAWANGA,552,MTOWISA,55207,NG'ONGO,LWIZI
RUKWA,55,SUMBAWANGA,552,MTOWISA,55207,NG'ONGO,NG'ONGO
RUKWA,55,SUMBAWANGA,552,MTOWISA,55207,KIFINGA,KIFINGA
RUKWA,55,SUMBAWANGA,552,MTOWISA,55207,KIFINGA,KAKOA
RUKWA,55,SUMBAWANGA,552,MTOWISA,55207,KIFINGA,KASISI
RUKWA,55,SUMBAWANGA,552,MTOWISA,55207,KIFINGA,MTUKULA
RUKWA,55,SUMBAWANGA,552,MTOWISA,55207,MKAMBA,SOFWA
RUKWA,55,SUMBAWANGA,552,MTOWISA,55207,MKAMBA,CHANDA
RUKWA,55,SUMBAWANGA,552,MTOWISA,55207,MKAMBA,MUNDWE
RUKWA,55,SUMBAWANGA,552,MTOWISA,55207,MKAMBA,MTETEZE
RUKWA,55,SUMBAWANGA,552,MTOWISA,55207,MKAMBA,KALOLE
RUKWA,55,SUMBAWANGA,552,MTOWISA,55207,MKAMBA,MWANGA
RUKWA,55,SUMBAWANGA,552,MTOWISA,55207,MKAMBA,KISITU
RUKWA,55,SUMBAWANGA,552,MTOWISA,55207,MKAMBA,MBUYUNI
RUKWA,55,SUMBAWANGA,552,MTOWISA,55207,MKAMBA,KINDUMBA
RUKWA,55,SUMBAWANGA,552,MTOWISA,55207,MKAMBA,MTIRI
RUKWA,55,SUMBAWANGA,552,MTOWISA,55207,MKAMBA,KALOLENI
RUKWA,55,SUMBAWANGA,552,MUZE,55208,MUZE,MAJENGO
RUKWA,55,SUMBAWANGA,552,MUZE,55208,MUZE,UKANDA WA ZIWA A
RUKWA,55,SUMBAWANGA,552,MUZE,55208,MUZE,NAOMBA
RUKWA,55,SUMBAWANGA,552,MUZE,55208,MUZE,MUZE
RUKWA,55,SUMBAWANGA,552,MUZE,55208,UZIA,ILAMBILA
RUKWA,55,SUMBAWANGA,552,MUZE,55208,UZIA,MKANYAGENI
RUKWA,55,SUMBAWANGA,552,MUZE,55208,MBWILO,MISUNKUMILO
RUKWA,55,SUMBAWANGA,552,MUZE,55208,MBWILO,TYULA
RUKWA,55,SUMBAWANGA,552,MUZE,55208,KIZUNGU,MAMBA
RUKWA,55,SUMBAWANGA,552,MUZE,55208,KIZUNGU,KANDALE
RUKWA,55,SUMBAWANGA,552,MUZE,55208,KIZUNGU,MAKUTANO
RUKWA,55,SUMBAWANGA,552,MUZE,55208,KIZUNGU,MAJENGO
RUKWA,55,SUMBAWANGA,552,MUZE,55208,ILANGA,ILANGA
RUKWA,55,SUMBAWANGA,552,MUZE,55208,ILANGA,MTAKUJA
RUKWA,55,SUMBAWANGA,552,MUZE,55208,ILANGA,MASATUSE
RUKWA,55,SUMBAWANGA,552,MUZE,55208,KALAKALA,UKANDA WA ZIWA B
RUKWA,55,SUMBAWANGA,552,MUZE,55208,KALAKALA,MKAMANYE
RUKWA,55,SUMBAWANGA,552,MUZE,55208,KALAKALA,KAPILIKA
RUKWA,55,SUMBAWANGA,552,MUZE,55208,ISANGWA,KANWANKONKO
RUKWA,55,SUMBAWANGA,552,MUZE,55208,ISANGWA,MAPOKO
RUKWA,55,SUMBAWANGA,552,MUZE,55208,ISANGWA,NDEPUKE
RUKWA,55,SUMBAWANGA,552,MUZE,55208,ISANGWA,KAMOKO
RUKWA,55,SUMBAWANGA,552,LUSAKA,55209,LUSAKA,KAMUWA
RUKWA,55,SUMBAWANGA,552,LUSAKA,55209,LUSAKA,CHOKOMA
RUKWA,55,SUMBAWANGA,552,LUSAKA,55209,LUSAKA,KAWALA
RUKWA,55,SUMBAWANGA,552,LUSAKA,55209,LOWE,MSUNDA
RUKWA,55,SUMBAWANGA,552,LUSAKA,55209,LOWE,MZIMULA
RUKWA,55,SUMBAWANGA,552,LUSAKA,55209,LOWE,MWAYA
RUKWA,55,SUMBAWANGA,552,LUSAKA,55209,LOWE,MSUNDA
RUKWA,55,SUMBAWANGA,552,LUSAKA,55209,LOWE,LYANINGA
RUKWA,55,SUMBAWANGA,552,LUSAKA,55209,KIZUMBI,KOMBA
RUKWA,55,SUMBAWANGA,552,LUSAKA,55209,KIZUMBI,MAKALA
RUKWA,55,SUMBAWANGA,552,LUSAKA,55209,KIZUMBI,NGOMENI
RUKWA,55,SUMBAWANGA,552,LUSAKA,55209,KIZUMBI,KIYALE
RUKWA,55,SUMBAWANGA,552,LUSAKA,55209,KIZUMBI,CHOLWA
RUKWA,55,SUMBAWANGA,552,LUSAKA,55209,MPEMBANO,KENYA
RUKWA,55,SUMBAWANGA,552,LUSAKA,55209,MPEMBANO,MSUZU
RUKWA,55,SUMBAWANGA,552,LUSAKA,55209,MPEMBANO,TUPA
RUKWA,55,SUMBAWANGA,552,LUSAKA,55209,MPEMBANO,NAKASOWA
RUKWA,55,SUMBAWANGA,552,LUSAKA,55209,MPEMBANO,NTAWA
RUKWA,55,SUMBAWANGA,552,LUSAKA,55209,MPEMBANO,MPEMBENO
RUKWA,55,SUMBAWANGA,552,LUSAKA,55209,MPEMBANO,MBALAMWENE
RUKWA,55,SUMBAWANGA,552,LUSAKA,55209,MPEMBANO,CHAMBA
RUKWA,55,SUMBAWANGA,552,LUSAKA,55209,MPEMBANO,IZUMA
RUKWA,55,SUMBAWANGA,552,LUSAKA,55209,MPEMBANO,PASILE
RUKWA,55,SUMBAWANGA,552,LUSAKA,55209,MPEMBANO,NSELELO
RUKWA,55,SUMBAWANGA,552,LUSAKA,55209,MPEMBANO,MKULUKULU
RUKWA,55,SUMBAWANGA,552,LUSAKA,55209,MPEMBANO,MAJENGO
RUKWA,55,SUMBAWANGA,552,KIPETA,55210,KIPETA,KIPETA KATI
RUKWA,55,SUMBAWANGA,552,KIPETA,55210,KIPETA,MMUYU
RUKWA,55,SUMBAWANGA,552,KIPETA,55210,KIPETA,NG’ONGO
RUKWA,55,SUMBAWANGA,552,KIPETA,55210,KIPETA,KANYALA
RUKWA,55,SUMBAWANGA,552,KIPETA,55210,KIPETA,NGOLA
RUKWA,55,SUMBAWANGA,552,KIPETA,55210,KIPETA,KITUKU KATI
RUKWA,55,SUMBAWANGA,552,KIPETA,55210,KILYAMATUNDU,KILYAMATUNDU
RUKWA,55,SUMBAWANGA,552,KIPETA,55210,KILYAMATUNDU,LUPANGA
RUKWA,55,SUMBAWANGA,552,KIPETA,55210,KILYAMATUNDU,TEWETE
RUKWA,55,SUMBAWANGA,552,KIPETA,55210,KILYAMATUNDU,MAJENGO
RUKWA,55,SUMBAWANGA,552,KIPETA,55210,KILYAMATUNDU,KATI
RUKWA,55,SUMBAWANGA,552,KIPETA,55210,LEGEZA,SENGA
RUKWA,55,SUMBAWANGA,552,KIPETA,55210,LEGEZA,NAUCHESE
RUKWA,55,SUMBAWANGA,552,KIPETA,55210,MPONA,CHAMWANA
RUKWA,55,SUMBAWANGA,552,KIPETA,55210,MPONA,NAMASHETE
RUKWA,55,SUMBAWANGA,552,KIPETA,55210,MPONA,MBAYA
RUKWA,55,SUMBAWANGA,552,KIPETA,55210,MPONA,MAGOMA
RUKWA,55,SUMBAWANGA,552,KIPETA,55210,KIRANDO,LUDEWA
RUKWA,55,SUMBAWANGA,552,KIPETA,55210,KIRANDO,NAMAVYONGA
RUKWA,55,SUMBAWANGA,552,KAOZE,55211,KAOZE,NANZOVU
RUKWA,55,SUMBAWANGA,552,KAOZE,55211,KAOZE,CHIKULWE
RUKWA,55,SUMBAWANGA,552,KAOZE,55211,KAOZE,MSAWIZI
RUKWA,55,SUMBAWANGA,552,KAOZE,55211,KAOZE,NSAVYA
RUKWA,55,SUMBAWANGA,552,KAOZE,55211,KAOZE,MPILIMA
RUKWA,55,SUMBAWANGA,552,KAOZE,55211,TULULU,CHANG’OMBE
RUKWA,55,SUMBAWANGA,552,KAOZE,55211,TULULU,MSANGANA
RUKWA,55,SUMBAWANGA,552,KAOZE,55211,TULULU,TULULU
RUKWA,55,SUMBAWANGA,552,KAOZE,55211,CHOMBE,KIPALA
RUKWA,55,SUMBAWANGA,552,KAOZE,55211,CHOMBE,CHIPA
RUKWA,55,SUMBAWANGA,552,KAOZE,55211,CHOMBE,KALAMBO
RUKWA,55,SUMBAWANGA,552,KAOZE,55211,CHOMBE,MWITU
RUKWA,55,SUMBAWANGA,552,KAOZE,55211,CHOMBE,MTAPENDA
RUKWA,55,SUMBAWANGA,552,KAOZE,55211,CHOMBE,CHOMBE
RUKWA,55,SUMBAWANGA,552,KAOZE,55211,KIANDAIGONDA,KIANDAIGONDA A
RUKWA,55,SUMBAWANGA,552,KAOZE,55211,KIANDAIGONDA,KIANDAIGONDA B
RUKWA,55,SUMBAWANGA,552,KAOZE,55211,KIANDAIGONDA,CHITE A
RUKWA,55,SUMBAWANGA,552,KAOZE,55211,KIANDAIGONDA,CHITE B
RUKWA,55,SUMBAWANGA,552,KAOZE,55211,KIANDAIGONDA,CHANG'OMBE A
RUKWA,55,SUMBAWANGA,552,KAOZE,55211,KIANDAIGONDA,CHANG'OMBE B
RUKWA,55,SUMBAWANGA,552,KAOZE,55211,KIANDAIGONDA,CHAMENJE
RUKWA,55,SUMBAWANGA,552,KAOZE,55211,KIANDAIGONDA,KASUNGU
RUKWA,55,SUMBAWANGA,552,KAOZE,55211,KIANDAIGONDA,KIKULWE
RUKWA,55,SUMBAWANGA,552,KAOZE,55211,KIANDAIGONDA,MSOPA
RUKWA,55,SUMBAWANGA,552,KAOZE,55211,KIANDAIGONDA,MPASAJI
RUKWA,55,SUMBAWANGA,552,KAOZE,55211,KIANDAIGONDA,KIZULE
RUKWA,55,SUMBAWANGA,552,MIANGALUA,55212,MIANGALUA,IZOMO
RUKWA,55,SUMBAWANGA,552,MIANGALUA,55212,MIANGALUA,MATIMBA
RUKWA,55,SUMBAWANGA,552,MIANGALUA,55212,MIANGALUA,KAFULAMKOWE
RUKWA,55,SUMBAWANGA,552,MIANGALUA,55212,MIANGALUA,KATI
RUKWA,55,SUMBAWANGA,552,MIANGALUA,55212,MIANGALUA,MIANGALUA
RUKWA,55,SUMBAWANGA,552,MIANGALUA,55212,TUNKO,CHITINDI
RUKWA,55,SUMBAWANGA,552,MIANGALUA,55212,TUNKO,MPALALA
RUKWA,55,SUMBAWANGA,552,MIANGALUA,55212,TUNKO,TUNKO
RUKWA,55,SUMBAWANGA,552,MIANGALUA,55212,TUNKO,CHITOWA
RUKWA,55,SUMBAWANGA,552,MIANGALUA,55212,MOVU,NANSAMA
RUKWA,55,SUMBAWANGA,552,MIANGALUA,55212,MOVU,NTENDO
RUKWA,55,SUMBAWANGA,552,MIANGALUA,55212,MOVU,ITUKULA
RUKWA,55,SUMBAWANGA,552,MIANGALUA,55212,MKOWE,NANSAMA
RUKWA,55,SUMBAWANGA,552,MIANGALUA,55212,MKOWE,NTENDO
RUKWA,55,SUMBAWANGA,552,MIANGALUA,55212,MKOWE,ITUKULA
RUKWA,55,SUMBAWANGA,552,MIANGALUA,55212,MKOWE,MOVU
RUKWA,55,SUMBAWANGA,552,MIANGALUA,55212,MKOWE,ISANGO
RUKWA,55,SUMBAWANGA,552,MIANGALUA,55212,KAVIFUTI,MIANGA
RUKWA,55,SUMBAWANGA,552,MIANGALUA,55212,KAVIFUTI,CHAFUMA
RUKWA,55,SUMBAWANGA,552,MIANGALUA,55212,KAVIFUTI,KELENGE
RUKWA,55,SUMBAWANGA,552,MIANGALUA,55212,KAVIFUTI,MATIMBA
RUKWA,55,SUMBAWANGA,552,MIANGALUA,55212,NAMPAKO,NACHITONTO
RUKWA,55,SUMBAWANGA,552,MIANGALUA,55212,NAMPAKO,NAMPAKO
RUKWA,55,SUMBAWANGA,552,MIANGALUA,55212,NAMPAKO,KASOTE
RUKWA,55,SUMBAWANGA,552,MIANGALUA,55212,NAMPAKO,KIVUKO
RUKWA,55,SUMBAWANGA,552,MIANGALUA,55212,KAMSAMBA,KAMSAMBA
RUKWA,55,SUMBAWANGA,552,MIANGALUA,55212,KAMSAMBA,IZOMBO
RUKWA,55,SUMBAWANGA,552,ILEMBA,55213,ILEMBA A,MKANGA
RUKWA,55,SUMBAWANGA,552,ILEMBA,55213,ILEMBA A,MWEMBEMMOJA
RUKWA,55,SUMBAWANGA,552,ILEMBA,55213,KASWEPA,KASWEPA
RUKWA,55,SUMBAWANGA,552,ILEMBA,55213,KASWEPA,KAPATA
RUKWA,55,SUMBAWANGA,552,ILEMBA,55213,KASWEPA,MAJENGO
RUKWA,55,SUMBAWANGA,552,ILEMBA,55213,SAKALILO,MULU
RUKWA,55,SUMBAWANGA,552,ILEMBA,55213,SAKALILO,MANDA
RUKWA,55,SUMBAWANGA,552,ILEMBA,55213,SAKALILO,KALEKETE
RUKWA,55,SUMBAWANGA,552,ILEMBA,55213,SAKALILO,ISANGA
RUKWA,55,SUMBAWANGA,552,ILEMBA,55213,ILEMBA B,CHANJI
RUKWA,55,SUMBAWANGA,552,ILEMBA,55213,ILEMBA B,TUWI
RUKWA,55,SUMBAWANGA,552,ILEMBA,55213,ILEMBA B,MAKOTO
RUKWA,55,SUMBAWANGA,552,ILEMBA,55213,ILEMBA B,KAMBAUWANDA
RUKWA,55,SUMBAWANGA,552,ILEMBA,55213,ILEMBA B,KAMPOMBO
RUKWA,55,SUMBAWANGA,552,ILEMBA,55213,LYANZA,KALAMBO
RUKWA,55,SUMBAWANGA,552,ILEMBA,55213,LYANZA,MILIMANI
RUKWA,55,SUMBAWANGA,552,ILEMBA,55213,LYANZA,LYANZA KATI
RUKWA,55,SUMBAWANGA,552,NANKANGA,55214,NANKANGA,UHURU
RUKWA,55,SUMBAWANGA,552,NANKANGA,55214,NANKANGA,NAZARETH
RUKWA,55,SUMBAWANGA,552,NANKANGA,55214,NANKANGA,CHIKAMBA
RUKWA,55,SUMBAWANGA,552,NANKANGA,55214,NANKANGA C,MTAKUJA
RUKWA,55,SUMBAWANGA,552,NANKANGA,55214,NANKANGA C,CHANG'OMBE
RUKWA,55,SUMBAWANGA,552,NANKANGA,55214,NANKANGA C,VUMA
RUKWA,55,SUMBAWANGA,552,NANKANGA,55214,SOLOLA,SOLOLA KATI
RUKWA,55,SUMBAWANGA,552,NANKANGA,55214,SOLOLA,INTAKE
RUKWA,55,SUMBAWANGA,552,KAPENTA,55215,MKUSI,MTUNDWE
RUKWA,55,SUMBAWANGA,552,KAPENTA,55215,MKUSI,MSANZA
RUKWA,55,SUMBAWANGA,552,KAPENTA,55215,MKUSI,KIKONDE
RUKWA,55,SUMBAWANGA,552,KAPENTA,55215,NGOMENI,MKUMBULULE
RUKWA,55,SUMBAWANGA,552,KAPENTA,55215,NGOMENI,MKANGELE
RUKWA,55,SUMBAWANGA,552,KAPENTA,55215,KAWILA,MAZINJI B
RUKWA,55,SUMBAWANGA,552,KAPENTA,55215,KAWILA,KAWILA
RUKWA,55,SUMBAWANGA,552,KAPENTA,55215,KAPENTA,NTUMBI
RUKWA,55,SUMBAWANGA,552,KAPENTA,55215,KAPENTA,MALAWI
RUKWA,55,SUMBAWANGA,552,KAPENTA,55215,KAPENTA,KAPASA
RUKWA,55,SUMBAWANGA,552,KAPENTA,55215,KAPENTA,MAZINJI
RUKWA,55,SUMBAWANGA,552,KAPENTA,55215,KAPENTA,NGOI
RUKWA,55,SUMBAWANGA,552,KAPENTA,55215,NSANGA,KAULA
RUKWA,55,SUMBAWANGA,552,KAPENTA,55215,NSANGA,KAFULA
RUKWA,55,SUMBAWANGA,552,KAPENTA,55215,NSANGA,KALONJE
RUKWA,55,SUMBAWANGA,552,KAPENTA,55215,LIWELYAMVULA,NGOMENI
RUKWA,55,SUMBAWANGA,552,KAPENTA,55215,LIWELYAMVULA,NAMINGONGO
RUKWA,55,SUMBAWANGA,552,KILANGAWANA,55216,MALEZA,ULUNDO
RUKWA,55,SUMBAWANGA,552,KILANGAWANA,55216,MALEZA,MSOMANTEMBO
RUKWA,55,SUMBAWANGA,552,KILANGAWANA,55216,MALEZA,MWENEMTOLO
RUKWA,55,SUMBAWANGA,552,KILANGAWANA,55216,MALEZA,NKAMBA
RUKWA,55,SUMBAWANGA,552,KILANGAWANA,55216,MALEZA,KAPYAMSANYA
RUKWA,55,SUMBAWANGA,552,KILANGAWANA,55216,MALEZA,NANGOLI
RUKWA,55,SUMBAWANGA,552,KILANGAWANA,55216,MALEZA,MAOMBWE
RUKWA,55,SUMBAWANGA,552,KILANGAWANA,55216,KILANGAWANA,TUKUYU
RUKWA,55,SUMBAWANGA,552,KILANGAWANA,55216,KILANGAWANA,MABATINI
RUKWA,55,SUMBAWANGA,552,KILANGAWANA,55216,KILANGAWANA,MPAKANI
RUKWA,55,SUMBAWANGA,552,KILANGAWANA,55216,KILANGAWANA,MOVU
RUKWA,55,SUMBAWANGA,552,KILANGAWANA,55216,KILANGAWANA,MJINI
RUKWA,55,SUMBAWANGA,552,KILANGAWANA,55216,KILANGAWANA,KILANGAWANA
RUKWA,55,SUMBAWANGA,552,KILANGAWANA,55216,MPANDE,KALOLENI
RUKWA,55,SUMBAWANGA,552,KILANGAWANA,55216,MPANDE,SOWETO
RUKWA,55,SUMBAWANGA,552,KILANGAWANA,55216,ILAMBO,MTUKULA
RUKWA,55,SUMBAWANGA,552,KILANGAWANA,55216,ILAMBO,ELNINO
RUKWA,55,SUMBAWANGA,552,KILANGAWANA,55216,ILAMBO,MABATINI
RUKWA,55,SUMBAWANGA,552,KILANGAWANA,55216,ILAMBO,MAJENGO
RUKWA,55,SUMBAWANGA,552,KILANGAWANA,55216,ILAMBO,CHANG’OMBE
RUKWA,55,SUMBAWANGA,552,KILANGAWANA,55216,ILAMBO,ISINIZYA
RUKWA,55,SUMBAWANGA,552,ZIMBA,55217,ZIMBA,IYUNGA
RUKWA,55,SUMBAWANGA,552,ZIMBA,55217,ZIMBA,MISSION
RUKWA,55,SUMBAWANGA,552,ZIMBA,55217,ZIMBA,GODAWN
RUKWA,55,SUMBAWANGA,552,ZIMBA,55217,ZIMBA,MBUYUNI
RUKWA,55,SUMBAWANGA,552,ZIMBA,55217,ZIMBA,MABATINI
RUKWA,55,SUMBAWANGA,552,ZIMBA,55217,MISSION,NAMWELE
RUKWA,55,SUMBAWANGA,552,ZIMBA,55217,MISSION,MAJENGO
RUKWA,55,SUMBAWANGA,552,ZIMBA,55217,MISSION,MALOTO
RUKWA,55,SUMBAWANGA,552,ZIMBA,55217,LWANJI,NDULULU
RUKWA,55,SUMBAWANGA,552,ZIMBA,55217,LWANJI,LWANJI
RUKWA,55,SUMBAWANGA,552,ZIMBA,55217,LWANJI,MTAKUJA
RUKWA,55,SUMBAWANGA,552,ZIMBA,55217,LWANJI,KATANGA
RUKWA,55,SUMBAWANGA,552,ZIMBA,55217,KANYALA,KANYALA
RUKWA,55,SUMBAWANGA,552,ZIMBA,55217,KANYALA,KIKONKO
RUKWA,55,SUMBAWANGA,552,KALUMBALEZA,55218,KALUMBALEZA A,KILAMBWA
RUKWA,55,SUMBAWANGA,552,KALUMBALEZA,55218,KALUMBALEZA A,MASISHE
RUKWA,55,SUMBAWANGA,552,KALUMBALEZA,55218,KALUMBALEZA A,KIKOKO
RUKWA,55,SUMBAWANGA,552,KALUMBALEZA,55218,KALUMBALEZA A,KALOLENI
RUKWA,55,SUMBAWANGA,552,KALUMBALEZA,55218,KALUMBALEZA B,MIEMBENI
RUKWA,55,SUMBAWANGA,552,KALUMBALEZA,55218,KALUMBALEZA B,MIKUYUNI
RUKWA,55,SUMBAWANGA,552,KALUMBALEZA,55218,KALUMBALEZA B,KATOO
RUKWA,55,SUMBAWANGA,552,KALUMBALEZA,55218,KALUMBALEZA B,MAKALA
RUKWA,55,SUMBAWANGA,552,KALUMBALEZA,55218,MNAZIMMOJA,MNAZIMMOJA
RUKWA,55,SUMBAWANGA,552,KALUMBALEZA,55218,MNAZIMMOJA,MLIA
RUKWA,55,SUMBAWANGA,552,KALUMBALEZA,55218,MNAZIMMOJA ASILIA,MNAZIMMOJA KATI
RUKWA,55,SUMBAWANGA,552,KALUMBALEZA,55218,MNAZIMMOJA ASILIA,KASISI
RUKWA,55,SUMBAWANGA,552,KALUMBALEZA,55218,MNAZIMMOJA ASILIA,KASINGA
RUKWA,55,SUMBAWANGA,552,KALUMBALEZA,55218,MNAZIMMOJA ASILIA,INDOO
RUKWA,55,SUMBAWANGA,552,MFINGA,55219,MFINGA,KIZUMBI
RUKWA,55,SUMBAWANGA,552,MFINGA,55219,MFINGA,MWENGE
RUKWA,55,SUMBAWANGA,552,MFINGA,55219,MFINGA,KIKWALE
RUKWA,55,SUMBAWANGA,552,MFINGA,55219,MFINGA,MITOBO A
RUKWA,55,SUMBAWANGA,552,MFINGA,55219,MFINGA,KIPENZI
RUKWA,55,SUMBAWANGA,552,MFINGA,55219,MFINGA,KAVUU
RUKWA,55,SUMBAWANGA,552,MFINGA,55219,MFINGA,KIKOKO
RUKWA,55,SUMBAWANGA,552,MFINGA,55219,KASEKELA,KIKU
RUKWA,55,SUMBAWANGA,552,MFINGA,55219,KASEKELA,KALA
RUKWA,55,SUMBAWANGA,552,MFINGA,55219,KASEKELA,MTUKULA
RUKWA,55,SUMBAWANGA,552,MFINGA,55219,KASEKELA,MITOBO
RUKWA,55,SUMBAWANGA,552,MFINGA,55219,KASEKELA,KASEKELA
RUKWA,55,SUMBAWANGA,552,MFINGA,55219,MSILA,MTAKUJA
RUKWA,55,SUMBAWANGA,552,MFINGA,55219,MSILA,KAVUU
RUKWA,55,SUMBAWANGA,552,MWADUI,55220,MPETE,MAKWANGU
RUKWA,55,SUMBAWANGA,552,MWADUI,55220,MPETE,ITIMBA
RUKWA,55,SUMBAWANGA,552,MWADUI,55220,MPETE,NAMAMBA
RUKWA,55,SUMBAWANGA,552,MWADUI,55220,KIPA,KAMCHANGA
RUKWA,55,SUMBAWANGA,552,MWADUI,55220,KIPA,ZIWANI
RUKWA,55,SUMBAWANGA,552,MWADUI,55220,NKWILO,IPILULA
RUKWA,55,SUMBAWANGA,552,MWADUI,55220,NKWILO,LUSANDO
RUKWA,55,SUMBAWANGA,552,MWADUI,55220,NKWILO,MATETE
RUKWA,55,SUMBAWANGA,552,MWADUI,55220,NKWILO,KITENU
RUKWA,55,SUMBAWANGA,552,MWADUI,55220,NKWILO,KIKWALE
RUKWA,55,SUMBAWANGA,552,MWADUI,55220,NKWILO,MPAKANI
RUKWA,55,SUMBAWANGA,552,MWADUI,55220,KATOO,MASHETE
RUKWA,55,SUMBAWANGA,552,MWADUI,55220,KATOO,MADOKO
RUKWA,55,SUMBAWANGA,552,MWADUI,55220,KATOO,KIJIWENI
RUKWA,55,SUMBAWANGA,552,MWADUI,55220,MTAPENDA,KASTAMU
RUKWA,55,SUMBAWANGA,552,MWADUI,55220,MTAPENDA,KIZUMBI
RUKWA,55,SUMBAWANGA,552,MWADUI,55220,MWADUI,SONGAMBELE
RUKWA,55,SUMBAWANGA,552,MWADUI,55220,MWADUI,KILIMAHEWA
RUKWA,55,SUMBAWANGA,552,IKOZI,55221,IKOZI,IKOZI KATI A
RUKWA,55,SUMBAWANGA,552,IKOZI,55221,IKOZI,KISALALA
RUKWA,55,SUMBAWANGA,552,IKOZI,55221,KAZWILA,KALOLENI
RUKWA,55,SUMBAWANGA,552,IKOZI,55221,KAZWILA,LEGEZAMWENDO
RUKWA,55,SUMBAWANGA,552,IKOZI,55221,KAZWILA,KIVUKO
RUKWA,55,SUMBAWANGA,552,IKOZI,55221,CHITUO,NAMKWEZA
RUKWA,55,SUMBAWANGA,552,IKOZI,55221,CHITUO,IKOZI B
RUKWA,55,SUMBAWANGA,552,IKOZI,55221,CHITUO,KATETE
RUKWA,55,SUMBAWANGA,552,IKOZI,55221,TENTULA,MTAKUJA
RUKWA,55,SUMBAWANGA,552,IKOZI,55221,TENTULA,TENTULA KATI
RUKWA,55,SUMBAWANGA,552,IKOZI,55221,TENTULA,NAMONKA A
RUKWA,55,SUMBAWANGA,552,IKOZI,55221,TENTULA,KAVUNA
RUKWA,55,SUMBAWANGA,552,IKOZI,55221,TENTULA,NAMONKA B
RUKWA,55,SUMBAWANGA,552,MPWAPWA,55222,MPWAPWA,MASANKO
RUKWA,55,SUMBAWANGA,552,MPWAPWA,55222,MPWAPWA,KATUPA
RUKWA,55,SUMBAWANGA,552,MPWAPWA,55222,MPWAPWA,MAZIRA
RUKWA,55,SUMBAWANGA,552,MPWAPWA,55222,MPWAPWA,MPWAPWA
RUKWA,55,SUMBAWANGA,552,MPWAPWA,55222,MALOLWA,SEZA
RUKWA,55,SUMBAWANGA,552,MPWAPWA,55222,MALOLWA,MALOLWA
RUKWA,55,SUMBAWANGA,552,MPWAPWA,55222,MALOLWA,MILEMO
RUKWA,55,SUMBAWANGA,552,MPWAPWA,55222,MEMYA,MEMYA
RUKWA,55,SUMBAWANGA,552,MPWAPWA,55222,MEMYA,MTAKUJA
RUKWA,55,SUMBAWANGA,552,MPWAPWA,55222,MEMYA,MSAMVU
RUKWA,55,SUMBAWANGA,552,MPWAPWA,55222,KAPOKA,MANDA
RUKWA,55,SUMBAWANGA,552,MPWAPWA,55222,KAPOKA,KAPOKA
RUKWA,55,SUMBAWANGA,552,MPWAPWA,55222,KAPOKA,MISIKU
RUKWA,55,SUMBAWANGA,552,LYANGALILE,55223,KIANDA,MAGOMENI A
RUKWA,55,SUMBAWANGA,552,LYANGALILE,55223,KIANDA,MAGOMENI B
RUKWA,55,SUMBAWANGA,552,LYANGALILE,55223,KIANDA,NDELEMVI
RUKWA,55,SUMBAWANGA,552,LYANGALILE,55223,KIANDA,KALOLENI
RUKWA,55,SUMBAWANGA,552,LYANGALILE,55223,KIANDA,MANJE
RUKWA,55,SUMBAWANGA,552,LYANGALILE,55223,KAZI,SONJE
RUKWA,55,SUMBAWANGA,552,LYANGALILE,55223,KAZI,CHAMIKU
RUKWA,55,SUMBAWANGA,552,LYANGALILE,55223,KAZI,KAZI
RUKWA,55,SUMBAWANGA,552,LYANGALILE,55223,KATONTO,KATONTO
RUKWA,55,SUMBAWANGA,552,LYANGALILE,55223,KATONTO,MWIMBI
RUKWA,55,SUMBAWANGA,552,LYANGALILE,55223,KATONTO,ISINDA
RUKWA,55,SUMBAWANGA,552,LYANGALILE,55223,KATONTO,CHAMSIKU
RUKWA,55,SUMBAWANGA,552,KANDA,55224,LULA,KAWIMBE B
RUKWA,55,SUMBAWANGA,552,KANDA,55224,LULA,KAWIMBE A
RUKWA,55,SUMBAWANGA,552,KANDA,55224,LULA,MKAMBA
RUKWA,55,SUMBAWANGA,552,KANDA,55224,LULA,KITIPA A
RUKWA,55,SUMBAWANGA,552,KANDA,55224,LULA,KITIPA B
RUKWA,55,SUMBAWANGA,552,KANDA,55224,CHITETE,MSHULUMKE
RUKWA,55,SUMBAWANGA,552,KANDA,55224,CHITETE,KITIPE
RUKWA,55,SUMBAWANGA,552,KANDA,55224,CHITETE,NAMANUNKA
RUKWA,55,SUMBAWANGA,552,KANDA,55224,CHITETE,TUNKO
RUKWA,55,SUMBAWANGA,552,KANDA,55224,CHITETE,MAWENI
RUKWA,55,SUMBAWANGA,552,KANDA,55224,LYAPONA B,KALYAMANYI
RUKWA,55,SUMBAWANGA,552,KANDA,55224,LYAPONA B,LYAPONA
RUKWA,55,SUMBAWANGA,552,KANDA,55224,LYAPONA,ILAMBILA
RUKWA,55,SUMBAWANGA,552,KANDA,55224,LYAPONA,BANGWE
RUKWA,55,SUMBAWANGA,552,KANDA,55224,LYAPONA,KAFUNDO
RUKWA,55,SUMBAWANGA,552,KANDA,55224,LYAPONA,MTAZYA
RUKWA,55,SUMBAWANGA,552,MSANDA MUUNGANO,55225,MSANDAMUUNGANO A,ISALE
RUKWA,55,SUMBAWANGA,552,MSANDA MUUNGANO,55225,MSANDAMUUNGANO A,BUTIAMA
RUKWA,55,SUMBAWANGA,552,MSANDA MUUNGANO,55225,SONGAMBELE AZIMIO,NSIMBO
RUKWA,55,SUMBAWANGA,552,MSANDA MUUNGANO,55225,SONGAMBELE AZIMIO,BONDENI
RUKWA,55,SUMBAWANGA,552,MSANDA MUUNGANO,55225,SONGAMBELE AZIMIO,NAKAZUNZU
RUKWA,55,SUMBAWANGA,552,MSANDA MUUNGANO,55225,MSANDAMUUNGANO B,MSANDA
RUKWA,55,SUMBAWANGA,552,MSANDA MUUNGANO,55225,MSANDAMUUNGANO B,TUZIMU
RUKWA,55,SUMBAWANGA,552,MSANDA MUUNGANO,55225,MSANDAMUUNGANO B,NGALANI
RUKWA,55,SUMBAWANGA,552,MSANDA MUUNGANO,55225,SIKAUNGU,KILULUMO
RUKWA,55,SUMBAWANGA,552,MSANDA MUUNGANO,55225,SIKAUNGU,SIKAUNGU
RUKWA,55,SUMBAWANGA,552,MSANDA MUUNGANO,55225,SIKAUNGU,KATENJELE
RUKWA,55,SUMBAWANGA,552,KASANZAMA,55226,SIKAUNGU,KASANZAMA
RUKWA,55,SUMBAWANGA,552,KASANZAMA,55226,SIKAUNGU,NAMAYANGA
RUKWA,55,SUMBAWANGA,552,KASANZAMA,55226,SIKAUNGU,LAELA B
RUKWA,55,SUMBAWANGA,552,KASANZAMA,55226,SIKAUNGU,NKUSA
RUKWA,55,SUMBAWANGA,552,KASANZAMA,55226,SIKAUNGU,ISUNDA
RUKWA,55,SUMBAWANGA,552,KASANZAMA,55226,SIKAUNGU,NAMATILI
RUKWA,55,SUMBAWANGA,552,KASANZAMA,55226,SIKAUNGU,KANTENZA
RUKWA,55,SUMBAWANGA,552,KASANZAMA,55226,SIKAUNGU,FWAKA
RUKWA,55,SUMBAWANGA,552,KASANZAMA,55226,SIKAUNGU,KATABI
RUKWA,55,SUMBAWANGA,552,KASANZAMA,55226,SIKAUNGU,ZINDE
RUKWA,55,SUMBAWANGA,552,KASANZAMA,55226,SIKAUNGU,KAPELE
RUKWA,55,SUMBAWANGA,552,KASANZAMA,55226,SIKAUNGU,KATAPULO
RUKWA,55,SUMBAWANGA,552,KASANZAMA,55226,SIKAUNGU,CHANG'OMBE
RUKWA,55,SUMBAWANGA,552,MNOKOLA,55227,SIKAUNGU,MAJENGO
RUKWA,55,SUMBAWANGA,552,MNOKOLA,55227,SIKAUNGU,KAPELE
RUKWA,55,SUMBAWANGA,552,MNOKOLA,55227,SIKAUNGU,CHIWOLOMBE
RUKWA,55,SUMBAWANGA,552,MNOKOLA,55227,SIKAUNGU,MCHISA
RUKWA,55,SUMBAWANGA,552,MNOKOLA,55227,SIKAUNGU,MNOKOLA
RUKWA,55,SUMBAWANGA,552,MNOKOLA,55227,SIKAUNGU,KISAKAFU
RUKWA,55,SUMBAWANGA,552,MNOKOLA,55227,SIKAUNGU,NITO
RUKWA,55,SUMBAWANGA,552,MNOKOLA,55227,SIKAUNGU,KISALALA
RUKWA,55,SUMBAWANGA,552,MNOKOLA,55227,SIKAUNGU,TISWE
RUKWA,55,SUMBAWANGA,552,MNOKOLA,55227,SIKAUNGU,KAMLANDA
RUKWA,55,SUMBAWANGA,552,MNOKOLA,55227,SIKAUNGU,IYUNGA
RUKWA,55,SUMBAWANGA,552,MNOKOLA,55227,SIKAUNGU,KIPOLO
RUKWA,55,SUMBAWANGA,552,MNOKOLA,55227,SIKAUNGU,MTETA
RUKWA,55,SUMBAWANGA,552,MNOKOLA,55227,SIKAUNGU,ITETE
RUKWA,55,SUMBAWANGA,552,MNOKOLA,55227,SIKAUNGU,KIVUKO
RUKWA,55,SUMBAWANGA,552,MNOKOLA,55227,SIKAUNGU,MITITI
RUKWA,55,NKASI,553,NAMANYERE,55301,SIKAUNGU,MKASAMA
RUKWA,55,NKASI,553,NAMANYERE,55301,SIKAUNGU,CHAWE
RUKWA,55,NKASI,553,NAMANYERE,55301,SIKAUNGU,MPELEMBE
RUKWA,55,NKASI,553,NAMANYERE,55301,SIKAUNGU,MBWENDI
RUKWA,55,NKASI,553,NAMANYERE,55301,SIKAUNGU,BANGWE
RUKWA,55,NKASI,553,NAMANYERE,55301,SIKAUNGU,MLASI
RUKWA,55,NKASI,553,NAMANYERE,55301,SIKAUNGU,CCM BAANI
RUKWA,55,NKASI,553,NAMANYERE,55301,SIKAUNGU,ILEGEZA
RUKWA,55,NKASI,553,NAMANYERE,55301,SIKAUNGU,TINDI
RUKWA,55,NKASI,553,NAMANYERE,55301,SIKAUNGU,KAMAMA
RUKWA,55,NKASI,553,NAMANYERE,55301,SIKAUNGU,MALANGALI
RUKWA,55,NKASI,553,NKOMOLO,55302,SIKAUNGU,KAKOMA
RUKWA,55,NKASI,553,NKOMOLO,55302,SIKAUNGU,ILUMBILWA
RUKWA,55,NKASI,553,NKOMOLO,55302,SIKAUNGU,KASISIWE
RUKWA,55,NKASI,553,NKOMOLO,55302,SIKAUNGU,MKOLE
RUKWA,55,NKASI,553,NKOMOLO,55302,SIKAUNGU,ILALASIMBA
RUKWA,55,NKASI,553,NKOMOLO,55302,SIKAUNGU,MGOMBEZI
RUKWA,55,NKASI,553,NKOMOLO,55302,SIKAUNGU,MLUNGUSI
RUKWA,55,NKASI,553,NKOMOLO,55302,SIKAUNGU,KAMIUNGO
RUKWA,55,NKASI,553,NKOMOLO,55302,SIKAUNGU,CHILUKU
RUKWA,55,NKASI,553,NKOMOLO,55302,SIKAUNGU,KALEMYA
RUKWA,55,NKASI,553,NKOMOLO,55302,SIKAUNGU,MBULO
RUKWA,55,NKASI,553,NKOMOLO,55302,SIKAUNGU,NANG'OMBE
RUKWA,55,NKASI,553,NKOMOLO,55302,SIKAUNGU,IPANDA
RUKWA,55,NKASI,553,NKOMOLO,55302,SIKAUNGU,LYANTWIYA
RUKWA,55,NKASI,553,NKOMOLO,55302,SIKAUNGU,JUHUDI
RUKWA,55,NKASI,553,NKOMOLO,55302,SIKAUNGU,SHELI
RUKWA,55,NKASI,553,NKOMOLO,55302,SIKAUNGU,TUMAINI
RUKWA,55,NKASI,553,NKOMOLO,55302,SIKAUNGU,NKOMOLO KATI
RUKWA,55,NKASI,553,ISALE,55303,NTUCHI,NKOKOLO
RUKWA,55,NKASI,553,ISALE,55303,NTUCHI,MAGOMENI
RUKWA,55,NKASI,553,ISALE,55303,NTUCHI,ITUZYA
RUKWA,55,NKASI,553,ISALE,55303,NTUCHI,MISAKWI
RUKWA,55,NKASI,553,ISALE,55303,NTUCHI,KANCHENCHE
RUKWA,55,NKASI,553,ISALE,55303,NTUCHI KUSINI,KIJIWENI
RUKWA,55,NKASI,553,ISALE,55303,NTUCHI KUSINI,KASULA
RUKWA,55,NKASI,553,ISALE,55303,NTUCHI KUSINI,NAKULAKA
RUKWA,55,NKASI,553,ISALE,55303,NTUCHI KUSINI,KISUMBA
RUKWA,55,NKASI,553,ISALE,55303,NTUCHI KUSINI,KANONDO
RUKWA,55,NKASI,553,ISALE,55303,KITOSI,KANDALE
RUKWA,55,NKASI,553,ISALE,55303,KITOSI,WIMBE
RUKWA,55,NKASI,553,ISALE,55303,KITOSI,SENDO
RUKWA,55,NKASI,553,ISALE,55303,KITOSI,KANWAIZA
RUKWA,55,NKASI,553,ISALE,55303,KITOSI,KITEO
RUKWA,55,NKASI,553,ISALE,55303,IFUNDWA,IFUNDWA A
RUKWA,55,NKASI,553,ISALE,55303,IFUNDWA,IFUNDWA B
RUKWA,55,NKASI,553,ISALE,55303,IFUNDWA,KALEMASHA A
RUKWA,55,NKASI,553,ISALE,55303,IFUNDWA,KALEMASHA B
RUKWA,55,NKASI,553,KIPANDE,55304,KIPANDE,KALEMASHA
RUKWA,55,NKASI,553,KIPANDE,55304,KIPANDE,MAJENGO
RUKWA,55,NKASI,553,KIPANDE,55304,KIPANDE,KILANGALA
RUKWA,55,NKASI,553,KIPANDE,55304,KIPANDE,KAZAMOYO
RUKWA,55,NKASI,553,KIPANDE,55304,KIPANDE,MTAKUJA
RUKWA,55,NKASI,553,KIPANDE,55304,KIPANDE,MAGEUZI
RUKWA,55,NKASI,553,KIPANDE,55304,KIPANDE,MWENGE
RUKWA,55,NKASI,553,KIPANDE,55304,KIPANDE,KIZUSI
RUKWA,55,NKASI,553,KIPANDE,55304,KIPANDE,MTAPENDA
RUKWA,55,NKASI,553,KIPANDE,55304,KIPANDE,LUSEMBWA
RUKWA,55,NKASI,553,KIPANDE,55304,KIPANDE,KATANDALA
RUKWA,55,NKASI,553,KIPANDE,55304,KIPANDE,LUSEMBWA B
RUKWA,55,NKASI,553,KIPANDE,55304,NKUNDI,NANZUMI
RUKWA,55,NKASI,553,KIPANDE,55304,NKUNDI,LWIYA
RUKWA,55,NKASI,553,KIPANDE,55304,NKUNDI,MYALE
RUKWA,55,NKASI,553,KIPANDE,55304,NKUNDI,KING'OMBE
RUKWA,55,NKASI,553,KIPANDE,55304,NKUNDI,ZAKA
RUKWA,55,NKASI,553,KIPANDE,55304,NKUNDI,KAKONJE
RUKWA,55,NKASI,553,KIPANDE,55304,NKUNDI,MIFUNDWA
RUKWA,55,NKASI,553,KIPANDE,55304,NKUNDI,NANKASI
RUKWA,55,NKASI,553,KIPANDE,55304,NKUNDI,KOBASHEKA
RUKWA,55,NKASI,553,KIPANDE,55304,NKUNDI,NAVYELA
RUKWA,55,NKASI,553,KIPANDE,55304,NKUNDI,MAKULA
RUKWA,55,NKASI,553,KIPANDE,55304,NKUNDI,KITIKILI
RUKWA,55,NKASI,553,KIPANDE,55304,NKUNDI,MIKONKONI
RUKWA,55,NKASI,553,KIPANDE,55304,KANTAWA,MATUMAINI
RUKWA,55,NKASI,553,KIPANDE,55304,KANTAWA,KABUNGU
RUKWA,55,NKASI,553,KIPANDE,55304,KANTAWA,LYAKUPOLA
RUKWA,55,NKASI,553,KIPANDE,55304,KANTAWA,NAMTOMOLA
RUKWA,55,NKASI,553,KIPANDE,55304,KANTAWA,NAUNTI
RUKWA,55,NKASI,553,KIPANDE,55304,KANTAWA,MNANILO
RUKWA,55,NKASI,553,KIPANDE,55304,KANTAWA,ILAMBILA
RUKWA,55,NKASI,553,KIPANDE,55304,KANTAWA,MKUTANO
RUKWA,55,NKASI,553,KIPANDE,55304,KANTAWA,SONGAMBELE
RUKWA,55,NKASI,553,KIPANDE,55304,KANTAWA,KASANGWA
RUKWA,55,NKASI,553,KIPANDE,55304,KANTAWA,ZIMBA
RUKWA,55,NKASI,553,KIPANDE,55304,KANTAWA,MNANILO B
RUKWA,55,NKASI,553,KIPANDE,55304,KANTAWA,MOTOMOTO
RUKWA,55,NKASI,553,KIPANDE,55304,KANTAWA,NAMFUTU
RUKWA,55,NKASI,553,KIPANDE,55304,KALUNDI,SOPA
RUKWA,55,NKASI,553,KIPANDE,55304,KALUNDI,NGUVUKAZI
RUKWA,55,NKASI,553,KIPANDE,55304,KALUNDI,ITENDE
RUKWA,55,NKASI,553,KIPANDE,55304,KALUNDI,JITEGEMEE
RUKWA,55,NKASI,553,KIPANDE,55304,KALUNDI,KAWAJENSE
RUKWA,55,NKASI,553,KIPANDE,55304,KALUNDI,MBINGILWA
RUKWA,55,NKASI,553,KIPANDE,55304,KALUNDI,MUHIMBILI
RUKWA,55,NKASI,553,KIPANDE,55304,KALUNDI,KACHINDO
RUKWA,55,NKASI,553,KIPANDE,55304,KALUNDI,TAMBUKALELI
RUKWA,55,NKASI,553,KIPANDE,55304,KALUNDI,MTAPENDA
RUKWA,55,NKASI,553,KIPANDE,55304,NKOMOLO II,MAPINDUZI
RUKWA,55,NKASI,553,KIPANDE,55304,NKOMOLO II,IYAKA
RUKWA,55,NKASI,553,KIPANDE,55304,NKOMOLO II,NDOLA
RUKWA,55,NKASI,553,KIPANDE,55304,NKOMOLO II,BONDESAFI
RUKWA,55,NKASI,553,KIPANDE,55304,NKOMOLO II,MALIMAO
RUKWA,55,NKASI,553,KIPANDE,55304,NKOMOLO II,UPENDO
RUKWA,55,NKASI,553,KIPANDE,55304,NKOMOLO II,KITIKA
RUKWA,55,NKASI,553,KIPANDE,55304,NKOMOLO II,MALIYA
RUKWA,55,NKASI,553,KIPANDE,55304,NKOMOLO II,JEMBE
RUKWA,55,NKASI,553,CHALA,55305,CHIMA,KILOMBERO
RUKWA,55,NKASI,553,CHALA,55305,CHIMA,CHIMA
RUKWA,55,NKASI,553,CHALA,55305,CHIMA,MAHAKAMA
RUKWA,55,NKASI,553,CHALA,55305,CHIMA,UTULIVU NA.1
RUKWA,55,NKASI,553,CHALA,55305,CHIMA,MNONELA
RUKWA,55,NKASI,553,CHALA,55305,CHIMA,NDESWA
RUKWA,55,NKASI,553,CHALA,55305,CHIMA,KAFULANJILI
RUKWA,55,NKASI,553,CHALA,55305,CHALA A,UTULIVU NA. 2
RUKWA,55,NKASI,553,CHALA,55305,CHALA A,MTAKUJA
RUKWA,55,NKASI,553,CHALA,55305,CHALA A,KAZIMOJA
RUKWA,55,NKASI,553,CHALA,55305,CHALA A,TUWEPAMOJA
RUKWA,55,NKASI,553,CHALA,55305,CHALA A,MAFANIKIO
RUKWA,55,NKASI,553,CHALA,55305,CHALA A,MFYIKO
RUKWA,55,NKASI,553,CHALA,55305,CHALA A,CHALANTAI
RUKWA,55,NKASI,553,CHALA,55305,CHALA A,KAULA
RUKWA,55,NKASI,553,CHALA,55305,CHALA A,IPINGILILA
RUKWA,55,NKASI,553,CHALA,55305,CHALA C,MIKOLONGO
RUKWA,55,NKASI,553,CHALA,55305,CHALA C,KAULA
RUKWA,55,NKASI,553,CHALA,55305,CHALA C,SENGA
RUKWA,55,NKASI,553,CHALA,55305,CHALA C,NCHEMEKELO
RUKWA,55,NKASI,553,CHALA,55305,CHALA C,IZIMBA
RUKWA,55,NKASI,553,CHALA,55305,CHATELEKESHA,IZIMBA
RUKWA,55,NKASI,553,CHALA,55305,CHATELEKESHA,CHATELEKESHA
RUKWA,55,NKASI,553,CHALA,55305,CHATELEKESHA,NTANGANYIKA
RUKWA,55,NKASI,553,CHALA,55305,CHATELEKESHA,ISOMA
RUKWA,55,NKASI,553,CHALA,55305,CHATELEKESHA,NACHISHILO
RUKWA,55,NKASI,553,CHALA,55305,CHATELEKESHA,MFWIZI
RUKWA,55,NKASI,553,CHALA,55305,CHATELEKESHA,ISOMA B
RUKWA,55,NKASI,553,CHALA,55305,KACHECHE,KATETE
RUKWA,55,NKASI,553,CHALA,55305,KACHECHE,KAGWILO
RUKWA,55,NKASI,553,CHALA,55305,KACHECHE,IVUNJE
RUKWA,55,NKASI,553,CHALA,55305,KACHECHE,KASHANGALI
RUKWA,55,NKASI,553,CHALA,55305,KACHECHE,NTENGO
RUKWA,55,NKASI,553,CHALA,55305,KACHECHE,NACHISITU
RUKWA,55,NKASI,553,CHALA,55305,CHALA B,MABATINI
RUKWA,55,NKASI,553,CHALA,55305,CHALA B,MAPANDANJIA
RUKWA,55,NKASI,553,CHALA,55305,CHALA B,MASHETE
RUKWA,55,NKASI,553,CHALA,55305,CHALA B,MKOPEZI
RUKWA,55,NKASI,553,CHALA,55305,CHALA B,KAUSHIKE
RUKWA,55,NKASI,553,CHALA,55305,CHALA B,KIVUKONI
RUKWA,55,NKASI,553,CHALA,55305,CHALA B,MKOPEZI B
RUKWA,55,NKASI,553,CHALA,55305,CHALA B,TULU B
RUKWA,55,NKASI,553,CHALA,55305,CHALA B,UKOLO B
RUKWA,55,NKASI,553,CHALA,55305,ISASA,TULU
RUKWA,55,NKASI,553,CHALA,55305,ISASA,KIVUKONI
RUKWA,55,NKASI,553,CHALA,55305,ISASA,ISASA
RUKWA,55,NKASI,553,CHALA,55305,ISASA,MBUGANI
RUKWA,55,NKASI,553,CHALA,55305,LONDOKAZI,UPENDO
RUKWA,55,NKASI,553,CHALA,55305,LONDOKAZI,MAGEUZI
RUKWA,55,NKASI,553,CHALA,55305,LONDOKAZI,KALAMBO
RUKWA,55,NKASI,553,CHALA,55305,LONDOKAZI,MTAPENDA
RUKWA,55,NKASI,553,CHALA,55305,LONDOKAZI,MATANDALANI
RUKWA,55,NKASI,553,CHALA,55305,LONDOKAZI,MUUNGANO
RUKWA,55,NKASI,553,CHALA,55305,LONDOKAZI,LONDO
RUKWA,55,NKASI,553,CHALA,55305,LONDOKAZI,MTITI
RUKWA,55,NKASI,553,MTENGA,55307,LONDOKAZI,MTENGA
RUKWA,55,NKASI,553,MTENGA,55307,LONDOKAZI,MTENGA B
RUKWA,55,NKASI,553,MTENGA,55307,LONDOKAZI,MWAI
RUKWA,55,NKASI,553,MTENGA,55307,LONDOKAZI,MATALA
RUKWA,55,NKASI,553,KABWE,55308,KABWE,KITONGOJI NA.1
RUKWA,55,NKASI,553,KABWE,55308,KABWE,KITONGOJI  NA.2
RUKWA,55,NKASI,553,KABWE,55308,KABWE,KITONGOJI NA.3
RUKWA,55,NKASI,553,KABWE,55308,KABWE,KITONGOJI NA.4
RUKWA,55,NKASI,553,KABWE,55308,KABWE CAMP,KITONGOJI NA.9
RUKWA,55,NKASI,553,KABWE,55308,KABWE CAMP,KITONGOJI  NA.10
RUKWA,55,NKASI,553,KABWE,55308,KABWE CAMP,KITONGOJI NA.11
RUKWA,55,NKASI,553,KABWE,55308,KABWE CAMP,KITONGOJI NA.12
RUKWA,55,NKASI,553,KABWE,55308,KANCHUI,NGUVU KAZI
RUKWA,55,NKASI,553,KABWE,55308,KANCHUI,KASINDE
RUKWA,55,NKASI,553,KABWE,55308,KANCHUI,BEACH
RUKWA,55,NKASI,553,KABWE,55308,KANCHUI,KATOBA
RUKWA,55,NKASI,553,KABWE,55308,KANCHUI,MKUKWE
RUKWA,55,NKASI,553,KABWE,55308,MPENGE,KITONGOJI NA.1
RUKWA,55,NKASI,553,KABWE,55308,MPENGE,KITONGOJI  NA.2
RUKWA,55,NKASI,553,KABWE,55308,MPENGE,KITONGOJI NA.3
RUKWA,55,NKASI,553,KABWE,55308,MPENGE,KITONGOJI NA.4
RUKWA,55,NKASI,553,KABWE,55308,MPENGE,KITONGOJI NA.5
RUKWA,55,NKASI,553,KABWE,55308,MKOMBE,MNAZI MMOJA
RUKWA,55,NKASI,553,KABWE,55308,MKOMBE,MAJENGO
RUKWA,55,NKASI,553,KABWE,55308,MKOMBE,MTUKULA
RUKWA,55,NKASI,553,KABWE,55308,MKOMBE,IPINGIRA
RUKWA,55,NKASI,553,KABWE,55308,MKOMBE,MWEMBENI
RUKWA,55,NKASI,553,KABWE,55308,KALILA,KITONGOJI NA.1
RUKWA,55,NKASI,553,KABWE,55308,KALILA,KITONGOJI  NA.2
RUKWA,55,NKASI,553,KABWE,55308,KALILA,JANGWANI
RUKWA,55,NKASI,553,KABWE,55308,KALILA,KITONGOJI NA.4
RUKWA,55,NKASI,553,KABWE,55308,KALILA,VIBANDANI
RUKWA,55,NKASI,553,KABWE,55308,UDACHI,KITONGOJI NA.1
RUKWA,55,NKASI,553,KABWE,55308,UDACHI,KITONGOJI  NA.2
RUKWA,55,NKASI,553,KABWE,55308,UDACHI,KITONGOJI NA.3
RUKWA,55,NKASI,553,KABWE,55308,UDACHI,KITONGOJI NA.4
RUKWA,55,NKASI,553,KABWE,55308,UDACHI,KITONGOJI NA.5
RUKWA,55,NKASI,553,KABWE,55308,UDACHI,KITONGOJI NA.6
RUKWA,55,NKASI,553,KIRANDO,55309,KAMWANDA,MWATUSEMA
RUKWA,55,NKASI,553,KIRANDO,55309,KAMWANDA,KATANDALA
RUKWA,55,NKASI,553,KIRANDO,55309,KAMWANDA,UPENZI
RUKWA,55,NKASI,553,KIRANDO,55309,KAMWANDA,KALYA
RUKWA,55,NKASI,553,KIRANDO,55309,KAMWANDA,UPENDO
RUKWA,55,NKASI,553,KIRANDO,55309,MPATA,MYENGE
RUKWA,55,NKASI,553,KIRANDO,55309,MPATA,KATINDA
RUKWA,55,NKASI,553,KIRANDO,55309,MPATA,FUKUNYU
RUKWA,55,NKASI,553,KIRANDO,55309,MPATA,KITUNDU
RUKWA,55,NKASI,553,KIRANDO,55309,MPATA,KANINI
RUKWA,55,NKASI,553,KIRANDO,55309,MPATA,JIPEMOYO
RUKWA,55,NKASI,553,KIRANDO,55309,MPATA,INUGU
RUKWA,55,NKASI,553,KIRANDO,55309,MPATA,NGENYA
RUKWA,55,NKASI,553,KIRANDO,55309,MTAKUJA,MNAZI MMOJA
RUKWA,55,NKASI,553,KIRANDO,55309,MTAKUJA,FORODHANI
RUKWA,55,NKASI,553,KIRANDO,55309,MTAKUJA,NYERERE
RUKWA,55,NKASI,553,KIRANDO,55309,MTAKUJA,MAJENGO MAPYA
RUKWA,55,NKASI,553,KIRANDO,55309,MTAKUJA,MPAKANI
RUKWA,55,NKASI,553,KIRANDO,55309,MTAKUJA,MACHINJIONI
RUKWA,55,NKASI,553,KIRANDO,55309,MTAKUJA,MCHIKICHINI
RUKWA,55,NKASI,553,KIRANDO,55309,KICHANGANI,KASIMBO
RUKWA,55,NKASI,553,KIRANDO,55309,KICHANGANI,KISWANTA
RUKWA,55,NKASI,553,KIRANDO,55309,KICHANGANI,MKAMBA
RUKWA,55,NKASI,553,KIRANDO,55309,KICHANGANI,MWIBANI
RUKWA,55,NKASI,553,KIRANDO,55309,KICHANGANI,NG'OMBENSAZI
RUKWA,55,NKASI,553,NINDE,55310,NINDE,KALUNGU
RUKWA,55,NKASI,553,NINDE,55310,NINDE,KALINGALINGA
RUKWA,55,NKASI,553,NINDE,55310,NINDE,MAJENGO
RUKWA,55,NKASI,553,NINDE,55310,NINDE,KASWI
RUKWA,55,NKASI,553,NINDE,55310,NINDE,MWEMBENI
RUKWA,55,NKASI,553,NINDE,55310,NINDE,MLUNDI
RUKWA,55,NKASI,553,NINDE,55310,NINDE,MKIRINGA CITY
RUKWA,55,NKASI,553,NINDE,55310,NINDE,KIPAMBA
RUKWA,55,NKASI,553,NINDE,55310,NINDE,MJIMWEMA
RUKWA,55,NKASI,553,NINDE,55310,NINDE,MUUNGANO
RUKWA,55,NKASI,553,NINDE,55310,NINDE,BANDARI
RUKWA,55,NKASI,553,NINDE,55310,NINDE,KILIMAHEWA
RUKWA,55,NKASI,553,NINDE,55310,NAMANSI,KITIWA
RUKWA,55,NKASI,553,NINDE,55310,NAMANSI,KAYOWA
RUKWA,55,NKASI,553,NINDE,55310,NAMANSI,ILUNGU
RUKWA,55,NKASI,553,NINDE,55310,NAMANSI,CHELE
RUKWA,55,NKASI,553,NINDE,55310,NAMANSI,NAMANSI MJINI
RUKWA,55,NKASI,553,NINDE,55310,NAMANSI,CHAMTEPA
RUKWA,55,NKASI,553,NINDE,55310,NAMANSI,KASISHE
RUKWA,55,NKASI,553,NINDE,55310,NAMANSI,MALILAMPUI
RUKWA,55,NKASI,553,NINDE,55310,NAMANSI,MJIMWEMA
RUKWA,55,NKASI,553,NINDE,55310,NAMANSI,MTOSI
RUKWA,55,NKASI,553,NINDE,55310,KISAMBALA,TWIYU
RUKWA,55,NKASI,553,NINDE,55310,KISAMBALA,KORWE
RUKWA,55,NKASI,553,NINDE,55310,KISAMBALA,KISAMBALA
RUKWA,55,NKASI,553,NINDE,55310,KISAMBALA,MATAKA
RUKWA,55,NKASI,553,NINDE,55310,KISAMBALA,LYASI
RUKWA,55,NKASI,553,NINDE,55310,KISAMBALA,MFUNDESI
RUKWA,55,NKASI,553,NINDE,55310,KISAMBALA,KASWANYA
RUKWA,55,NKASI,553,NINDE,55310,KISAMBALA,MSANGAMWISA
RUKWA,55,NKASI,553,NINDE,55310,KISAMBALA,MTOSI
RUKWA,55,NKASI,553,NINDE,55310,KASANGA,MLIMANI
RUKWA,55,NKASI,553,NINDE,55310,KASANGA,MASOKOLO
RUKWA,55,NKASI,553,NINDE,55310,KASANGA,MSUMBA
RUKWA,55,NKASI,553,NINDE,55310,KASANGA,KASANGA
RUKWA,55,NKASI,553,NINDE,55310,KASANGA,KASANGA B
RUKWA,55,NKASI,553,NINDE,55310,MSAMBA,MONGWE NA.10
RUKWA,55,NKASI,553,NINDE,55310,MSAMBA,MPUNDA NA. 1
RUKWA,55,NKASI,553,NINDE,55310,MSAMBA,ZIWANI NA. 3
RUKWA,55,NKASI,553,NINDE,55310,MSAMBA,MIEMBENI NA.4
RUKWA,55,NKASI,553,NINDE,55310,MSAMBA,MIEMBENI NA.8
RUKWA,55,NKASI,553,NINDE,55310,MSAMBA,MNAZI MMOJA NA.6
RUKWA,55,NKASI,553,NINDE,55310,MSAMBA,MIEMBENI NA.7
RUKWA,55,NKASI,553,NINDE,55310,MSAMBA,KALUNGU NA.9
RUKWA,55,NKASI,553,NINDE,55310,MSAMBA,MPUNDA NA. 2
RUKWA,55,NKASI,553,NINDE,55310,MSAMBA,KANISANI NA.5
RUKWA,55,NKASI,553,KATE,55311,KATE,MWATI
RUKWA,55,NKASI,553,KATE,55311,KATE,KIZUMILA
RUKWA,55,NKASI,553,KATE,55311,KATE,NKATA
RUKWA,55,NKASI,553,KATE,55311,KATE,MKUKWE
RUKWA,55,NKASI,553,KATE,55311,KATE,KIWANJANI
RUKWA,55,NKASI,553,KATE,55311,KATE,KOTAZI
RUKWA,55,NKASI,553,KATE,55311,KATE,MWENGE
RUKWA,55,NKASI,553,KATE,55311,KATE,FUKUTU
RUKWA,55,NKASI,553,KATE,55311,KATE,NAMEMA
RUKWA,55,NKASI,553,KATE,55311,MWENGE,KIWELE
RUKWA,55,NKASI,553,KATE,55311,MWENGE,MIANGALUA
RUKWA,55,NKASI,553,KATE,55311,MWENGE,KATE
RUKWA,55,NKASI,553,KATE,55311,MWENGE,GODAUNI
RUKWA,55,NKASI,553,KATE,55311,NCHENJE,GODAUNI
RUKWA,55,NKASI,553,KATE,55311,NCHENJE,MTIMBWA
RUKWA,55,NKASI,553,KATE,55311,NCHENJE,KASENGA
RUKWA,55,NKASI,553,KATE,55311,NCHENJE,NG’ONGO
RUKWA,55,NKASI,553,KATE,55311,NCHENJE,BOMBANI
RUKWA,55,NKASI,553,KATE,55311,NCHENJE,KIJIWENI
RUKWA,55,NKASI,553,KATE,55311,NCHENJE,KATUNTU
RUKWA,55,NKASI,553,KATE,55311,NCHENJE,KAFUKOKA
RUKWA,55,NKASI,553,KATE,55311,NTEMBA,PEPE
RUKWA,55,NKASI,553,KATE,55311,NTEMBA,KIWEMBISI
RUKWA,55,NKASI,553,KATE,55311,NTEMBA,IKUKU
RUKWA,55,NKASI,553,KATE,55311,NTEMBA,NTEMBA
RUKWA,55,NKASI,553,KATE,55311,NTEMBA,KAPELE
RUKWA,55,NKASI,553,KATE,55311,CHINA,CHINA MTONI
RUKWA,55,NKASI,553,KATE,55311,CHINA,KATETE
RUKWA,55,NKASI,553,KATE,55311,CHINA,KATOLIKI
RUKWA,55,NKASI,553,KATE,55311,CHINA,ITEKESHA
RUKWA,55,NKASI,553,KATE,55311,CHINA,KATOLA
RUKWA,55,NKASI,553,SINTALI,55312,SINTALI,KATAPULO
RUKWA,55,NKASI,553,SINTALI,55312,SINTALI,CHANGAMOTO
RUKWA,55,NKASI,553,SINTALI,55312,SINTALI,ILYEMA
RUKWA,55,NKASI,553,SINTALI,55312,SINTALI,MUUNGANO
RUKWA,55,NKASI,553,SINTALI,55312,SINTALI,MKUWE
RUKWA,55,NKASI,553,SINTALI,55312,SINTALI,KATANDALA
RUKWA,55,NKASI,553,SINTALI,55312,NKANA,JUHUDI
RUKWA,55,NKASI,553,SINTALI,55312,NKANA,KAGERA
RUKWA,55,NKASI,553,SINTALI,55312,NKANA,KAZIMOTO
RUKWA,55,NKASI,553,SINTALI,55312,NKANA,KALEMASHA
RUKWA,55,NKASI,553,SINTALI,55312,NKANA,MKUYUNI
RUKWA,55,NKASI,553,SINTALI,55312,NKANA,KALAMBO
RUKWA,55,NKASI,553,SINTALI,55312,NKOMACHINDO,UHAMIAJI
RUKWA,55,NKASI,553,SINTALI,55312,NKOMACHINDO,KITANGAZI
RUKWA,55,NKASI,553,SINTALI,55312,NKOMACHINDO,KALAINI
RUKWA,55,NKASI,553,SINTALI,55312,NKOMACHINDO,KITONTO
RUKWA,55,NKASI,553,SINTALI,55312,KASAPA,NGUVUKAZI
RUKWA,55,NKASI,553,SINTALI,55312,KASAPA,LAMBANAKUNWA
RUKWA,55,NKASI,553,SINTALI,55312,KASAPA,JITEGEMEE
RUKWA,55,NKASI,553,SINTALI,55312,KASAPA,KATANGA
RUKWA,55,NKASI,553,WAMPEMBE,55313,WAMPEMBE,KAFUTI
RUKWA,55,NKASI,553,WAMPEMBE,55313,WAMPEMBE,ISIMYA
RUKWA,55,NKASI,553,WAMPEMBE,55313,WAMPEMBE,MPYULE
RUKWA,55,NKASI,553,WAMPEMBE,55313,WAMPEMBE,MAJENGO
RUKWA,55,NKASI,553,WAMPEMBE,55313,WAMPEMBE,POLISI
RUKWA,55,NKASI,553,WAMPEMBE,55313,WAMPEMBE,MWENE
RUKWA,55,NKASI,553,WAMPEMBE,55313,WAMPEMBE,SOKONI
RUKWA,55,NKASI,553,WAMPEMBE,55313,WAMPEMBE,KATALE
RUKWA,55,NKASI,553,WAMPEMBE,55313,WAMPEMBE,KIKONKO
RUKWA,55,NKASI,553,WAMPEMBE,55313,WAMPEMBE,VUTA
RUKWA,55,NKASI,553,WAMPEMBE,55313,MWINZA,KANISANI
RUKWA,55,NKASI,553,WAMPEMBE,55313,MWINZA,LWANTANGA
RUKWA,55,NKASI,553,WAMPEMBE,55313,MWINZA,MATANDALA
RUKWA,55,NKASI,553,WAMPEMBE,55313,MWINZA,KAYEWA
RUKWA,55,NKASI,553,WAMPEMBE,55313,MWINZA,VUTA
RUKWA,55,NKASI,553,WAMPEMBE,55313,MWINZA,SUNSU
RUKWA,55,NKASI,553,WAMPEMBE,55313,MWINZA,TEMBWA
RUKWA,55,NKASI,553,WAMPEMBE,55313,MWINZA,KIWANDA
RUKWA,55,NKASI,553,WAMPEMBE,55313,MWINZA,MALALE
RUKWA,55,NKASI,553,WAMPEMBE,55313,IZINGA,NACHAOMBA
RUKWA,55,NKASI,553,WAMPEMBE,55313,IZINGA,KISAPA
RUKWA,55,NKASI,553,WAMPEMBE,55313,IZINGA,NAMKALE
RUKWA,55,NKASI,553,WAMPEMBE,55313,IZINGA,SINGALAWE
RUKWA,55,NKASI,553,WAMPEMBE,55313,IZINGA,NANTIMBA
RUKWA,55,NKASI,553,WAMPEMBE,55313,IZINGA,KATONGWA
RUKWA,55,NKASI,553,WAMPEMBE,55313,IZINGA,IKUKUTA
RUKWA,55,NKASI,553,WAMPEMBE,55313,IZINGA,KIATU
RUKWA,55,NKASI,553,WAMPEMBE,55313,IZINGA,NSIMBA
RUKWA,55,NKASI,553,WAMPEMBE,55313,IZINGA,SOLA
RUKWA,55,NKASI,553,WAMPEMBE,55313,IZINGA,MALIMA
RUKWA,55,NKASI,553,KALA,55314,KALA,JITEGEMEE
RUKWA,55,NKASI,553,KALA,55314,KALA,MKULIMA
RUKWA,55,NKASI,553,KALA,55314,KALA,KUCHI
RUKWA,55,NKASI,553,KALA,55314,KALA,AMANI
RUKWA,55,NKASI,553,KALA,55314,KALA,MNAZI MMOJA
RUKWA,55,NKASI,553,KALA,55314,KALA,AZIMIO
RUKWA,55,NKASI,553,KALA,55314,KALA,MANDELA
RUKWA,55,NKASI,553,KALA,55314,KALA,MUUNGANO
RUKWA,55,NKASI,553,KALA,55314,KALA,MWEMBECHAI
RUKWA,55,NKASI,553,KALA,55314,MPASA,LEBANONI
RUKWA,55,NKASI,553,KALA,55314,MPASA,MWENGE
RUKWA,55,NKASI,553,KALA,55314,MPASA,JITEGEMEE
RUKWA,55,NKASI,553,KALA,55314,MPASA,LEGEZA MWENDO
RUKWA,55,NKASI,553,KALA,55314,MPASA,KILIMAHEWA
RUKWA,55,NKASI,553,KALA,55314,MPASA,MUUNGANO
RUKWA,55,NKASI,553,KALA,55314,MPASA,AZIMIO
RUKWA,55,NKASI,553,KALA,55314,MPASA,"MLOMBA ""A"""
RUKWA,55,NKASI,553,KALA,55314,MPASA,"MLOMBA ""B"""
RUKWA,55,NKASI,553,KALA,55314,KILAMBO,IPINGA
RUKWA,55,NKASI,553,KALA,55314,KILAMBO,SONGAMBELE
RUKWA,55,NKASI,553,KALA,55314,KILAMBO,KANGALA
RUKWA,55,NKASI,553,KALA,55314,KILAMBO,MTAKUJA
RUKWA,55,NKASI,553,KALA,55314,KILAMBO,KAUMBA
RUKWA,55,NKASI,553,KALA,55314,KING'OMBE,KAJIWENI
RUKWA,55,NKASI,553,KALA,55314,KING'OMBE,AZIMIO
RUKWA,55,NKASI,553,KALA,55314,KING'OMBE,MTAKUJA
RUKWA,55,NKASI,553,KALA,55314,KING'OMBE,KILIMAHEWA
RUKWA,55,NKASI,553,KALA,55314,KING'OMBE,UJAMAA
RUKWA,55,NKASI,553,KALA,55314,KING'OMBE,CHATINDUZO
RUKWA,55,NKASI,553,KALA,55314,MLAMBO,KILANGALA
RUKWA,55,NKASI,553,KALA,55314,MLAMBO,MAWENI
RUKWA,55,NKASI,553,KALA,55314,MLAMBO,KALOLENI
RUKWA,55,NKASI,553,KALA,55314,MLAMBO,MUUNGANO
RUKWA,55,NKASI,553,KALA,55314,MLAMBO,MTAPENDA
RUKWA,55,NKASI,553,KALA,55314,TUNDU,NANKAMBWE
RUKWA,55,NKASI,553,KALA,55314,TUNDU,MCHIMA
RUKWA,55,NKASI,553,KALA,55314,TUNDU,MIEMBENI
RUKWA,55,NKASI,553,KALA,55314,TUNDU,KASEKWA
RUKWA,55,NKASI,553,KALA,55314,TUNDU,ITETEMYA
RUKWA,55,NKASI,553,NKANDASI,55315,KASU,MTUKULA
RUKWA,55,NKASI,553,NKANDASI,55315,KASU,ILOLESHA
RUKWA,55,NKASI,553,NKANDASI,55315,KASU,KAMASO
RUKWA,55,NKASI,553,NKANDASI,55315,KASU,NAMALA
RUKWA,55,NKASI,553,NKANDASI,55315,KASU,MBINGILWA
RUKWA,55,NKASI,553,NKANDASI,55315,KASU,CHIMINOKA
RUKWA,55,NKASI,553,NKANDASI,55315,KASU,IPUSHA
RUKWA,55,NKASI,553,NKANDASI,55315,KASU B,MILESHE
RUKWA,55,NKASI,553,NKANDASI,55315,KASU B,MKUTANO
RUKWA,55,NKASI,553,NKANDASI,55315,KASU B,MASINYUMBI
RUKWA,55,NKASI,553,NKANDASI,55315,KASU B,KATANDALA
RUKWA,55,NKASI,553,NKANDASI,55315,KASU B,KASISIWE
RUKWA,55,NKASI,553,NKANDASI,55315,KASU B,CHULU
RUKWA,55,NKASI,553,NKANDASI,55315,KASU B,TAKASA
RUKWA,55,NKASI,553,NKANDASI,55315,KATANI,KAMCHELE
RUKWA,55,NKASI,553,NKANDASI,55315,KATANI,MTIMBWA
RUKWA,55,NKASI,553,NKANDASI,55315,KATANI,NAMANI
RUKWA,55,NKASI,553,NKANDASI,55315,KATANI,NACHIAMBA
RUKWA,55,NKASI,553,NKANDASI,55315,KATANI,ISELEMBEKE
RUKWA,55,NKASI,553,NKANDASI,55315,KATANI,KASANDA
RUKWA,55,NKASI,553,NKANDASI,55315,KATANI,KIPOMA
RUKWA,55,NKASI,553,NKANDASI,55315,KATANI,KAWALA
RUKWA,55,NKASI,553,NKANDASI,55315,KATANI,WISATA
RUKWA,55,NKASI,553,NKANDASI,55315,KATANI,MLENZO
RUKWA,55,NKASI,553,NKANDASI,55315,KATANI,NKOVYO
RUKWA,55,NKASI,553,NKANDASI,55315,KATANI,MBENI
RUKWA,55,NKASI,553,NKANDASI,55315,KATANI,MSOKOZI
RUKWA,55,NKASI,553,NKANDASI,55315,KATANI,NTILA
RUKWA,55,NKASI,553,NKANDASI,55315,KATANI,KAUNGO
RUKWA,55,NKASI,553,NKANDASI,55315,MILUNDIKWA,KATOLWE
RUKWA,55,NKASI,553,NKANDASI,55315,MILUNDIKWA,MSHIKAMANO
RUKWA,55,NKASI,553,NKANDASI,55315,MILUNDIKWA,FUZI
RUKWA,55,NKASI,553,NKANDASI,55315,MILUNDIKWA,MTAPENDA
RUKWA,55,NKASI,553,NKANDASI,55315,MILUNDIKWA,KICHANGANI
RUKWA,55,NKASI,553,NKANDASI,55315,MILUNDIKWA,KAMATOCHI
RUKWA,55,NKASI,553,NKANDASI,55315,MILUNDIKWA,KIPILI
RUKWA,55,NKASI,553,NKANDASI,55315,MILUNDIKWA,KITUTWA
RUKWA,55,NKASI,553,NKANDASI,55315,MILUNDIKWA,KIJIWENI
RUKWA,55,NKASI,553,NKANDASI,55315,MALONGWE,MILESHE
RUKWA,55,NKASI,553,NKANDASI,55315,MALONGWE,LULI
RUKWA,55,NKASI,553,NKANDASI,55315,MALONGWE,KAULANGUMI
RUKWA,55,NKASI,553,NKANDASI,55315,MALONGWE,ILONGA
RUKWA,55,NKASI,553,NKANDASI,55315,MALONGWE,MAJENGO
RUKWA,55,NKASI,553,NKANDASI,55315,KISULA,KAFUTA
RUKWA,55,NKASI,553,NKANDASI,55315,KISULA,SANGALIKA
RUKWA,55,NKASI,553,NKANDASI,55315,KISULA,MAPINDUZI
RUKWA,55,NKASI,553,NKANDASI,55315,KISULA,MTAKUJA
RUKWA,55,NKASI,553,NKANDASI,55315,KISULA,MWENI
RUKWA,55,NKASI,553,NKANDASI,55315,KISULA,KAULANGUMI
RUKWA,55,NKASI,553,NKANDASI,55315,KISULA,NDALAO
RUKWA,55,NKASI,553,NKANDASI,55315,KISULA,MWONGOZO
RUKWA,55,NKASI,553,KIPILI,55316,KIPILI,MBWILO
RUKWA,55,NKASI,553,KIPILI,55316,KIPILI,TAMBUKALI
RUKWA,55,NKASI,553,KIPILI,55316,KIPILI,SENYENGE
RUKWA,55,NKASI,553,KIPILI,55316,KIPILI,NKANGA
RUKWA,55,NKASI,553,KIPILI,55316,KIPILI,JIWENI KAMBA
RUKWA,55,NKASI,553,KIPILI,55316,KIPILI,KAKONGONI
RUKWA,55,NKASI,553,KIPILI,55316,KATONGOLO,MTONI
RUKWA,55,NKASI,553,KIPILI,55316,KATONGOLO,NYIKAISHO B
RUKWA,55,NKASI,553,KIPILI,55316,KATONGOLO,KATONGOLO A
RUKWA,55,NKASI,553,KIPILI,55316,KATONGOLO,RUANDA
RUKWA,55,NKASI,553,KIPILI,55316,KATONGOLO,LWAFI
RUKWA,55,NKASI,553,KIPILI,55316,KATONGOLO,KIPREFT
RUKWA,55,NKASI,553,KIPILI,55316,KATONGOLO,KIPOMA
RUKWA,55,NKASI,553,KIPILI,55316,KATONGOLO,MATOPE
RUKWA,55,NKASI,553,KIPILI,55316,KATONGOLO,NYIKAISHO A
RUKWA,55,NKASI,553,KIPILI,55316,MASOLO,KIPREFT
RUKWA,55,NKASI,553,KIPILI,55316,MASOLO,IPYA
RUKWA,55,NKASI,553,KIPILI,55316,MASOLO,KASIMBA
RUKWA,55,NKASI,553,KIPILI,55316,MASOLO,USUKUMANI
RUKWA,55,NKASI,553,KIPILI,55316,MASOLO,TAZARA
RUKWA,55,NKASI,553,KIPILI,55316,MASOLO,CHOTE
RUKWA,55,NKASI,553,KIPILI,55316,MANDAKERENGE,MWENDAPOLE
RUKWA,55,NKASI,553,KIPILI,55316,MANDAKERENGE,UMOJA
RUKWA,55,NKASI,553,KIPILI,55316,MANDAKERENGE,AZIMIO
RUKWA,55,NKASI,553,KIPILI,55316,MANDAKERENGE,UHURU
RUKWA,55,NKASI,553,KIPILI,55316,MANDAKERENGE,MAGEUZI
RUKWA,55,NKASI,553,KIPILI,55316,MANDAKERENGE,NTANGA
RUKWA,55,NKASI,553,KIPILI,55316,MANDAKERENGE,MVUNA
RUKWA,55,NKASI,553,KIPILI,55316,MANDAKERENGE,JUHUDI
RUKWA,55,NKASI,553,KIPILI,55316,MANDAKERENGE,MWAYAONA
RUKWA,55,NKASI,553,KIPILI,55316,MANDAKERENGE,MWILA
RUKWA,55,NKASI,553,KIPILI,55316,MANDAKERENGE,JEMBENIMALI
RUKWA,55,NKASI,553,KIPILI,55316,MANDAKERENGE,MKEREKETWA
RUKWA,55,NKASI,553,KIPILI,55316,MANDAKERENGE,KAMSOKANYE
RUKWA,55,NKASI,553,KORONGWE,55317,KORONGWE ASILIA,MSUFINI
RUKWA,55,NKASI,553,KORONGWE,55317,KORONGWE ASILIA,SOKONI
RUKWA,55,NKASI,553,KORONGWE,55317,KORONGWE ASILIA,MWEMBENI
RUKWA,55,NKASI,553,KORONGWE,55317,KORONGWE ASILIA,SHULENI
RUKWA,55,NKASI,553,KORONGWE,55317,KORONGWE ASILIA,MAFURIKONI
RUKWA,55,NKASI,553,KORONGWE,55317,KORONGWE ASILIA,UJOMBANI
RUKWA,55,NKASI,553,KORONGWE,55317,KORONGWE ASILIA,ZIWANI
RUKWA,55,NKASI,553,KORONGWE,55317,KORONGWE ASILIA,KAMPEMBA
RUKWA,55,NKASI,553,KORONGWE,55317,KORONGWE ASILIA,MWANAMINANGO
RUKWA,55,NKASI,553,KORONGWE,55317,FORODHANI,KORONGWE BEACH
RUKWA,55,NKASI,553,KORONGWE,55317,FORODHANI,KIVUKONI
RUKWA,55,NKASI,553,KORONGWE,55317,FORODHANI,KORONGWE FIPA
RUKWA,55,NKASI,553,KORONGWE,55317,FORODHANI,FORODHANI
RUKWA,55,NKASI,553,KORONGWE,55317,FORODHANI,ASILIA
RUKWA,55,NKASI,553,KORONGWE,55317,FORODHANI,KAMBETE
RUKWA,55,NKASI,553,KORONGWE,55317,UTINTA,KANISANI
RUKWA,55,NKASI,553,KORONGWE,55317,UTINTA,ZIZINI KATI
RUKWA,55,NKASI,553,KORONGWE,55317,UTINTA,ZIZINI SOKONI
RUKWA,55,NKASI,553,KORONGWE,55317,UTINTA,ZIZINI MASHINENI
RUKWA,55,NKASI,553,KORONGWE,55317,UTINTA,KARANDA A
RUKWA,55,NKASI,553,KORONGWE,55317,UTINTA,KARANDA B
RUKWA,55,NKASI,553,KORONGWE,55317,UTINTA,MSALABA
RUKWA,55,NKASI,553,KORONGWE,55317,UTINTA,KEMPU
RUKWA,55,NKASI,553,KORONGWE,55317,UTINTA,SHULENI
RUKWA,55,NKASI,553,KORONGWE,55317,BUMANDA,BUMANDA ZIWANI
RUKWA,55,NKASI,553,KORONGWE,55317,BUMANDA,BUMANDA MLIMANI
RUKWA,55,NKASI,553,KORONGWE,55317,BUMANDA,KALASI
RUKWA,55,NKASI,553,KORONGWE,55317,KAZOVU,KAMPALA
RUKWA,55,NKASI,553,KORONGWE,55317,KAZOVU,KAZOVU MTONI
RUKWA,55,NKASI,553,KORONGWE,55317,KAZOVU,KAZOVU KANISANI
RUKWA,55,NKASI,553,KORONGWE,55317,KAZOVU,KAZOVU UWANJANI
RUKWA,55,NKASI,553,KORONGWE,55317,KAZOVU,ZIWANI
RUKWA,55,NKASI,553,KORONGWE,55317,KAZOVU,SOKONI
RUKWA,55,NKASI,553,KORONGWE,55317,KAZOVU,NGALA
RUKWA,55,NKASI,553,KORONGWE,55317,KAZOVU,MAGHARIBI
RUKWA,55,NKASI,553,KORONGWE,55317,ISABA,MNAZI MMOJA
RUKWA,55,NKASI,553,KORONGWE,55317,ISABA,ISABA
RUKWA,55,NKASI,553,KORONGWE,55317,ISABA,RASINI
RUKWA,55,NKASI,553,MKWAMBA,55318,SWAILA,NGALU
RUKWA,55,NKASI,553,MKWAMBA,55318,SWAILA,NISHATI
RUKWA,55,NKASI,553,MKWAMBA,55318,SWAILA,KASHAULILI
RUKWA,55,NKASI,553,MKWAMBA,55318,SWAILA,ISANGA
RUKWA,55,NKASI,553,MKWAMBA,55318,SWAILA,ITIMBA
RUKWA,55,NKASI,553,MKWAMBA,55318,SWAILA,KANINA
RUKWA,55,NKASI,553,MKWAMBA,55318,SWAILA,LUNYALA
RUKWA,55,NKASI,553,MKWAMBA,55318,SWAILA,CHATINDU
RUKWA,55,NKASI,553,MKWAMBA,55318,TAMBARUKA,SOPA A
RUKWA,55,NKASI,553,MKWAMBA,55318,TAMBARUKA,SOPA B
RUKWA,55,NKASI,553,MKWAMBA,55318,TAMBARUKA,MAJENGO A
RUKWA,55,NKASI,553,MKWAMBA,55318,TAMBARUKA,MAJENGO B
RUKWA,55,NKASI,553,MKWAMBA,55318,TAMBARUKA,SOYA
RUKWA,55,NKASI,553,MKWAMBA,55318,LYELE,KISATO
RUKWA,55,NKASI,553,MKWAMBA,55318,LYELE,MKUTANO
RUKWA,55,NKASI,553,MKWAMBA,55318,LYELE,ITIMBA
RUKWA,55,NKASI,553,MKWAMBA,55318,LYELE,KASAKALAWE
RUKWA,55,NKASI,553,MKWAMBA,55318,LYELE,KAOSE
RUKWA,55,NKASI,553,MKWAMBA,55318,LYELE,ISANGA
RUKWA,55,NKASI,553,MKWAMBA,55318,LYELE,MPULO
RUKWA,55,NKASI,553,MKWAMBA,55318,LYELE,KATE
RUKWA,55,NKASI,553,MKWAMBA,55318,ITINDI,IMANYAMWAKA
RUKWA,55,NKASI,553,MKWAMBA,55318,ITINDI,MISU
RUKWA,55,NKASI,553,MKWAMBA,55318,ITINDI,KASEMWA
RUKWA,55,NKASI,553,MKWAMBA,55318,ITINDI,MBINGILWA
RUKWA,55,NKASI,553,MKWAMBA,55318,ITINDI,ITISHA
RUKWA,55,NKASI,553,MKWAMBA,55318,ITINDI,KATANDALA
RUKWA,55,NKASI,553,MKWAMBA,55318,ITINDI,MTAKUJA
RUKWA,55,NKASI,553,MYULA,55319,MYULA,KATAI
RUKWA,55,NKASI,553,MYULA,55319,MYULA,NANTOMVU
RUKWA,55,NKASI,553,MYULA,55319,MYULA,NAMONDE
RUKWA,55,NKASI,553,MYULA,55319,MYULA,NAMAZUKA
RUKWA,55,NKASI,553,MYULA,55319,MYULA,MGODI
RUKWA,55,NKASI,553,MYULA,55319,MYULA,MAKUTANO
RUKWA,55,NKASI,553,MYULA,55319,MYULA,CHAO
RUKWA,55,NKASI,553,MYULA,55319,MYULA,MBILINGWA
RUKWA,55,NKASI,553,MYULA,55319,MYULA,KALUNGUTI
RUKWA,55,NKASI,553,MYULA,55319,CHALATILA,KIANDA
RUKWA,55,NKASI,553,MYULA,55319,CHALATILA,KIVULINI
RUKWA,55,NKASI,553,MYULA,55319,CHALATILA,KATETE
RUKWA,55,NKASI,553,MYULA,55319,CHALATILA,KAKOZI
RUKWA,55,NKASI,553,MYULA,55319,CHALATILA,BAKO
RUKWA,55,NKASI,553,MYULA,55319,CHALATILA,NAKAKOLECHI
RUKWA,55,NKASI,553,MYULA,55319,CHALATILA,KANGE
RUKWA,55,NKASI,553,MYULA,55319,CHONGA,KAPINA
RUKWA,55,NKASI,553,MYULA,55319,CHONGA,MABAMBALI
RUKWA,55,NKASI,553,MYULA,55319,CHONGA,NJELELA
RUKWA,55,NKASI,553,MYULA,55319,CHONGA,KONDWA
RUKWA,55,NKASI,553,MYULA,55319,CHONGA,NTAKASANGWA
RUKWA,55,NKASI,553,MYULA,55319,CHONGA,MALOCHA
RUKWA,55,NKASI,553,MYULA,55319,CHONGA,WATUMISHI
RUKWA,55,NKASI,553,MYULA,55319,CHONGA,CHELELA
RUKWA,55,NKASI,553,MYULA,55319,MAKUPA,KASONGOLE
RUKWA,55,NKASI,553,MYULA,55319,MAKUPA,NSILA
RUKWA,55,NKASI,553,MYULA,55319,MAKUPA,MAKALA
RUKWA,55,NKASI,553,MYULA,55319,MAKUPA,MWEMBE
RUKWA,55,NKASI,553,MYULA,55319,MAKUPA,CHINKO
RUKWA,55,NKASI,553,MYULA,55319,NTALAMILA,FOREST
RUKWA,55,NKASI,553,MYULA,55319,NTALAMILA,SHOMBO
RUKWA,55,NKASI,553,MYULA,55319,NTALAMILA,MSAMARIA
RUKWA,55,NKASI,553,MYULA,55319,NTALAMILA,MTAKUJA
RUKWA,55,NKASI,553,MYULA,55319,NTALAMILA,NAMASUMBO
RUKWA,55,NKASI,553,MYULA,55319,NTALAMILA,MKUMBULO
RUKWA,55,NKASI,553,MYULA,55319,NTALAMILA,NTILI
RUKWA,55,NKASI,553,MYULA,55319,NTALAMILA,AZIMIO
RUKWA,55,NKASI,553,MYULA,55319,NTALAMILA,NTAKAINGO
RUKWA,55,NKASI,553,MYULA,55319,NTALAMILA,KITUKU
RUKWA,55,NKASI,553,KIZUMBI,55320,KIZUMBI,MEMBEMEMBE
RUKWA,55,NKASI,553,KIZUMBI,55320,KIZUMBI,MISISI
RUKWA,55,NKASI,553,KIZUMBI,55320,KIZUMBI,ULINGA
RUKWA,55,NKASI,553,KIZUMBI,55320,KIZUMBI,MIGOMBANI
RUKWA,55,NKASI,553,KIZUMBI,55320,KIZUMBI,MAILI MOJA
RUKWA,55,NKASI,553,KIZUMBI,55320,KIZUMBI,MANDA
RUKWA,55,NKASI,553,KIZUMBI,55320,LYAPINDA,LOLESHA
RUKWA,55,NKASI,553,KIZUMBI,55320,LYAPINDA,KANISANI
RUKWA,55,NKASI,553,KIZUMBI,55320,LYAPINDA,VUTA
RUKWA,55,NKASI,553,KIZUMBI,55320,LYAPINDA,MAJENGO
RUKWA,55,NKASI,553,KIZUMBI,55320,LYAPINDA,MOWE
RUKWA,55,NKASI,553,KIZUMBI,55320,LYAPINDA,KISENGA
RUKWA,55,NKASI,553,KIZUMBI,55320,LYAPINDA,RASINI
RUKWA,55,NKASI,553,KIZUMBI,55320,LYAPINDA,CHINA
RUKWA,55,NKASI,553,KIZUMBI,55320,LYAPINDA,SEMWE
RUKWA,55,NKASI,553,KIZUMBI,55320,LYAPINDA,MWEMBENI
RUKWA,55,NKASI,553,KIZUMBI,55320,LYAPINDA,KASULO
RUKWA,55,NKASI,553,KIZUMBI,55320,NG’ANGA,WAMBELE
RUKWA,55,NKASI,553,KIZUMBI,55320,NG’ANGA,BONDE LA UFA
RUKWA,55,NKASI,553,KIZUMBI,55320,NG’ANGA,KILOSA
RUKWA,55,NKASI,553,KIZUMBI,55320,NG’ANGA,MAENDELEO
RUKWA,55,NKASI,553,KIZUMBI,55320,KATENGE,ZIWANI
RUKWA,55,NKASI,553,KIZUMBI,55320,KATENGE,KALONGOSI
RUKWA,55,NKASI,553,KIZUMBI,55320,KATENGE,MWEMBENI
RUKWA,55,NKASI,553,KIZUMBI,55320,KATENGE,USHIRIKA
RUKWA,55,NKASI,553,KIZUMBI,55320,KATENGE,UPENDO
RUKWA,55,NKASI,553,KIZUMBI,55320,KATENGE,KILIMAHEWA
RUKWA,55,NKASI,553,KIZUMBI,55320,NG’UNDWE,MAWENI
RUKWA,55,NKASI,553,KIZUMBI,55320,NG’UNDWE,MAWASILIANO
RUKWA,55,NKASI,553,KIZUMBI,55320,NG’UNDWE,UMOJA
RUKWA,55,NKASI,553,KIZUMBI,55320,NG’UNDWE,TUONANE
RUKWA,55,NKASI,553,KIZUMBI,55320,NG’UNDWE,CHANG’OMBE
RUKWA,55,NKASI,553,KIZUMBI,55320,NG’UNDWE,TUPENDANE
RUKWA,55,NKASI,553,KIZUMBI,55320,NG’UNDWE,SAMAHANI
RUKWA,55,NKASI,553,KIZUMBI,55320,NG’UNDWE,SIACHI
RUKWA,55,NKASI,553,KIZUMBI,55320,NG’UNDWE,MATOPENI
RUKWA,55,NKASI,553,KIZUMBI,55320,NG’UNDWE,TUPOKEZANE
RUKWA,55,NKASI,553,MKINGA,55321,MKINGA,NGOZA
RUKWA,55,NKASI,553,MKINGA,55321,MKINGA,FYELA
RUKWA,55,NKASI,553,MKINGA,55321,MKINGA,KISINGA
RUKWA,55,NKASI,553,MKINGA,55321,MKINGA,MKINGA
RUKWA,55,NKASI,553,MKINGA,55321,MAJENGO MAPYA,MTICHUMA
RUKWA,55,NKASI,553,MKINGA,55321,MAJENGO MAPYA,MWEMBENI
RUKWA,55,NKASI,553,MKINGA,55321,MAJENGO MAPYA,KATALE
RUKWA,55,NKASI,553,MKINGA,55321,MAJENGO MAPYA,MCHANGANI
RUKWA,55,NKASI,553,MKINGA,55321,KALUNGU,KALUNGU
RUKWA,55,NKASI,553,MKINGA,55321,KALUNGU,MWEMBENI
RUKWA,55,NKASI,553,MKINGA,55321,KALUNGU,KIVULINI
RUKWA,55,NKASI,553,MKINGA,55321,KALUNGU,NAFYANGO
RUKWA,55,NKASI,553,MKINGA,55321,NTANGANYIKA,NAKOMBO
RUKWA,55,NKASI,553,MKINGA,55321,NTANGANYIKA,MCHANGANI
RUKWA,55,NKASI,553,MKINGA,55321,NTANGANYIKA,UNWE
RUKWA,55,NKASI,553,MKINGA,55321,NTANGANYIKA,FILE
RUKWA,55,NKASI,553,MKINGA,55321,UHURU,ISITWA
RUKWA,55,NKASI,553,MKINGA,55321,UHURU,MANDAULWILE
RUKWA,55,NKASI,553,MKINGA,55321,UHURU,LUPITA
RUKWA,55,NKASI,553,MKINGA,55321,UHURU,ITOMPE
RUKWA,55,NKASI,553,MAJENGO,55322,UHURU,SOKO KUU
RUKWA,55,NKASI,553,MAJENGO,55322,UHURU,NAKAMBILI
RUKWA,55,NKASI,553,MAJENGO,55322,UHURU,KALANDA
RUKWA,55,NKASI,553,MAJENGO,55322,UHURU,KATUKA
RUKWA,55,NKASI,553,MAJENGO,55322,UHURU,MTUNDA
RUKWA,55,NKASI,553,MAJENGO,55322,UHURU,KATOA
RUKWA,55,NKASI,553,MAJENGO,55322,UHURU,KAFWIKO
RUKWA,55,NKASI,553,MAJENGO,55322,UHURU,TILININTA
RUKWA,55,NKASI,553,MAJENGO,55322,UHURU,LUNYALA
RUKWA,55,NKASI,553,ISUNTA,55323,ISUNTA,JUU MPAKANI
RUKWA,55,NKASI,553,ISUNTA,55323,ISUNTA,KASKAZINI
RUKWA,55,NKASI,553,ISUNTA,55323,ISUNTA,SHULENI
RUKWA,55,NKASI,553,ISUNTA,55323,ISUNTA,PENTEKOSTE
RUKWA,55,NKASI,553,ISUNTA,55323,ISUNTA,KUSINI KATI
RUKWA,55,NKASI,553,ISUNTA,55323,ISUNTA,MZALENDO
RUKWA,55,NKASI,553,ISUNTA,55323,ISUNTA,UTULIVU
RUKWA,55,NKASI,553,ISUNTA,55323,ISUNTA,MKEREKETWA
RUKWA,55,NKASI,553,ISUNTA,55323,ISUNTA,KIVUKONI
RUKWA,55,NKASI,553,ISUNTA,55323,ISUNTA,AMANI
RUKWA,55,NKASI,553,KIPINDU,55324,KIPINDU,MKEREKETWA
RUKWA,55,NKASI,553,KIPINDU,55324,KIPINDU,UWANJA WA NDEGE
RUKWA,55,NKASI,553,KIPINDU,55324,KIPINDU,MAENDELEO
RUKWA,55,NKASI,553,KIPINDU,55324,KIPINDU,UHURU
RUKWA,55,NKASI,553,KIPINDU,55324,KIPINDU,KAWAWA
RUKWA,55,NKASI,553,KIPINDU,55324,KIPINDU,MIGOMBANI
RUKWA,55,NKASI,553,KIPINDU,55324,KIPINDU,KAMBARAGE
RUKWA,55,NKASI,553,KIPINDU,55324,KIPINDU,MWONGOZO
RUKWA,55,NKASI,553,KIPINDU,55324,KIPINDU,AZIMIO
RUKWA,55,NKASI,553,KIPINDU,55324,KIPINDU,KIPUNDUKATI
RUKWA,55,NKASI,553,KIPINDU,55324,KIPINDU,MAPAMBANO
RUKWA,55,NKASI,553,KIPINDU,55324,KIPINDU,MISUNKUMILO
RUKWA,55,NKASI,553,KIPINDU,55324,KIPINDU,KAKOMA
RUKWA,55,NKASI,553,KIPINDU,55324,KIPINDU,MLUNGUSI
RUKWA,55,NKASI,553,KIPINDU,55324,KIPINDU,KAMIUNGO
RUKWA,55,NKASI,553,KIPINDU,55324,KIPINDU,MALEKELA
RUKWA,55,NKASI,553,NTATUMBILA,55325,NTATUMBILA,MTOSI
RUKWA,55,NKASI,553,NTATUMBILA,55325,NTATUMBILA,KISUMBA
RUKWA,55,NKASI,553,NTATUMBILA,55325,NTATUMBILA,MANG'O
RUKWA,55,NKASI,553,NTATUMBILA,55325,NTATUMBILA,KISALA
RUKWA,55,NKASI,553,NTATUMBILA,55325,NTATUMBILA,KAKOMA
RUKWA,55,NKASI,553,NTATUMBILA,55325,NTATUMBILA,KASEMBE
RUKWA,55,NKASI,553,NTATUMBILA,55325,NTATUMBILA,KAMCHELE
RUKWA,55,NKASI,553,NTATUMBILA,55325,NTATUMBILA,KELA
RUKWA,55,NKASI,553,NTATUMBILA,55325,NTATUMBILA,CHEUKA
RUKWA,55,NKASI,553,NTATUMBILA,55325,NTATUMBILA,CCM BAANI
RUKWA,55,NKASI,553,NTATUMBILA,55325,NTATUMBILA,MANG'O
RUKWA,55,NKASI,553,NTATUMBILA,55325,NTATUMBILA,KISALA
RUKWA,55,NKASI,553,MASHETE,55326,MASHETE,MIOMBO
RUKWA,55,NKASI,553,MASHETE,55326,MASHETE,MASHETE
RUKWA,55,NKASI,553,MASHETE,55326,MASHETE,MASHETE B
RUKWA,55,NKASI,553,PARAMAWE,55327,PARAMAWE,PARAMAWE
RUKWA,55,NKASI,553,PARAMAWE,55327,PARAMAWE,PARAMAWE B
RUKWA,55,NKASI,553,PARAMAWE,55327,PARAMAWE,KIZI
RUKWA,55,NKASI,553,PARAMAWE,55327,PARAMAWE,LYAZUMBI
RUKWA,55,NKASI,553,ISALE ASILIA,55328,ISALE ASILIA,ISALE
RUKWA,55,NKASI,553,ISALE ASILIA,55328,ISALE ASILIA,ISALE B
RUKWA,55,NKASI,553,ISALE ASILIA,55328,ISALE ASILIA,MSILIHOFU
RUKWA,55,NKASI,553,ISALE ASILIA,55328,ISALE ASILIA,MTAPENDA
RUKWA,55,NKASI,553,ITETE,55329,ITETE,NG'OMBENSAZI
RUKWA,55,NKASI,553,ITETE,55329,ITETE,TAMANGA KISIA
RUKWA,55,NKASI,553,ITETE,55329,ITETE,ITETE KANISANI
RUKWA,55,NKASI,553,ITETE,55329,ITETE,MREMBWE
RUKWA,55,NKASI,553,ITETE,55329,ITETE,SOKOSO
RUKWA,55,NKASI,553,ITETE,55329,ITETE,MAKOBA A
RUKWA,55,NKASI,553,ITETE,55329,ITETE,MAKOBA B
RUKWA,55,NKASI,553,ITETE,55329,ITETE,KASELENGE
RUKWA,55,NKASI,553,ITETE,55329,ITETE,MABATINI
RUKWA,55,NKASI,553,ITETE,55329,CHONGOKATETE,ITETE B
RUKWA,55,NKASI,553,ITETE,55329,CHONGOKATETE,MSWA
RUKWA,55,NKASI,553,ITETE,55329,CHONGOKATETE,KALOLI
RUKWA,55,NKASI,553,ITETE,55329,CHONGOKATETE,SUMBWA
RUKWA,55,NKASI,553,ITETE,55329,CHONGOKATETE,MREMBWE MJINI
RUKWA,55,NKASI,553,ITETE,55329,CHONGOKATETE,MREMBWE SHAMBANI
RUKWA,55,NKASI,553,ITETE,55329,CHONGOKATETE,KASOLA
RUKWA,55,NKASI,553,ITETE,55329,CHONGOKATETE,CHONGO
RUKWA,55,NKASI,553,ITETE,55329,ISASA,KASAPA
RUKWA,55,NKASI,553,ITETE,55329,ISASA,KATAMBO
RUKWA,55,NKASI,553,ITETE,55329,ISASA,ISASA
RUKWA,55,NKASI,553,ITETE,55329,ISASA,HOTELINI
RUKWA,55,NKASI,553,ITETE,55329,SHAURIMOYO,MWATUSEMA
RUKWA,55,NKASI,553,ITETE,55329,SHAURIMOYO,MATOPENI
RUKWA,55,NKASI,553,ITETE,55329,SHAURIMOYO,CHANJI
RUKWA,55,NKASI,553,ITETE,55329,SHAURIMOYO,JITAZAME
RUKWA,55,NKASI,553,ITETE,55329,SHAURIMOYO,BAGAMOYO
RUKWA,55,NKASI,553,ITETE,55329,SHAURIMOYO,MMOJA
RUKWA,55,KALAMBO,554,MATAI,55401,"MATAI  ASILIA""A""",KINDUMBA
RUKWA,55,KALAMBO,554,MATAI,55401,"MATAI  ASILIA""A""",MATAI ASILI
RUKWA,55,KALAMBO,554,MATAI,55401,"MATAI  ASILIA""A""",KATANDALA
RUKWA,55,KALAMBO,554,MATAI,55401,"MATAI  ASILIA""A""",KATANDA
RUKWA,55,KALAMBO,554,MATAI,55401,"MATAI  ASILIA""A""",MATAI
RUKWA,55,KALAMBO,554,MATAI,55401,MIKONKO,KIPOLO
RUKWA,55,KALAMBO,554,MATAI,55401,MIKONKO,IGALULA
RUKWA,55,KALAMBO,554,MATAI,55401,MIKONKO,KASAMVU
RUKWA,55,KALAMBO,554,MATAI,55401,MIKONKO,KILESHA
RUKWA,55,KALAMBO,554,MATAI,55401,MIKONKO,MULO
RUKWA,55,KALAMBO,554,MATAI,55401,KISUNGAMILE,KISUNGAMILE
RUKWA,55,KALAMBO,554,MATAI,55401,KISUNGAMILE,MALOLWA
RUKWA,55,KALAMBO,554,MATAI,55401,KATEKA,KATEKA
RUKWA,55,KALAMBO,554,MATAI,55401,KATEKA,KATEMBO
RUKWA,55,KALAMBO,554,MATAI,55401,KATEKA,MHAME
RUKWA,55,KALAMBO,554,MATAI,55401,KATEKA,KATANDALA
RUKWA,55,KALAMBO,554,MATAI,55401,KATEKA,MITENDE
RUKWA,55,KALAMBO,554,MKALI,55402,KIZOMBWE,KASEKELA
RUKWA,55,KALAMBO,554,MKALI,55402,KIZOMBWE,CHISITU
RUKWA,55,KALAMBO,554,MKALI,55402,KIZOMBWE,IPATALAWE
RUKWA,55,KALAMBO,554,MKALI,55402,KIZOMBWE,KISAKALAWE
RUKWA,55,KALAMBO,554,MKALI,55402,KIZOMBWE,KAKOMA
RUKWA,55,KALAMBO,554,MKALI,55402,KIZOMBWE,MISUNKUMILO
RUKWA,55,KALAMBO,554,MKALI,55402,KIZOMBWE,MWONGOZO
RUKWA,55,KALAMBO,554,MKALI,55402,KALALASI,KAMALUNGU
RUKWA,55,KALAMBO,554,MKALI,55402,KALALASI,LAMBONI
RUKWA,55,KALAMBO,554,MKALI,55402,KALALASI,ILEGEZA
RUKWA,55,KALAMBO,554,MKALI,55402,KALALASI,SENGA
RUKWA,55,KALAMBO,554,MKALI,55402,KALALASI,MUMBWE
RUKWA,55,KALAMBO,554,MKALI,55402,KALALASI,CHEMICHEM
RUKWA,55,KALAMBO,554,MKALI,55402,MYUNGA,MAGOMENI
RUKWA,55,KALAMBO,554,MKALI,55402,MYUNGA,MTAKUJA
RUKWA,55,KALAMBO,554,MKALI,55402,MYUNGA,ILAMBWA
RUKWA,55,KALAMBO,554,MKALI,55402,MPANZI,KITENZI
RUKWA,55,KALAMBO,554,MKALI,55402,MPANZI,KAMBIALA
RUKWA,55,KALAMBO,554,MKALI,55402,MPANZI,ISUMIKA
RUKWA,55,KALAMBO,554,MNAMBA,55403,MNAMBA,NDUNDUNDU
RUKWA,55,KALAMBO,554,MNAMBA,55403,MNAMBA,KALUNGU
RUKWA,55,KALAMBO,554,MNAMBA,55403,KANTALEMWA,MWANDIZO
RUKWA,55,KALAMBO,554,MNAMBA,55403,KANTALEMWA,MWAYA
RUKWA,55,KALAMBO,554,MNAMBA,55403,KANTALEMWA,MCHENJA
RUKWA,55,KALAMBO,554,MNAMBA,55403,LUSE,LUSE
RUKWA,55,KALAMBO,554,MNAMBA,55403,LUSE,CHUNYA
RUKWA,55,KALAMBO,554,MNAMBA,55403,LUSE,KAZILA
RUKWA,55,KALAMBO,554,MNAMBA,55403,LUSE,MAEKA
RUKWA,55,KALAMBO,554,MNAMBA,55403,MTULA,MTULA
RUKWA,55,KALAMBO,554,MNAMBA,55403,MTULA,MSONGWE
RUKWA,55,KALAMBO,554,MNAMBA,55403,MTULA,CHIZI
RUKWA,55,KALAMBO,554,MNAMBA,55403,MSIPAZI,NKUMBI
RUKWA,55,KALAMBO,554,MNAMBA,55403,MSIPAZI,WIZANEMBO
RUKWA,55,KALAMBO,554,MNAMBA,55403,MSIPAZI,MIPATA
RUKWA,55,KALAMBO,554,MNAMBA,55403,MSIPAZI,KAZUMBI
RUKWA,55,KALAMBO,554,MSANZI,55404,MSANZI,MSANZI KATI
RUKWA,55,KALAMBO,554,MSANZI,55404,MSANZI,MAEKANI
RUKWA,55,KALAMBO,554,MSANZI,55404,MSANZI,MWEGULO
RUKWA,55,KALAMBO,554,MSANZI,55404,MSANZI,KATETE
RUKWA,55,KALAMBO,554,MSANZI,55404,KAMBIALA,KAMBIALA
RUKWA,55,KALAMBO,554,MSANZI,55404,KAMBIALA,KAPANGA
RUKWA,55,KALAMBO,554,MSANZI,55404,KAMBIALA,MANTAPWA
RUKWA,55,KALAMBO,554,MSANZI,55404,KAMBIALA,KAVILA
RUKWA,55,KALAMBO,554,MSANZI,55404,KAMBIALA,MALANGALIZO
RUKWA,55,KALAMBO,554,MSANZI,55404,NACHULA,ONE
RUKWA,55,KALAMBO,554,MSANZI,55404,NACHULA,KAMINYA
RUKWA,55,KALAMBO,554,MSANZI,55404,NACHULA,MISUKU
RUKWA,55,KALAMBO,554,MSANZI,55404,NACHULA,NACHULA
RUKWA,55,KALAMBO,554,MSANZI,55404,NACHULA,LUPOFWE
RUKWA,55,KALAMBO,554,MSANZI,55404,KATUKA,KAMATWA
RUKWA,55,KALAMBO,554,MSANZI,55404,KATUKA,KANYALAKATA
RUKWA,55,KALAMBO,554,MSANZI,55404,KATUKA,KATUKA
RUKWA,55,KALAMBO,554,MSANZI,55404,KATUKA,MALANGALI
RUKWA,55,KALAMBO,554,MKOWE,55405,MKOWE,SHELEMKA
RUKWA,55,KALAMBO,554,MKOWE,55405,MKOWE,USEVYA
RUKWA,55,KALAMBO,554,MKOWE,55405,MKOWE,MKOWE KATI
RUKWA,55,KALAMBO,554,MKOWE,55405,MKOWE,CHITONTO
RUKWA,55,KALAMBO,554,MKOWE,55405,MKOWE,KATANDALA
RUKWA,55,KALAMBO,554,MKOWE,55405,MKOWE,KAPAMBA
RUKWA,55,KALAMBO,554,MKOWE,55405,MBUZA,TUNZI
RUKWA,55,KALAMBO,554,MKOWE,55405,MBUZA,KATANDALA
RUKWA,55,KALAMBO,554,MKOWE,55405,MBUZA,CHALIMBANA
RUKWA,55,KALAMBO,554,MKOWE,55405,KATAPULO,KASOLA
RUKWA,55,KALAMBO,554,MKOWE,55405,KATAPULO,LEMBELEMBE
RUKWA,55,KALAMBO,554,MKOWE,55405,KATAPULO,KATAPULO
RUKWA,55,KALAMBO,554,MKOWE,55405,SENGAKALONJE,SENGA
RUKWA,55,KALAMBO,554,MKOWE,55405,ILIMBA,MAJENGO
RUKWA,55,KALAMBO,554,MKOWE,55405,ILIMBA,KOTOLA
RUKWA,55,KALAMBO,554,MKOWE,55405,ILIMBA,JENGENI
RUKWA,55,KALAMBO,554,MKOWE,55405,ILIMBA,MUNWA
RUKWA,55,KALAMBO,554,KASANGA,55406,MUZI,MWENYA
RUKWA,55,KALAMBO,554,KASANGA,55406,MUZI,MOLWE
RUKWA,55,KALAMBO,554,KASANGA,55406,MUZI,CHANZA
RUKWA,55,KALAMBO,554,KASANGA,55406,MUZI,KASENGA
RUKWA,55,KALAMBO,554,KASANGA,55406,MUZI,KATAI
RUKWA,55,KALAMBO,554,KASANGA,55406,KASANGA,MNG'OMBA
RUKWA,55,KALAMBO,554,KASANGA,55406,KASANGA,KITIKA
RUKWA,55,KALAMBO,554,KASANGA,55406,KASANGA,KISWAHILINI
RUKWA,55,KALAMBO,554,KASANGA,55406,KASANGA,LUSAMBO
RUKWA,55,KALAMBO,554,KASANGA,55406,KASANGA,SONGAMBELE
RUKWA,55,KALAMBO,554,KASANGA,55406,KAPELE,ZAYONI
RUKWA,55,KALAMBO,554,KASANGA,55406,KAPELE,KAPELE
RUKWA,55,KALAMBO,554,KASANGA,55406,KAPELE,MABATINI
RUKWA,55,KALAMBO,554,KASANGA,55406,KAPELE,KASISI
RUKWA,55,KALAMBO,554,KASANGA,55406,KAPELE,KANTALAMBA
RUKWA,55,KALAMBO,554,KASANGA,55406,KAPELE,MCHANGANI
RUKWA,55,KALAMBO,554,KASANGA,55406,KILEWANI,KILEWANI
RUKWA,55,KALAMBO,554,KASANGA,55406,KILEWANI,MCHANGANI
RUKWA,55,KALAMBO,554,KASANGA,55406,KILEWANI,KAVUSHA
RUKWA,55,KALAMBO,554,KASANGA,55406,KILEWANI,KIWANJANI
RUKWA,55,KALAMBO,554,KASANGA,55406,KILEWANI,VATIKANI
RUKWA,55,KALAMBO,554,KASANGA,55406,KIPWA,KALAMBO
RUKWA,55,KALAMBO,554,KASANGA,55406,KIPWA,NIMWINA
RUKWA,55,KALAMBO,554,KASANGA,55406,KIPWA,MAJENGO
RUKWA,55,KALAMBO,554,KASANGA,55406,KIPWA,CHANZA
RUKWA,55,KALAMBO,554,KATAZI,55408,KATAZI,WALA
RUKWA,55,KALAMBO,554,KATAZI,55408,KATAZI,KATANGAZI
RUKWA,55,KALAMBO,554,KATAZI,55408,KATAZI,NDUZA KATI
RUKWA,55,KALAMBO,554,KATAZI,55408,KATAZI,MAKONGOROSI
RUKWA,55,KALAMBO,554,KATAZI,55408,KATAZI,KASAKALAWE
RUKWA,55,KALAMBO,554,KATAZI,55408,NINGA,MTULA
RUKWA,55,KALAMBO,554,KATAZI,55408,NINGA,NINGA KATI
RUKWA,55,KALAMBO,554,KATAZI,55408,NINGA,NKANGA
RUKWA,55,KALAMBO,554,KATAZI,55408,NINGA,NSENGA
RUKWA,55,KALAMBO,554,KATAZI,55408,NINGA,KAMUNGU
RUKWA,55,KALAMBO,554,KATAZI,55408,NINGA,MBULI
RUKWA,55,KALAMBO,554,KATAZI,55408,MWAYA,MVWANZU
RUKWA,55,KALAMBO,554,KATAZI,55408,MWAYA,TEWETA
RUKWA,55,KALAMBO,554,KATAZI,55408,MWAYA,MWAYA
RUKWA,55,KALAMBO,554,KATAZI,55408,MVULA,MVULA
RUKWA,55,KALAMBO,554,KATAZI,55408,MVULA,MKUTANO
RUKWA,55,KALAMBO,554,KATAZI,55408,MVULA,MADEBE
RUKWA,55,KALAMBO,554,MWAZYE,55409,KAZILA,ITALA
RUKWA,55,KALAMBO,554,MWAZYE,55409,KAZILA,KALEMBA
RUKWA,55,KALAMBO,554,MWAZYE,55409,KAZILA,MALANGALI
RUKWA,55,KALAMBO,554,MWAZYE,55409,KAZILA,NSANGU
RUKWA,55,KALAMBO,554,MWAZYE,55409,MPENJE,LINGAMILA
RUKWA,55,KALAMBO,554,MWAZYE,55409,MPENJE,MALANGALI
RUKWA,55,KALAMBO,554,MWAZYE,55409,MPENJE,MASWEPA
RUKWA,55,KALAMBO,554,MWAZYE,55409,MPENJE,MPENJE
RUKWA,55,KALAMBO,554,MWAZYE,55409,MSOMA,SENGELEMA
RUKWA,55,KALAMBO,554,MWAZYE,55409,MSOMA,WISALE
RUKWA,55,KALAMBO,554,MWAZYE,55409,MWAZYE,"KAPATA ""C"""
RUKWA,55,KALAMBO,554,MWAZYE,55409,MWAZYE,KANYALAKATA
RUKWA,55,KALAMBO,554,MWAZYE,55409,MWAZYE,KITIKA
RUKWA,55,KALAMBO,554,MWAZYE,55409,MWAZYE,"KAPATA ""A"""
RUKWA,55,KALAMBO,554,MWAZYE,55409,MWAZYE,"KAPATA ""B"""
RUKWA,55,KALAMBO,554,MWAZYE,55409,MWAZYE,KILIMAHEWA
RUKWA,55,KALAMBO,554,MWAZYE,55409,MWAZYE,DODOMA
RUKWA,55,KALAMBO,554,MWAZYE,55409,MWAZYE,MAITENEKE
RUKWA,55,KALAMBO,554,MWIMBI,55410,MWIMBI,MAJENGO
RUKWA,55,KALAMBO,554,MWIMBI,55410,MWIMBI,MWIMBIKATI
RUKWA,55,KALAMBO,554,MWIMBI,55410,MWIMBI,GALIKUJA
RUKWA,55,KALAMBO,554,MWIMBI,55410,MWIMBI,GALILAYA
RUKWA,55,KALAMBO,554,MWIMBI,55410,MWIMBI,TEKA
RUKWA,55,KALAMBO,554,MWIMBI,55410,MWIMBI,MFENA
RUKWA,55,KALAMBO,554,MWIMBI,55410,MWIMBI,KAZITE
RUKWA,55,KALAMBO,554,MWIMBI,55410,MOZI,LUKULU
RUKWA,55,KALAMBO,554,MWIMBI,55410,MOZI,MASANSA
RUKWA,55,KALAMBO,554,MWIMBI,55410,MOZI,KASAZI
RUKWA,55,KALAMBO,554,MWIMBI,55410,ZYANGOMA,CHIKOMA
RUKWA,55,KALAMBO,554,MWIMBI,55410,ZYANGOMA,KAKOWE
RUKWA,55,KALAMBO,554,MWIMBI,55410,ZYANGOMA,KABONDE
RUKWA,55,KALAMBO,554,MWIMBI,55410,MSISHINDWE,KAPALULA
RUKWA,55,KALAMBO,554,MWIMBI,55410,MSISHINDWE,PONGWE
RUKWA,55,KALAMBO,554,MWIMBI,55410,MSISHINDWE,INYONGA
RUKWA,55,KALAMBO,554,MWIMBI,55410,SELENGOMA,CHIKOMA
RUKWA,55,KALAMBO,554,MWIMBI,55410,SELENGOMA,SELENGOMA
RUKWA,55,KALAMBO,554,MWIMBI,55410,SELENGOMA,MATWIMA
RUKWA,55,KALAMBO,554,MWIMBI,55410,MAJENGO,LUMUVU
RUKWA,55,KALAMBO,554,MWIMBI,55410,MAJENGO,"MAJENGO ""A"""
RUKWA,55,KALAMBO,554,MWIMBI,55410,MAJENGO,"MAJENGO ""B"""
RUKWA,55,KALAMBO,554,MWIMBI,55410,CHIPAPA,"CHIPAPA ""A"""
RUKWA,55,KALAMBO,554,MWIMBI,55410,CHIPAPA,"CHIPAPA ""B"""
RUKWA,55,KALAMBO,554,MWIMBI,55410,CHIPAPA,CHIPAPA ''C''
RUKWA,55,KALAMBO,554,MWIMBI,55410,CHIPAPA,IYALI
RUKWA,55,KALAMBO,554,MWIMBI,55410,CHIPAPA,CHANZA
RUKWA,55,KALAMBO,554,MWIMBI,55410,CHIPAPA,LUKULU
RUKWA,55,KALAMBO,554,MAMBWE NKOSWE,55411,KALEMBE,KANGE
RUKWA,55,KALAMBO,554,MAMBWE NKOSWE,55411,KALEMBE,KATUNDULU
RUKWA,55,KALAMBO,554,MAMBWE NKOSWE,55411,KALEMBE,MAZIA
RUKWA,55,KALAMBO,554,MAMBWE NKOSWE,55411,KALEMBE,KALIMILA
RUKWA,55,KALAMBO,554,MAMBWE NKOSWE,55411,TUNYI,"TUNYI ""A"""
RUKWA,55,KALAMBO,554,MAMBWE NKOSWE,55411,TUNYI,"TUNYI ""B"""
RUKWA,55,KALAMBO,554,MAMBWE NKOSWE,55411,TUNYI,MAULU B
RUKWA,55,KALAMBO,554,MAMBWE NKOSWE,55411,TUNYI,MAULU A
RUKWA,55,KALAMBO,554,MAMBWE NKOSWE,55411,TUNYI,CHIKU
RUKWA,55,KALAMBO,554,MAMBWE NKOSWE,55411,UTENGULE,NCHENJE
RUKWA,55,KALAMBO,554,MAMBWE NKOSWE,55411,UTENGULE,UTENGULE
RUKWA,55,KALAMBO,554,MAMBWE NKOSWE,55411,UTENGULE,MSHETE
RUKWA,55,KALAMBO,554,MAMBWE NKOSWE,55411,ILONGA,ILONGA
RUKWA,55,KALAMBO,554,MAMBWE NKOSWE,55411,ILONGA,KAGWA
RUKWA,55,KALAMBO,554,MAMBWE NKOSWE,55411,ILONGA,KAMPALA
RUKWA,55,KALAMBO,554,MAMBWE NKOSWE,55411,MZUNGWA,"MZUNGWA ""A"""
RUKWA,55,KALAMBO,554,MAMBWE NKOSWE,55411,MZUNGWA,"MZUNGWA ""B"""
RUKWA,55,KALAMBO,554,MAMBWE NKOSWE,55411,KASUSU,MZUMWA
RUKWA,55,KALAMBO,554,MAMBWE NKOSWE,55411,KASUSU,KASUSU
RUKWA,55,KALAMBO,554,MAMBWE NKOSWE,55411,KASUSU,KAMPALA
RUKWA,55,KALAMBO,554,SOPA,55412,SOPA,TONGA
RUKWA,55,KALAMBO,554,SOPA,55412,SOPA,SOPA KATI
RUKWA,55,KALAMBO,554,SOPA,55412,SOPA,KANAWINGA
RUKWA,55,KALAMBO,554,SOPA,55412,SOPA,KASAMVU
RUKWA,55,KALAMBO,554,SOPA,55412,SOPA,KAPEWA
RUKWA,55,KALAMBO,554,SOPA,55412,MTUNTUMBE,MBANGIZYA
RUKWA,55,KALAMBO,554,SOPA,55412,MTUNTUMBE,NAWAMBO
RUKWA,55,KALAMBO,554,SOPA,55412,MTUNTUMBE,MBINGILWA
RUKWA,55,KALAMBO,554,SOPA,55412,MTUNTUMBE,MKUTANO
RUKWA,55,KALAMBO,554,SOPA,55412,MTUNTUMBE,KAVUSHA
RUKWA,55,KALAMBO,554,SOPA,55412,MTUNTUMBE,MTUNTUMBE
RUKWA,55,KALAMBO,554,SOPA,55412,KASITU,KALE
RUKWA,55,KALAMBO,554,SOPA,55412,KASITU,NYANGU
RUKWA,55,KALAMBO,554,SOPA,55412,TATANDA,CHIPUNDU
RUKWA,55,KALAMBO,554,SOPA,55412,TATANDA,TATANDA
RUKWA,55,KALAMBO,554,SOPA,55412,TATANDA,CHIKANKA
RUKWA,55,KALAMBO,554,SOPA,55412,TATANDA,KITAMPA
RUKWA,55,KALAMBO,554,MAMBWE KENYA,55413,KIUNDINAMEMA,NWAYANZWA
RUKWA,55,KALAMBO,554,MAMBWE KENYA,55413,KIUNDINAMEMA,MIPUTU
RUKWA,55,KALAMBO,554,MAMBWE KENYA,55413,KIUNDINAMEMA,LUTUMBA
RUKWA,55,KALAMBO,554,MAMBWE KENYA,55413,KIUNDINAMEMA,NAMEMA
RUKWA,55,KALAMBO,554,MAMBWE KENYA,55413,KIUNDINAMEMA,MTWANCHE
RUKWA,55,KALAMBO,554,MAMBWE KENYA,55413,KIUNDINAMEMA,KIUNDI
RUKWA,55,KALAMBO,554,MAMBWE KENYA,55413,MADIBILA,NYANZWA
RUKWA,55,KALAMBO,554,MAMBWE KENYA,55413,MADIBILA,ILOLESHA
RUKWA,55,KALAMBO,554,MAMBWE KENYA,55413,MADIBILA,MADIBILA
RUKWA,55,KALAMBO,554,MAMBWE KENYA,55413,MADIBILA,MCHESE
RUKWA,55,KALAMBO,554,MAMBWE KENYA,55413,MADIBILA,KAVUMBO
RUKWA,55,KALAMBO,554,MAMBWE KENYA,55413,MADIBILA,ISALE
RUKWA,55,KALAMBO,554,MAMBWE KENYA,55413,KAZOZYA,SUME
RUKWA,55,KALAMBO,554,MAMBWE KENYA,55413,KAZOZYA,KAZOZYA
RUKWA,55,KALAMBO,554,MAMBWE KENYA,55413,KAZOZYA,MALAMUSU
RUKWA,55,KALAMBO,554,MAMBWE KENYA,55413,MPANGA,MFWEMO
RUKWA,55,KALAMBO,554,MAMBWE KENYA,55413,MPANGA,CHOSA
RUKWA,55,KALAMBO,554,MAMBWE KENYA,55413,MPANGA,LUNDA
RUKWA,55,KALAMBO,554,MAMBWE KENYA,55413,MPANGA,KAMBALA
RUKWA,55,KALAMBO,554,MAMBWE KENYA,55413,MPANGA,KAMISUKU
RUKWA,55,KALAMBO,554,MAMBWE KENYA,55413,MPANGA,CHESA
RUKWA,55,KALAMBO,554,MAMBWE KENYA,55413,MPANGA,KASA
RUKWA,55,KALAMBO,554,MAMBWE KENYA,55413,MPANGA,KAMISUKU B
RUKWA,55,KALAMBO,554,MAMBWE KENYA,55413,MAMBWEKENYA,KILOSA
RUKWA,55,KALAMBO,554,MAMBWE KENYA,55413,MAMBWEKENYA,KIKONDE
RUKWA,55,KALAMBO,554,MAMBWE KENYA,55413,MAMBWEKENYA,MAMBWEKENYA
RUKWA,55,KALAMBO,554,MAMBWE KENYA,55413,MAMBWEKENYA,KALOZYA
RUKWA,55,KALAMBO,554,LEGEZAMWENDO,55414,LEGEZAMWENDO,LEGEZA MWENDO
RUKWA,55,KALAMBO,554,LEGEZAMWENDO,55414,LEGEZAMWENDO,CHONDO
RUKWA,55,KALAMBO,554,LEGEZAMWENDO,55414,LEGEZAMWENDO,MKAMBAKU
RUKWA,55,KALAMBO,554,LEGEZAMWENDO,55414,LEGEZAMWENDO,LEGEZA MWENDO B
RUKWA,55,KALAMBO,554,LEGEZAMWENDO,55414,LEGEZAMWENDO,LUANDA
RUKWA,55,KALAMBO,554,LEGEZAMWENDO,55414,MKOMBO,"CHULASITU ""A"""
RUKWA,55,KALAMBO,554,LEGEZAMWENDO,55414,MKOMBO,"CHULASTU ""B"""
RUKWA,55,KALAMBO,554,LEGEZAMWENDO,55414,MKOMBO,MKOMBO
RUKWA,55,KALAMBO,554,LEGEZAMWENDO,55414,MKOMBO,MSANZI
RUKWA,55,KALAMBO,554,LEGEZAMWENDO,55414,MKOMBO,KINAMBO
RUKWA,55,KALAMBO,554,LEGEZAMWENDO,55414,MOMBO,CHANJI
RUKWA,55,KALAMBO,554,LEGEZAMWENDO,55414,MOMBO,UZUMBWA
RUKWA,55,KALAMBO,554,LEGEZAMWENDO,55414,MOMBO,MASHETE
RUKWA,55,KALAMBO,554,LEGEZAMWENDO,55414,MOMBO,MAJENGO
RUKWA,55,KALAMBO,554,LEGEZAMWENDO,55414,MOMBO,KAKU
RUKWA,55,KALAMBO,554,LEGEZAMWENDO,55414,MOMBO,MOMBOKAKU
RUKWA,55,KALAMBO,554,LEGEZAMWENDO,55414,MLENJE,VWAWA
RUKWA,55,KALAMBO,554,LEGEZAMWENDO,55414,MLENJE,UHURU
RUKWA,55,KALAMBO,554,LEGEZAMWENDO,55414,MLENJE,KAWEZYA
RUKWA,55,KALAMBO,554,KATETE,55415,KATETE,MUMBO
RUKWA,55,KALAMBO,554,KATETE,55415,KATETE,KATETE
RUKWA,55,KALAMBO,554,KATETE,55415,KATETE,CHESA
RUKWA,55,KALAMBO,554,KATETE,55415,KATETE,MWENELUNGU
RUKWA,55,KALAMBO,554,KATETE,55415,KATETE,MAZYAI
RUKWA,55,KALAMBO,554,KATETE,55415,KATETE,KASESYA
RUKWA,55,KALAMBO,554,KATETE,55415,SAFU,KAYENDE
RUKWA,55,KALAMBO,554,KATETE,55415,SAFU,SAFU
RUKWA,55,KALAMBO,554,KATETE,55415,SAFU,MWELA
RUKWA,55,KALAMBO,554,KATETE,55415,SAFU,ISENGA
RUKWA,55,KALAMBO,554,KATETE,55415,SAFU,MLAMBWALILI
RUKWA,55,KALAMBO,554,KATETE,55415,NGOMA,KAMBOLE
RUKWA,55,KALAMBO,554,KATETE,55415,NGOMA,NGOMA
RUKWA,55,KALAMBO,554,KATETE,55415,NGOMA,NACHIPEPE
RUKWA,55,KALAMBO,554,KATETE,55415,KALUKO,KALUKO
RUKWA,55,KALAMBO,554,KATETE,55415,KALUKO,MAKAYE
RUKWA,55,KALAMBO,554,KATETE,55415,KALUKO,MUNZA
RUKWA,55,KALAMBO,554,KATETE,55415,KALUKO,CHITO
RUKWA,55,KALAMBO,554,KATETE,55415,JENGENI,CHINA
RUKWA,55,KALAMBO,554,KATETE,55415,JENGENI,CHITWAZI
RUKWA,55,KALAMBO,554,KATETE,55415,JENGENI,JENGENI
RUKWA,55,KALAMBO,554,KISUMBA,55416,KISUMBA,KISUMBA
RUKWA,55,KALAMBO,554,KISUMBA,55416,KISUMBA,KAMCHINGA
RUKWA,55,KALAMBO,554,KISUMBA,55416,KISUMBA,KAWALA
RUKWA,55,KALAMBO,554,KISUMBA,55416,KISUMBA,CHIPOTE
RUKWA,55,KALAMBO,554,KISUMBA,55416,KACHELE,NYIMBA
RUKWA,55,KALAMBO,554,KISUMBA,55416,KACHELE,CHUMA
RUKWA,55,KALAMBO,554,KISUMBA,55416,KACHELE,KACHELE
RUKWA,55,KALAMBO,554,KISUMBA,55416,KAFUKOKA,KAFUKOKA
RUKWA,55,KALAMBO,554,KISUMBA,55416,KAFUKOKA,NCHESE
RUKWA,55,KALAMBO,554,KISUMBA,55416,KAFUKOKA,LWANJI
RUKWA,55,KALAMBO,554,KISUMBA,55416,CHISENGA,MAWENI
RUKWA,55,KALAMBO,554,KISUMBA,55416,CHISENGA,CHIYO
RUKWA,55,KALAMBO,554,KISUMBA,55416,CHISENGA,MTALUKE
RUKWA,55,KALAMBO,554,KISUMBA,55416,CHISENGA,CHAPONDWE
RUKWA,55,KALAMBO,554,KISUMBA,55416,KASOTE,KAMIKULO
RUKWA,55,KALAMBO,554,KISUMBA,55416,KASOTE,MIAKASI
RUKWA,55,KALAMBO,554,KISUMBA,55416,KASOTE,KATUNDA
RUKWA,55,KALAMBO,554,KISUMBA,55416,KASOTE,MAJENGO
RUKWA,55,KALAMBO,554,ULUMI,55417,"ULUMI ""A""",ULAYA
RUKWA,55,KALAMBO,554,ULUMI,55417,"ULUMI ""A""",UZUMBULA
RUKWA,55,KALAMBO,554,ULUMI,55417,"ULUMI ""A""",AMERIKA
RUKWA,55,KALAMBO,554,ULUMI,55417,"ULUMI ""A""",CHILUPU
RUKWA,55,KALAMBO,554,ULUMI,55417,"ULUMI ""A""",YANJE
RUKWA,55,KALAMBO,554,ULUMI,55417,ULUMI ''B'',NSUNGU
RUKWA,55,KALAMBO,554,ULUMI,55417,ULUMI ''B'',KAWALA
RUKWA,55,KALAMBO,554,ULUMI,55417,ULUMI ''B'',ULUMI ''B''
RUKWA,55,KALAMBO,554,ULUMI,55417,ULUMI ''B'',CHILUPU
RUKWA,55,KALAMBO,554,ULUMI,55417,MNAZI,CHANKA
RUKWA,55,KALAMBO,554,ULUMI,55417,MNAZI,CHILAMBO
RUKWA,55,KALAMBO,554,ULUMI,55417,KALE,TANGA
RUKWA,55,KALAMBO,554,ULUMI,55417,KALE,KALE
RUKWA,55,KALAMBO,554,ULUMI,55417,KALE,MULA
RUKWA,55,KALAMBO,554,ULUMI,55417,"KALEPULA ""A""",MSEME
RUKWA,55,KALAMBO,554,ULUMI,55417,"KALEPULA ""A""",IMALAMUSU
RUKWA,55,KALAMBO,554,ULUMI,55417,"KALEPULA ""A""",MFULILA
RUKWA,55,KALAMBO,554,ULUMI,55417,"KALEPULA ""A""",KASELA
RUKWA,55,KALAMBO,554,ULUMI,55417,"KALEPULA ""A""",MIGOMBA
RUKWA,55,KALAMBO,554,ULUMI,55417,"KALEPULA ""B""",CHITWAKA
RUKWA,55,KALAMBO,554,ULUMI,55417,"KALEPULA ""B""",ITOCHI
RUKWA,55,KALAMBO,554,ULUMI,55417,"KALEPULA ""B""",LOLESHA
RUKWA,55,KALAMBO,554,ULUMI,55417,"KALEPULA ""B""",ILAMBILAMFUZI
RUKWA,55,KALAMBO,554,ULUMI,55417,"KALEPULA ""B""",SAZA
RUKWA,55,KALAMBO,554,SAMAZI,55418,KIPANGA,MBITA
RUKWA,55,KALAMBO,554,SAMAZI,55418,KIPANGA,MSENKELE
RUKWA,55,KALAMBO,554,SAMAZI,55418,KIPANGA,MAJENGO
RUKWA,55,KALAMBO,554,SAMAZI,55418,KIPANGA,KACHOMA
RUKWA,55,KALAMBO,554,SAMAZI,55418,KATILI,KATILI
RUKWA,55,KALAMBO,554,SAMAZI,55418,KATILI,NZAILO
RUKWA,55,KALAMBO,554,SAMAZI,55418,KATILI,NGWENYA
RUKWA,55,KALAMBO,554,SAMAZI,55418,SAMAZI,SAMAZI
RUKWA,55,KALAMBO,554,SAMAZI,55418,SAMAZI,ILEMELA
RUKWA,55,KALAMBO,554,SAMAZI,55418,SAMAZI,SENJE
RUKWA,55,KALAMBO,554,SAMAZI,55418,KISALA,KISALA
RUKWA,55,KALAMBO,554,SAMAZI,55418,KISALA,KALEPA
RUKWA,55,KALAMBO,554,SAMAZI,55418,KISALA,MUYAKASI
RUKWA,55,KALAMBO,554,SAMAZI,55418,KISALA,MKWAVI
RUKWA,55,KALAMBO,554,MPOMBWE,55419,MPOMBWE,"MPOMBWE""A"""
RUKWA,55,KALAMBO,554,MPOMBWE,55419,MPOMBWE,KAMKOLWE
RUKWA,55,KALAMBO,554,MPOMBWE,55419,MPOMBWE,KATINDIZI
RUKWA,55,KALAMBO,554,MPOMBWE,55419,MPOMBWE,KASOKO
RUKWA,55,KALAMBO,554,MPOMBWE,55419,MPOMBWE,KASAKALAWE
RUKWA,55,KALAMBO,554,MPOMBWE,55419,"MPOMBWE ""B""","MPOMBWE""B"""
RUKWA,55,KALAMBO,554,MPOMBWE,55419,"MPOMBWE ""B""",CHEMCHEMI
RUKWA,55,KALAMBO,554,MPOMBWE,55419,"MPOMBWE ""B""",KAMONONYE
RUKWA,55,KALAMBO,554,MPOMBWE,55419,"MPOMBWE ""B""",SIMWELA
RUKWA,55,KALAMBO,554,MPOMBWE,55419,KAPOZWA,KAPOZWA
RUKWA,55,KALAMBO,554,MPOMBWE,55419,KAPOZWA,CHAPTUKA
RUKWA,55,KALAMBO,554,MPOMBWE,55419,KAPOZWA,KIBAONI
RUKWA,55,KALAMBO,554,MPOMBWE,55419,KAPOZWA,MBWILO
RUKWA,55,KALAMBO,554,MPOMBWE,55419,KALAMBO,MAJENGO
RUKWA,55,KALAMBO,554,MPOMBWE,55419,KALAMBO,KALAMBO
RUKWA,55,KALAMBO,554,MPOMBWE,55419,KALAMBO,MKAMBA
RUKWA,55,KALAMBO,554,MPOMBWE,55419,KALAMBO,MANDA
RUKWA,55,KALAMBO,554,MPOMBWE,55419,NGOROTWA,"NGOROTWA ""A"""
RUKWA,55,KALAMBO,554,MPOMBWE,55419,NGOROTWA,"NGOROTWA ""B"""
RUKWA,55,KALAMBO,554,MPOMBWE,55419,NGOROTWA,KAWALA
RUKWA,55,KALAMBO,554,MPOMBWE,55419,NONDO,VYULA
RUKWA,55,KALAMBO,554,MPOMBWE,55419,NONDO,KAMLESHE
RUKWA,55,KALAMBO,554,MPOMBWE,55419,NONDO,NONDO
RUKWA,55,KALAMBO,554,MPOMBWE,55419,NONDO,KALAMBO
RUKWA,55,KALAMBO,554,LYOWA,55420,SINGIWE,MFUKANDA
RUKWA,55,KALAMBO,554,LYOWA,55420,SINGIWE,KATUWA
RUKWA,55,KALAMBO,554,LYOWA,55420,SINGIWE,NAMBU
RUKWA,55,KALAMBO,554,LYOWA,55420,CHALAMINWE,NAMBWA
RUKWA,55,KALAMBO,554,LYOWA,55420,CHALAMINWE,MASEWE
RUKWA,55,KALAMBO,554,LYOWA,55420,CHALAMINWE,CHALAMINWE
RUKWA,55,KALAMBO,554,LYOWA,55420,SANTAMARIA,KILEWANI
RUKWA,55,KALAMBO,554,LYOWA,55420,SANTAMARIA,SANTA
RUKWA,55,KALAMBO,554,LYOWA,55420,SANTAMARIA,ISEVYA
RUKWA,55,KALAMBO,554,LYOWA,55420,KELENI,JERUSALEMU
RUKWA,55,KALAMBO,554,LYOWA,55420,KELENI,KELENI
RUKWA,55,KALAMBO,554,LYOWA,55420,KELENI,CHIMILANGWI
RUKWA,55,KALAMBO,554,LYOWA,55420,MATAI B,MLUNJI
RUKWA,55,KALAMBO,554,LYOWA,55420,MATAI B,IMBO
RUKWA,55,KALAMBO,554,LYOWA,55420,MATAI B,MATWAZI
RUKWA,55,KALAMBO,554,LYOWA,55420,NAMLANGWA,LYOWA
RUKWA,55,KALAMBO,554,LYOWA,55420,NAMLANGWA,KASISIWE
RUKWA,55,KALAMBO,554,LYOWA,55420,NAMLANGWA,NAMLANGWA
RUKWA,55,KALAMBO,554,MBULUMA,55421,MBULUMA,KILEWA
RUKWA,55,KALAMBO,554,MBULUMA,55421,MBULUMA,CHAMWUNO
RUKWA,55,KALAMBO,554,MBULUMA,55421,MBULUMA,MBULUMA KATI
RUKWA,55,KALAMBO,554,MBULUMA,55421,MBULUMA,KALULU
RUKWA,55,KALAMBO,554,MBULUMA,55421,KALEMASHA,KAPUTUKE
RUKWA,55,KALAMBO,554,MBULUMA,55421,KALEMASHA,KALOMBWE
RUKWA,55,KALAMBO,554,MBULUMA,55421,KALEMASHA,MAKAZI MAPYA
RUKWA,55,KALAMBO,554,MBULUMA,55421,KALEMASHA,TUPIKE
RUKWA,55,KALAMBO,554,MBULUMA,55421,KALEMASHA,KALEMASHA KATI
RUKWA,55,KALAMBO,554,MBULUMA,55421,KALEMASHA,KATECHA
RUKWA,55,KALAMBO,554,MBULUMA,55421,MAO,KASUNGA
RUKWA,55,KALAMBO,554,MBULUMA,55421,MAO,IYUNGA
RUKWA,55,KALAMBO,554,MBULUMA,55421,MAO,MAO KATI
RUKWA,55,KALAMBO,554,MBULUMA,55421,MAO,MKUYUNI
RUKWA,55,KALAMBO,554,MBULUMA,55421,KANYALAKATA,NACHILUNGA
RUKWA,55,KALAMBO,554,MBULUMA,55421,KANYALAKATA,MINYELA
RUKWA,55,KALAMBO,554,MBULUMA,55421,KANYALAKATA,KANYALAKATA
RUKWA,55,KALAMBO,554,MBULUMA,55421,KANYALAKATA,KAWALA
RUKWA,55,KALAMBO,554,MBULUMA,55421,LOLESHA,NAMWAVI
RUKWA,55,KALAMBO,554,MBULUMA,55421,LOLESHA,LOLESHA
RUKWA,55,KALAMBO,554,MBULUMA,55421,LOLESHA,KALEMASHA
RUKWA,55,KALAMBO,554,SUNDU,55422,KALAELA,KATANDE
RUKWA,55,KALAMBO,554,SUNDU,55422,KALAELA,KALAELA
RUKWA,55,KALAMBO,554,SUNDU,55422,KALAELA,KAFOMBWA
RUKWA,55,KALAMBO,554,SUNDU,55422,KALAELA,CHUMU
RUKWA,55,KALAMBO,554,SUNDU,55422,ILAMBILA,NKOZI
RUKWA,55,KALAMBO,554,SUNDU,55422,ILAMBILA,ILAMBILA
RUKWA,55,KALAMBO,554,SUNDU,55422,ILAMBILA,MLWAZI
RUKWA,55,KALAMBO,554,SUNDU,55422,ILAMBILA,ISUNUKA
RUKWA,55,KALAMBO,554,SUNDU,55422,KAMAWE,KITUVYA
RUKWA,55,KALAMBO,554,SUNDU,55422,KAMAWE,KAMAWE
RUKWA,55,KALAMBO,554,SUNDU,55422,KAMAWE,KAMUKU
RUKWA,55,KALAMBO,554,KANYEZI,55423,KANYEZI,KANYEZI KATI
RUKWA,55,KALAMBO,554,KANYEZI,55423,KANYEZI,CHIKWALA
RUKWA,55,KALAMBO,554,KANYEZI,55423,KANYEZI,KAMISUKU
RUKWA,55,KALAMBO,554,KANYEZI,55423,MAJENGO,MATIMBA
RUKWA,55,KALAMBO,554,KANYEZI,55423,MAJENGO,MAJENGO
RUKWA,55,KALAMBO,554,KANYEZI,55423,MAJENGO,NAMKONDA
RUKWA,55,KALAMBO,554,KANYEZI,55423,CHALATILA,MWAMA
RUKWA,55,KALAMBO,554,KANYEZI,55423,CHALATILA,KAZOVWE
RUKWA,55,KALAMBO,554,KANYEZI,55423,CHALATILA,CHALATILA
RUKWA,55,KALAMBO,554,KANYEZI,55423,CHALATILA,NKAKO
RUKWA,55,KALAMBO,554,KANYEZI,55423,CHISAMBO,MTULA
RUKWA,55,KALAMBO,554,KANYEZI,55423,CHISAMBO,CHISAMBO
RUKWA,55,KALAMBO,554,KANYEZI,55423,KAFUKULA,KAPATU
RUKWA,55,KALAMBO,554,KANYEZI,55423,KAFUKULA,KAFUKULA
RUKWA,55,KALAMBO,554,KANYEZI,55423,KAFUKULA,NTAKOMOLWA
RUKWA,55,KALAMBO,554,KILESHA,55424,KILESHA,KILESHA
RUKWA,55,KALAMBO,554,KILESHA,55424,KILESHA,KAKOMA
RUKWA,55,KALAMBO,554,KILESHA,55424,KAMBO,MILAZA
RUKWA,55,KALAMBO,554,KILESHA,55424,KAMBO,KILAMBO
RUKWA,55,KALAMBO,554,KILESHA,55424,KAMBO,KALOLENI
RUKWA,55,KALAMBO,554,KILESHA,55424,ITEKESHA,MADEBE
RUKWA,55,KALAMBO,554,KILESHA,55424,ITEKESHA,KAGERA
RUKWA,55,KALAMBO,554,KILESHA,55424,ITEKESHA,ITEKESHA
RUKWA,55,KALAMBO,554,KILESHA,55424,ITEKESHA,SEKETA
RUKWA,55,KALAMBO,554,KILESHA,55424,ITEKESHA,MIZUMBI
RUKWA,55,KALAMBO,554,KILESHA,55424,ILANGO,KAMBALILE
RUKWA,55,KALAMBO,554,KILESHA,55424,ILANGO,KASA
RUKWA,55,KALAMBO,554,KILESHA,55424,KIFONE,LEMI
RUKWA,55,KALAMBO,554,KILESHA,55424,KIFONE,NSUNDU
RUKWA,55,KALAMBO,554,KILESHA,55424,KIFONE,KIFONE
