REGION,POSTCODE,DISTRICT,POSTCODE,WARD,POSTCODE,STREET,PLACES
SHINYANGA,37,"SHINYANGA
CBD",371,MJINI,37101,KAUNDA,
SHINYANGA,37,"SHINYANGA
CBD",371,MJINI,37101,BUZUKA,
SHINYANGA,37,"SHINYANGA
CBD",371,MJINI,37101,MITIMIREFU,
SHINYANGA,37,"SHINYANGA
CBD",371,MJINI,37101,VIWANDANI,
SHINYANGA,37,"SHINYANGA
CBD",371,KAMBARAGE,37102,KAMBARAGE,
SHINYANGA,37,"SHINYANGA
CBD",371,KAMBARAGE,37102,JOMU,
SHINYANGA,37,"SHINYANGA
CBD",371,KAMBARAGE,37102,MAJENGO,
SHINYANGA,37,"SHINYANGA
CBD",371,KAMBARAGE,37102,MWASELE A,
SHINYANGA,37,"SHINYANGA
CBD",371,KAMBARAGE,37102,MWASELE B,
SHINYANGA,37,"SHINYANGA
CBD",371,KAMBARAGE,37102,MWASELE MIHOGONI,
SHINYANGA,37,"SHINYANGA
CBD",371,NGOKOLO,37103,MAGADULA,
SHINYANGA,37,"SHINYANGA
CBD",371,NGOKOLO,37103,NGOKOLO,
SHINYANGA,37,"SHINYANGA
CBD",371,NGOKOLO,37103,MWINAMILA,
SHINYANGA,37,"SHINYANGA
CBD",371,NGOKOLO,37103,KALONGA,
SHINYANGA,37,"SHINYANGA
CBD",371,NGOKOLO,37103,MWADUI,
SHINYANGA,37,"SHINYANGA
CBD",371,NGOKOLO,37103,MAGEUZI,
SHINYANGA,37,"SHINYANGA
CBD",371,NGOKOLO,37103,MAJENGO MAPYA,
SHINYANGA,37,"SHINYANGA
CBD",371,CHAMAGUHA,37104,TANESCO,
SHINYANGA,37,"SHINYANGA
CBD",371,CHAMAGUHA,37104,CHAMAGUHA,
SHINYANGA,37,"SHINYANGA
CBD",371,CHAMAGUHA,37104,SANJO,
SHINYANGA,37,"SHINYANGA
CBD",371,KITANGILI,37105,KITANGILI,
SHINYANGA,37,"SHINYANGA
CBD",371,KITANGILI,37105,BUSULWA,
SHINYANGA,37,"SHINYANGA
CBD",371,KITANGILI,37105,IWELYANGULA,
SHINYANGA,37,"SHINYANGA
CBD",371,KITANGILI,37105,SONGAMBELE,
SHINYANGA,37,"SHINYANGA
CBD",371,KITANGILI,37105,SOKOINE,
SHINYANGA,37,"SHINYANGA
CBD",371,KITANGILI,37105,MAJENGO MAPYA,
SHINYANGA,37,"SHINYANGA
CBD",371,IBINZAMATA,37106,BUGWANDEGE,
SHINYANGA,37,"SHINYANGA
CBD",371,IBINZAMATA,37106,SIDO,
SHINYANGA,37,"SHINYANGA
CBD",371,IBINZAMATA,37106,IBINZAMATA,
SHINYANGA,37,"SHINYANGA
CBD",371,NDALA,37107,BANDUKA,
SHINYANGA,37,"SHINYANGA
CBD",371,NDALA,37107,MLEPA,
SHINYANGA,37,"SHINYANGA
CBD",371,NDALA,37107,NDALA,
SHINYANGA,37,"SHINYANGA
CBD",371,NDALA,37107,MAPINDUZI,
SHINYANGA,37,"SHINYANGA
CBD",371,NDALA,37107,MWABUNDU,
SHINYANGA,37,"SHINYANGA
CBD",371,KIZUMBI,37108,NHELEGANI,BUJINGE
SHINYANGA,37,"SHINYANGA
CBD",371,KIZUMBI,37108,NHELEGANI,MASHARIKI
SHINYANGA,37,"SHINYANGA
CBD",371,KIZUMBI,37108,NHELEGANI,BUSALALA
SHINYANGA,37,"SHINYANGA
CBD",371,KIZUMBI,37108,NHELEGANI,RELINI
SHINYANGA,37,"SHINYANGA
CBD",371,KIZUMBI,37108,NHELEGANI,NHELEGANIKATI
SHINYANGA,37,"SHINYANGA
CBD",371,KIZUMBI,37108,NHELEGANI,IWELIMO
SHINYANGA,37,"SHINYANGA
CBD",371,KIZUMBI,37108,NHELEGANI,KASHANDA
SHINYANGA,37,"SHINYANGA
CBD",371,KIZUMBI,37108,NHELEGANI,MAGWATA
SHINYANGA,37,"SHINYANGA
CBD",371,KIZUMBI,37108,BUGAYAMBELE,BUGAYAMBELELE MAGHARIBI
SHINYANGA,37,"SHINYANGA
CBD",371,KIZUMBI,37108,BUGAYAMBELE,NYANHENDE
SHINYANGA,37,"SHINYANGA
CBD",371,KIZUMBI,37108,BUGAYAMBELE,IGALUKILO
SHINYANGA,37,"SHINYANGA
CBD",371,KIZUMBI,37108,BUGAYAMBELE,BULUGALILA
SHINYANGA,37,"SHINYANGA
CBD",371,KIZUMBI,37108,BUGAYAMBELE,BUSONGO
SHINYANGA,37,"SHINYANGA
CBD",371,KIZUMBI,37108,BUGAYAMBELE,KATUNDA
SHINYANGA,37,"SHINYANGA
CBD",371,KIZUMBI,37108,MWAMASHELE,MWAKINGA
SHINYANGA,37,"SHINYANGA
CBD",371,KIZUMBI,37108,MWAMASHELE,MWAMASHELE
SHINYANGA,37,"SHINYANGA
CBD",371,KIZUMBI,37108,MWAMASHELE,LYANDU
SHINYANGA,37,"SHINYANGA
CBD",371,MWAWAZA,37109,NEGEZI,NEGEZI
SHINYANGA,37,"SHINYANGA
CBD",371,MWAWAZA,37109,NEGEZI,ISHOSHANDILI
SHINYANGA,37,"SHINYANGA
CBD",371,MWAWAZA,37109,NEGEZI,ITONGWANGHOLO
SHINYANGA,37,"SHINYANGA
CBD",371,MWAWAZA,37109,NEGEZI,MONGOGWANDAMA
SHINYANGA,37,"SHINYANGA
CBD",371,MWAWAZA,37109,MWAWAZA,MWAWAZA
SHINYANGA,37,"SHINYANGA
CBD",371,MWAWAZA,37109,MWAWAZA,IMALANGUZU
SHINYANGA,37,"SHINYANGA
CBD",371,MWAWAZA,37109,MWAWAZA,NGABULILI
SHINYANGA,37,"SHINYANGA
CBD",371,MWAWAZA,37109,MWAWAZA,NSALALA
SHINYANGA,37,"SHINYANGA
CBD",371,MWAWAZA,37109,BUGIMBAGU,BUGIMBAGU
SHINYANGA,37,"SHINYANGA
CBD",371,MWAWAZA,37109,BUGIMBAGU,MWALUHENDE
SHINYANGA,37,"SHINYANGA
CBD",371,CHIBE,37111,CHIBE,
SHINYANGA,37,"SHINYANGA
CBD",371,CHIBE,37111,MWALUGOYE,
SHINYANGA,37,"SHINYANGA
CBD",371,CHIBE,37111,BUSAMBILO,
SHINYANGA,37,"SHINYANGA
CBD",371,CHIBE,37111,MWAMAPALALA,
SHINYANGA,37,"SHINYANGA
CBD",371,MWAMALILI,37112,MWAMALILI,LYANDU
SHINYANGA,37,"SHINYANGA
CBD",371,MWAMALILI,37112,MWAMALILI,MWAKUNDULI.
SHINYANGA,37,"SHINYANGA
CBD",371,MWAMALILI,37112,MWAMALILI,MAGWATA
SHINYANGA,37,"SHINYANGA
CBD",371,MWAMALILI,37112,MWAMALILI,IHUSHI
SHINYANGA,37,"SHINYANGA
CBD",371,MWAMALILI,37112,SESEKO,SESEKO
SHINYANGA,37,"SHINYANGA
CBD",371,MWAMALILI,37112,SESEKO,ILUGALA
SHINYANGA,37,"SHINYANGA
CBD",371,MWAMALILI,37112,SESEKO,"NHOBORA,"
SHINYANGA,37,"SHINYANGA
CBD",371,MWAMALILI,37112,BUSHOLA,"MWAGALA,"
SHINYANGA,37,"SHINYANGA
CBD",371,MWAMALILI,37112,BUSHOLA,BULYAMBULI
SHINYANGA,37,"SHINYANGA
CBD",371,IBADAKULI,37113,BUGWETO A,
SHINYANGA,37,"SHINYANGA
CBD",371,IBADAKULI,37113,BUGWETO B,
SHINYANGA,37,"SHINYANGA
CBD",371,IBADAKULI,37113,MWAGALA,MWAGALA A
SHINYANGA,37,"SHINYANGA
CBD",371,IBADAKULI,37113,MWAGALA,"MWAGALA, B"
SHINYANGA,37,"SHINYANGA
CBD",371,IBADAKULI,37113,MWAGALA,MWAGALA C
SHINYANGA,37,"SHINYANGA
CBD",371,IBADAKULI,37113,IBADAKULI,IBADAKULIKATI
SHINYANGA,37,"SHINYANGA
CBD",371,IBADAKULI,37113,IBADAKULI,BUNYANYEMBE
SHINYANGA,37,"SHINYANGA
CBD",371,IBADAKULI,37113,IBADAKULI,BUSANYA
SHINYANGA,37,"SHINYANGA
CBD",371,IBADAKULI,37113,IBADAKULI,MWAKAILA
SHINYANGA,37,"SHINYANGA
CBD",371,IBADAKULI,37113,IBADAKULI,WILIGWAMABU
SHINYANGA,37,"SHINYANGA
CBD",371,IBADAKULI,37113,IBADAKULI,BUJIGA
SHINYANGA,37,"SHINYANGA
CBD",371,IBADAKULI,37113,IBADAKULI,AIRPORT
SHINYANGA,37,"SHINYANGA
CBD",371,IBADAKULI,37113,IBADAKULI,MISUNGWI
SHINYANGA,37,"SHINYANGA
CBD",371,IBADAKULI,37113,IBADAKULI,MPERA A
SHINYANGA,37,"SHINYANGA
CBD",371,IBADAKULI,37113,IBADAKULI,MPERA  B
SHINYANGA,37,"SHINYANGA
CBD",371,IBADAKULI,37113,IBADAKULI,MPERA C
SHINYANGA,37,"SHINYANGA
CBD",371,IBADAKULI,37113,IBADAKULI,MABAMBASI
SHINYANGA,37,"SHINYANGA
CBD",371,IBADAKULI,37113,UZOGORE,IKULILO
SHINYANGA,37,"SHINYANGA
CBD",371,IBADAKULI,37113,UZOGORE,SHIMANILWE
SHINYANGA,37,"SHINYANGA
CBD",371,IBADAKULI,37113,UZOGORE,UZOGORE
SHINYANGA,37,"SHINYANGA
CBD",371,IBADAKULI,37113,UZOGORE,BUGWANDEGE
SHINYANGA,37,"SHINYANGA
CBD",371,IBADAKULI,37113,UZOGORE,ILUBALO
SHINYANGA,37,"SHINYANGA
CBD",371,IBADAKULI,37113,UZOGORE,MAJENGO
SHINYANGA,37,"SHINYANGA
CBD",371,KOLANDOTO,37114,KOLANDOTO,KOLANDOTO
SHINYANGA,37,"SHINYANGA
CBD",371,KOLANDOTO,37114,KOLANDOTO,MWAMALA
SHINYANGA,37,"SHINYANGA
CBD",371,KOLANDOTO,37114,KOLANDOTO,KISESA
SHINYANGA,37,"SHINYANGA
CBD",371,KOLANDOTO,37114,KOLANDOTO,WAME
SHINYANGA,37,"SHINYANGA
CBD",371,KOLANDOTO,37114,KOLANDOTO,MWANUBI
SHINYANGA,37,"SHINYANGA
CBD",371,KOLANDOTO,37114,KOLANDOTO,NKONGOLO
SHINYANGA,37,"SHINYANGA
CBD",371,KOLANDOTO,37114,MWAMAGUNGULI,KAPINE
SHINYANGA,37,"SHINYANGA
CBD",371,KOLANDOTO,37114,MWAMAGUNGULI,JILINGU
SHINYANGA,37,"SHINYANGA
CBD",371,KOLANDOTO,37114,MWAMAGUNGULI,MWAMAGUNGULI
SHINYANGA,37,"SHINYANGA
CBD",371,KOLANDOTO,37114,GALAMBA,GALAMBA
SHINYANGA,37,"SHINYANGA
CBD",371,KOLANDOTO,37114,GALAMBA,MWASITA
SHINYANGA,37,"SHINYANGA
CBD",371,KOLANDOTO,37114,GALAMBA,NGOKWE
SHINYANGA,37,"SHINYANGA
CBD",371,KOLANDOTO,37114,GALAMBA,LUHUMBO
SHINYANGA,37,"SHINYANGA
CBD",371,KOLANDOTO,37114,GALAMBA,MAGOBEKO
SHINYANGA,37,"SHINYANGA
CBD",371,LUBAGA,37115,"LUBAGA,",
SHINYANGA,37,"SHINYANGA
CBD",371,LUBAGA,37115,BUSHUHSU,
SHINYANGA,37,"SHINYANGA
CBD",371,LUBAGA,37115,LUBAGA FARM,
SHINYANGA,37,"SHINYANGA
CBD",371,LUBAGA,37115,AZIMIO,
SHINYANGA,37,"SHINYANGA
CBD",371,LUBAGA,37115,LUBAGA LL,
SHINYANGA,37,"SHINYANGA
CBD",371,MASEKELO,37116,MASEKELO,
SHINYANGA,37,"SHINYANGA
CBD",371,MASEKELO,37116,LUHENDE,
SHINYANGA,37,"SHINYANGA
CBD",371,MASEKELO,37116,MWAMALA,
SHINYANGA,37,"SHINYANGA
CBD",371,MASEKELO,37116,BONDENI,
SHINYANGA,37,"SHINYANGA
CBD",371,NDEMBEZI,37117,TAMBUKARELI,
SHINYANGA,37,"SHINYANGA
CBD",371,NDEMBEZI,37117,DOME,
SHINYANGA,37,"SHINYANGA
CBD",371,NDEMBEZI,37117,MABAMBASI,
SHINYANGA,37,"SHINYANGA
CBD",371,NDEMBEZI,37117,MBUYUNI,
SHINYANGA,37,"SHINYANGA
CBD",371,NDEMBEZI,37117,BUTENGWA,
SHINYANGA,37,"SHINYANGA
CBD",371,NDEMBEZI,37117,NDEMBEZI,
SHINYANGA,37,"SHINYANGA
CBD",371,OLD SHINYANGA,37118,OLD SHINYANGA,SENYENGE
SHINYANGA,37,"SHINYANGA
CBD",371,OLD SHINYANGA,37118,OLD SHINYANGA,MWAMAGULYA
SHINYANGA,37,"SHINYANGA
CBD",371,OLD SHINYANGA,37118,OLD SHINYANGA,KITWILI
SHINYANGA,37,"SHINYANGA
CBD",371,OLD SHINYANGA,37118,OLD SHINYANGA,BUTULWA
SHINYANGA,37,"SHINYANGA
CBD",371,OLD SHINYANGA,37118,OLD SHINYANGA,MLIMANI
SHINYANGA,37,"SHINYANGA
CBD",371,OLD SHINYANGA,37118,OLD SHINYANGA,SOKO A
SHINYANGA,37,"SHINYANGA
CBD",371,OLD SHINYANGA,37118,OLD SHINYANGA,SOKO B
SHINYANGA,37,"SHINYANGA
CBD",371,OLD SHINYANGA,37118,OLD SHINYANGA,IYOGELO
SHINYANGA,37,"SHINYANGA
CBD",371,OLD SHINYANGA,37118,IHAPA,IHAPA A
SHINYANGA,37,"SHINYANGA
CBD",371,OLD SHINYANGA,37118,IHAPA,IHAPA B
SHINYANGA,37,"SHINYANGA
CBD",371,OLD SHINYANGA,37118,IHAPA,BULYADILU
SHINYANGA,37,"SHINYANGA
CBD",371,OLD SHINYANGA,37118,IHAPA,BUDILAHNA
SHINYANGA,37,"SHINYANGA
CBD",371,OLD SHINYANGA,37118,IHAPA,MWAPALALU
SHINYANGA,37,SHINYANGA,372,SAMUYE,37201,NG’WANG’HALANGA,MWABANDI
SHINYANGA,37,SHINYANGA,372,SAMUYE,37201,NG’WANG’HALANGA,BUJONGE
SHINYANGA,37,SHINYANGA,372,SAMUYE,37201,NG’WANG’HALANGA,MANONGA
SHINYANGA,37,SHINYANGA,372,SAMUYE,37201,NG’WANG’HALANGA,TINDE
SHINYANGA,37,SHINYANGA,372,SAMUYE,37201,NG’WANG’HALANGA,SHIBALELA
SHINYANGA,37,SHINYANGA,372,SAMUYE,37201,NG’WANG’HALANGA,IPONYAMHINDA
SHINYANGA,37,SHINYANGA,372,SAMUYE,37201,IBINGO,INEDEKELA
SHINYANGA,37,SHINYANGA,372,SAMUYE,37201,IBINGO,NG’WAMAGUSHI
SHINYANGA,37,SHINYANGA,372,SAMUYE,37201,IBINGO,MWANDITO
SHINYANGA,37,SHINYANGA,372,SAMUYE,37201,IBINGO,BUKAMBA
SHINYANGA,37,SHINYANGA,372,SAMUYE,37201,IBINGO,KALEMELA
SHINYANGA,37,SHINYANGA,372,SAMUYE,37201,IBINGO,MWALULA
SHINYANGA,37,SHINYANGA,372,SAMUYE,37201,IBINGO,BULUNGWA
SHINYANGA,37,SHINYANGA,372,SAMUYE,37201,ISELA,MATANDA
SHINYANGA,37,SHINYANGA,372,SAMUYE,37201,ISELA,MIHOGONI
SHINYANGA,37,SHINYANGA,372,SAMUYE,37201,ISELA,ISENEGEJA
SHINYANGA,37,SHINYANGA,372,SAMUYE,37201,ISELA,KAZUNI
SHINYANGA,37,SHINYANGA,372,SAMUYE,37201,ISHINABULANDI,NKOLANDOTO
SHINYANGA,37,SHINYANGA,372,SAMUYE,37201,ISHINABULANDI,ISHINABULANDI
SHINYANGA,37,SHINYANGA,372,SAMUYE,37201,ISHINABULANDI,ITONGWANG’HOLO
SHINYANGA,37,SHINYANGA,372,SAMUYE,37201,ISHINABULANDI,BUPUNGU
SHINYANGA,37,SHINYANGA,372,SAMUYE,37201,ISHINABULANDI,ISHIGIJA
SHINYANGA,37,SHINYANGA,372,SAMUYE,37201,ISHINABULANDI,MAJENGO
SHINYANGA,37,SHINYANGA,372,SAMUYE,37201,IDODOMA,BULANGO
SHINYANGA,37,SHINYANGA,372,SAMUYE,37201,IDODOMA,IDODOMA
SHINYANGA,37,SHINYANGA,372,SAMUYE,37201,IDODOMA,BUSHOMA
SHINYANGA,37,SHINYANGA,372,MWAMALA,37202,MILYUNGU,NG'HENGELE
SHINYANGA,37,SHINYANGA,372,MWAMALA,37202,MILYUNGU,BUGOMBA
SHINYANGA,37,SHINYANGA,372,MWAMALA,37202,MILYUNGU,"MILYUNGU ""A"""
SHINYANGA,37,SHINYANGA,372,MWAMALA,37202,MILYUNGU,ITINJE
SHINYANGA,37,SHINYANGA,372,MWAMALA,37202,MILYUNGU,"MILYUNGU""B"""
SHINYANGA,37,SHINYANGA,372,MWAMALA,37202,IGUMANGOBO,NG'WAHUKALE
SHINYANGA,37,SHINYANGA,372,MWAMALA,37202,IGUMANGOBO,ITINJE IGUNGULI
SHINYANGA,37,SHINYANGA,372,MWAMALA,37202,IGUMANGOBO,BUSULWA
SHINYANGA,37,SHINYANGA,372,MWAMALA,37202,IGUMANGOBO,IGUNDULI
SHINYANGA,37,SHINYANGA,372,MWAMALA,37202,IGUMANGOBO,"IGONGWA ""A"""
SHINYANGA,37,SHINYANGA,372,MWAMALA,37202,IGUMANGOBO,"IGONGWA ""B"""
SHINYANGA,37,SHINYANGA,372,MWAMALA,37202,IGUMANGOBO,BUSOMANGA
SHINYANGA,37,SHINYANGA,372,MWAMALA,37202,IGUMANGOBO,NGWANGIMAGI
SHINYANGA,37,SHINYANGA,372,MWAMALA,37202,IGUMANGOBO,MASHI
SHINYANGA,37,SHINYANGA,372,MWAMALA,37202,IGUMANGOBO,MWAFUMBUKA
SHINYANGA,37,SHINYANGA,372,MWAMALA,37202,KIJIDA,KIJIDA
SHINYANGA,37,SHINYANGA,372,MWAMALA,37202,KIJIDA,MWABASABI
SHINYANGA,37,SHINYANGA,372,MWAMALA,37202,KIJIDA,MWANYACHILA
SHINYANGA,37,SHINYANGA,372,MWAMALA,37202,KIJIDA,NYANG'HANGA
SHINYANGA,37,SHINYANGA,372,MWAMALA,37202,KIJIDA,SHINONGHE
SHINYANGA,37,SHINYANGA,372,MWAMALA,37202,KIJIDA,MWABANDAMO
SHINYANGA,37,SHINYANGA,372,MWAMALA,37202,KIJIDA,MWANYACHIZA
SHINYANGA,37,SHINYANGA,372,MWAMALA,37202,MWALUJO,NYANG'HANGA
SHINYANGA,37,SHINYANGA,372,MWAMALA,37202,MWALUJO,IHUSHI
SHINYANGA,37,SHINYANGA,372,MWAMALA,37202,MWALUJO,MWAMBOGWA
SHINYANGA,37,SHINYANGA,372,MWAMALA,37202,MWALUJO,MWALUJO
SHINYANGA,37,SHINYANGA,372,MWAMALA,37202,MWALUJO,KILIMANHINDE
SHINYANGA,37,SHINYANGA,372,MWAMALA,37202,MWALUJO,MWAZUNZU
SHINYANGA,37,SHINYANGA,372,USULE,37203,IGALAMYA,IGALAMYA
SHINYANGA,37,SHINYANGA,372,USULE,37203,IGALAMYA,IZIMBILI
SHINYANGA,37,SHINYANGA,372,USULE,37203,IGALAMYA,LYAPOMO
SHINYANGA,37,SHINYANGA,372,USULE,37203,IGALAMYA,LYASAGALA
SHINYANGA,37,SHINYANGA,372,USULE,37203,IGALAMYA,IWELIMO
SHINYANGA,37,SHINYANGA,372,USULE,37203,IGALAMYA,BUTUMBA
SHINYANGA,37,SHINYANGA,372,USULE,37203,IGALAMYA,ISANZA
SHINYANGA,37,SHINYANGA,372,USULE,37203,IGALAMYA,IGUMO
SHINYANGA,37,SHINYANGA,372,USULE,37203,IGALAMYA,KITULI
SHINYANGA,37,SHINYANGA,372,USULE,37203,IGALAMYA,NKINGA
SHINYANGA,37,SHINYANGA,372,USULE,37203,MASUNULA,MASUNULA
SHINYANGA,37,SHINYANGA,372,USULE,37203,MASUNULA,MASHIKILO
SHINYANGA,37,SHINYANGA,372,USULE,37203,MASUNULA,ISEBYA
SHINYANGA,37,SHINYANGA,372,USULE,37203,MASUNULA,IHAGAMAWE
SHINYANGA,37,SHINYANGA,372,USULE,37203,MASUNULA,BUKENGWA
SHINYANGA,37,SHINYANGA,372,USULE,37203,MASUNULA,SHIKWEMBE
SHINYANGA,37,SHINYANGA,372,USULE,37203,MASUNULA,MWAGWISI
SHINYANGA,37,SHINYANGA,372,USULE,37203,MASUNULA,SELENI
SHINYANGA,37,SHINYANGA,372,USULE,37203,MASUNULA,SONGAMBELE
SHINYANGA,37,SHINYANGA,372,USULE,37203,ISHOLOLO,ISHOLOLO
SHINYANGA,37,SHINYANGA,372,USULE,37203,ISHOLOLO,IBALAJA
SHINYANGA,37,SHINYANGA,372,USULE,37203,ISHOLOLO,IMELI
SHINYANGA,37,SHINYANGA,372,USULE,37203,ISHOLOLO,INELE
SHINYANGA,37,SHINYANGA,372,USULE,37203,ISHOLOLO,IDUHYA
SHINYANGA,37,SHINYANGA,372,USULE,37203,ISHOLOLO,SESEKO
SHINYANGA,37,SHINYANGA,372,USULE,37203,ISHOLOLO,KAPILULA
SHINYANGA,37,SHINYANGA,372,USULE,37203,TINDENG'HULU,TINDENG’HULU
SHINYANGA,37,SHINYANGA,372,USULE,37203,TINDENG'HULU,MISUNGWI
SHINYANGA,37,SHINYANGA,372,USULE,37203,TINDENG'HULU,ISHEGENYA
SHINYANGA,37,SHINYANGA,372,USULE,37203,TINDENG'HULU,BUSHOSHA
SHINYANGA,37,SHINYANGA,372,IMESELA,37204,MWAMANYUNDA,IGALULA
SHINYANGA,37,SHINYANGA,372,IMESELA,37204,MWAMANYUNDA,KIHONGWE
SHINYANGA,37,SHINYANGA,372,IMESELA,37204,MWAMANYUNDA,MWALUMI
SHINYANGA,37,SHINYANGA,372,IMESELA,37204,MWAMANYUNDA,MAGUGUSHI
SHINYANGA,37,SHINYANGA,372,IMESELA,37204,MWAMANYUNDA,MIZANZA
SHINYANGA,37,SHINYANGA,372,IMESELA,37204,MWAMANYUNDA,MWAMBENHENE
SHINYANGA,37,SHINYANGA,372,IMESELA,37204,MWAMANYUNDA,MWANTALIKA
SHINYANGA,37,SHINYANGA,372,IMESELA,37204,NYIKA,INYAJA
SHINYANGA,37,SHINYANGA,372,IMESELA,37204,NYIKA,MWANUBILA
SHINYANGA,37,SHINYANGA,372,IMESELA,37204,NYIKA,UBOLWA
SHINYANGA,37,SHINYANGA,372,IMESELA,37204,NYIKA,WELA
SHINYANGA,37,SHINYANGA,372,IMESELA,37204,NYIKA,NHOBOLA
SHINYANGA,37,SHINYANGA,372,IMESELA,37204,NYIKA,MWALUMI
SHINYANGA,37,SHINYANGA,372,IMESELA,37204,MASKATI,SHAMWANDU
SHINYANGA,37,SHINYANGA,372,IMESELA,37204,MASKATI,GULUMBAYI
SHINYANGA,37,SHINYANGA,372,IMESELA,37204,MASKATI,KITUNDA
SHINYANGA,37,SHINYANGA,372,IMESELA,37204,MASKATI,BUGORO
SHINYANGA,37,SHINYANGA,372,IMESELA,37204,IMESELA,MWASUTA
SHINYANGA,37,SHINYANGA,372,IMESELA,37204,IMESELA,IBIZO
SHINYANGA,37,SHINYANGA,372,IMESELA,37204,IMESELA,NYASHIMBA
SHINYANGA,37,SHINYANGA,372,IMESELA,37204,IMESELA,IKUMIJA
SHINYANGA,37,SHINYANGA,372,IMESELA,37204,IMESELA,ISUKARISO
SHINYANGA,37,SHINYANGA,372,IMESELA,37204,IMESELA,IDIDI
SHINYANGA,37,SHINYANGA,372,IMESELA,37204,IMESELA,SAMUYE
SHINYANGA,37,SHINYANGA,372,ILOLA,37205,MENDO,MWABAYANDA
SHINYANGA,37,SHINYANGA,372,ILOLA,37205,MENDO,NKOLA
SHINYANGA,37,SHINYANGA,372,ILOLA,37205,MENDO,SENGEREMA
SHINYANGA,37,SHINYANGA,372,ILOLA,37205,KASINGILI,IGENGE
SHINYANGA,37,SHINYANGA,372,ILOLA,37205,KASINGILI,IYIGE
SHINYANGA,37,SHINYANGA,372,ILOLA,37205,KASINGILI,IGALULA
SHINYANGA,37,SHINYANGA,372,ILOLA,37205,KASINGILI,NDAGWA
SHINYANGA,37,SHINYANGA,372,ILOLA,37205,KASINGILI,PANDI
SHINYANGA,37,SHINYANGA,372,ILOLA,37205,KASINGILI,SHAMATALE
SHINYANGA,37,SHINYANGA,372,ILOLA,37205,KASINGILI,IKULIKILO
SHINYANGA,37,SHINYANGA,372,ILOLA,37205,IHALO,LUTALA
SHINYANGA,37,SHINYANGA,372,ILOLA,37205,IHALO,SHIBUMBA
SHINYANGA,37,SHINYANGA,372,ILOLA,37205,IHALO,ISENGWA
SHINYANGA,37,SHINYANGA,372,ILOLA,37205,IHALO,SANGILWA
SHINYANGA,37,SHINYANGA,372,ILOLA,37205,IHALO,IJANIJA
SHINYANGA,37,SHINYANGA,372,ILOLA,37205,IHALO,IMALANGUZU
SHINYANGA,37,SHINYANGA,372,ILOLA,37205,IHALO,MWAMIGOZO
SHINYANGA,37,SHINYANGA,372,ILOLA,37205,IHALO,NG'WAMBASA
SHINYANGA,37,SHINYANGA,372,LYABUKANDE,37206,KIMANDAGULI,BUSANGU
SHINYANGA,37,SHINYANGA,372,LYABUKANDE,37206,KIMANDAGULI,SHAMWANDU
SHINYANGA,37,SHINYANGA,372,LYABUKANDE,37206,KIMANDAGULI,NYANG’WALE
SHINYANGA,37,SHINYANGA,372,LYABUKANDE,37206,KIMANDAGULI,NG’WAGHINDU
SHINYANGA,37,SHINYANGA,372,LYABUKANDE,37206,KIMANDAGULI,KIMANDAGULI
SHINYANGA,37,SHINYANGA,372,LYABUKANDE,37206,KIMANDAGULI,MWAKWEJI
SHINYANGA,37,SHINYANGA,372,LYABUKANDE,37206,KIMANDAGULI,IGWATA
SHINYANGA,37,SHINYANGA,372,LYABUKANDE,37206,KIMANDAGULI,NG’WAZAGAZAGA
SHINYANGA,37,SHINYANGA,372,LYABUKANDE,37206,KIMANDAGULI,MWABAYANDA
SHINYANGA,37,SHINYANGA,372,LYABUKANDE,37206,KIMANDAGULI,BUNZWAGI
SHINYANGA,37,SHINYANGA,372,LYABUKANDE,37206,MAPINGILI,MAPINGILI
SHINYANGA,37,SHINYANGA,372,LYABUKANDE,37206,MAPINGILI,KISESA
SHINYANGA,37,SHINYANGA,372,LYABUKANDE,37206,MAPINGILI,MWAMBITI
SHINYANGA,37,SHINYANGA,372,LYABUKANDE,37206,MAPINGILI,MWAKWEJI 'B'
SHINYANGA,37,SHINYANGA,372,LYABUKANDE,37206,MAPINGILI,IGUNGA
SHINYANGA,37,SHINYANGA,372,LYABUKANDE,37206,MAPINGILI,MAJENGO
SHINYANGA,37,SHINYANGA,372,LYABUKANDE,37206,MAPINGILI,MAPOGOLO
SHINYANGA,37,SHINYANGA,372,LYABUKANDE,37206,MWASHAGI,MWASHAGI
SHINYANGA,37,SHINYANGA,372,LYABUKANDE,37206,MWASHAGI,MABATINI
SHINYANGA,37,SHINYANGA,372,LYABUKANDE,37206,MWASHAGI,MWANTEMENYA
SHINYANGA,37,SHINYANGA,372,LYABUKANDE,37206,MWASHAGI,NG'WANHILA
SHINYANGA,37,SHINYANGA,372,LYABUKANDE,37206,MWASHAGI,MWANULA
SHINYANGA,37,SHINYANGA,372,LYABUKANDE,37206,LYABUKANDE,LYABUKANDE
SHINYANGA,37,SHINYANGA,372,LYABUKANDE,37206,LYABUKANDE,NG’WAZAGAZAGA
SHINYANGA,37,SHINYANGA,372,LYABUKANDE,37206,LYABUKANDE,AMANI
SHINYANGA,37,SHINYANGA,372,LYABUKANDE,37206,LYABUKANDE,MWABALUHI
SHINYANGA,37,SHINYANGA,372,LYABUKANDE,37206,LYABUKANDE,MAJENGO
SHINYANGA,37,SHINYANGA,372,LYABUKANDE,37206,LYABUKANDE,MISUNGWI
SHINYANGA,37,SHINYANGA,372,LYABUKANDE,37206,LYABUKANDE,MAGOBEKO
SHINYANGA,37,SHINYANGA,372,LYABUKANDE,37206,LYABUKANDE,UPENDO
SHINYANGA,37,SHINYANGA,372,LYABUKANDE,37206,LYABUKANDE,NYASUBI
SHINYANGA,37,SHINYANGA,372,LYABUKANDE,37206,MWAMAKALA,MWAMAKALA
SHINYANGA,37,SHINYANGA,372,LYABUKANDE,37206,MWAMAKALA,MWANGUKULU
SHINYANGA,37,SHINYANGA,372,LYABUKANDE,37206,MWAMAKALA,MKWAJUNI
SHINYANGA,37,SHINYANGA,372,LYABUKANDE,37206,MWAMAKALA,MWABALUHI
SHINYANGA,37,SHINYANGA,372,LYABUKANDE,37206,MWAMAKALA,IGALUKILO
SHINYANGA,37,SHINYANGA,372,LYABUKANDE,37206,MWAMAKALA,MWABALUHI B
SHINYANGA,37,SHINYANGA,372,LYABUKANDE,37206,LYAGITI,LYAGITI
SHINYANGA,37,SHINYANGA,372,LYABUKANDE,37206,LYAGITI,MWABALUHI
SHINYANGA,37,SHINYANGA,372,LYABUKANDE,37206,LYAGITI,ITABALYAMBOKU
SHINYANGA,37,SHINYANGA,372,LYABUKANDE,37206,LYAGITI,IHUSHI
SHINYANGA,37,SHINYANGA,372,LYABUKANDE,37206,BUZINZA,BUZINZA
SHINYANGA,37,SHINYANGA,372,LYABUKANDE,37206,BUZINZA,NG’WANANGI
SHINYANGA,37,SHINYANGA,372,LYABUKANDE,37206,BUZINZA,BUTULWACHUMA
SHINYANGA,37,SHINYANGA,372,LYABUKANDE,37206,BUZINZA,NDALA
SHINYANGA,37,SHINYANGA,372,LYABUKANDE,37206,BUZINZA,MTAJUKA
SHINYANGA,37,SHINYANGA,372,LYABUKANDE,37206,BUZINZA,MWAMAKUNE
SHINYANGA,37,SHINYANGA,372,ISELAMAGAZI,37207,MWAMAKARANGA,MPEMBA
SHINYANGA,37,SHINYANGA,372,ISELAMAGAZI,37207,MWAMAKARANGA,JIKUNGU
SHINYANGA,37,SHINYANGA,372,ISELAMAGAZI,37207,MWAMAKARANGA,KAJIMA
SHINYANGA,37,SHINYANGA,372,ISELAMAGAZI,37207,MWAMAKARANGA,MWAMAGUKU
SHINYANGA,37,SHINYANGA,372,ISELAMAGAZI,37207,MWAMAKARANGA,NYAMHUNGU
SHINYANGA,37,SHINYANGA,372,ISELAMAGAZI,37207,MWAMAKARANGA,MWAMAKARANGA
SHINYANGA,37,SHINYANGA,372,ISELAMAGAZI,37207,MWAMAKARANGA,MWANGINGINGI
SHINYANGA,37,SHINYANGA,372,ISELAMAGAZI,37207,MWAMAKARANGA,DAKAMA
SHINYANGA,37,SHINYANGA,372,ISELAMAGAZI,37207,MWAMAKARANGA,MWAGILI
SHINYANGA,37,SHINYANGA,372,ISELAMAGAZI,37207,MWAMAKARANGA,MAJENGO MAPYA
SHINYANGA,37,SHINYANGA,372,ISELAMAGAZI,37207,MWAMAKARANGA,MLIMANI
SHINYANGA,37,SHINYANGA,372,ISELAMAGAZI,37207,MWAMAKARANGA,MABATINI
SHINYANGA,37,SHINYANGA,372,ISELAMAGAZI,37207,NG’HOMANGO,IBUMBA
SHINYANGA,37,SHINYANGA,372,ISELAMAGAZI,37207,NG’HOMANGO,ISILYAZA
SHINYANGA,37,SHINYANGA,372,ISELAMAGAZI,37207,NG’HOMANGO,NG’WANHUNDYA
SHINYANGA,37,SHINYANGA,372,ISELAMAGAZI,37207,NG’HOMANGO,WIMATE
SHINYANGA,37,SHINYANGA,372,ISELAMAGAZI,37207,NG’HOMANGO,MWASELEMA
SHINYANGA,37,SHINYANGA,372,ISELAMAGAZI,37207,NG’HOMANGO,IBATAHILU
SHINYANGA,37,SHINYANGA,372,ISELAMAGAZI,37207,NG’HOMANGO,MULEBA
SHINYANGA,37,SHINYANGA,372,ISELAMAGAZI,37207,NG’HOMANGO,SONGAMBELE
SHINYANGA,37,SHINYANGA,372,ISELAMAGAZI,37207,NG’HOMANGO,MWAGIMAGI
SHINYANGA,37,SHINYANGA,372,ISELAMAGAZI,37207,NG’HOMANGO,ILEKWAMAPULI
SHINYANGA,37,SHINYANGA,372,ISELAMAGAZI,37207,ISELAMAGAZI,ISELAMAGAZI
SHINYANGA,37,SHINYANGA,372,ISELAMAGAZI,37207,ISELAMAGAZI,LIMHUNDU
SHINYANGA,37,SHINYANGA,372,ISELAMAGAZI,37207,ISELAMAGAZI,BUSOMBO
SHINYANGA,37,SHINYANGA,372,ISELAMAGAZI,37207,ISELAMAGAZI,BUSAMUKE
SHINYANGA,37,SHINYANGA,372,ISELAMAGAZI,37207,ISELAMAGAZI,MAJENGO
SHINYANGA,37,SHINYANGA,372,ISELAMAGAZI,37207,ISELAMAGAZI,MWASELE
SHINYANGA,37,SHINYANGA,372,ISELAMAGAZI,37207,ISELAMAGAZI,BUDUSHI
SHINYANGA,37,SHINYANGA,372,ISELAMAGAZI,37207,ISELAMAGAZI,BUNUNGU
SHINYANGA,37,SHINYANGA,372,ISELAMAGAZI,37207,ISELAMAGAZI,KADATA
SHINYANGA,37,SHINYANGA,372,ISELAMAGAZI,37207,ISELAMAGAZI,KANENGELO
SHINYANGA,37,SHINYANGA,372,ISELAMAGAZI,37207,ISELAMAGAZI,IPUNZILO
SHINYANGA,37,SHINYANGA,372,ISELAMAGAZI,37207,ISELAMAGAZI,NGUVU KAZI
SHINYANGA,37,SHINYANGA,372,ISELAMAGAZI,37207,ISELAMAGAZI,MWASHILI
SHINYANGA,37,SHINYANGA,372,ISELAMAGAZI,37207,ISELAMAGAZI,WILAYANI
SHINYANGA,37,SHINYANGA,372,ISELAMAGAZI,37207,ISELAMAGAZI,UZUNGUNI
SHINYANGA,37,SHINYANGA,372,ISELAMAGAZI,37207,ISELAMAGAZI,MAJENGO MAPYA
SHINYANGA,37,SHINYANGA,372,ISELAMAGAZI,37207,ISELAMAGAZI,ISELAMAGAZI B
SHINYANGA,37,SHINYANGA,372,ISELAMAGAZI,37207,IBUBU,NATA
SHINYANGA,37,SHINYANGA,372,ISELAMAGAZI,37207,IBUBU,NHENDEGESE
SHINYANGA,37,SHINYANGA,372,ISELAMAGAZI,37207,IBUBU,SHAGIHILU
SHINYANGA,37,SHINYANGA,372,ISELAMAGAZI,37207,IBUBU,BUGOLOLA
SHINYANGA,37,SHINYANGA,372,ISELAMAGAZI,37207,IBUBU,SAMUYE
SHINYANGA,37,SHINYANGA,372,ISELAMAGAZI,37207,IBUBU,BUKANGILIJA
SHINYANGA,37,SHINYANGA,372,ISELAMAGAZI,37207,IBUBU,MWABAGOLE
SHINYANGA,37,SHINYANGA,372,ISELAMAGAZI,37207,ICHONGO,ISELAMAGAZI
SHINYANGA,37,SHINYANGA,372,ISELAMAGAZI,37207,ICHONGO,IGANZA
SHINYANGA,37,SHINYANGA,372,ISELAMAGAZI,37207,ICHONGO,MWAMBULU
SHINYANGA,37,SHINYANGA,372,ISELAMAGAZI,37207,ICHONGO,MWAPU
SHINYANGA,37,SHINYANGA,372,ISELAMAGAZI,37207,ICHONGO,MWAMALA
SHINYANGA,37,SHINYANGA,372,ISELAMAGAZI,37207,ICHONGO,AZIMIO
SHINYANGA,37,SHINYANGA,372,ISELAMAGAZI,37207,ICHONGO,MWONGOZO
SHINYANGA,37,SHINYANGA,372,ISELAMAGAZI,37207,MWABUNDALA,KAKOLA
SHINYANGA,37,SHINYANGA,372,ISELAMAGAZI,37207,MWABUNDALA,CCM
SHINYANGA,37,SHINYANGA,372,ISELAMAGAZI,37207,MWABUNDALA,BUSAMABU
SHINYANGA,37,SHINYANGA,372,ISELAMAGAZI,37207,MWABUNDALA,MIBAPA
SHINYANGA,37,SHINYANGA,372,ISELAMAGAZI,37207,MWABUNDALA,BULIMA
SHINYANGA,37,SHINYANGA,372,ISELAMAGAZI,37207,MWABUNDALA,LUNENGE
SHINYANGA,37,SHINYANGA,372,ISELAMAGAZI,37207,MWABUNDALA,NHENDEGESE
SHINYANGA,37,SHINYANGA,372,ISELAMAGAZI,37207,MWABUNDALA,MWAMALA
SHINYANGA,37,SHINYANGA,372,PANDAGICHIZA,37208,SHILABELA,BUKOLOJI
SHINYANGA,37,SHINYANGA,372,PANDAGICHIZA,37208,SHILABELA,MKWAJUNI
SHINYANGA,37,SHINYANGA,372,PANDAGICHIZA,37208,SHILABELA,MWAPUNGU
SHINYANGA,37,SHINYANGA,372,PANDAGICHIZA,37208,SHILABELA,SHILABELA
SHINYANGA,37,SHINYANGA,372,PANDAGICHIZA,37208,SHILABELA,NHENDEGESE
SHINYANGA,37,SHINYANGA,372,PANDAGICHIZA,37208,SHILABELA,BEDA
SHINYANGA,37,SHINYANGA,372,PANDAGICHIZA,37208,SHILABELA,MAPINDUZI
SHINYANGA,37,SHINYANGA,372,PANDAGICHIZA,37208,NG'WAGWABYA,NG'WAGWABYA
SHINYANGA,37,SHINYANGA,372,PANDAGICHIZA,37208,NG'WAGWABYA,MASAGALA
SHINYANGA,37,SHINYANGA,372,PANDAGICHIZA,37208,NG'WAGWABYA,MWALUGULU
SHINYANGA,37,SHINYANGA,372,PANDAGICHIZA,37208,PANDAGICHIZA,PANDAGICHIZA
SHINYANGA,37,SHINYANGA,372,PANDAGICHIZA,37208,PANDAGICHIZA,MWAMAKOYE
SHINYANGA,37,SHINYANGA,372,PANDAGICHIZA,37208,PANDAGICHIZA,MWAZEZEMA
SHINYANGA,37,SHINYANGA,372,PANDAGICHIZA,37208,PANDAGICHIZA,MWAMABAGALU
SHINYANGA,37,SHINYANGA,372,PANDAGICHIZA,37208,PANDAGICHIZA,BUSULWA
SHINYANGA,37,SHINYANGA,372,PANDAGICHIZA,37208,PANDAGICHIZA,SALAWE
SHINYANGA,37,SHINYANGA,372,PANDAGICHIZA,37208,PANDAGICHIZA,MWABUNYANGA
SHINYANGA,37,SHINYANGA,372,PANDAGICHIZA,37208,SAYU,MIGONGWA
SHINYANGA,37,SHINYANGA,372,PANDAGICHIZA,37208,SAYU,MWADUI
SHINYANGA,37,SHINYANGA,372,PANDAGICHIZA,37208,SAYU,SAYU
SHINYANGA,37,SHINYANGA,372,PANDAGICHIZA,37208,SAYU,BADI
SHINYANGA,37,SHINYANGA,372,PANDAGICHIZA,37208,SAYU,MAHUSHI
SHINYANGA,37,SHINYANGA,372,PANDAGICHIZA,37208,SAYU,GONG'HOMA
SHINYANGA,37,SHINYANGA,372,PANDAGICHIZA,37208,SAYU,MAPOGOLO
SHINYANGA,37,SHINYANGA,372,PANDAGICHIZA,37208,SAYU,IGOMA
SHINYANGA,37,SHINYANGA,372,PANDAGICHIZA,37208,SAYU,BUSULE
SHINYANGA,37,SHINYANGA,372,PANDAGICHIZA,37208,SAYU,MABATINI
SHINYANGA,37,SHINYANGA,372,PANDAGICHIZA,37208,MWAMADILANHA,SELEMI
SHINYANGA,37,SHINYANGA,372,PANDAGICHIZA,37208,MWAMADILANHA,NGILI
SHINYANGA,37,SHINYANGA,372,PANDAGICHIZA,37208,MWAMADILANHA,MPUMBULA
SHINYANGA,37,SHINYANGA,372,PANDAGICHIZA,37208,MWAMADILANHA,MWAMADILANHA
SHINYANGA,37,SHINYANGA,372,PANDAGICHIZA,37208,MWAMADILANHA,MWAKWEJI
SHINYANGA,37,SHINYANGA,372,PANDAGICHIZA,37208,MWAMADILANHA,IPONYABULABI
SHINYANGA,37,SHINYANGA,372,USANDA,37209,NGAGANULWA,KASHANDA
SHINYANGA,37,SHINYANGA,372,USANDA,37209,NGAGANULWA,NGAGANULWA
SHINYANGA,37,SHINYANGA,372,USANDA,37209,NGAGANULWA,MALASA
SHINYANGA,37,SHINYANGA,372,USANDA,37209,NGAGANULWA,SAGABAYI
SHINYANGA,37,SHINYANGA,372,USANDA,37209,SINGITA,SINGITA
SHINYANGA,37,SHINYANGA,372,USANDA,37209,SINGITA,BUKAMBA
SHINYANGA,37,SHINYANGA,372,USANDA,37209,SINGITA,MWAMATA
SHINYANGA,37,SHINYANGA,372,USANDA,37209,SINGITA,NG’HWIHIZI
SHINYANGA,37,SHINYANGA,372,USANDA,37209,SINGITA,NZEGA
SHINYANGA,37,SHINYANGA,372,USANDA,37209,SINGITA,MWAKAKULU
SHINYANGA,37,SHINYANGA,372,USANDA,37209,SINGITA,MANYINYA
SHINYANGA,37,SHINYANGA,372,USANDA,37209,SINGITA,GUNGUI
SHINYANGA,37,SHINYANGA,372,USANDA,37209,SINGITA,MATANDA
SHINYANGA,37,SHINYANGA,372,USANDA,37209,SINGITA,MUNGE
SHINYANGA,37,SHINYANGA,372,USANDA,37209,MANYADA,KANYENYE
SHINYANGA,37,SHINYANGA,372,USANDA,37209,MANYADA,SAMBALI
SHINYANGA,37,SHINYANGA,372,USANDA,37209,MANYADA,BUSANA
SHINYANGA,37,SHINYANGA,372,USANDA,37209,MANYADA,BULIMA A
SHINYANGA,37,SHINYANGA,372,USANDA,37209,MANYADA,BULIMA B
SHINYANGA,37,SHINYANGA,372,USANDA,37209,MANYADA,MWAGALA
SHINYANGA,37,SHINYANGA,372,USANDA,37209,MANYADA,MWAMALA
SHINYANGA,37,SHINYANGA,372,USANDA,37209,SHABULUBA,SHAMABU
SHINYANGA,37,SHINYANGA,372,USANDA,37209,SHABULUBA,LINHULOLE
SHINYANGA,37,SHINYANGA,372,USANDA,37209,SHABULUBA,MAKENGELA
SHINYANGA,37,SHINYANGA,372,USANDA,37209,SHABULUBA,SHABULUBA
SHINYANGA,37,SHINYANGA,372,USANDA,37209,NZAGALUBA,BUNG’ANG’A
SHINYANGA,37,SHINYANGA,372,USANDA,37209,NZAGALUBA,ITYEJA
SHINYANGA,37,SHINYANGA,372,USANDA,37209,NZAGALUBA,ITAGA
SHINYANGA,37,SHINYANGA,372,USANDA,37209,NZAGALUBA,BUTWALE
SHINYANGA,37,SHINYANGA,372,USANDA,37209,NZAGALUBA,BUCHAMIKI
SHINYANGA,37,SHINYANGA,372,TINDE,37210,KITULI,KITULI
SHINYANGA,37,SHINYANGA,372,TINDE,37210,KITULI,IPANDA
SHINYANGA,37,SHINYANGA,372,TINDE,37210,KITULI,USIA
SHINYANGA,37,SHINYANGA,372,TINDE,37210,KITULI,NG’WASAMI
SHINYANGA,37,SHINYANGA,372,TINDE,37210,KITULI,IDUTA
SHINYANGA,37,SHINYANGA,372,TINDE,37210,KITULI,SENGEREMA
SHINYANGA,37,SHINYANGA,372,TINDE,37210,KITULI,KISUMVANI
SHINYANGA,37,SHINYANGA,372,TINDE,37210,NHUMBILI,NHUMBILI
SHINYANGA,37,SHINYANGA,372,TINDE,37210,NHUMBILI,NYALUBAZU
SHINYANGA,37,SHINYANGA,372,TINDE,37210,NHUMBILI,ILUNDELYAGWA
SHINYANGA,37,SHINYANGA,372,TINDE,37210,JOMU,JOMU
SHINYANGA,37,SHINYANGA,372,TINDE,37210,JOMU,SHABAYANDA
SHINYANGA,37,SHINYANGA,372,TINDE,37210,JOMU,DUMIDA
SHINYANGA,37,SHINYANGA,372,TINDE,37210,JOMU,USWAHILINI
SHINYANGA,37,SHINYANGA,372,TINDE,37210,JOMU,NG'UNGULA
SHINYANGA,37,SHINYANGA,372,TINDE,37210,JOMU,BUGETA
SHINYANGA,37,SHINYANGA,372,TINDE,37210,JOMU,MALENGE
SHINYANGA,37,SHINYANGA,372,TINDE,37210,NYAMBUI,IGOPELO
SHINYANGA,37,SHINYANGA,372,TINDE,37210,NYAMBUI,NYANZOLE
SHINYANGA,37,SHINYANGA,372,TINDE,37210,NYAMBUI,NYAMBUI
SHINYANGA,37,SHINYANGA,372,TINDE,37210,NYAMBUI,MWANDU
SHINYANGA,37,SHINYANGA,372,TINDE,37210,NYAMBUI,NGAKA
SHINYANGA,37,SHINYANGA,372,TINDE,37210,BUCHAMA,SAKU
SHINYANGA,37,SHINYANGA,372,TINDE,37210,BUCHAMA,IGOLOGOTO
SHINYANGA,37,SHINYANGA,372,TINDE,37210,BUCHAMA,BUCHAMA
SHINYANGA,37,SHINYANGA,372,TINDE,37210,BUCHAMA,MHULIDEDE
SHINYANGA,37,SHINYANGA,372,TINDE,37210,BUCHAMA,MWAMINO
SHINYANGA,37,SHINYANGA,372,TINDE,37210,BUCHAMA,MWANDU
SHINYANGA,37,SHINYANGA,372,TINDE,37210,NGOKOLO,NGOKOLO
SHINYANGA,37,SHINYANGA,372,TINDE,37210,NGOKOLO,MAHALANGATI
SHINYANGA,37,SHINYANGA,372,TINDE,37210,NGOKOLO,NG’HULUGUMBA
SHINYANGA,37,SHINYANGA,372,TINDE,37210,NGOKOLO,BUDUMILI
SHINYANGA,37,SHINYANGA,372,TINDE,37210,NGOKOLO,SHAGI
SHINYANGA,37,SHINYANGA,372,ITWANGI,37211,ITWANGI,WELA
SHINYANGA,37,SHINYANGA,372,ITWANGI,37211,ITWANGI,ISANJA
SHINYANGA,37,SHINYANGA,372,ITWANGI,37211,ITWANGI,IMENYA
SHINYANGA,37,SHINYANGA,372,ITWANGI,37211,ITWANGI,IGOMELO
SHINYANGA,37,SHINYANGA,372,ITWANGI,37211,ZOBOGO,ZOBOGO
SHINYANGA,37,SHINYANGA,372,ITWANGI,37211,ZOBOGO,BUCHAMA
SHINYANGA,37,SHINYANGA,372,ITWANGI,37211,ZOBOGO,MWANKUMBO
SHINYANGA,37,SHINYANGA,372,ITWANGI,37211,ZOBOGO,MASOLODI
SHINYANGA,37,SHINYANGA,372,ITWANGI,37211,BUTINI,MIYU
SHINYANGA,37,SHINYANGA,372,ITWANGI,37211,BUTINI,BUTINI
SHINYANGA,37,SHINYANGA,372,ITWANGI,37211,BUTINI,BOMANI
SHINYANGA,37,SHINYANGA,372,ITWANGI,37211,BUTINI,MWAKAKONGOLO
SHINYANGA,37,SHINYANGA,372,ITWANGI,37211,KIDANDA,MWAKASONG'HWE
SHINYANGA,37,SHINYANGA,372,ITWANGI,37211,KIDANDA,KIDANDA
SHINYANGA,37,SHINYANGA,372,ITWANGI,37211,KIDANDA,MAKUNGU
SHINYANGA,37,SHINYANGA,372,ITWANGI,37211,KIDANDA,LUGUNDYIGA
SHINYANGA,37,SHINYANGA,372,DIDIA,37212,MWAMALULU,MWAGUHI
SHINYANGA,37,SHINYANGA,372,DIDIA,37212,MWAMALULU,ILUNGU
SHINYANGA,37,SHINYANGA,372,DIDIA,37212,MWAMALULU,LIGITI
SHINYANGA,37,SHINYANGA,372,DIDIA,37212,MWAMALULU,ISAGENG’HE
SHINYANGA,37,SHINYANGA,372,DIDIA,37212,MWAMALULU,MWAMALULU
SHINYANGA,37,SHINYANGA,372,DIDIA,37212,MWAMALULU,MWADUI
SHINYANGA,37,SHINYANGA,372,DIDIA,37212,MWAMALULU,ITAGA
SHINYANGA,37,SHINYANGA,372,DIDIA,37212,CHEMBELI,NG’HUMBO
SHINYANGA,37,SHINYANGA,372,DIDIA,37212,CHEMBELI,BUNIGA
SHINYANGA,37,SHINYANGA,372,DIDIA,37212,CHEMBELI,CHEMBELI
SHINYANGA,37,SHINYANGA,372,DIDIA,37212,CHEMBELI,NZANZA
SHINYANGA,37,SHINYANGA,372,DIDIA,37212,CHEMBELI,ISUNGA
SHINYANGA,37,SHINYANGA,372,DIDIA,37212,CHEMBELI,BUTIMA
SHINYANGA,37,SHINYANGA,372,DIDIA,37212,CHEMBELI,INYANGA
SHINYANGA,37,SHINYANGA,372,DIDIA,37212,BUKUMBI,KABALE
SHINYANGA,37,SHINYANGA,372,DIDIA,37212,BUKUMBI,KABILU
SHINYANGA,37,SHINYANGA,372,DIDIA,37212,BUKUMBI,MAWINGU
SHINYANGA,37,SHINYANGA,372,DIDIA,37212,BUKUMBI,NG’WANGUHI
SHINYANGA,37,SHINYANGA,372,DIDIA,37212,BUKUMBI,BULAMBA
SHINYANGA,37,SHINYANGA,372,DIDIA,37212,BUKUMBI,BUKENGWA
SHINYANGA,37,SHINYANGA,372,DIDIA,37212,BUKUMBI,BUKUMBI
SHINYANGA,37,SHINYANGA,372,DIDIA,37212,DIDIA,KABANGA
SHINYANGA,37,SHINYANGA,372,DIDIA,37212,DIDIA,MADUKANI
SHINYANGA,37,SHINYANGA,372,DIDIA,37212,DIDIA,DANDUHU
SHINYANGA,37,SHINYANGA,372,DIDIA,37212,DIDIA,MAJENGO
SHINYANGA,37,SHINYANGA,372,DIDIA,37212,DIDIA,MJINI
SHINYANGA,37,SHINYANGA,372,DIDIA,37212,DIDIA,KABANGA B
SHINYANGA,37,SHINYANGA,372,DIDIA,37212,DIDIA,"MADUKANI 'B"""
SHINYANGA,37,SHINYANGA,372,DIDIA,37212,DIDIA,"DANDUHU 'B"""
SHINYANGA,37,SHINYANGA,372,DIDIA,37212,DIDIA,"MAJENGO ""B'"
SHINYANGA,37,SHINYANGA,372,DIDIA,37212,MWANONO,BUSWALILA
SHINYANGA,37,SHINYANGA,372,DIDIA,37212,MWANONO,SHAMITUNDU
SHINYANGA,37,SHINYANGA,372,DIDIA,37212,MWANONO,MWANONO
SHINYANGA,37,SHINYANGA,372,DIDIA,37212,MWANONO,BUSUBI
SHINYANGA,37,SHINYANGA,372,DIDIA,37212,MWANONO,NHIGWA
SHINYANGA,37,SHINYANGA,372,DIDIA,37212,MWANONO,MAJENGO
SHINYANGA,37,SHINYANGA,372,SOLWA,37213,MWANDUTU,MWANDUTU
SHINYANGA,37,SHINYANGA,372,SOLWA,37213,MWANDUTU,ILOLA
SHINYANGA,37,SHINYANGA,372,SOLWA,37213,MWANDUTU,BULABU
SHINYANGA,37,SHINYANGA,372,SOLWA,37213,MWANDUTU,MWAMBITI
SHINYANGA,37,SHINYANGA,372,SOLWA,37213,MANHEIGANA,MALUJA
SHINYANGA,37,SHINYANGA,372,SOLWA,37213,MANHEIGANA,MANHEIGANA
SHINYANGA,37,SHINYANGA,372,SOLWA,37213,MANHEIGANA,MWAKISHIMBA
SHINYANGA,37,SHINYANGA,372,SOLWA,37213,MWABUKI,MWABUKI
SHINYANGA,37,SHINYANGA,372,SOLWA,37213,MWABUKI,NG'WAMAGELE
SHINYANGA,37,SHINYANGA,372,SOLWA,37213,MWABUKI,ICHAKAYA
SHINYANGA,37,SHINYANGA,372,SOLWA,37213,MWABUKI,LYAMIKUNGU
SHINYANGA,37,SHINYANGA,372,SOLWA,37213,SOLWA,SOLWA
SHINYANGA,37,SHINYANGA,372,SOLWA,37213,SOLWA,MWABUKI
SHINYANGA,37,SHINYANGA,372,SOLWA,37213,SOLWA,MWACHILU
SHINYANGA,37,SHINYANGA,372,SOLWA,37213,SOLWA,NYASHIMBA
SHINYANGA,37,SHINYANGA,372,SOLWA,37213,SOLWA,SHAMALENDI
SHINYANGA,37,SHINYANGA,372,SOLWA,37213,MWISEME,MWABUHEKE
SHINYANGA,37,SHINYANGA,372,SOLWA,37213,MWISEME,MWISEME
SHINYANGA,37,SHINYANGA,372,SOLWA,37213,MWISEME,MWAGIMAGI
SHINYANGA,37,SHINYANGA,372,SOLWA,37213,MWISEME,KALOLA
SHINYANGA,37,SHINYANGA,372,SOLWA,37213,MWASEKAGI,BUHAMBA
SHINYANGA,37,SHINYANGA,372,SOLWA,37213,MWASEKAGI,MWASEKAGI
SHINYANGA,37,SHINYANGA,372,SOLWA,37213,MWASEKAGI,BULOLWAMBESHI
SHINYANGA,37,SHINYANGA,372,SOLWA,37213,MWASEKAGI,NTIMVE
SHINYANGA,37,SHINYANGA,372,SOLWA,37213,MWAKATOLA,MWAKATOLA
SHINYANGA,37,SHINYANGA,372,SOLWA,37213,MWAKATOLA,NYAMIJUNDU
SHINYANGA,37,SHINYANGA,372,SOLWA,37213,MWAKATOLA,TINDE
SHINYANGA,37,SHINYANGA,372,SALAWE,37214,SONGAMBELE,MHANGU
SHINYANGA,37,SHINYANGA,372,SALAWE,37214,SONGAMBELE,BEYA
SHINYANGA,37,SHINYANGA,372,SALAWE,37214,SONGAMBELE,BUGEDE
SHINYANGA,37,SHINYANGA,372,SALAWE,37214,SONGAMBELE,SALONGA
SHINYANGA,37,SHINYANGA,372,SALAWE,37214,SONGAMBELE,IKUNGWIGALI
SHINYANGA,37,SHINYANGA,372,SALAWE,37214,SONGAMBELE,NYASAMBA
SHINYANGA,37,SHINYANGA,372,SALAWE,37214,SONGAMBELE,KITULI
SHINYANGA,37,SHINYANGA,372,SALAWE,37214,SONGAMBELE,KADOTO
SHINYANGA,37,SHINYANGA,372,SALAWE,37214,SONGAMBELE,OLD MHANGU
SHINYANGA,37,SHINYANGA,372,SALAWE,37214,SONGAMBELE,MACHONGO
SHINYANGA,37,SHINYANGA,372,SALAWE,37214,AZIMIO,ITUJA
SHINYANGA,37,SHINYANGA,372,SALAWE,37214,AZIMIO,IKONONGO
SHINYANGA,37,SHINYANGA,372,SALAWE,37214,AZIMIO,IBELEBELE
SHINYANGA,37,SHINYANGA,372,SALAWE,37214,NZOZA,IPEMBABANHA
SHINYANGA,37,SHINYANGA,372,SALAWE,37214,NZOZA,KALUNDE
SHINYANGA,37,SHINYANGA,372,SALAWE,37214,NZOZA,KISESA
SHINYANGA,37,SHINYANGA,372,SALAWE,37214,NZOZA,NKOLOGOMWA
SHINYANGA,37,SHINYANGA,372,SALAWE,37214,NZOZA,MWAJIBINYINGI
SHINYANGA,37,SHINYANGA,372,SALAWE,37214,AMANI,KANO
SHINYANGA,37,SHINYANGA,372,SALAWE,37214,AMANI,UMOJA
SHINYANGA,37,SHINYANGA,372,SALAWE,37214,AMANI,MWAPINGA
SHINYANGA,37,SHINYANGA,372,SALAWE,37214,AMANI,ITILIMA
SHINYANGA,37,SHINYANGA,372,SALAWE,37214,AMANI,MLIMANI
SHINYANGA,37,SHINYANGA,372,SALAWE,37214,AMANI,IGWATA
SHINYANGA,37,SHINYANGA,372,SALAWE,37214,AMANI,IBILA
SHINYANGA,37,SHINYANGA,372,SALAWE,37214,BUDUHE,MAYUNGE
SHINYANGA,37,SHINYANGA,372,SALAWE,37214,BUDUHE,ISENGWA
SHINYANGA,37,SHINYANGA,372,SALAWE,37214,BUDUHE,ILOGANZALA
SHINYANGA,37,SHINYANGA,372,SALAWE,37214,BUDUHE,WISUNDE
SHINYANGA,37,SHINYANGA,372,SALAWE,37214,BUDUHE,NYAMIKONZE
SHINYANGA,37,SHINYANGA,372,SALAWE,37214,BUDUHE,BUDUHE
SHINYANGA,37,SHINYANGA,372,MWAKITOLYO,37215,MWAKITOLYO,MWAKITOLYO A
SHINYANGA,37,SHINYANGA,372,MWAKITOLYO,37215,MWAKITOLYO,NYASUBI
SHINYANGA,37,SHINYANGA,372,MWAKITOLYO,37215,MWAKITOLYO,ILOGANZALA
SHINYANGA,37,SHINYANGA,372,MWAKITOLYO,37215,MWAKITOLYO,MAHIGA
SHINYANGA,37,SHINYANGA,372,MWAKITOLYO,37215,MWAKITOLYO,NGONG’HO
SHINYANGA,37,SHINYANGA,372,MWAKITOLYO,37215,MWAKITOLYO,KITALAMA
SHINYANGA,37,SHINYANGA,372,MWAKITOLYO,37215,MWAKITOLYO,MWAKITOLYO NA. 5.
SHINYANGA,37,SHINYANGA,372,MWAKITOLYO,37215,MWASENGE,IDOSELO
SHINYANGA,37,SHINYANGA,372,MWAKITOLYO,37215,MWASENGE,NG’WANZOBE
SHINYANGA,37,SHINYANGA,372,MWAKITOLYO,37215,MWASENGE,IBELANTWE
SHINYANGA,37,SHINYANGA,372,MWAKITOLYO,37215,MWASENGE,BUHOLWA
SHINYANGA,37,SHINYANGA,372,MWAKITOLYO,37215,MWASENGE,MWASENGE
SHINYANGA,37,SHINYANGA,372,MWAKITOLYO,37215,MWASENGE,IBULA
SHINYANGA,37,SHINYANGA,372,MWAKITOLYO,37215,MAWEMILU,KIVIGU
SHINYANGA,37,SHINYANGA,372,MWAKITOLYO,37215,MAWEMILU,ISHINDIKA
SHINYANGA,37,SHINYANGA,372,MWAKITOLYO,37215,MAWEMILU,MWAMOLA
SHINYANGA,37,SHINYANGA,372,MWAKITOLYO,37215,MAWEMILU,KASENGE
SHINYANGA,37,SHINYANGA,372,MWAKITOLYO,37215,MAWEMILU,MWABAKWILIMA
SHINYANGA,37,SHINYANGA,372,MWAKITOLYO,37215,MAWEMILU,KISESA
SHINYANGA,37,SHINYANGA,372,MWAKITOLYO,37215,MAWEMILU,AMANI
SHINYANGA,37,SHINYANGA,372,MWAKITOLYO,37215,MAWEMILU,MAWEMILU
SHINYANGA,37,SHINYANGA,372,MWAKITOLYO,37215,MAWEMILU,MAHALANGATI
SHINYANGA,37,SHINYANGA,372,MWAKITOLYO,37215,NYANG’OMBE,SHILABELA
SHINYANGA,37,SHINYANGA,372,MWAKITOLYO,37215,NYANG’OMBE,NYAN’GOMBE
SHINYANGA,37,SHINYANGA,372,MWAKITOLYO,37215,NYANG’OMBE,MWABASABI
SHINYANGA,37,SHINYANGA,372,MWAKITOLYO,37215,NYANG’OMBE,SENGEREMA
SHINYANGA,37,SHINYANGA,372,MWAKITOLYO,37215,MAHEMBE,SANJO
SHINYANGA,37,SHINYANGA,372,MWAKITOLYO,37215,MAHEMBE,ITOGWANG’HOLO
SHINYANGA,37,SHINYANGA,372,MWAKITOLYO,37215,MAHEMBE,MWAMASHIKI
SHINYANGA,37,SHINYANGA,372,MWAKITOLYO,37215,MAHEMBE,ILUHYABALIMI
SHINYANGA,37,SHINYANGA,372,MWAKITOLYO,37215,MAHEMBE,MWABOMBA
SHINYANGA,37,SHINYANGA,372,MWAKITOLYO,37215,MAHEMBE,MAPINDUZI
SHINYANGA,37,SHINYANGA,372,MWAKITOLYO,37215,NYALIGONGO,NYALIGONGO
SHINYANGA,37,SHINYANGA,372,MWAKITOLYO,37215,NYALIGONGO,MANOGE
SHINYANGA,37,SHINYANGA,372,MWAKITOLYO,37215,NYALIGONGO,MWATUNGU
SHINYANGA,37,SHINYANGA,372,MWAKITOLYO,37215,NYALIGONGO,MWABASABI
SHINYANGA,37,SHINYANGA,372,MWAKITOLYO,37215,NYALIGONGO,MWAKITOLYO NA. 2
SHINYANGA,37,SHINYANGA,372,PUNI,37219,BUYUBI,ITWANGI
SHINYANGA,37,SHINYANGA,372,PUNI,37219,BUYUBI,SHOLOMELA
SHINYANGA,37,SHINYANGA,372,PUNI,37219,BUYUBI,BUYUBI
SHINYANGA,37,SHINYANGA,372,PUNI,37219,BUYUBI,SHABAHUMBU
SHINYANGA,37,SHINYANGA,372,PUNI,37219,BUYUBI,DANDUHU
SHINYANGA,37,SHINYANGA,372,PUNI,37219,BUYUBI,NASA
SHINYANGA,37,SHINYANGA,372,PUNI,37219,PUNI,DODOMA
SHINYANGA,37,SHINYANGA,372,PUNI,37219,PUNI,KIGOMA
SHINYANGA,37,SHINYANGA,372,PUNI,37219,PUNI,WIBELELWA
SHINYANGA,37,SHINYANGA,372,PUNI,37219,PUNI,ISENENGEJA
SHINYANGA,37,SHINYANGA,372,PUNI,37219,PUNI,ICHIRWA
SHINYANGA,37,SHINYANGA,372,PUNI,37219,PUNI,BUGANDA
SHINYANGA,37,SHINYANGA,372,PUNI,37219,PUNI,ZAIRE
SHINYANGA,37,SHINYANGA,372,PUNI,37219,PUNI,ISAMBALILO
SHINYANGA,37,SHINYANGA,372,PUNI,37219,PUNI,NZANZA
SHINYANGA,37,SHINYANGA,372,PUNI,37219,PUNI,KIFUKILO
SHINYANGA,37,SHINYANGA,372,PUNI,37219,NYASHIMBI,BUGENG’HE
SHINYANGA,37,SHINYANGA,372,PUNI,37219,NYASHIMBI,NYASHIMBI
SHINYANGA,37,SHINYANGA,372,PUNI,37219,NYASHIMBI,IMILA
SHINYANGA,37,SHINYANGA,372,PUNI,37219,NYASHIMBI,KIGWANG’HONA
SHINYANGA,37,SHINYANGA,372,PUNI,37219,NYASHIMBI,MWANGOYE
SHINYANGA,37,SHINYANGA,372,PUNI,37219,NYASHIMBI,BUHOLA
SHINYANGA,37,SHINYANGA,372,PUNI,37219,NYASHIMBI,ISHINDIKA
SHINYANGA,37,SHINYANGA,372,NYIDA,37220,NYIDA,KATUNDA
SHINYANGA,37,SHINYANGA,372,NYIDA,37220,NYIDA,NYIDA
SHINYANGA,37,SHINYANGA,372,NYIDA,37220,NYIDA,NDALA
SHINYANGA,37,SHINYANGA,372,NYIDA,37220,NYIDA,NYENZE
SHINYANGA,37,SHINYANGA,372,NYIDA,37220,NYIDA,BUGALA
SHINYANGA,37,SHINYANGA,372,NYIDA,37220,NYIDA,NKWENI
SHINYANGA,37,SHINYANGA,372,NYIDA,37220,NYIDA,WIDUBE
SHINYANGA,37,SHINYANGA,372,NYIDA,37220,NYIDA,BUNONGA
SHINYANGA,37,SHINYANGA,372,NYIDA,37220,NYIDA,MWAMIDU
SHINYANGA,37,SHINYANGA,372,NYIDA,37220,NYIDA,NSEKELA
SHINYANGA,37,SHINYANGA,372,NYIDA,37220,NDUGUTI,NDUGUTI
SHINYANGA,37,SHINYANGA,372,NYIDA,37220,NDUGUTI,IPULI
SHINYANGA,37,SHINYANGA,372,NYIDA,37220,NDUGUTI,KABILA
SHINYANGA,37,SHINYANGA,372,NYIDA,37220,NDUGUTI,LYANDU
SHINYANGA,37,SHINYANGA,372,NYIDA,37220,NDUGUTI,KITONGO
SHINYANGA,37,SHINYANGA,372,NYIDA,37220,NDUGUTI,IGALALI
SHINYANGA,37,SHINYANGA,372,NYIDA,37220,NDUGUTI,BULAYA
SHINYANGA,37,SHINYANGA,372,NYIDA,37220,IGEMBYA,IGEMBYA
SHINYANGA,37,SHINYANGA,372,NYIDA,37220,IGEMBYA,ITUBANILO
SHINYANGA,37,SHINYANGA,372,NYIDA,37220,IGEMBYA,IYOGELO
SHINYANGA,37,SHINYANGA,372,NSALALA,37221,NSALALA,NSALALA
SHINYANGA,37,SHINYANGA,372,NSALALA,37221,NSALALA,ILIMBASI
SHINYANGA,37,SHINYANGA,372,NSALALA,37221,NSALALA,NG’WANZELWA
SHINYANGA,37,SHINYANGA,372,NSALALA,37221,NSALALA,BUPONDYA
SHINYANGA,37,SHINYANGA,372,NSALALA,37221,NSALALA,NZULA
SHINYANGA,37,SHINYANGA,372,NSALALA,37221,NSALALA,NSALALA 'B'
SHINYANGA,37,SHINYANGA,372,NSALALA,37221,NSALALA,NELA
SHINYANGA,37,SHINYANGA,372,NSALALA,37221,MWAMKANGA,MWAMKANGA
SHINYANGA,37,SHINYANGA,372,NSALALA,37221,MWAMKANGA,KISUGE
SHINYANGA,37,SHINYANGA,372,NSALALA,37221,MWAMKANGA,LUZUKO
SHINYANGA,37,SHINYANGA,372,NSALALA,37221,MWAMKANGA,IDALA
SHINYANGA,37,SHINYANGA,372,NSALALA,37221,MWAMKANGA,MWACHEYO
SHINYANGA,37,SHINYANGA,372,NSALALA,37221,MWAMKANGA,KAGONGWA ' B'
SHINYANGA,37,SHINYANGA,372,NSALALA,37221,MWAMKANGA,ITOGWANH'OLO
SHINYANGA,37,SHINYANGA,372,NSALALA,37221,MWAMKANGA,BUGOMBA
SHINYANGA,37,SHINYANGA,372,NSALALA,37221,MWAMKANGA,KAHAMA
SHINYANGA,37,SHINYANGA,372,NSALALA,37221,MWAMKANGA,KAGONGWA
SHINYANGA,37,SHINYANGA,372,NSALALA,37221,WELEZO,WELEZO
SHINYANGA,37,SHINYANGA,372,NSALALA,37221,WELEZO,NATA
SHINYANGA,37,SHINYANGA,372,NSALALA,37221,WELEZO,ITOGWANG’HOLO
SHINYANGA,37,SHINYANGA,372,NSALALA,37221,WELEZO,NELA
SHINYANGA,37,SHINYANGA,372,NSALALA,37221,WELEZO,TULIENI
SHINYANGA,37,SHINYANGA,372,NSALALA,37221,NSHISHINULU,BUBINZILA
SHINYANGA,37,SHINYANGA,372,NSALALA,37221,NSHISHINULU,BUJINGWA
SHINYANGA,37,SHINYANGA,372,NSALALA,37221,NSHISHINULU,IGUMANGOBO
SHINYANGA,37,SHINYANGA,372,NSALALA,37221,NSHISHINULU,ILANDALA
SHINYANGA,37,SHINYANGA,372,NSALALA,37221,NSHISHINULU,BUGWATUJI
SHINYANGA,37,SHINYANGA,372,NSALALA,37221,NSHISHINULU,SHIGANGAMA
SHINYANGA,37,SHINYANGA,372,NSALALA,37221,NSHISHINULU,BUBINZILA 'B'
SHINYANGA,37,SHINYANGA,372,NSALALA,37221,NSHISHINULU,MWAMANYAMA
SHINYANGA,37,SHINYANGA,372,BUKENE,37222,SUMBIGU,SHAPELA
SHINYANGA,37,SHINYANGA,372,BUKENE,37222,SUMBIGU,MHUGIYALUGULU
SHINYANGA,37,SHINYANGA,372,BUKENE,37222,SUMBIGU,NDUGUTI
SHINYANGA,37,SHINYANGA,372,BUKENE,37222,SUMBIGU,MAGINHILO
SHINYANGA,37,SHINYANGA,372,BUKENE,37222,SUMBIGU,MHUGIYASINGISA
SHINYANGA,37,SHINYANGA,372,BUKENE,37222,SUMBIGU,SUMBIGU
SHINYANGA,37,SHINYANGA,372,BUKENE,37222,SUMBIGU,BUDULUNHU
SHINYANGA,37,SHINYANGA,372,BUKENE,37222,SUMBIGU,NTOBO
SHINYANGA,37,SHINYANGA,372,BUKENE,37222,SUMBIGU,BUMUNYU
SHINYANGA,37,SHINYANGA,372,BUKENE,37222,BUKENE,BUKENE
SHINYANGA,37,SHINYANGA,372,BUKENE,37222,BUKENE,MWAMAKUMI
SHINYANGA,37,SHINYANGA,372,BUKENE,37222,BUKENE,SHANGW’ANDU
SHINYANGA,37,SHINYANGA,372,BUKENE,37222,BUKENE,SHANG’HOMBA
SHINYANGA,37,SHINYANGA,372,BUKENE,37222,BUKENE,SHIGUNGUMULI
SHINYANGA,37,SHINYANGA,372,BUKENE,37222,BUKENE,BUSIYAMHYA
SHINYANGA,37,SHINYANGA,372,BUKENE,37222,BUKENE,NYASHIMBA
SHINYANGA,37,SHINYANGA,372,BUKENE,37222,MASEKELO,MWAMKINDI
SHINYANGA,37,SHINYANGA,372,BUKENE,37222,MASEKELO,MASUNGUTI
SHINYANGA,37,SHINYANGA,372,BUKENE,37222,MASEKELO,NTUNDU
SHINYANGA,37,SHINYANGA,372,BUKENE,37222,MASEKELO,WILIGWAMABU
SHINYANGA,37,SHINYANGA,372,BUKENE,37222,MASEKELO,IGOBEKO
SHINYANGA,37,SHINYANGA,372,BUKENE,37222,MASEKELO,INONGU
SHINYANGA,37,SHINYANGA,372,BUKENE,37222,MASEKELO,NG’HUNDI
SHINYANGA,37,SHINYANGA,372,BUKENE,37222,MASEKELO,BUKULAGUJI
SHINYANGA,37,SHINYANGA,372,BUKENE,37222,KAZUNI,KAZUNI
SHINYANGA,37,SHINYANGA,372,BUKENE,37222,KAZUNI,KASELYA
SHINYANGA,37,SHINYANGA,372,BUKENE,37222,KAZUNI,ITONJAMOTO
SHINYANGA,37,SHINYANGA,372,BUKENE,37222,KAZUNI,KASANGA
SHINYANGA,37,SHINYANGA,372,BUKENE,37222,KAZUNI,MANAI
SHINYANGA,37,SHINYANGA,372,BUKENE,37222,KAZUNI,GUNGUI
SHINYANGA,37,SHINYANGA,372,BUKENE,37222,KAZUNI,IYOGELO
SHINYANGA,37,SHINYANGA,372,BUKENE,37222,KAZUNI,BUSIYAMHYA
SHINYANGA,37,SHINYANGA,372,MASENGWA,37223,IKONDA B,MAHUSHI
SHINYANGA,37,SHINYANGA,372,MASENGWA,37223,IKONDA B,MINONGE
SHINYANGA,37,SHINYANGA,372,MASENGWA,37223,IKONDA B,KASUBUYA
SHINYANGA,37,SHINYANGA,372,MASENGWA,37223,IKONDA B,GWASHI
SHINYANGA,37,SHINYANGA,372,MASENGWA,37223,IKONDA B,MIZANZA
SHINYANGA,37,SHINYANGA,372,MASENGWA,37223,IKONDA B,IKONDA
SHINYANGA,37,SHINYANGA,372,MASENGWA,37223,ILOBASHI,ILOBASHI
SHINYANGA,37,SHINYANGA,372,MASENGWA,37223,ILOBASHI,IBUSHI
SHINYANGA,37,SHINYANGA,372,MASENGWA,37223,ILOBASHI,ILEBELO
SHINYANGA,37,SHINYANGA,372,MASENGWA,37223,ILOBASHI,MWAJILYENGE
SHINYANGA,37,SHINYANGA,372,MASENGWA,37223,ILOBASHI,IBUSHI 'B'
SHINYANGA,37,SHINYANGA,372,MASENGWA,37223,ILOBASHI,USWAHILINI
SHINYANGA,37,SHINYANGA,372,MASENGWA,37223,MASENGWA,KILOLELI
SHINYANGA,37,SHINYANGA,372,MASENGWA,37223,MASENGWA,MAHAMENI
SHINYANGA,37,SHINYANGA,372,MASENGWA,37223,MASENGWA,ISUNGA
SHINYANGA,37,SHINYANGA,372,MASENGWA,37223,MASENGWA,MWAJILYA
SHINYANGA,37,SHINYANGA,372,MASENGWA,37223,MASENGWA,DUNDUSI
SHINYANGA,37,SHINYANGA,372,MASENGWA,37223,MASENGWA,NYATI
SHINYANGA,37,SHINYANGA,372,MASENGWA,37223,MASENGWA,ILALUCHA
SHINYANGA,37,SHINYANGA,372,MASENGWA,37223,BUBALE,BUBALE
SHINYANGA,37,SHINYANGA,372,MASENGWA,37223,BUBALE,MWAKABELELE
SHINYANGA,37,SHINYANGA,372,MASENGWA,37223,BUBALE,INYASHI
SHINYANGA,37,SHINYANGA,372,MASENGWA,37223,BUBALE,IBUSHI
SHINYANGA,37,SHINYANGA,372,MASENGWA,37223,BUBALE,MWAMNYEPE
SHINYANGA,37,SHINYANGA,372,MASENGWA,37223,BUBALE,MWASOSELA
SHINYANGA,37,SHINYANGA,372,MASENGWA,37223,BUBALE,LYASHI
SHINYANGA,37,SHINYANGA,372,MASENGWA,37223,BUBALE,ILIMBA
SHINYANGA,37,SHINYANGA,372,MASENGWA,37223,BUBALE,KWIMBA
SHINYANGA,37,SHINYANGA,372,MASENGWA,37223,BUBALE,SALAWE
SHINYANGA,37,SHINYANGA,372,MWALUKWA,37224,MWALUKWA,IPOGOLO
SHINYANGA,37,SHINYANGA,372,MWALUKWA,37224,MWALUKWA,MWALUKWA
SHINYANGA,37,SHINYANGA,372,MWALUKWA,37224,MWALUKWA,NG’WAZEZEMA
SHINYANGA,37,SHINYANGA,372,MWALUKWA,37224,MWALUKWA,BUGWANDEGE
SHINYANGA,37,SHINYANGA,372,MWALUKWA,37224,MWALUKWA,BUSUMABU
SHINYANGA,37,SHINYANGA,372,MWALUKWA,37224,BULAMBILA,SAGIDA
SHINYANGA,37,SHINYANGA,372,MWALUKWA,37224,BULAMBILA,KIZUNGU
SHINYANGA,37,SHINYANGA,372,MWALUKWA,37224,BULAMBILA,MWAWEJA
SHINYANGA,37,SHINYANGA,372,MWALUKWA,37224,BULAMBILA,KISHILI
SHINYANGA,37,SHINYANGA,372,MWALUKWA,37224,BULAMBILA,MWAMADULU
SHINYANGA,37,SHINYANGA,372,MWALUKWA,37224,BULAMBILA,MWAJIGINYA
SHINYANGA,37,SHINYANGA,372,MWALUKWA,37224,BULAMBILA,MWAMASAMBUKILO
SHINYANGA,37,SHINYANGA,372,MWALUKWA,37224,BULAMBILA,MWAJIGINYA B
SHINYANGA,37,SHINYANGA,372,MWALUKWA,37224,BULAMBILA,KIZUNGU B
SHINYANGA,37,SHINYANGA,372,MWALUKWA,37224,NG'HAMA,NG’HAMA
SHINYANGA,37,SHINYANGA,372,MWALUKWA,37224,NG'HAMA,SAGIDA
SHINYANGA,37,SHINYANGA,372,MWALUKWA,37224,NG'HAMA,MWASHIBANGU
SHINYANGA,37,SHINYANGA,372,MWALUKWA,37224,NG'HAMA,NGHAMA B
SHINYANGA,37,SHINYANGA,372,MWALUKWA,37224,KADOTO B,IGEMBESABO
SHINYANGA,37,SHINYANGA,372,MWALUKWA,37224,KADOTO B,KADOTO
SHINYANGA,37,SHINYANGA,372,MWALUKWA,37224,KADOTO B,ILULI
SHINYANGA,37,SHINYANGA,372,MWALUKWA,37224,KADOTO B,ITOGWANG'HOLO
SHINYANGA,37,SHINYANGA,372,MWALUKWA,37224,KADOTO B,AZIMIO
SHINYANGA,37,SHINYANGA,372,NYAMALOGO,37225,ZUMVE,KALUNDE
SHINYANGA,37,SHINYANGA,372,NYAMALOGO,37225,ZUMVE,ZUMVE
SHINYANGA,37,SHINYANGA,372,NYAMALOGO,37225,ZUMVE,DUNDUSI
SHINYANGA,37,SHINYANGA,372,NYAMALOGO,37225,ZUMVE,BUDUSHI
SHINYANGA,37,SHINYANGA,372,NYAMALOGO,37225,ZUMVE,NGUNDANGALI
SHINYANGA,37,SHINYANGA,372,NYAMALOGO,37225,ZUMVE,MBUYUNI
SHINYANGA,37,SHINYANGA,372,NYAMALOGO,37225,ZUMVE,MAJENGO
SHINYANGA,37,SHINYANGA,372,NYAMALOGO,37225,ZUMVE,KISESA
SHINYANGA,37,SHINYANGA,372,NYAMALOGO,37225,MWANG’OSHA,MABAMBASI
SHINYANGA,37,SHINYANGA,372,NYAMALOGO,37225,MWANG’OSHA,NG’WABALUHI
SHINYANGA,37,SHINYANGA,372,NYAMALOGO,37225,MWANG’OSHA,MWANG’OSHA
SHINYANGA,37,SHINYANGA,372,NYAMALOGO,37225,MWANG’OSHA,NSUHA
SHINYANGA,37,SHINYANGA,372,NYAMALOGO,37225,MWANG’OSHA,BUKILIGURU A
SHINYANGA,37,SHINYANGA,372,NYAMALOGO,37225,MWANG’OSHA,SHULENI
SHINYANGA,37,SHINYANGA,372,NYAMALOGO,37225,MWANG’OSHA,JIBISO
SHINYANGA,37,SHINYANGA,372,NYAMALOGO,37225,MWANG’OSHA,NG’WANZUGINAJILATU
SHINYANGA,37,SHINYANGA,372,NYAMALOGO,37225,MWANG’OSHA,MADUKANI A
SHINYANGA,37,SHINYANGA,372,NYAMALOGO,37225,MWANG’OSHA,MADUKANI B
SHINYANGA,37,SHINYANGA,372,NYAMALOGO,37225,MWANG’OSHA,MASAGALA
SHINYANGA,37,SHINYANGA,372,NYAMALOGO,37225,MWANG’OSHA,BUCHAMA
SHINYANGA,37,SHINYANGA,372,NYAMALOGO,37225,MWANG’OSHA,BUGEMEKI
SHINYANGA,37,SHINYANGA,372,NYAMALOGO,37225,NYAMALOGO,NKOLA
SHINYANGA,37,SHINYANGA,372,NYAMALOGO,37225,NYAMALOGO,JAMATALE
SHINYANGA,37,SHINYANGA,372,NYAMALOGO,37225,NYAMALOGO,BUGAYA
SHINYANGA,37,SHINYANGA,372,NYAMALOGO,37225,NYAMALOGO,IPONYABUHABI
SHINYANGA,37,SHINYANGA,372,NYAMALOGO,37225,NYAMALOGO,IHENYA
SHINYANGA,37,SHINYANGA,372,NYAMALOGO,37225,NYAMALOGO,IMALABUTAMO
SHINYANGA,37,SHINYANGA,372,NYAMALOGO,37225,NYAMALOGO,MAJENGO
SHINYANGA,37,SHINYANGA,372,NYAMALOGO,37225,NYAMALOGO,IGEMBENSABO
SHINYANGA,37,SHINYANGA,372,NYAMALOGO,37225,NYAMALOGO,ITOGWANG'HOLO
SHINYANGA,37,SHINYANGA,372,NYAMALOGO,37225,SHATIMBA,MIEMBENI
SHINYANGA,37,SHINYANGA,372,NYAMALOGO,37225,SHATIMBA,IPONYAMAGEUZI
SHINYANGA,37,SHINYANGA,372,NYAMALOGO,37225,SHATIMBA,IKOMBABUKI
SHINYANGA,37,SHINYANGA,372,NYAMALOGO,37225,SHATIMBA,MAGOGOLO
SHINYANGA,37,SHINYANGA,372,NYAMALOGO,37225,SHATIMBA,IBINDO
SHINYANGA,37,SHINYANGA,372,NYAMALOGO,37225,SHATIMBA,SHATIMBA
SHINYANGA,37,SHINYANGA,372,NYAMALOGO,37225,SHATIMBA,MONDOJISESA
SHINYANGA,37,SHINYANGA,372,NYAMALOGO,37225,SHATIMBA,MLIMANI
SHINYANGA,37,SHINYANGA,372,NYAMALOGO,37225,NG’WAMPANGABULE*,MWABOLE
SHINYANGA,37,SHINYANGA,372,NYAMALOGO,37225,NG’WAMPANGABULE*,NG’WAMPANGABULE
SHINYANGA,37,SHINYANGA,372,NYAMALOGO,37225,NG’WAMPANGABULE*,MHUGE
SHINYANGA,37,SHINYANGA,372,NYAMALOGO,37225,NG’WAMPANGABULE*,IJANIJA
SHINYANGA,37,SHINYANGA,372,NYAMALOGO,37225,NG’WAMPANGABULE*,BUKOBA
SHINYANGA,37,SHINYANGA,372,NYAMALOGO,37225,NG’WAMPANGABULE*,MKOLANI
SHINYANGA,37,SHINYANGA,372,NYAMALOGO,37225,NG’WAMPANGABULE*,KADATI
SHINYANGA,37,SHINYANGA,372,NYAMALOGO,37225,NG’WAMPANGABULE*,NG'WAMAKIMA
SHINYANGA,37,SHINYANGA,372,LYAMIDATI,37226,IHUGI,IHUGI
SHINYANGA,37,SHINYANGA,372,LYAMIDATI,37226,IHUGI,MABATINI
SHINYANGA,37,SHINYANGA,372,LYAMIDATI,37226,IHUGI,BUGUDYA
SHINYANGA,37,SHINYANGA,372,LYAMIDATI,37226,IHUGI,BUSULWANHUMBILI
SHINYANGA,37,SHINYANGA,372,LYAMIDATI,37226,IHUGI,MWAMASWIZILO
SHINYANGA,37,SHINYANGA,372,LYAMIDATI,37226,IHUGI,BUKIMBIZI
SHINYANGA,37,SHINYANGA,372,LYAMIDATI,37226,IHUGI,IYOGELO
SHINYANGA,37,SHINYANGA,372,LYAMIDATI,37226,IHUGI,MWABALUHI
SHINYANGA,37,SHINYANGA,372,LYAMIDATI,37226,IHUGI,MAGOBEKO
SHINYANGA,37,SHINYANGA,372,LYAMIDATI,37226,KIZUNGU,MAPOGOLO
SHINYANGA,37,SHINYANGA,372,LYAMIDATI,37226,KIZUNGU,KIZUNGU
SHINYANGA,37,SHINYANGA,372,LYAMIDATI,37226,KIZUNGU,BABANI
SHINYANGA,37,SHINYANGA,372,LYAMIDATI,37226,KIZUNGU,SENTA
SHINYANGA,37,SHINYANGA,372,LYAMIDATI,37226,KIZUNGU,MWAMANONI
SHINYANGA,37,SHINYANGA,372,LYAMIDATI,37226,KIZUNGU,MWANZILA
SHINYANGA,37,SHINYANGA,372,LYAMIDATI,37226,KIZUNGU,JISESA
SHINYANGA,37,SHINYANGA,372,LYAMIDATI,37226,LYAMIDATI,MWALUJO
SHINYANGA,37,SHINYANGA,372,LYAMIDATI,37226,LYAMIDATI,BUSANDA MPYA
SHINYANGA,37,SHINYANGA,372,LYAMIDATI,37226,LYAMIDATI,TANGANYIKA SENTA
SHINYANGA,37,SHINYANGA,372,LYAMIDATI,37226,LYAMIDATI,MWAMASHIMBA
SHINYANGA,37,SHINYANGA,372,LYAMIDATI,37226,LYAMIDATI,SHAMATALE
SHINYANGA,37,SHINYANGA,372,LYAMIDATI,37226,LYAMIDATI,MAGOMENI
SHINYANGA,37,SHINYANGA,372,LYAMIDATI,37226,LYAMIDATI,TANGANYIKA MAJENGO
SHINYANGA,37,SHINYANGA,372,LYAMIDATI,37226,LYAMIDATI,MTUKULA
SHINYANGA,37,SHINYANGA,372,LYAMIDATI,37226,LYAMIDATI,MWANKULWE
SHINYANGA,37,SHINYANGA,372,LYAMIDATI,37226,MWABASA,MWABASA
SHINYANGA,37,SHINYANGA,372,LYAMIDATI,37226,MWABASA,BUZINZA
SHINYANGA,37,SHINYANGA,372,LYAMIDATI,37226,MWABASA,NG'HWANDE
SHINYANGA,37,SHINYANGA,372,LYAMIDATI,37226,MWABASA,JIGUNG'HUMULI
SHINYANGA,37,SHINYANGA,372,LYAMIDATI,37226,MWABASA,ISHOSHA
SHINYANGA,37,SHINYANGA,372,LYAMIDATI,37226,MWABASA,BUGONELO MAGHARIBI
SHINYANGA,37,SHINYANGA,372,LYAMIDATI,37226,MWABASA,BUGONELO MASHARIKI
SHINYANGA,37,SHINYANGA,372,LYAMIDATI,37226,BUKILIGULU,BUKILIGULU KATI
SHINYANGA,37,SHINYANGA,372,LYAMIDATI,37226,BUKILIGULU,BUKILIGULU MAGHARIBI
SHINYANGA,37,SHINYANGA,372,LYAMIDATI,37226,BUKILIGULU,MWAKITOLYO
SHINYANGA,37,SHINYANGA,372,LYAMIDATI,37226,BUKILIGULU,MWAMAGILI
SHINYANGA,37,SHINYANGA,372,LYAMIDATI,37226,BUKILIGULU,SHILABELA
SHINYANGA,37,SHINYANGA,372,LYAMIDATI,37226,BUKILIGULU,NG'WAGWABYA
SHINYANGA,37,SHINYANGA,372,LYAMIDATI,37226,KADOTO,BUKIMBIZI
SHINYANGA,37,SHINYANGA,372,LYAMIDATI,37226,KADOTO,GHABU
SHINYANGA,37,SHINYANGA,372,LYAMIDATI,37226,KADOTO,GHABU MASHARIKI
SHINYANGA,37,SHINYANGA,372,LYAMIDATI,37226,KADOTO,NYABUBINZA
SHINYANGA,37,SHINYANGA,372,LYAMIDATI,37226,KADOTO,NG’WASUBI
SHINYANGA,37,SHINYANGA,372,LYAMIDATI,37226,KADOTO,MWAHANZE
SHINYANGA,37,SHINYANGA,372,LYAMIDATI,37226,KADOTO,KADOTO
SHINYANGA,37,SHINYANGA,372,LYAMIDATI,37226,KADOTO,NG’WAMAGAJI
SHINYANGA,37,SHINYANGA,372,MWENGE,37227,MWONGOZO,ISAWANDE
SHINYANGA,37,SHINYANGA,372,MWENGE,37227,MWONGOZO,NYANDOLWA A
SHINYANGA,37,SHINYANGA,372,MWENGE,37227,MWONGOZO,NYANDOLWA B
SHINYANGA,37,SHINYANGA,372,MWENGE,37227,MWONGOZO,BUSEGEJA
SHINYANGA,37,SHINYANGA,372,MWENGE,37227,MWONGOZO,NKOLA
SHINYANGA,37,SHINYANGA,372,MWENGE,37227,MWENGE,KAKOLA
SHINYANGA,37,SHINYANGA,372,MWENGE,37227,MWENGE,IPILINGITYA
SHINYANGA,37,SHINYANGA,372,MWENGE,37227,MWENGE,MWAMALA
SHINYANGA,37,SHINYANGA,372,MWENGE,37227,MWENGE,IDETE
SHINYANGA,37,SHINYANGA,372,MWENGE,37227,MWENGE,NHENDEGESE
SHINYANGA,37,SHINYANGA,372,MWENGE,37227,MWENGE,IGONGWA
SHINYANGA,37,SHINYANGA,372,MWENGE,37227,MWENGE,MALINONI
SHINYANGA,37,SHINYANGA,372,MWENGE,37227,MWENGE,IZUNYA
SHINYANGA,37,SHINYANGA,372,MWENGE,37227,MWENGE,MOCHA
SHINYANGA,37,SHINYANGA,372,MWENGE,37227,MWENGE,BUTWILO
SHINYANGA,37,SHINYANGA,372,MWENGE,37227,ZUNZULI,INELE
SHINYANGA,37,SHINYANGA,372,MWENGE,37227,ZUNZULI,ZUNZULI
SHINYANGA,37,SHINYANGA,372,MWENGE,37227,ZUNZULI,BUPULANI
SHINYANGA,37,SHINYANGA,372,MWENGE,37227,ZUNZULI,KITANGILI
SHINYANGA,37,SHINYANGA,372,MWENGE,37227,ZUNZULI,BULYASUNGWI
SHINYANGA,37,SHINYANGA,372,MWENGE,37227,ZUNZULI,NYANGUGANWA
SHINYANGA,37,SHINYANGA,372,MWENGE,37227,ZUNZULI,BUNGULWA
SHINYANGA,37,SHINYANGA,372,MWENGE,37227,ZUNZULI,IHIMBILI
SHINYANGA,37,SHINYANGA,372,MWENGE,37227,ZUNZULI,IBULALINDE
SHINYANGA,37,SHINYANGA,372,MWENGE,37227,ZUNZULI,ISUSWA
SHINYANGA,37,SHINYANGA,372,MWENGE,37227,IPANGO,IPANGO
SHINYANGA,37,SHINYANGA,372,MWENGE,37227,IPANGO,CHINA
SHINYANGA,37,SHINYANGA,372,MWENGE,37227,IPANGO,MANGULA
SHINYANGA,37,SHINYANGA,372,MWENGE,37227,IPANGO,NYASHIMBA
SHINYANGA,37,SHINYANGA,372,MWENGE,37227,IPANGO,MUUNGANO
SHINYANGA,37,SHINYANGA,372,LYABUSALU,37228,MWASINGU,NTUNDA
SHINYANGA,37,SHINYANGA,372,LYABUSALU,37228,MWASINGU,MAGU STOO
SHINYANGA,37,SHINYANGA,372,LYABUSALU,37228,MWASINGU,MWAKUHENGA
SHINYANGA,37,SHINYANGA,372,LYABUSALU,37228,MWASINGU,NTUNDAMATALE
SHINYANGA,37,SHINYANGA,372,LYABUSALU,37228,MWASINGU,IMALANZALA
SHINYANGA,37,SHINYANGA,372,LYABUSALU,37228,MWASINGU,BUPONGOJI
SHINYANGA,37,SHINYANGA,372,LYABUSALU,37228,MWASINGU,IRAMBA
SHINYANGA,37,SHINYANGA,372,LYABUSALU,37228,MWASINGU,MPEMBA SENTA
SHINYANGA,37,SHINYANGA,372,LYABUSALU,37228,MWASINGU,KABALE
SHINYANGA,37,SHINYANGA,372,LYABUSALU,37228,MWASINGU,MATINJE
SHINYANGA,37,SHINYANGA,372,LYABUSALU,37228,MWASINGU,MPAKANI
SHINYANGA,37,SHINYANGA,372,LYABUSALU,37228,MWASINGU,MABATINI
SHINYANGA,37,SHINYANGA,372,LYABUSALU,37228,MWASHININGU,MWAMANOTA
SHINYANGA,37,SHINYANGA,372,LYABUSALU,37228,MWASHININGU,MWAKUHENGA
SHINYANGA,37,SHINYANGA,372,LYABUSALU,37228,MWASHININGU,MAGU
SHINYANGA,37,SHINYANGA,372,LYABUSALU,37228,MWASHININGU,MAJENGO
SHINYANGA,37,SHINYANGA,372,LYABUSALU,37228,MWASHININGU,MABAMBASI
SHINYANGA,37,SHINYANGA,372,LYABUSALU,37228,LYABUSALU,NTIMVE
SHINYANGA,37,SHINYANGA,372,LYABUSALU,37228,LYABUSALU,NDUHA
SHINYANGA,37,SHINYANGA,372,LYABUSALU,37228,LYABUSALU,SHULENI
SHINYANGA,37,SHINYANGA,372,LYABUSALU,37228,LYABUSALU,MAJENGO
SHINYANGA,37,SHINYANGA,372,LYABUSALU,37228,LYABUSALU,JISESA
SHINYANGA,37,SHINYANGA,372,LYABUSALU,37228,LYABUSALU,MABAMBASI
SHINYANGA,37,SHINYANGA,372,LYABUSALU,37228,LYABUSALU,MWAWAZA
SHINYANGA,37,SHINYANGA,372,LYABUSALU,37228,BUKAMBA,BUKAMBA
SHINYANGA,37,SHINYANGA,372,LYABUSALU,37228,BUKAMBA,MWISENGWA
SHINYANGA,37,SHINYANGA,372,LYABUSALU,37228,BUKAMBA,SENTA
SHINYANGA,37,SHINYANGA,372,LYABUSALU,37228,BUKAMBA,MWASADO
SHINYANGA,37,SHINYANGA,372,LYABUSALU,37228,BUKAMBA,JIBITILWA
SHINYANGA,37,SHINYANGA,372,LYABUSALU,37228,BUKAMBA,KAKOLA
SHINYANGA,37,SHINYANGA,372,LYABUSALU,37228,BUKAMBA,IDOSHABALIMI
SHINYANGA,37,SHINYANGA,372,LYABUSALU,37228,MWAMBASHA,MAGANZO
SHINYANGA,37,SHINYANGA,372,LYABUSALU,37228,MWAMBASHA,SENTA
SHINYANGA,37,SHINYANGA,372,LYABUSALU,37228,MWAMBASHA,MONDO
SHINYANGA,37,SHINYANGA,372,LYABUSALU,37228,MWAMBASHA,MILYUNGU
SHINYANGA,37,SHINYANGA,372,LYABUSALU,37228,MWAMBASHA,MWANDU
SHINYANGA,37,SHINYANGA,372,LYABUSALU,37228,MWAMBASHA,MWANULA
SHINYANGA,37,SHINYANGA,372,LYABUSALU,37228,MWAMBASHA,NDUHA
SHINYANGA,37,SHINYANGA,372,LYABUSALU,37228,MWAMBASHA,MWISENGWA
SHINYANGA,37,SHINYANGA,372,LYABUSALU,37228,MWAJIJI,MWAJIJI MWAKASHISHI
SHINYANGA,37,SHINYANGA,372,LYABUSALU,37228,MWAJIJI,MWABAYANDA
SHINYANGA,37,SHINYANGA,372,LYABUSALU,37228,MWAJIJI,MAGOBEKO
SHINYANGA,37,SHINYANGA,372,LYABUSALU,37228,MWAJIJI,MAGONGWA
SHINYANGA,37,SHINYANGA,372,LYABUSALU,37228,MWAJIJI,SHULENI
SHINYANGA,37,SHINYANGA,372,LYABUSALU,37228,MWAJIJI,MONDO
SHINYANGA,37,SHINYANGA,372,LYABUSALU,37228,MWAJIJI,VIKTORIA
SHINYANGA,37,SHINYANGA,372,LYABUSALU,37228,MWAJIJI,MAGWATA
SHINYANGA,37,SHINYANGA,372,LYABUSALU,37228,MWAJIJI,IDOSHABALIMI
SHINYANGA,37,SHINYANGA,372,LYABUSALU,37228,MWAJIJI,MWAMAPULI
SHINYANGA,37,SHINYANGA,372,LYABUSALU,37228,MWABAGEHU,MWABAGEHU
SHINYANGA,37,SHINYANGA,372,LYABUSALU,37228,MWABAGEHU,MWAMABAKALI
SHINYANGA,37,SHINYANGA,372,LYABUSALU,37228,MWABAGEHU,JISESA
SHINYANGA,37,SHINYANGA,372,LYABUSALU,37228,MWABAGEHU,MWAJIJI KATI
SHINYANGA,37,SHINYANGA,372,LYABUSALU,37228,MWASHILUGULA,MWANZA
SHINYANGA,37,SHINYANGA,372,LYABUSALU,37228,MWASHILUGULA,NHENDEGESE
SHINYANGA,37,SHINYANGA,372,LYABUSALU,37228,MWASHILUGULA,IYOGELO
SHINYANGA,37,SHINYANGA,372,LYABUSALU,37228,MWASHILUGULA,SHILOLELI
SHINYANGA,37,SHINYANGA,372,LYABUSALU,37228,MWASHILUGULA,BUGANDA
SHINYANGA,37,SHINYANGA,372,LYABUSALU,37228,MWASHILUGULA,MAGANZO
SHINYANGA,37,SHINYANGA,372,LYABUSALU,37228,MWASHILUGULA,MAJIMOTO
SHINYANGA,37,SHINYANGA,372,LYABUSALU,37228,NG'WANHANGALA,MWABALUMBAGA
SHINYANGA,37,SHINYANGA,372,LYABUSALU,37228,NG'WANHANGALA,NG'WANHANGALA
SHINYANGA,37,SHINYANGA,372,LYABUSALU,37228,NG'WANHANGALA,MWAKASHISHI
SHINYANGA,37,SHINYANGA,372,LYABUSALU,37228,NG'WANHANGALA,MWACHANJO
SHINYANGA,37,SHINYANGA,372,LYABUSALU,37228,NG'WANHANGALA,MWANULA
SHINYANGA,37,SHINYANGA,372,LYABUSALU,37228,NG'WANHANGALA,MATINJE
SHINYANGA,37,SHINYANGA,372,LYABUSALU,37228,NG'WANHANGALA,ILAMATA
SHINYANGA,37,SHINYANGA,372,LYABUSALU,37228,NG'WANHANGALA,JISESA
SHINYANGA,37,SHINYANGA,372,LYABUSALU,37228,NG'WANHANGALA,SENTA
SHINYANGA,37,SHINYANGA,372,MWANTINI,37229,KILIMAWE,NYAMBITI A
SHINYANGA,37,SHINYANGA,372,MWANTINI,37229,KILIMAWE,NYAMBITI B
SHINYANGA,37,SHINYANGA,372,MWANTINI,37229,KILIMAWE,MHAGANWA
SHINYANGA,37,SHINYANGA,372,MWANTINI,37229,KILIMAWE,NSHISHINULU
SHINYANGA,37,SHINYANGA,372,MWANTINI,37229,KILIMAWE,KILIMAWE
SHINYANGA,37,SHINYANGA,372,MWANTINI,37229,KILIMAWE,MPELA
SHINYANGA,37,SHINYANGA,372,MWANTINI,37229,KILIMAWE,ILAMBA
SHINYANGA,37,SHINYANGA,372,MWANTINI,37229,KILIMAWE,ITANANA
SHINYANGA,37,SHINYANGA,372,MWANTINI,37229,KILIMAWE,MWANHABU
SHINYANGA,37,SHINYANGA,372,MWANTINI,37229,MISHEPO,MIEMBENI
SHINYANGA,37,SHINYANGA,372,MWANTINI,37229,MISHEPO,MUUNGANO
SHINYANGA,37,SHINYANGA,372,MWANTINI,37229,MISHEPO,BUKUMBI
SHINYANGA,37,SHINYANGA,372,MWANTINI,37229,MISHEPO,MWAKUNDI
SHINYANGA,37,SHINYANGA,372,MWANTINI,37229,MISHEPO,MIEMBENI 'B'
SHINYANGA,37,SHINYANGA,372,MWANTINI,37229,MISHEPO,MUUNGANO 'B'
SHINYANGA,37,SHINYANGA,372,MWANTINI,37229,MISHEPO,BUKUMBI 'B'
SHINYANGA,37,SHINYANGA,372,MWANTINI,37229,JIMONDOLI,MWAMHANGO
SHINYANGA,37,SHINYANGA,372,MWANTINI,37229,JIMONDOLI,NG’WANJIKA
SHINYANGA,37,SHINYANGA,372,MWANTINI,37229,JIMONDOLI,JIMONDOLI
SHINYANGA,37,SHINYANGA,372,MWANTINI,37229,JIMONDOLI,JANG’WANDU
SHINYANGA,37,SHINYANGA,372,MWANTINI,37229,JIMONDOLI,BUJUMBURA
SHINYANGA,37,SHINYANGA,372,MWANTINI,37229,BUSHOMA,SONGAMBELE
SHINYANGA,37,SHINYANGA,372,MWANTINI,37229,BUSHOMA,NYANDEKWA
SHINYANGA,37,SHINYANGA,372,MWANTINI,37229,BUSHOMA,BUSHOMA A
SHINYANGA,37,SHINYANGA,372,MWANTINI,37229,BUSHOMA,BUSHOMA B
SHINYANGA,37,SHINYANGA,372,MWANTINI,37229,BUSHOMA,IPONYA MAGEUZI
SHINYANGA,37,SHINYANGA,372,MWANTINI,37229,BUSHOMA,BULIMA
SHINYANGA,37,SHINYANGA,372,MWANTINI,37229,BUSHOMA,BULIMA 'B'
SHINYANGA,37,KAHAMA,373,MAJENGO,37301,SOKOLA,
SHINYANGA,37,KAHAMA,373,MAJENGO,37301,MAJENGO,
SHINYANGA,37,KAHAMA,373,NYASUBI,37302,NYAKATO,
SHINYANGA,37,KAHAMA,373,NYASUBI,37302,SANGO,
SHINYANGA,37,KAHAMA,373,NYASUBI,37302,NYASUBI,
SHINYANGA,37,KAHAMA,373,NYAHANGA,37303,SHUNU,
SHINYANGA,37,KAHAMA,373,NYAHANGA,37303,MTAKUJA,
SHINYANGA,37,KAHAMA,373,NYAHANGA,37303,NYAHANGA,
SHINYANGA,37,KAHAMA,373,KAHAMA MJINI,37304,NAMANGA,
SHINYANGA,37,KAHAMA,373,KAHAMA MJINI,37304,IGALILIMI,
SHINYANGA,37,KAHAMA,373,MALUNGA,37305,MALUNGA,
SHINYANGA,37,KAHAMA,373,MALUNGA,37305,KOROGWE,
SHINYANGA,37,KAHAMA,373,MALUNGA,37305,IGOMELO,
SHINYANGA,37,KAHAMA,373,MWANDAKULIMA,37306,MWENDAKULIMA KATI,
SHINYANGA,37,KAHAMA,373,MWANDAKULIMA,37306,BUSALALA,
SHINYANGA,37,KAHAMA,373,MWANDAKULIMA,37306,MWIME,
SHINYANGA,37,KAHAMA,373,MWANDAKULIMA,37306,CHAPULWA,
SHINYANGA,37,KAHAMA,373,NYIHOGO,37307,NYIHOGO,
SHINYANGA,37,KAHAMA,373,NYIHOGO,37307,SAZIA,
SHINYANGA,37,KAHAMA,373,MHUNGULA,37308,MHUNGULA,
SHINYANGA,37,KAHAMA,373,MHUNGULA,37308,INYANGA,
SHINYANGA,37,KAHAMA,373,MHUNGULA,37308,BUKONDAMOYO,
SHINYANGA,37,KAHAMA,373,ZONGOMERA,37309,ZONGOMERA,
SHINYANGA,37,KAHAMA,373,ZONGOMERA,37309,SEEKE,
SHINYANGA,37,KAHAMA,373,ZONGOMERA,37309,ILINDI,
SHINYANGA,37,KAHAMA,373,MHONGOLO,37310,MHONGOLO,
SHINYANGA,37,KAHAMA,373,MHONGOLO,37310,MISSION,
SHINYANGA,37,KAHAMA,373,MHONGOLO,37310,MBULU,
SHINYANGA,37,KAHAMA,373,MHONGOLO,37310,NYASHIMBI,
SHINYANGA,37,KAHAMA,373,BUGARAMA,37311,BUGARAMA,BUGARAMA KATI
SHINYANGA,37,KAHAMA,373,BUGARAMA,37311,BUGARAMA,BUNAKOBA
SHINYANGA,37,KAHAMA,373,BUGARAMA,37311,BUGARAMA,IGALAGALILO 'A'
SHINYANGA,37,KAHAMA,373,BUGARAMA,37311,BUGARAMA,IGALAGALILO 'B'
SHINYANGA,37,KAHAMA,373,BUGARAMA,37311,BUNANGO,BUNANGO
SHINYANGA,37,KAHAMA,373,BUGARAMA,37311,BUNANGO,BUNANGO VODA
SHINYANGA,37,KAHAMA,373,BUGARAMA,37311,BUNANGO,MLIMANI
SHINYANGA,37,KAHAMA,373,BUGARAMA,37311,BUNANGO,NYANGAKA
SHINYANGA,37,KAHAMA,373,BUGARAMA,37311,IGUDIJA,IGUDIJA 'A'
SHINYANGA,37,KAHAMA,373,BUGARAMA,37311,IGUDIJA,IGUDIJA 'B'
SHINYANGA,37,KAHAMA,373,BUGARAMA,37311,IGUDIJA,IGUDIJA 'C'
SHINYANGA,37,KAHAMA,373,BUGARAMA,37311,IGUDIJA,SHIBINGO
SHINYANGA,37,KAHAMA,373,BUGARAMA,37311,IGWAMANONI,BUHITI
SHINYANGA,37,KAHAMA,373,BUGARAMA,37311,IGWAMANONI,IGWAMANONI KATI
SHINYANGA,37,KAHAMA,373,BUGARAMA,37311,IGWAMANONI,NDUHANI
SHINYANGA,37,KAHAMA,373,BUGARAMA,37311,IGWAMANONI,LUSENI
SHINYANGA,37,KAHAMA,373,BUGARAMA,37311,BUYANGE,BUYANGE
SHINYANGA,37,KAHAMA,373,BUGARAMA,37311,BUYANGE,KANIDO
SHINYANGA,37,KAHAMA,373,BUGARAMA,37311,BUYANGE,IZUNYA
SHINYANGA,37,KAHAMA,373,BUGARAMA,37311,BUYANGE,NYANADALA
SHINYANGA,37,KAHAMA,373,BUGARAMA,37311,BUYANGE,IBANZA SENTA
SHINYANGA,37,KAHAMA,373,BUGARAMA,37311,BUYANGE,NYASHIGWE
SHINYANGA,37,KAHAMA,373,BUGARAMA,37311,BUYANGE,NYAMAGULA
SHINYANGA,37,KAHAMA,373,BUGARAMA,37311,ILOGI,KIHUNZI
SHINYANGA,37,KAHAMA,373,BUGARAMA,37311,ILOGI,ILOGI KATI
SHINYANGA,37,KAHAMA,373,BUGARAMA,37311,ILOGI,ISUNGA
SHINYANGA,37,KAHAMA,373,BULYAN'HULU,37312,KAKOLA,KAKOLA KATI
SHINYANGA,37,KAHAMA,373,BULYAN'HULU,37312,KAKOLA,KABALE
SHINYANGA,37,KAHAMA,373,BULYAN'HULU,37312,KAKOLA,LOMA
SHINYANGA,37,KAHAMA,373,BULYAN'HULU,37312,KAKOLA,MKOLANI
SHINYANGA,37,KAHAMA,373,BULYAN'HULU,37312,BUSHING'WE,BUSHING'WE KATI
SHINYANGA,37,KAHAMA,373,BULYAN'HULU,37312,BUSHING'WE,MAJENGO
SHINYANGA,37,KAHAMA,373,BULYAN'HULU,37312,BUSHING'WE,MIEMBENI
SHINYANGA,37,KAHAMA,373,BULYAN'HULU,37312,BUSHING'WE,MGONGWANI
SHINYANGA,37,KAHAMA,373,BULYAN'HULU,37312,BUSHING'WE,MNAZI MMOJA
SHINYANGA,37,KAHAMA,373,BULYAN'HULU,37312,KAKOLA NA.9,BUGANDO
SHINYANGA,37,KAHAMA,373,BULYAN'HULU,37312,KAKOLA NA.10,NAMBA 9
SHINYANGA,37,KAHAMA,373,BULYAN'HULU,37312,KAKOLA NA.11,MHONGOLO
SHINYANGA,37,KAHAMA,373,BULYAN'HULU,37312,KAKOLA NA.12,NG'WABASABI
SHINYANGA,37,KAHAMA,373,BULYAN'HULU,37312,KAKOLA NA.13,NG'WABAGIKULU
SHINYANGA,37,KAHAMA,373,BULYAN'HULU,37312,BUSULWANGILI,BUSULWANGILI
SHINYANGA,37,KAHAMA,373,BULYAN'HULU,37312,BUSULWANGILI,MWAMHULI
SHINYANGA,37,KAHAMA,373,BULYAN'HULU,37312,BUSULWANGILI,NKOLANDOTO
SHINYANGA,37,KAHAMA,373,BULYAN'HULU,37312,BUSULWANGILI,IHAYABUYAGI
SHINYANGA,37,KAHAMA,373,BULYAN'HULU,37312,BUSULWANGILI,MVUVUMO 'A'
SHINYANGA,37,KAHAMA,373,BULYAN'HULU,37312,BUSULWANGILI,MVUVUMO 'B'
SHINYANGA,37,KAHAMA,373,BULYAN'HULU,37312,BUSULWANGILI,IGONGWA
SHINYANGA,37,KAHAMA,373,BULYAN'HULU,37312,BUSINDI,BUSINDI 'A'
SHINYANGA,37,KAHAMA,373,BULYAN'HULU,37312,BUSINDI,BUSINDI 'B'
SHINYANGA,37,KAHAMA,373,BULYAN'HULU,37312,BUSINDI,IGALAGALILO
SHINYANGA,37,KAHAMA,373,BULYAN'HULU,37312,BUSINDI,MBAPA
SHINYANGA,37,KAHAMA,373,BULYAN'HULU,37312,LWABAKANGA,LWABAKANGA SENTA
SHINYANGA,37,KAHAMA,373,BULYAN'HULU,37312,LWABAKANGA,MAJENGO
SHINYANGA,37,KAHAMA,373,BULYAN'HULU,37312,LWABAKANGA,IPINGILI
SHINYANGA,37,KAHAMA,373,BULYAN'HULU,37312,LWABAKANGA,MWANDU
SHINYANGA,37,KAHAMA,373,LUNGUYA,37313,LUNGUYA,LUNGUYA
SHINYANGA,37,KAHAMA,373,LUNGUYA,37313,LUNGUYA,IGONDA
SHINYANGA,37,KAHAMA,373,LUNGUYA,37313,LUNGUYA,BUPONGO
SHINYANGA,37,KAHAMA,373,LUNGUYA,37313,MADAHO,MADAHO
SHINYANGA,37,KAHAMA,373,LUNGUYA,37313,MADAHO,IPONYABUKOLI
SHINYANGA,37,KAHAMA,373,LUNGUYA,37313,MADAHO,NG'ONGO
SHINYANGA,37,KAHAMA,373,LUNGUYA,37313,MADAHO,BUHEBO
SHINYANGA,37,KAHAMA,373,LUNGUYA,37313,MADAHO,BUJONGO
SHINYANGA,37,KAHAMA,373,LUNGUYA,37313,NYAMISHIGA,NDUHA
SHINYANGA,37,KAHAMA,373,LUNGUYA,37313,NYAMISHIGA,ISHOKELA
SHINYANGA,37,KAHAMA,373,LUNGUYA,37313,NYAMISHIGA,MWABALIMI
SHINYANGA,37,KAHAMA,373,LUNGUYA,37313,NYAMISHIGA,SHILABELA
SHINYANGA,37,KAHAMA,373,LUNGUYA,37313,NYAMISHIGA,MINELE
SHINYANGA,37,KAHAMA,373,LUNGUYA,37313,KALOLE,KALOLE NAMBA 1
SHINYANGA,37,KAHAMA,373,LUNGUYA,37313,KALOLE,NYAMAKWENGE
SHINYANGA,37,KAHAMA,373,LUNGUYA,37313,KALOLE,NYANGARATA
SHINYANGA,37,KAHAMA,373,LUNGUYA,37313,KABANDA,KABANDA '1'
SHINYANGA,37,KAHAMA,373,LUNGUYA,37313,KABANDA,KABANDA '2'
SHINYANGA,37,KAHAMA,373,LUNGUYA,37313,KABANDA,KABANDA '3'
SHINYANGA,37,KAHAMA,373,SEGESE,37314,SEGESE,SEGESE NAMBA 1
SHINYANGA,37,KAHAMA,373,SEGESE,37314,SEGESE,MIEMBENI
SHINYANGA,37,KAHAMA,373,SEGESE,37314,SEGESE,MWL.NYERERE
SHINYANGA,37,KAHAMA,373,SEGESE,37314,SENTA MASHARIKI,SENTA MASHARIKI
SHINYANGA,37,KAHAMA,373,SEGESE,37314,SENTA MASHARIKI,ITEMBE
SHINYANGA,37,KAHAMA,373,SEGESE,37314,SENTA MASHARIKI,MISUNGWI
SHINYANGA,37,KAHAMA,373,SEGESE,37314,SENTA MASHARIKI,SENTA MAGHARIBI
SHINYANGA,37,KAHAMA,373,SEGESE,37314,SENTA MASHARIKI,SEGESE NAMBA 2
SHINYANGA,37,KAHAMA,373,SEGESE,37314,SENTA MASHARIKI,SEGESE NAMBA 3
SHINYANGA,37,KAHAMA,373,SEGESE,37314,BUSUNGO,BUSUNGO 'A'
SHINYANGA,37,KAHAMA,373,SEGESE,37314,BUSUNGO,BUSUNGO 'B'
SHINYANGA,37,KAHAMA,373,SEGESE,37314,BUSUNGO,BUSUNGO 'C'
SHINYANGA,37,KAHAMA,373,SEGESE,37314,WISOLELE,"WISOLELE ""A"""
SHINYANGA,37,KAHAMA,373,SEGESE,37314,WISOLELE,"WISOLELE"" B"""
SHINYANGA,37,KAHAMA,373,SEGESE,37314,WISOLELE,"WISOLELE ""C"""
SHINYANGA,37,KAHAMA,373,SEGESE,37314,BUMVA,BUMVA NAMBA 1 'A'
SHINYANGA,37,KAHAMA,373,SEGESE,37314,BUMVA,BUMVA NAMBA 1 'B'
SHINYANGA,37,KAHAMA,373,SEGESE,37314,BUMVA,KABAMBA
SHINYANGA,37,KAHAMA,373,SEGESE,37314,BUMVA,IDETE
SHINYANGA,37,KAHAMA,373,MEGA,37315,MASABI,MASABI KATI
SHINYANGA,37,KAHAMA,373,MEGA,37315,MASABI,BUHONDO
SHINYANGA,37,KAHAMA,373,MEGA,37315,MASABI,BUHILA
SHINYANGA,37,KAHAMA,373,MEGA,37315,MASABI,MLIMANI
SHINYANGA,37,KAHAMA,373,MEGA,37315,MASABI,MNELE
SHINYANGA,37,KAHAMA,373,MEGA,37315,MEGA,LUBANDA
SHINYANGA,37,KAHAMA,373,MEGA,37315,MEGA,MEGA 'A'
SHINYANGA,37,KAHAMA,373,MEGA,37315,MEGA,MEGA 'B'
SHINYANGA,37,KAHAMA,373,MEGA,37315,MEGA,BUDEKA
SHINYANGA,37,KAHAMA,373,MEGA,37315,NYAMINJE,NYAMINJE
SHINYANGA,37,KAHAMA,373,MEGA,37315,NYAMINJE,KAKENDE
SHINYANGA,37,KAHAMA,373,MEGA,37315,MBIZI,SONGAMBELE
SHINYANGA,37,KAHAMA,373,MEGA,37315,MBIZI,MBIZI NAMBA 1.
SHINYANGA,37,KAHAMA,373,MEGA,37315,MBIZI,NYANG'HOMANGO
SHINYANGA,37,KAHAMA,373,MEGA,37315,MBIZI,IDOSELO
SHINYANGA,37,KAHAMA,373,MEGA,37315,MBIZI,NAMBA TATU
SHINYANGA,37,KAHAMA,373,CHELA,37316,CHELA,BUKUMBI
SHINYANGA,37,KAHAMA,373,CHELA,37316,CHELA,IGOBORE
SHINYANGA,37,KAHAMA,373,CHELA,37316,CHELA,CHELA SENTA
SHINYANGA,37,KAHAMA,373,CHELA,37316,CHELA,MWABAGIKULU
SHINYANGA,37,KAHAMA,373,CHELA,37316,MHANDU,ISAKA MASHARIKI
SHINYANGA,37,KAHAMA,373,CHELA,37316,MHANDU,ISAKA MAGHARIBI
SHINYANGA,37,KAHAMA,373,CHELA,37316,MHANDU,NYAMIGUNDA
SHINYANGA,37,KAHAMA,373,CHELA,37316,MHANDU,BUSHIMANGILA
SHINYANGA,37,KAHAMA,373,CHELA,37316,MHANDU,LUNGUYA
SHINYANGA,37,KAHAMA,373,CHELA,37316,MHANDU,ITINDE
SHINYANGA,37,KAHAMA,373,CHELA,37316,BUCHAMBAGA,BUCHAMBAGA
SHINYANGA,37,KAHAMA,373,CHELA,37316,BUCHAMBAGA,MAGOBEKO
SHINYANGA,37,KAHAMA,373,CHELA,37316,BUCHAMBAGA,BUNHUBILI
SHINYANGA,37,KAHAMA,373,CHELA,37316,BUYAGU,ILOJA
SHINYANGA,37,KAHAMA,373,CHELA,37316,BUYAGU,BUYAGU
SHINYANGA,37,KAHAMA,373,CHELA,37316,BUYAGU,ITOBOLA
SHINYANGA,37,KAHAMA,373,CHELA,37316,NUNDU,NUNDU SENTA
SHINYANGA,37,KAHAMA,373,CHELA,37316,NUNDU,NUNDU NAMBA 2
SHINYANGA,37,KAHAMA,373,CHELA,37316,NUNDU,SUSWA
SHINYANGA,37,KAHAMA,373,CHELA,37316,NUNDU,IPINGILI
SHINYANGA,37,KAHAMA,373,CHELA,37316,NUNDU,MAGONG'HWA
SHINYANGA,37,KAHAMA,373,CHELA,37316,NUNDU,MWAMAGOKO
SHINYANGA,37,KAHAMA,373,CHELA,37316,JOMU,JOMU SENTA
SHINYANGA,37,KAHAMA,373,CHELA,37316,JOMU,ISHOKELEJA
SHINYANGA,37,KAHAMA,373,CHELA,37316,JOMU,MWANYAGULI
SHINYANGA,37,KAHAMA,373,CHELA,37316,JOMU,BUYANGU
SHINYANGA,37,KAHAMA,373,CHELA,37316,MWAZIMBA,NTAMBALALE
SHINYANGA,37,KAHAMA,373,CHELA,37316,MWAZIMBA,MWAZIMBA A''
SHINYANGA,37,KAHAMA,373,CHELA,37316,MWAZIMBA,WISENGELE
SHINYANGA,37,KAHAMA,373,BUSANGI,37317,BUSANGI,MHIDA
SHINYANGA,37,KAHAMA,373,BUSANGI,37317,BUSANGI,KIBAMHA
SHINYANGA,37,KAHAMA,373,BUSANGI,37317,BUSANGI,IBYULA
SHINYANGA,37,KAHAMA,373,BUSANGI,37317,BUSANGI,BUSANGI
SHINYANGA,37,KAHAMA,373,BUSANGI,37317,BUSANGI,MPANGALA
SHINYANGA,37,KAHAMA,373,BUSANGI,37317,BUSANGI,NYAMHINGU
SHINYANGA,37,KAHAMA,373,BUSANGI,37317,BUSANGI,BUBANGA
SHINYANGA,37,KAHAMA,373,BUSANGI,37317,NYAMIGEGE,NYAMIGEGE
SHINYANGA,37,KAHAMA,373,BUSANGI,37317,NYAMIGEGE,ISANAGONGO
SHINYANGA,37,KAHAMA,373,BUSANGI,37317,NYAMIGEGE,BUNANGO
SHINYANGA,37,KAHAMA,373,BUSANGI,37317,NYAMIGEGE,KISUKE
SHINYANGA,37,KAHAMA,373,BUSANGI,37317,NTUNDU,IZAGALA
SHINYANGA,37,KAHAMA,373,BUSANGI,37317,NTUNDU,NTUNDU
SHINYANGA,37,KAHAMA,373,BUSANGI,37317,GULLA,BULOMO
SHINYANGA,37,KAHAMA,373,BUSANGI,37317,GULLA,ISHIKIJA
SHINYANGA,37,KAHAMA,373,BUSANGI,37317,GULLA,NKONDOGWA
SHINYANGA,37,KAHAMA,373,BUSANGI,37317,GULLA,ISELA
SHINYANGA,37,KAHAMA,373,NGOGWA,37318,NGULU,BULOLWAMBESHI
SHINYANGA,37,KAHAMA,373,NGOGWA,37318,NGULU,ARUSHA
SHINYANGA,37,KAHAMA,373,NGOGWA,37318,NGULU,BULUNDE
SHINYANGA,37,KAHAMA,373,NGOGWA,37318,NGULU,MLIMANI
SHINYANGA,37,KAHAMA,373,NGOGWA,37318,NGULU,BUGOGO
SHINYANGA,37,KAHAMA,373,NGOGWA,37318,NUJA,NUJA
SHINYANGA,37,KAHAMA,373,NGOGWA,37318,NUJA,CHAWILU
SHINYANGA,37,KAHAMA,373,NGOGWA,37318,NUJA,ITUMBO
SHINYANGA,37,KAHAMA,373,NGOGWA,37318,NUJA,KASHIMBA
SHINYANGA,37,KAHAMA,373,NGOGWA,37318,NUJA,KIGOMA
SHINYANGA,37,KAHAMA,373,NGOGWA,37318,NUJA,MWAKAFUNZA
SHINYANGA,37,KAHAMA,373,NGOGWA,37318,NYAMBULA,NJIAPANDA
SHINYANGA,37,KAHAMA,373,NGOGWA,37318,NYAMBULA,MATALANGE
SHINYANGA,37,KAHAMA,373,NGOGWA,37318,NYAMBULA,GUNI
SHINYANGA,37,KAHAMA,373,NGOGWA,37318,NYAMBULA,NYAMBULA
SHINYANGA,37,KAHAMA,373,NGOGWA,37318,NYAMBULA,ILOLE
SHINYANGA,37,KAHAMA,373,NGOGWA,37318,NYAMBULA,SINGIDA
SHINYANGA,37,KAHAMA,373,NGOGWA,37318,NYAMBULA,IZIMA
SHINYANGA,37,KAHAMA,373,NGOGWA,37318,NGOGWA,NGOGWA
SHINYANGA,37,KAHAMA,373,NGOGWA,37318,NGOGWA,NYANDOLWA
SHINYANGA,37,KAHAMA,373,NGOGWA,37318,NGOGWA,ISESA
SHINYANGA,37,KAHAMA,373,NGOGWA,37318,NGOGWA,KATENDELE
SHINYANGA,37,KAHAMA,373,NGOGWA,37318,NGOGWA,MPILIMO
SHINYANGA,37,KAHAMA,373,NGOGWA,37318,NGOGWA,NZEGWE
SHINYANGA,37,KAHAMA,373,WENDELE,37319,WENDELE,WENDELE CHINI
SHINYANGA,37,KAHAMA,373,WENDELE,37319,WENDELE,WENDELE MLIMANI
SHINYANGA,37,KAHAMA,373,WENDELE,37319,WENDELE,WITAJA
SHINYANGA,37,KAHAMA,373,WENDELE,37319,WENDELE,BULYANHULU
SHINYANGA,37,KAHAMA,373,WENDELE,37319,WENDELE,MAJENGO MAPYA
SHINYANGA,37,KAHAMA,373,WENDELE,37319,WENDELE,KAYENZE
SHINYANGA,37,KAHAMA,373,WENDELE,37319,KATUNGULU,KATUNGULU
SHINYANGA,37,KAHAMA,373,WENDELE,37319,KATUNGULU,KAPUNZE
SHINYANGA,37,KAHAMA,373,WENDELE,37319,KATUNGULU,KATENDELE
SHINYANGA,37,KAHAMA,373,WENDELE,37319,KAHANGA,KAHANGA
SHINYANGA,37,KAHAMA,373,WENDELE,37319,KAHANGA,IZIMA
SHINYANGA,37,KAHAMA,373,WENDELE,37319,KAHANGA,MAGOMBO
SHINYANGA,37,KAHAMA,373,WENDELE,37319,KAHANGA,BUDATI
SHINYANGA,37,KAHAMA,373,WENDELE,37319,KAHANGA,BUSAFA
SHINYANGA,37,KAHAMA,373,WENDELE,37319,TUMAINI,MWENDAKULIMA
SHINYANGA,37,KAHAMA,373,WENDELE,37319,TUMAINI,MPENENGI
SHINYANGA,37,KAHAMA,373,BULIGE,37320,BULIGE,BULIGE
SHINYANGA,37,KAHAMA,373,BULIGE,37320,BULIGE,KIZUNGU
SHINYANGA,37,KAHAMA,373,BULIGE,37320,BULIGE,MAJENGO
SHINYANGA,37,KAHAMA,373,BULIGE,37320,BULIGE,KAGESE
SHINYANGA,37,KAHAMA,373,BULIGE,37320,BULIGE,SULULU
SHINYANGA,37,KAHAMA,373,BULIGE,37320,BULIGE,MWABALIMI
SHINYANGA,37,KAHAMA,373,BULIGE,37320,BULIGE,MWABADENYA
SHINYANGA,37,KAHAMA,373,BULIGE,37320,MWANINGI,MWANINGI   A
SHINYANGA,37,KAHAMA,373,BULIGE,37320,MWANINGI,MWANINGI  B
SHINYANGA,37,KAHAMA,373,BULIGE,37320,MWANINGI,MWANZUGI
SHINYANGA,37,KAHAMA,373,BULIGE,37320,MWANINGI,BUSAMBILO
SHINYANGA,37,KAHAMA,373,BULIGE,37320,MALITO,MALITO SENTA
SHINYANGA,37,KAHAMA,373,BULIGE,37320,MALITO,MWABALULU
SHINYANGA,37,KAHAMA,373,BULIGE,37320,MALITO,KABALE
SHINYANGA,37,KAHAMA,373,BULIGE,37320,MALITO,IGOBEKO
SHINYANGA,37,KAHAMA,373,KASHISHI,37321,KASHISHI,KASHISHI
SHINYANGA,37,KAHAMA,373,KASHISHI,37321,KASHISHI,MWATOBO
SHINYANGA,37,KAHAMA,373,KASHISHI,37321,KASHISHI,MWAMANONI
SHINYANGA,37,KAHAMA,373,KASHISHI,37321,MWAMBOKU,MWAMBOKU
SHINYANGA,37,KAHAMA,373,KASHISHI,37321,MWAMBOKU,MWAMBITI
SHINYANGA,37,KAHAMA,373,KASHISHI,37321,MWAMBOKU,MAGONGWA
SHINYANGA,37,KAHAMA,373,KASHISHI,37321,MALILITA,MALILITA
SHINYANGA,37,KAHAMA,373,KASHISHI,37321,MALILITA,MALILITA SENTA
SHINYANGA,37,KAHAMA,373,KASHISHI,37321,MALILITA,MAGWATA
SHINYANGA,37,KAHAMA,373,KASHISHI,37321,MWAKUZUKA,MWAKUZUKA
SHINYANGA,37,KAHAMA,373,KASHISHI,37321,MWAKUZUKA,NYAHANGA
SHINYANGA,37,KAHAMA,373,KASHISHI,37321,MWAKUZUKA,MWAMATUMBATI
SHINYANGA,37,KAHAMA,373,KASHISHI,37321,MWAKUZUKA,MWANHAWA
SHINYANGA,37,KAHAMA,373,KINAGA,37322,KINAGA,IDAILO
SHINYANGA,37,KAHAMA,373,KINAGA,37322,KINAGA,SANGILWA
SHINYANGA,37,KAHAMA,373,KINAGA,37322,KINAGA,BUKOMELA
SHINYANGA,37,KAHAMA,373,KINAGA,37322,KINAGA,IGUMO
SHINYANGA,37,KAHAMA,373,KINAGA,37322,KINAGA,IGUMBILI
SHINYANGA,37,KAHAMA,373,KINAGA,37322,KINAGA,NYASHIMBA
SHINYANGA,37,KAHAMA,373,KINAGA,37322,KINAGA,INALA
SHINYANGA,37,KAHAMA,373,KINAGA,37322,KINAGA,NYANG'OMBE
SHINYANGA,37,KAHAMA,373,KINAGA,37322,KINAGA,IBIGIMYA
SHINYANGA,37,KAHAMA,373,KINAGA,37322,KINAGA,IHAPULA
SHINYANGA,37,KAHAMA,373,KINAGA,37322,KINAGA,NYAHUNGWE
SHINYANGA,37,KAHAMA,373,KINAGA,37322,MAGOBEKO,MWANGULU
SHINYANGA,37,KAHAMA,373,KINAGA,37322,MAGOBEKO,MAGOBEKO
SHINYANGA,37,KAHAMA,373,KINAGA,37322,MAGOBEKO,MWAHEMEDI
SHINYANGA,37,KAHAMA,373,KINAGA,37322,MAGOBEKO,MWANONGA
SHINYANGA,37,KAHAMA,373,KINAGA,37322,UBILIMBI,BUGUSA
SHINYANGA,37,KAHAMA,373,KINAGA,37322,UBILIMBI,LUNZUMANI
SHINYANGA,37,KAHAMA,373,KINAGA,37322,UBILIMBI,MWABAYANDA
SHINYANGA,37,KAHAMA,373,KINAGA,37322,UBILIMBI,WIMATE
SHINYANGA,37,KAHAMA,373,KINAGA,37322,UBILIMBI,IBELANGATA
SHINYANGA,37,KAHAMA,373,KINAGA,37322,NDUKU,BUKALANGI
SHINYANGA,37,KAHAMA,373,KINAGA,37322,NDUKU,IDALA
SHINYANGA,37,KAHAMA,373,KINAGA,37322,NDUKU,ITINDILYANI
SHINYANGA,37,KAHAMA,373,KINAGA,37322,NDUKU,BUKENGEZI
SHINYANGA,37,KAHAMA,373,KINAGA,37322,NDUKU,MWASEKELA
SHINYANGA,37,KAHAMA,373,KINAGA,37322,NDUKU,NYASENGE
SHINYANGA,37,KAHAMA,373,KINAGA,37322,NDUKU,BUKINDA 'A'
SHINYANGA,37,KAHAMA,373,KINAGA,37322,NDUKU,BUKINDA 'B'
SHINYANGA,37,KAHAMA,373,KINAGA,37322,NDUKU,NDUKU
SHINYANGA,37,KAHAMA,373,KINAGA,37322,NDUKU,NDUKU SENTA
SHINYANGA,37,KAHAMA,373,KINAGA,37322,NDUKU,NYANG'OMA
SHINYANGA,37,KAHAMA,373,KINAGA,37322,IGUNG’HWA,MWAGALA
SHINYANGA,37,KAHAMA,373,KINAGA,37322,IGUNG’HWA,MHAMA
SHINYANGA,37,KAHAMA,373,KINAGA,37322,IGUNG’HWA,MWALIMBU 'A'
SHINYANGA,37,KAHAMA,373,KINAGA,37322,IGUNG’HWA,MWALIMBU 'B'
SHINYANGA,37,KAHAMA,373,KINAGA,37322,IGUNG’HWA,IGUNG'HWA
SHINYANGA,37,KAHAMA,373,KINAGA,37322,IGUNG’HWA,ISUMBI 'A'
SHINYANGA,37,KAHAMA,373,KINAGA,37322,IGUNG’HWA,ISUMBI 'B'
SHINYANGA,37,KAHAMA,373,MWANASE,37323,MWANASE,MWAMANDI
SHINYANGA,37,KAHAMA,373,MWANASE,37323,MWANASE,MWALUGAMHULI
SHINYANGA,37,KAHAMA,373,MWANASE,37323,MWANASE,MWANASE
SHINYANGA,37,KAHAMA,373,MWANASE,37323,MWANASE,MWAMADEBE
SHINYANGA,37,KAHAMA,373,MWANASE,37323,MWANASE,MWAKABULI
SHINYANGA,37,KAHAMA,373,MWANASE,37323,MWANASE,MWAMAKANGA
SHINYANGA,37,KAHAMA,373,MWANASE,37323,KABONDO,MWANYAGULI
SHINYANGA,37,KAHAMA,373,MWANASE,37323,KABONDO,MWAMAJA
SHINYANGA,37,KAHAMA,373,MWANASE,37323,KABONDO,MWAMATIGA
SHINYANGA,37,KAHAMA,373,MWANASE,37323,KABONDO,MWAMABESHI
SHINYANGA,37,KAHAMA,373,MWANASE,37323,KABONDO,MWABILIGI
SHINYANGA,37,KAHAMA,373,MWANASE,37323,KABONDO,KABONDO  MAGHARIBI
SHINYANGA,37,KAHAMA,373,MWANASE,37323,NYAMIDIDI,MAGONGWA
SHINYANGA,37,KAHAMA,373,MWANASE,37323,NYAMIDIDI,NYAMIDIDI 'A'
SHINYANGA,37,KAHAMA,373,MWANASE,37323,NYAMIDIDI,NYAMIDIDI 'B'
SHINYANGA,37,KAHAMA,373,MWANASE,37323,NYAMIDIDI,ISOMANGA
SHINYANGA,37,KAHAMA,373,MWANASE,37323,NYAMIDIDI,BUBANGA
SHINYANGA,37,KAHAMA,373,MWANASE,37323,MWAMANDI,LISU
SHINYANGA,37,KAHAMA,373,MWANASE,37323,MWAMANDI,NYANGUGANWA
SHINYANGA,37,KAHAMA,373,MWANASE,37323,MWAMANDI,MWAMANDI 'A'
SHINYANGA,37,KAHAMA,373,MWANASE,37323,MWAMANDI,MWAMANDI 'B'
SHINYANGA,37,KAHAMA,373,MWANASE,37323,UMBOGO,NTOBO
SHINYANGA,37,KAHAMA,373,MWANASE,37323,UMBOGO,KALULU
SHINYANGA,37,KAHAMA,373,MWANASE,37323,UMBOGO,UMBOGO
SHINYANGA,37,KAHAMA,373,MWANASE,37323,MWAKUHENGA,MWAKUHENGA 'A'
SHINYANGA,37,KAHAMA,373,MWANASE,37323,MWAKUHENGA,MWAKUHENGA 'B'
SHINYANGA,37,KAHAMA,373,MWANASE,37323,MWAKUHENGA,MWAHIDA
SHINYANGA,37,KAHAMA,373,MWANASE,37323,MWAKUHENGA,KABILA
SHINYANGA,37,KAHAMA,373,MWANASE,37323,NATA,NATA 'A'
SHINYANGA,37,KAHAMA,373,MWANASE,37323,NATA,NATA 'B'
SHINYANGA,37,KAHAMA,373,MWANASE,37323,NATA,KIHULUGO
SHINYANGA,37,KAHAMA,373,ISAGEHE,37324,MALENGE,MALENGE 'A'
SHINYANGA,37,KAHAMA,373,ISAGEHE,37324,MALENGE,ITUMBILI
SHINYANGA,37,KAHAMA,373,ISAGEHE,37324,MALENGE,SHANG'WANDU
SHINYANGA,37,KAHAMA,373,ISAGEHE,37324,MALENGE,NJASA
SHINYANGA,37,KAHAMA,373,ISAGEHE,37324,MALENGE,MALENGE 'B'
SHINYANGA,37,KAHAMA,373,ISAGEHE,37324,BUKOOBA,BUHEGELA
SHINYANGA,37,KAHAMA,373,ISAGEHE,37324,BUKOOBA,IRAMBA
SHINYANGA,37,KAHAMA,373,ISAGEHE,37324,BUKOOBA,BUKINGWA
SHINYANGA,37,KAHAMA,373,ISAGEHE,37324,BUKOOBA,NGOMBA
SHINYANGA,37,KAHAMA,373,ISAGEHE,37324,BUKOOBA,IKULIKILO
SHINYANGA,37,KAHAMA,373,ISAGEHE,37324,BUKOOBA,WAYI
SHINYANGA,37,KAHAMA,373,ISAGEHE,37324,MPERA,BUGAGAWI
SHINYANGA,37,KAHAMA,373,ISAGEHE,37324,MPERA,MAGITA
SHINYANGA,37,KAHAMA,373,ISAGEHE,37324,MPERA,SWIZI
SHINYANGA,37,KAHAMA,373,ISAGEHE,37324,MPERA,KASWAKADOTO
SHINYANGA,37,KAHAMA,373,ISAGEHE,37324,MPERA,ITABA
SHINYANGA,37,KAHAMA,373,ISAGEHE,37324,ISAGEHE,ISAGEHE
SHINYANGA,37,KAHAMA,373,ISAGEHE,37324,ISAGEHE,IZENGWA
SHINYANGA,37,KAHAMA,373,ISAGEHE,37324,ISAGEHE,BUGISHI
SHINYANGA,37,KAHAMA,373,ISAGEHE,37324,ISAGEHE,SESEKO
SHINYANGA,37,KAHAMA,373,ISAGEHE,37324,KIDUNYASHI,KIDUNYASHI
SHINYANGA,37,KAHAMA,373,ISAGEHE,37324,KIDUNYASHI,NTUNDU
SHINYANGA,37,KAHAMA,373,ISAGEHE,37324,KIDUNYASHI,MPERA
SHINYANGA,37,KAHAMA,373,ISAGEHE,37324,KIDUNYASHI,KILEMBA
SHINYANGA,37,KAHAMA,373,MONDO,37325,BUMBITI,BUMBITI 'A'
SHINYANGA,37,KAHAMA,373,MONDO,37325,BUMBITI,BUMBITI 'B'
SHINYANGA,37,KAHAMA,373,MONDO,37325,BUMBITI,IGEGU 'A'
SHINYANGA,37,KAHAMA,373,MONDO,37325,BUMBITI,IGEGU 'B'
SHINYANGA,37,KAHAMA,373,MONDO,37325,BUMBITI,ITUGUNHU
SHINYANGA,37,KAHAMA,373,MONDO,37325,SANGILWA,NGIHI
SHINYANGA,37,KAHAMA,373,MONDO,37325,SANGILWA,BUTUNILA
SHINYANGA,37,KAHAMA,373,MONDO,37325,SANGILWA,ILENGETI
SHINYANGA,37,KAHAMA,373,MONDO,37325,SANGILWA,BUBAGASA
SHINYANGA,37,KAHAMA,373,MONDO,37325,SANGILWA,ITUGUNHU
SHINYANGA,37,KAHAMA,373,MONDO,37325,MONDO,BUGISHA
SHINYANGA,37,KAHAMA,373,MONDO,37325,MONDO,NSENE
SHINYANGA,37,KAHAMA,373,MONDO,37325,MONDO,LYAMALAGWA
SHINYANGA,37,KAHAMA,373,MONDO,37325,MONDO,KASELYA
SHINYANGA,37,KAHAMA,373,MONDO,37325,MONDO,MONDO KATI
SHINYANGA,37,KAHAMA,373,MONDO,37325,PENZI,PENZI CENTRE
SHINYANGA,37,KAHAMA,373,MONDO,37325,PENZI,PENZI 'A'
SHINYANGA,37,KAHAMA,373,MONDO,37325,PENZI,PENZI 'B'
SHINYANGA,37,KAHAMA,373,MONDO,37325,PENZI,MAPINGILI 'A'
SHINYANGA,37,KAHAMA,373,MONDO,37325,PENZI,MAPINGILI 'B'
SHINYANGA,37,KAHAMA,373,MONDO,37325,MWANZWAGI,MWANKINDI 'A'
SHINYANGA,37,KAHAMA,373,MONDO,37325,MWANZWAGI,MWANKINDI 'B'
SHINYANGA,37,KAHAMA,373,MONDO,37325,MWANZWAGI,MWANZWAGI 'A'
SHINYANGA,37,KAHAMA,373,MONDO,37325,MWANZWAGI,MWANZWAGI 'B'
SHINYANGA,37,KAHAMA,373,MONDO,37325,MWANZWAGI,MWANIMBULWA
SHINYANGA,37,KAHAMA,373,MONDO,37325,MWANZWAGI,MWAMBASA
SHINYANGA,37,KAHAMA,373,KAGONGWA,37326,KISHIMA,KISHIMA
SHINYANGA,37,KAHAMA,373,KAGONGWA,37326,KISHIMA,ITEMBE
SHINYANGA,37,KAHAMA,373,KAGONGWA,37326,KAGONGWA,KANEGELE
SHINYANGA,37,KAHAMA,373,KAGONGWA,37326,KAGONGWA,KAGONGWA
SHINYANGA,37,KAHAMA,373,KAGONGWA,37326,KAGONGWA,IPYAGULA
SHINYANGA,37,KAHAMA,373,KAGONGWA,37326,KAGONGWA,SENTA 'A'
SHINYANGA,37,KAHAMA,373,KAGONGWA,37326,KAGONGWA,SENTA 'B'
SHINYANGA,37,KAHAMA,373,KAGONGWA,37326,IPONYA,PARKING
SHINYANGA,37,KAHAMA,373,KAGONGWA,37326,IPONYA,IGALILIMI
SHINYANGA,37,KAHAMA,373,KAGONGWA,37326,IPONYA,KOLANDOTO
SHINYANGA,37,KAHAMA,373,KAGONGWA,37326,IPONYA,INYANGA 'A'
SHINYANGA,37,KAHAMA,373,KAGONGWA,37326,IPONYA,INYANGA 'B'
SHINYANGA,37,KAHAMA,373,KAGONGWA,37326,GEMBE,GEMBE
SHINYANGA,37,KAHAMA,373,KAGONGWA,37326,GEMBE,BULYASUNGWI
SHINYANGA,37,KAHAMA,373,KAGONGWA,37326,GEMBE,ISHILA
SHINYANGA,37,KAHAMA,373,KAGONGWA,37326,GEMBE,MJIMWEMA
SHINYANGA,37,KAHAMA,373,MWALUGULU,37327,MWALUGULU,MWALUGULU
SHINYANGA,37,KAHAMA,373,MWALUGULU,37327,MWALUGULU,MWANZUGI
SHINYANGA,37,KAHAMA,373,MWALUGULU,37327,MWALUGULU,KIGWANG'HONA
SHINYANGA,37,KAHAMA,373,MWALUGULU,37327,MWALUGULU,MWANGOLOGOLO
SHINYANGA,37,KAHAMA,373,MWALUGULU,37327,MWALUGULU,MWABASI
SHINYANGA,37,KAHAMA,373,MWALUGULU,37327,MWALUGULU,ILANDALA
SHINYANGA,37,KAHAMA,373,MWALUGULU,37327,MWALUGULU,ITEMELO
SHINYANGA,37,KAHAMA,373,MWALUGULU,37327,KILIMBU,KILIMBU
SHINYANGA,37,KAHAMA,373,MWALUGULU,37327,KILIMBU,SAKE
SHINYANGA,37,KAHAMA,373,MWALUGULU,37327,KILIMBU,MWANGOYE
SHINYANGA,37,KAHAMA,373,MWALUGULU,37327,KILIMBU,UKILIGULU
SHINYANGA,37,KAHAMA,373,MWALUGULU,37327,KILIMBU,MWABALUHI
SHINYANGA,37,KAHAMA,373,MWALUGULU,37327,KILIMBU,MWADUI
SHINYANGA,37,KAHAMA,373,MWALUGULU,37327,KILIMBU,MWAKITOLYO
SHINYANGA,37,KAHAMA,373,MWALUGULU,37327,KILIMBU,NENGONENGO
SHINYANGA,37,KAHAMA,373,MWALUGULU,37327,SUNGAMILE,SUNGAMILE
SHINYANGA,37,KAHAMA,373,MWALUGULU,37327,SUNGAMILE,MWANDUKULA
SHINYANGA,37,KAHAMA,373,MWALUGULU,37327,SUNGAMILE,MWAGIMAGI
SHINYANGA,37,KAHAMA,373,MWALUGULU,37327,SUNGAMILE,MWAMPINDA
SHINYANGA,37,KAHAMA,373,MWALUGULU,37327,SUNGAMILE,MWANZUGI
SHINYANGA,37,KAHAMA,373,MWALUGULU,37327,SUNGAMILE,MWALUMO
SHINYANGA,37,KAHAMA,373,MWALUGULU,37327,SUNGAMILE,KANUNGU
SHINYANGA,37,KAHAMA,373,MWALUGULU,37327,SUNGAMILE,IGALULA
SHINYANGA,37,KAHAMA,373,MWALUGULU,37327,MWANKIMA,MWANKUBA
SHINYANGA,37,KAHAMA,373,MWALUGULU,37327,MWANKIMA,MWABAGEHU
SHINYANGA,37,KAHAMA,373,MWALUGULU,37327,MWANKIMA,MWAMAKULUMO
SHINYANGA,37,KAHAMA,373,MWALUGULU,37327,MWANKIMA,INYANJA
SHINYANGA,37,KAHAMA,373,MWALUGULU,37327,MWANKIMA,MWAMAGUBU
SHINYANGA,37,KAHAMA,373,MWALUGULU,37327,MWANKIMA,MWAMABITI
SHINYANGA,37,KAHAMA,373,MWALUGULU,37327,IGUNDU,IGUNDU MASHARIKI
SHINYANGA,37,KAHAMA,373,MWALUGULU,37327,IGUNDU,IGUNDU MAGHARIBI
SHINYANGA,37,KAHAMA,373,MWALUGULU,37327,IGUNDU,MWANKIMA
SHINYANGA,37,KAHAMA,373,MWALUGULU,37327,IGUNDU,MWAMAYOKA
SHINYANGA,37,KAHAMA,373,MWALUGULU,37327,IGUNDU,MALEWE
SHINYANGA,37,KAHAMA,373,MWALUGULU,37327,IGUNDU,MAGONGWA
SHINYANGA,37,KAHAMA,373,MWALUGULU,37327,IGUNDU,MWANKIMA SENTA
SHINYANGA,37,KAHAMA,373,MWALUGULU,37327,BANHI,BANHI
SHINYANGA,37,KAHAMA,373,MWALUGULU,37327,BANHI,NG'HWANDE
SHINYANGA,37,KAHAMA,373,MWALUGULU,37327,BANHI,MWASENGI
SHINYANGA,37,KAHAMA,373,MWALUGULU,37327,BANHI,NHULUNUNHU
SHINYANGA,37,KAHAMA,373,MWALUGULU,37327,BANHI,KALANGALE
SHINYANGA,37,KAHAMA,373,MWALUGULU,37327,BANHI,BANHI MASHARIKI
SHINYANGA,37,KAHAMA,373,JANA,37328,JANA,KALANGALE
SHINYANGA,37,KAHAMA,373,JANA,37328,JANA,BUKALANGI
SHINYANGA,37,KAHAMA,373,JANA,37328,JANA,MWALUGULU
SHINYANGA,37,KAHAMA,373,JANA,37328,JANA,BULINGW'ANDALA
SHINYANGA,37,KAHAMA,373,JANA,37328,JANA,IGOMBE
SHINYANGA,37,KAHAMA,373,JANA,37328,BUTONDOLO,BUTONDOLO
SHINYANGA,37,KAHAMA,373,JANA,37328,BUTONDOLO,SHIKONGE
SHINYANGA,37,KAHAMA,373,JANA,37328,BUTONDOLO,KITONGO
SHINYANGA,37,KAHAMA,373,JANA,37328,BUTONDOLO,SESEKO
SHINYANGA,37,KAHAMA,373,JANA,37328,BUTONDOLO,NYAMALE
SHINYANGA,37,KAHAMA,373,JANA,37328,BULUMA,BULUMA
SHINYANGA,37,KAHAMA,373,JANA,37328,BULUMA,SENGEREMA
SHINYANGA,37,KAHAMA,373,JANA,37328,BULUMA,MWAMALULU
SHINYANGA,37,KAHAMA,373,JANA,37328,BULUMA,IGUNDU
SHINYANGA,37,KAHAMA,373,JANA,37328,BULUMA,MASESE
SHINYANGA,37,KAHAMA,373,JANA,37328,BULUMA,NYANGALATA
SHINYANGA,37,KAHAMA,373,JANA,37328,BUBUNGU,BUBUNGU
SHINYANGA,37,KAHAMA,373,JANA,37328,BUBUNGU,KADATI
SHINYANGA,37,KAHAMA,373,JANA,37328,BUBUNGU,MWAMASHOKELO
SHINYANGA,37,KAHAMA,373,JANA,37328,BUBUNGU,IGOMBE
SHINYANGA,37,KAHAMA,373,JANA,37328,IZUGA,IZUGA 'A'
SHINYANGA,37,KAHAMA,373,JANA,37328,IZUGA,NG'WANDUHUBUBELE
SHINYANGA,37,KAHAMA,373,JANA,37328,IZUGA,MAGONGWA
SHINYANGA,37,KAHAMA,373,JANA,37328,IZUGA,ISUMBA
SHINYANGA,37,KAHAMA,373,JANA,37328,MATINJE,MATINJE
SHINYANGA,37,KAHAMA,373,JANA,37328,MATINJE,BABANI
SHINYANGA,37,KAHAMA,373,JANA,37328,MATINJE,MWABAYANDA
SHINYANGA,37,KAHAMA,373,ISAKA,37329,ISAKA,NTUNGULU
SHINYANGA,37,KAHAMA,373,ISAKA,37329,ISAKA,BUCHAMA
SHINYANGA,37,KAHAMA,373,ISAKA,37329,ISAKA,ILULUMA
SHINYANGA,37,KAHAMA,373,ISAKA,37329,ISAKA,BUFERA
SHINYANGA,37,KAHAMA,373,ISAKA,37329,ISAKA,KATUNDU
SHINYANGA,37,KAHAMA,373,ISAKA,37329,ITOGWANG'HOLO,ITOGWANG'HOLO
SHINYANGA,37,KAHAMA,373,ISAKA,37329,ITOGWANG'HOLO,IYOGELO
SHINYANGA,37,KAHAMA,373,ISAKA,37329,ITOGWANG'HOLO,ISADUKILO
SHINYANGA,37,KAHAMA,373,ISAKA,37329,ITOGWANG'HOLO,NSHISHINULU
SHINYANGA,37,KAHAMA,373,ISAKA,37329,ISAKA STATION,ISAKA STATION
SHINYANGA,37,KAHAMA,373,ISAKA,37329,ISAKA STATION,BUSEGEJI
SHINYANGA,37,KAHAMA,373,ISAKA,37329,ISAKA STATION,SHILABELA
SHINYANGA,37,KAHAMA,373,ISAKA,37329,ISAKA STATION,MAJENGO
SHINYANGA,37,KAHAMA,373,ISAKA,37329,BANDARI,IGWATA
SHINYANGA,37,KAHAMA,373,ISAKA,37329,BANDARI,MKOROSHONI
SHINYANGA,37,KAHAMA,373,ISAKA,37329,BANDARI,BANDARI
SHINYANGA,37,KAHAMA,373,ISAKA,37329,BANDARI,MWEMBECHAI
SHINYANGA,37,KAHAMA,373,ISAKA,37329,BANDARI,MTENDENI
SHINYANGA,37,KAHAMA,373,BUSOKA,37330,SUNGE,
SHINYANGA,37,KAHAMA,373,BUSOKA,37330,BUSOKA,
SHINYANGA,37,KAHAMA,373,BUSOKA,37330,KITWANA,
SHINYANGA,37,KAHAMA,373,NYANDEKWA,37331,BUDUBA,BUDUBA
SHINYANGA,37,KAHAMA,373,NYANDEKWA,37331,BUDUBA,LUTENDE
SHINYANGA,37,KAHAMA,373,NYANDEKWA,37331,NYANDEKWA,NYANDEKWA
SHINYANGA,37,KAHAMA,373,NYANDEKWA,37331,NYANDEKWA,NKONDOGWA
SHINYANGA,37,KAHAMA,373,NYANDEKWA,37331,NYANDEKWA,BUSOLO
SHINYANGA,37,KAHAMA,373,NYANDEKWA,37331,NYANDEKWA,BASEKA
SHINYANGA,37,KAHAMA,373,NYANDEKWA,37331,NYANDEKWA,GEMBE
SHINYANGA,37,KAHAMA,373,NYANDEKWA,37331,NYANDEKWA,KIGUNGUMULI
SHINYANGA,37,KAHAMA,373,NYANDEKWA,37331,BUJIKA,NHALAMBO
SHINYANGA,37,KAHAMA,373,NYANDEKWA,37331,BUJIKA,BUJIKA
SHINYANGA,37,KAHAMA,373,NYANDEKWA,37331,BUJIKA,SHININGA
SHINYANGA,37,KAHAMA,373,NYANDEKWA,37331,BUJIKA,MAGOBEKO
SHINYANGA,37,KAHAMA,373,NYANDEKWA,37331,BUJIKA,KASELA
SHINYANGA,37,KAHAMA,373,NYANDEKWA,37331,KAKEBE,CHAMACHIMU
SHINYANGA,37,KAHAMA,373,NYANDEKWA,37331,KAKEBE,IBADILA
SHINYANGA,37,KAHAMA,373,NYANDEKWA,37331,KAKEBE,ISUNDAKISEME
SHINYANGA,37,KAHAMA,373,NYANDEKWA,37331,KAKEBE,IHUSHI
SHINYANGA,37,KAHAMA,373,NYANDEKWA,37331,KAKEBE,INYANGA
SHINYANGA,37,KAHAMA,373,NYANDEKWA,37331,KAKEBE,IHASHI
SHINYANGA,37,KAHAMA,373,NYANDEKWA,37331,KAKEBE,NGOTO
SHINYANGA,37,KAHAMA,373,NYANDEKWA,37331,CHALYA,CHALYA
SHINYANGA,37,KAHAMA,373,NYANDEKWA,37331,CHALYA,MALAMBA
SHINYANGA,37,KAHAMA,373,NYANDEKWA,37331,KILENGWE,KILENGWE
SHINYANGA,37,KAHAMA,373,NYANDEKWA,37331,KILENGWE,LOWA
SHINYANGA,37,KAHAMA,373,NYANDEKWA,37331,LOWA,IFUKILI
SHINYANGA,37,KAHAMA,373,NYANDEKWA,37331,LOWA,LWINZILWAMHUNDU
SHINYANGA,37,KAHAMA,373,NYANDEKWA,37331,LOWA,MISSION
SHINYANGA,37,KAHAMA,373,KILAGO,37332,KILAGO,KILAGO
SHINYANGA,37,KAHAMA,373,KILAGO,37332,KILAGO,BUDUTU
SHINYANGA,37,KAHAMA,373,KILAGO,37332,KILAGO,GIRIME
SHINYANGA,37,KAHAMA,373,KILAGO,37332,KILAGO,NYALWINZI
SHINYANGA,37,KAHAMA,373,KILAGO,37332,NYANHEMBE,ITAGA
SHINYANGA,37,KAHAMA,373,KILAGO,37332,NYANHEMBE,NTIBA
SHINYANGA,37,KAHAMA,373,KILAGO,37332,NYANHEMBE,KABANGA
SHINYANGA,37,KAHAMA,373,KILAGO,37332,NYANHEMBE,KIHIMBO
SHINYANGA,37,KAHAMA,373,KILAGO,37332,NYANHEMBE,IKOMBABUKI
SHINYANGA,37,KAHAMA,373,KILAGO,37332,NYANHEMBE,ILUGUTI
SHINYANGA,37,KAHAMA,373,KILAGO,37332,SHININGA,KITONGOJI 'A'
SHINYANGA,37,KAHAMA,373,KILAGO,37332,SHININGA,KITONGOJI 'B'
SHINYANGA,37,KAHAMA,373,KILAGO,37332,SHININGA,KITONGOJI 'C'
SHINYANGA,37,KAHAMA,373,KILAGO,37332,SHININGA,KITONGOJI 'D'
SHINYANGA,37,KAHAMA,373,KILAGO,37332,SHININGA,KAGONGWA
SHINYANGA,37,KAHAMA,373,KILAGO,37332,SHININGA,DUHU
SHINYANGA,37,KAHAMA,373,KILAGO,37332,SHININGA,MASADUKILO
SHINYANGA,37,KAHAMA,373,KILAGO,37332,TULOLE,TULOLE
SHINYANGA,37,KAHAMA,373,KILAGO,37332,TULOLE,NTUNGULU
SHINYANGA,37,KAHAMA,373,KILAGO,37332,TULOLE,KALIBA
SHINYANGA,37,KAHAMA,373,KILAGO,37332,TULOLE,MHINDA
SHINYANGA,37,KAHAMA,373,KILAGO,37332,UFALA,UFALA MASHARIKI
SHINYANGA,37,KAHAMA,373,KILAGO,37332,UFALA,UFALA KATI
SHINYANGA,37,KAHAMA,373,KILAGO,37332,UFALA,NGUDU
SHINYANGA,37,KAHAMA,373,KILAGO,37332,UFALA,KIYINZA MASHARIKI
SHINYANGA,37,KAHAMA,373,KILAGO,37332,UFALA,KIYINZA MAGHARIBI
SHINYANGA,37,KAHAMA,373,KILAGO,37332,WAME,WAME 'A'
SHINYANGA,37,KAHAMA,373,KILAGO,37332,WAME,WAME 'B'
SHINYANGA,37,KAHAMA,373,IYENZE,37333,IYENZE,IYENZE SENTA
SHINYANGA,37,KAHAMA,373,IYENZE,37333,IYENZE,IYENZE KASKAZINI
SHINYANGA,37,KAHAMA,373,IYENZE,37333,IYENZE,IYENZE MASHARIKI
SHINYANGA,37,KAHAMA,373,IYENZE,37333,IYENZE,ISAGEHE
SHINYANGA,37,KAHAMA,373,IYENZE,37333,IYENZE,BUCHAMA
SHINYANGA,37,KAHAMA,373,IYENZE,37333,IYENZE,ITWILIKE
SHINYANGA,37,KAHAMA,373,IYENZE,37333,KAWE,KAWE 'A'
SHINYANGA,37,KAHAMA,373,IYENZE,37333,KAWE,KAWE 'B'
SHINYANGA,37,KAHAMA,373,IYENZE,37333,KAWE,KAMILASATO
SHINYANGA,37,KAHAMA,373,IYENZE,37333,KAWE,MASEKA
SHINYANGA,37,KAHAMA,373,IYENZE,37333,ISHIKI,ISHIKI 'A'
SHINYANGA,37,KAHAMA,373,IYENZE,37333,ISHIKI,ISHIKI 'B'
SHINYANGA,37,KAHAMA,373,IYENZE,37333,ISHIKI,HOLOHONDO
SHINYANGA,37,KAHAMA,373,IYENZE,37333,ISALENGE,ISALENGE 'A'
SHINYANGA,37,KAHAMA,373,IYENZE,37333,ISALENGE,ISALENGE 'B'
SHINYANGA,37,KAHAMA,373,IYENZE,37333,ISALENGE,MAPINGILI
SHINYANGA,37,KAHAMA,373,IYENZE,37333,ISALENGE,BUTAWAMBOGO
SHINYANGA,37,KAHAMA,373,IYENZE,37333,ILUNGU,ILUNGU 'A'
SHINYANGA,37,KAHAMA,373,IYENZE,37333,ILUNGU,ILUNGU 'B'
SHINYANGA,37,KAHAMA,373,NTOBO,37334,BUGANZO,BUGANZO
SHINYANGA,37,KAHAMA,373,NTOBO,37334,BUGANZO,BUMBITI
SHINYANGA,37,KAHAMA,373,NTOBO,37334,BUGANZO,IZENGWABAHALA
SHINYANGA,37,KAHAMA,373,NTOBO,37334,BUGANZO,MWABALUHI
SHINYANGA,37,KAHAMA,373,NTOBO,37334,NTOBO 'A',WICHAMIKE
SHINYANGA,37,KAHAMA,373,NTOBO,37334,NTOBO 'A',BUKALANGI
SHINYANGA,37,KAHAMA,373,NTOBO,37334,KALAGWA,KALAGWA
SHINYANGA,37,KAHAMA,373,NTOBO,37334,KALAGWA,JAMIDA
SHINYANGA,37,KAHAMA,373,NTOBO,37334,KALAGWA,NGELELA
SHINYANGA,37,KAHAMA,373,NTOBO,37334,BUKWANGU,BUKWANGU
SHINYANGA,37,KAHAMA,373,NTOBO,37334,BUKWANGU,NHABILA
SHINYANGA,37,KAHAMA,373,NTOBO,37334,BUKWANGU,IGOBOLE
SHINYANGA,37,KAHAMA,373,NTOBO,37334,NTOBO 'B',NYASUBI
SHINYANGA,37,KAHAMA,373,NTOBO,37334,NTOBO 'B',SAKANO
SHINYANGA,37,KAHAMA,373,NTOBO,37334,NTOBO 'B',NTUNDU
SHINYANGA,37,KAHAMA,373,NGAYA,37335,NGAYA,NGIHI
SHINYANGA,37,KAHAMA,373,NGAYA,37335,NGAYA,ILEGEJA
SHINYANGA,37,KAHAMA,373,NGAYA,37335,NGAYA,NYAHANGA
SHINYANGA,37,KAHAMA,373,NGAYA,37335,NGAYA,MALIMBE
SHINYANGA,37,KAHAMA,373,NGAYA,37335,NGAYA,BULAGAJA
SHINYANGA,37,KAHAMA,373,NGAYA,37335,NGAYA,INELEJA
SHINYANGA,37,KAHAMA,373,NGAYA,37335,IGOMBE,IGOMBE
SHINYANGA,37,KAHAMA,373,NGAYA,37335,IGOMBE,LUBUBU
SHINYANGA,37,KAHAMA,373,NGAYA,37335,IGOMBE,INYASULE
SHINYANGA,37,KAHAMA,373,NGAYA,37335,BUTEGWA,BUTEGWA
SHINYANGA,37,KAHAMA,373,NGAYA,37335,BUTEGWA,NYANGOTA
SHINYANGA,37,KAHAMA,373,NGAYA,37335,KAKULU,KAKULU
SHINYANGA,37,KAHAMA,373,NGAYA,37335,KAKULU,MWAMAGILI
SHINYANGA,37,KAHAMA,373,NGAYA,37335,KAKULU,ISENEGEJA
SHINYANGA,37,KAHAMA,373,NGAYA,37335,MWASHIMBAYI,MWASHIMBAYI 'A'
SHINYANGA,37,KAHAMA,373,NGAYA,37335,MWASHIMBAYI,MWASHIMBAYI 'B'
SHINYANGA,37,KAHAMA,373,NGAYA,37335,MWASHIMBAYI,MWAMABESHI
SHINYANGA,37,KAHAMA,373,NGAYA,37335,MHAMA,MHAMA
SHINYANGA,37,KAHAMA,373,NGAYA,37335,MHAMA,MKUYUNI
SHINYANGA,37,KAHAMA,373,NGAYA,37335,MHAMA,MWAMHULI
SHINYANGA,37,KAHAMA,373,NGAYA,37335,MHAMA,ISENEGEJA
SHINYANGA,37,KAHAMA,373,IKINDA,37336,BUZIMA,BUZIMA
SHINYANGA,37,KAHAMA,373,IKINDA,37336,BUZIMA,IBADILA
SHINYANGA,37,KAHAMA,373,IKINDA,37336,BUZIMA,MTENDENI
SHINYANGA,37,KAHAMA,373,IKINDA,37336,IKINDA,IKINDA
SHINYANGA,37,KAHAMA,373,IKINDA,37336,IKINDA,INONGA
SHINYANGA,37,KAHAMA,373,IKINDA,37336,IKINDA,KAYENZE
SHINYANGA,37,KAHAMA,373,IKINDA,37336,IKINDA,KISEKE
SHINYANGA,37,KAHAMA,373,IKINDA,37336,NYAKADONI,KAMENA
SHINYANGA,37,KAHAMA,373,IKINDA,37336,NYAKADONI,NYAKADONI
SHINYANGA,37,KAHAMA,373,IKINDA,37336,NYAKADONI,NYAKADONI 'B'
SHINYANGA,37,KAHAMA,373,IKINDA,37336,NDALILO,NDALILO 'A'
SHINYANGA,37,KAHAMA,373,IKINDA,37336,NDALILO,NDALILO 'B'
SHINYANGA,37,KAHAMA,373,IKINDA,37336,IZUMBA,IZUMBA
SHINYANGA,37,KAHAMA,373,IKINDA,37336,IZUMBA,MUHA
SHINYANGA,37,KAHAMA,373,IKINDA,37336,IZUMBA,IBIRIZI
SHINYANGA,37,KAHAMA,373,IKINDA,37336,IZUMBA,LUGULU
SHINYANGA,37,KAHAMA,373,IKINDA,37336,IZUMBA,BUSUNGA
SHINYANGA,37,KAHAMA,373,SHILELA,37337,SHILELA,WILUNGWA 'A'
SHINYANGA,37,KAHAMA,373,SHILELA,37337,SHILELA,WILUNGWA 'B'
SHINYANGA,37,KAHAMA,373,SHILELA,37337,SHILELA,SHILELA KATI
SHINYANGA,37,KAHAMA,373,SHILELA,37337,SHILELA,BUKENGEZI
SHINYANGA,37,KAHAMA,373,SHILELA,37337,ILELEMA,UGANDA
SHINYANGA,37,KAHAMA,373,SHILELA,37337,ILELEMA,TANZANIA
SHINYANGA,37,KAHAMA,373,SHILELA,37337,ILELEMA,NKONZE 'A'
SHINYANGA,37,KAHAMA,373,SHILELA,37337,ILELEMA,NKONZE 'B'
SHINYANGA,37,KAHAMA,373,SHILELA,37337,ILELEMA,ILELEMA
SHINYANGA,37,KAHAMA,373,SHILELA,37337,MALITO,MALITO KATI
SHINYANGA,37,KAHAMA,373,SHILELA,37337,MALITO,MALITO 'A'
SHINYANGA,37,KAHAMA,373,SHILELA,37337,MALITO,MALITO 'B'
SHINYANGA,37,KAHAMA,373,SHILELA,37337,MALITO,KILUZI
SHINYANGA,37,KAHAMA,373,SHILELA,37337,NDALA,MWASUKUMAJI
SHINYANGA,37,KAHAMA,373,SHILELA,37337,NDALA,KASENGE
SHINYANGA,37,KAHAMA,373,SHILELA,37337,NDALA,NDUHANI
SHINYANGA,37,KAHAMA,373,SHILELA,37337,NYIKOBOKO,NYIBOKO
SHINYANGA,37,KAHAMA,373,SHILELA,37337,NYIKOBOKO,BUNG'WAMINZI
SHINYANGA,37,KAHAMA,373,SHILELA,37337,NYIKOBOKO,IGWAMANONI
SHINYANGA,37,KAHAMA,373,MWAKATA,37338,MWAKATA,MWAKATA
SHINYANGA,37,KAHAMA,373,MWAKATA,37338,MWAKATA,MWABAYANDA
SHINYANGA,37,KAHAMA,373,MWAKATA,37338,MWAKATA,MBUYUNI
SHINYANGA,37,KAHAMA,373,MWAKATA,37338,MWAKATA,BUYOZI
SHINYANGA,37,KAHAMA,373,MWAKATA,37338,NHUMBI,NHUMBI
SHINYANGA,37,KAHAMA,373,MWAKATA,37338,NHUMBI,ILUBALO
SHINYANGA,37,KAHAMA,373,MWAKATA,37338,NHUMBI,MAGONGWA
SHINYANGA,37,KAHAMA,373,MWAKATA,37338,MAGUNG'HUMWA,INONI
SHINYANGA,37,KAHAMA,373,MWAKATA,37338,MAGUNG'HUMWA,MAINI
SHINYANGA,37,KAHAMA,373,MWAKATA,37338,MAGUNG'HUMWA,BONDENI
SHINYANGA,37,KAHAMA,373,MWAKATA,37338,MAGUNG'HUMWA,MAGUNG'HUMWA
SHINYANGA,37,KAHAMA,373,MWAKATA,37338,MWASHIGINI,NATA
SHINYANGA,37,KAHAMA,373,MWAKATA,37338,MWASHIGINI,MWASHIGINI
SHINYANGA,37,KAHAMA,373,MWAKATA,37338,MWASHIGINI,MWANYAGULA
SHINYANGA,37,KAHAMA,373,MWAKATA,37338,MWASHIGINI,MWANG'HALANGA
SHINYANGA,37,KAHAMA,373,MWAKATA,37338,MWASHIGINI,MWASHUGI
SHINYANGA,37,KAHAMA,373,CHONA,37339,ITEBELE,ITEBELE 'A'
SHINYANGA,37,KAHAMA,373,CHONA,37339,ITEBELE,ITEBELE 'B'
SHINYANGA,37,KAHAMA,373,CHONA,37339,ITEBELE,ITEBELE 'C'
SHINYANGA,37,KAHAMA,373,CHONA,37339,ITEBELE,NYAHANGA 'A'
SHINYANGA,37,KAHAMA,373,CHONA,37339,ITEBELE,NYAHANGA 'B'
SHINYANGA,37,KAHAMA,373,CHONA,37339,ITEBELE,KWAYA
SHINYANGA,37,KAHAMA,373,CHONA,37339,ITEBELE,IPENENHYA
SHINYANGA,37,KAHAMA,373,CHONA,37339,NSALABA,NSALABA 'A'
SHINYANGA,37,KAHAMA,373,CHONA,37339,NSALABA,NSALABA 'B'
SHINYANGA,37,KAHAMA,373,CHONA,37339,NSALABA,BUTEGWA
SHINYANGA,37,KAHAMA,373,CHONA,37339,NSALABA,NSANA
SHINYANGA,37,KAHAMA,373,CHONA,37339,NSALABA,BUMBITI
SHINYANGA,37,KAHAMA,373,CHONA,37339,NSALABA,NTANGALA
SHINYANGA,37,KAHAMA,373,CHONA,37339,BUSENDA,BUSENDA 'A'
SHINYANGA,37,KAHAMA,373,CHONA,37339,BUSENDA,BUSENDA 'B'
SHINYANGA,37,KAHAMA,373,CHONA,37339,BUSENDA,BUSENDA 'C'
SHINYANGA,37,KAHAMA,373,CHONA,37339,BUSENDA,NYABUHELE
SHINYANGA,37,KAHAMA,373,CHONA,37339,BUSENDA,IMAMBO 'A'
SHINYANGA,37,KAHAMA,373,CHONA,37339,BUSENDA,IMAMBO 'B'
SHINYANGA,37,KAHAMA,373,CHONA,37339,BUSENDA,HUNDI
SHINYANGA,37,KAHAMA,373,CHONA,37339,NHIMBO,NHIMBO 'A'
SHINYANGA,37,KAHAMA,373,CHONA,37339,NHIMBO,NHIMBO 'B'
SHINYANGA,37,KAHAMA,373,CHONA,37339,NHIMBO,NHIMBO 'C'
SHINYANGA,37,KAHAMA,373,CHONA,37339,NHIMBO,NHIMBO 'D'
SHINYANGA,37,KAHAMA,373,CHONA,37339,NHIMBO,BUGELEKA
SHINYANGA,37,KAHAMA,373,CHONA,37339,NHIMBO,BUYOMBO
SHINYANGA,37,KAHAMA,373,CHONA,37339,NHIMBO,MKWAJUNI
SHINYANGA,37,KAHAMA,373,CHONA,37339,NHIMBO,BULEKWAMHULI
SHINYANGA,37,KAHAMA,373,CHONA,37339,NHIMBO,KILELAMVI
SHINYANGA,37,KAHAMA,373,CHONA,37339,NHIMBO,USIULIZE
SHINYANGA,37,KAHAMA,373,CHONA,37339,ISHILA,ISHILA 'A'
SHINYANGA,37,KAHAMA,373,CHONA,37339,ISHILA,ISHILA 'B'
SHINYANGA,37,KAHAMA,373,CHONA,37339,ISHILA,ISHILA 'C'
SHINYANGA,37,KAHAMA,373,CHONA,37339,CHONA,CHONA 'A'
SHINYANGA,37,KAHAMA,373,CHONA,37339,CHONA,CHONA 'B'
SHINYANGA,37,KAHAMA,373,CHONA,37339,CHONA,CHONA 'C' (IBUMBA)
SHINYANGA,37,KAHAMA,373,CHONA,37339,CHONA,TUYI 'A'
SHINYANGA,37,KAHAMA,373,CHONA,37339,CHONA,TUYI 'B'
SHINYANGA,37,KAHAMA,373,CHONA,37339,CHONA,BUKALILA
SHINYANGA,37,KAHAMA,373,CHONA,37339,CHONA,IGENYELA 'A'
SHINYANGA,37,KAHAMA,373,CHONA,37339,CHONA,IGENYELA 'B'
SHINYANGA,37,KAHAMA,373,CHONA,37339,NSHIMBA,NSHIMBA 'A'
SHINYANGA,37,KAHAMA,373,CHONA,37339,NSHIMBA,NSHIMBA 'B'
SHINYANGA,37,KAHAMA,373,CHONA,37339,NSHIMBA,BUGILA
SHINYANGA,37,KAHAMA,373,CHONA,37339,NSHIMBA,ILASANILO
SHINYANGA,37,KAHAMA,373,CHONA,37339,NSHIMBA,BUDUSHI
SHINYANGA,37,KAHAMA,373,CHONA,37339,NSHIMBA,SHIMBA SHULENI
SHINYANGA,37,KAHAMA,373,CHONA,37339,NSHIMBA,BUKOMBOZI
SHINYANGA,37,KAHAMA,373,CHONA,37339,NSHIMBA,SHILABELA
SHINYANGA,37,KAHAMA,373,CHONA,37339,NSHIMBA,BUKULA
SHINYANGA,37,KAHAMA,373,CHAMBO,37340,SELYA,KANEGELE
SHINYANGA,37,KAHAMA,373,CHAMBO,37340,SELYA,SHINYANGA
SHINYANGA,37,KAHAMA,373,CHAMBO,37340,SELYA,ISUBALILO SENTA
SHINYANGA,37,KAHAMA,373,CHAMBO,37340,SELYA,IMALAKASEKO
SHINYANGA,37,KAHAMA,373,CHAMBO,37340,SELYA,MWAMAPULI
SHINYANGA,37,KAHAMA,373,CHAMBO,37340,SELYA,SELYA SENTA
SHINYANGA,37,KAHAMA,373,CHAMBO,37340,NYAWISHI,NYAWISHI SENTA
SHINYANGA,37,KAHAMA,373,CHAMBO,37340,NYAWISHI,NYAWISHI 'A'
SHINYANGA,37,KAHAMA,373,CHAMBO,37340,NYAWISHI,NYAWISHI 'B'
SHINYANGA,37,KAHAMA,373,CHAMBO,37340,NYAWISHI,IGUNGA 'A'
SHINYANGA,37,KAHAMA,373,CHAMBO,37340,NYAWISHI,IGUNGA 'B'
SHINYANGA,37,KAHAMA,373,CHAMBO,37340,NYAWISHI,ISUMBULA 'A'
SHINYANGA,37,KAHAMA,373,CHAMBO,37340,NYAWISHI,ISUMBULA 'B'
SHINYANGA,37,KAHAMA,373,CHAMBO,37340,NYAWISHI,NTAMBALALE
SHINYANGA,37,KAHAMA,373,CHAMBO,37340,NYAWISHI,NTUNGULU
SHINYANGA,37,KAHAMA,373,CHAMBO,37340,CHAMBO,CHAMBO SENTA
SHINYANGA,37,KAHAMA,373,CHAMBO,37340,CHAMBO,NTAMBALALE
SHINYANGA,37,KAHAMA,373,CHAMBO,37340,CHAMBO,KILI
SHINYANGA,37,KAHAMA,373,CHAMBO,37340,CHAMBO,BUHEHE
SHINYANGA,37,KAHAMA,373,CHAMBO,37340,CHAMBO,SAGUSA
SHINYANGA,37,KAHAMA,373,CHAMBO,37340,CHAMBO,ISUBALILO
SHINYANGA,37,KAHAMA,373,CHAMBO,37340,ITUMBILI,ILEGE
SHINYANGA,37,KAHAMA,373,CHAMBO,37340,ITUMBILI,ITUMBILI 'A'
SHINYANGA,37,KAHAMA,373,CHAMBO,37340,ITUMBILI,ITUMBILI 'B'
SHINYANGA,37,KAHAMA,373,CHAMBO,37340,ITUMBILI,ITUMBILI 'C'
SHINYANGA,37,KAHAMA,373,CHAMBO,37340,ITUMBILI,WELA
SHINYANGA,37,KAHAMA,373,CHAMBO,37340,ITUMBILI,IBOLELO
SHINYANGA,37,KAHAMA,373,CHAMBO,37340,BUSHIMANI,BUSHIMANI
SHINYANGA,37,KAHAMA,373,CHAMBO,37340,BUSHIMANI,ISUNUKA 'A'
SHINYANGA,37,KAHAMA,373,CHAMBO,37340,BUSHIMANI,ISUNUKA 'B'
SHINYANGA,37,KAHAMA,373,CHAMBO,37340,BUSHIMANI,MWANGOYE
SHINYANGA,37,KAHAMA,373,CHAMBO,37340,BUSHIMANI,SUGE
SHINYANGA,37,KAHAMA,373,CHAMBO,37340,BUSHIMANI,BUSAMBILO
SHINYANGA,37,KAHAMA,373,KISUKE,37341,KISUKE,KISUKE SENTA
SHINYANGA,37,KAHAMA,373,KISUKE,37341,KISUKE,KISUKE MAGHARIBI
SHINYANGA,37,KAHAMA,373,KISUKE,37341,KISUKE,KISUKE KUSINI
SHINYANGA,37,KAHAMA,373,KISUKE,37341,KISUKE,KISUKE MASHRIKI
SHINYANGA,37,KAHAMA,373,KISUKE,37341,KISUKE,KISUKE KUSINI - MASHARIKI
SHINYANGA,37,KAHAMA,373,KISUKE,37341,KISUKE,IPILINGA
SHINYANGA,37,KAHAMA,373,KISUKE,37341,KISUKE,KALABA SENTA
SHINYANGA,37,KAHAMA,373,KISUKE,37341,ITUMBO,ITUMBO
SHINYANGA,37,KAHAMA,373,KISUKE,37341,ITUMBO,MAGEREZA
SHINYANGA,37,KAHAMA,373,KISUKE,37341,ITUMBO,IBAMBASI
SHINYANGA,37,KAHAMA,373,KISUKE,37341,ITUMBO,UKOMBOZI
SHINYANGA,37,KAHAMA,373,NYAMILANGANO,37342,NYAMILANGANO,NYAMILANGANO KATI
SHINYANGA,37,KAHAMA,373,NYAMILANGANO,37342,NYAMILANGANO,UJAMAA
SHINYANGA,37,KAHAMA,373,NYAMILANGANO,37342,IDIDI,IDIDI MASHARIKI
SHINYANGA,37,KAHAMA,373,NYAMILANGANO,37342,IDIDI,MLIMANI
SHINYANGA,37,KAHAMA,373,NYAMILANGANO,37342,IDIDI,BUSALULA
SHINYANGA,37,KAHAMA,373,NYAMILANGANO,37342,IDIDI,IDIDI KATI
SHINYANGA,37,KAHAMA,373,NYAMILANGANO,37342,HUNDI,HUNDI
SHINYANGA,37,KAHAMA,373,NYAMILANGANO,37342,HUNDI,HONDI
SHINYANGA,37,KAHAMA,373,NYAMILANGANO,37342,HUNDI,UFARANSA
SHINYANGA,37,KAHAMA,373,NYAMILANGANO,37342,MITONGA,MITONGA
SHINYANGA,37,KAHAMA,373,NYAMILANGANO,37342,MITONGA,MATIZA
SHINYANGA,37,KAHAMA,373,NYAMILANGANO,37342,MITONGA,KINISHIHA
SHINYANGA,37,KAHAMA,373,NYAMILANGANO,37342,MITONGA,SHUNU
SHINYANGA,37,KAHAMA,373,MAPAMBA,37343,MAPAMBA,MAPAMBA KATI
SHINYANGA,37,KAHAMA,373,MAPAMBA,37343,MAPAMBA,MPILIMO
SHINYANGA,37,KAHAMA,373,MAPAMBA,37343,MAPAMBA,SESE
SHINYANGA,37,KAHAMA,373,MAPAMBA,37343,MAPAMBA,BULIMA
SHINYANGA,37,KAHAMA,373,MAPAMBA,37343,MAPAMBA,NYENZE
SHINYANGA,37,KAHAMA,373,MAPAMBA,37343,MIKWA,MIKWA
SHINYANGA,37,KAHAMA,373,MAPAMBA,37343,MIKWA,BUSOLO
SHINYANGA,37,KAHAMA,373,MAPAMBA,37343,MIKWA,BUGILA
SHINYANGA,37,KAHAMA,373,MAPAMBA,37343,MIKWA,SHINGIWI
SHINYANGA,37,KAHAMA,373,MAPAMBA,37343,KAWEKUNELELA,KAWEKUNELELA
SHINYANGA,37,KAHAMA,373,MAPAMBA,37343,KAWEKUNELELA,KILYAMAWE
SHINYANGA,37,KAHAMA,373,MAPAMBA,37343,KAWEKUNELELA,WISUNDE
SHINYANGA,37,KAHAMA,373,MAPAMBA,37343,KAWEKUNELELA,WILI
SHINYANGA,37,KAHAMA,373,MAPAMBA,37343,NUSSA,NUSSA
SHINYANGA,37,KAHAMA,373,MAPAMBA,37343,NUSSA,BUNANGILI
SHINYANGA,37,KAHAMA,373,MAPAMBA,37343,NUSSA,KAFUNGWA
SHINYANGA,37,KAHAMA,373,BUKOMELA,37344,BUKOMELA,BUKOMELA KATI
SHINYANGA,37,KAHAMA,373,BUKOMELA,37344,BUKOMELA,BUKOMELA KASKAZINI
SHINYANGA,37,KAHAMA,373,BUKOMELA,37344,BUKOMELA,BUKOMELA KUSINI
SHINYANGA,37,KAHAMA,373,BUKOMELA,37344,BUKOMELA,MIKOBE
SHINYANGA,37,KAHAMA,373,BUKOMELA,37344,MLIZA,MLIZA 'A'
SHINYANGA,37,KAHAMA,373,BUKOMELA,37344,MLIZA,MLIZA 'B'
SHINYANGA,37,KAHAMA,373,BUKOMELA,37344,MLIZA,MLIZA 'C'
SHINYANGA,37,KAHAMA,373,BUKOMELA,37344,MLIZA,MLIZA 'D'
SHINYANGA,37,KAHAMA,373,BUKOMELA,37344,NGOKOLO,NGOKOLO KATI
SHINYANGA,37,KAHAMA,373,BUKOMELA,37344,NGOKOLO,MLIMA CHASA
SHINYANGA,37,KAHAMA,373,BUKOMELA,37344,NGOKOLO,BUSULWANGUKU
SHINYANGA,37,KAHAMA,373,BUKOMELA,37344,NGOKOLO,NGOKOLO 'D'
SHINYANGA,37,KAHAMA,373,BUKOMELA,37344,NGOKOLO,IYOGELO
SHINYANGA,37,KAHAMA,373,BUKOMELA,37344,NGOKOLO,KALONGE
SHINYANGA,37,KAHAMA,373,BUKOMELA,37344,KABILA,KABILA 'A'
SHINYANGA,37,KAHAMA,373,BUKOMELA,37344,KABILA,KABILA 'B'
SHINYANGA,37,KAHAMA,373,BUKOMELA,37344,KABILA,NGOKOLO 'A'
SHINYANGA,37,KAHAMA,373,BUKOMELA,37344,KABILA,NGOKOLO 'B'
SHINYANGA,37,KAHAMA,373,BUKOMELA,37344,KABILA,SHIJENGELE
SHINYANGA,37,KAHAMA,373,UKUNE,37345,IBOJA,IBOJA 'A'
SHINYANGA,37,KAHAMA,373,UKUNE,37345,IBOJA,IBOJA 'B'
SHINYANGA,37,KAHAMA,373,UKUNE,37345,IBOJA,KALABA
SHINYANGA,37,KAHAMA,373,UKUNE,37345,IBOJA,ITONJAMATOLE
SHINYANGA,37,KAHAMA,373,UKUNE,37345,IBOJA,FILA
SHINYANGA,37,KAHAMA,373,UKUNE,37345,IBOJA,BUZABI 'A'
SHINYANGA,37,KAHAMA,373,UKUNE,37345,IBOJA,BUZABI 'B'
SHINYANGA,37,KAHAMA,373,UKUNE,37345,IBOJA,MISSION
SHINYANGA,37,KAHAMA,373,UKUNE,37345,KUNDIKILI,KUNDIKILI MASHARIKI 'A'
SHINYANGA,37,KAHAMA,373,UKUNE,37345,KUNDIKILI,KUNDIKILI MASHARIKI 'B'
SHINYANGA,37,KAHAMA,373,UKUNE,37345,KUNDIKILI,KUNDIKILI MAGHARIBI 'A'
SHINYANGA,37,KAHAMA,373,UKUNE,37345,KUNDIKILI,KUNDIKILI MAGHARIBI 'B'
SHINYANGA,37,KAHAMA,373,UKUNE,37345,KUNDIKILI,IGALULA 'A'
SHINYANGA,37,KAHAMA,373,UKUNE,37345,KUNDIKILI,IGALULA 'B'
SHINYANGA,37,KAHAMA,373,UKUNE,37345,KUNDIKILI,KINISHIHA
SHINYANGA,37,KAHAMA,373,UKUNE,37345,SOFI,SOFI
SHINYANGA,37,KAHAMA,373,UKUNE,37345,SOFI,LUSUBI
SHINYANGA,37,KAHAMA,373,UKUNE,37345,SOFI,IGUMILA
SHINYANGA,37,KAHAMA,373,UKUNE,37345,IGALULA,IGALULA 'A'
SHINYANGA,37,KAHAMA,373,UKUNE,37345,IGALULA,IGALULA 'B'
SHINYANGA,37,KAHAMA,373,UKUNE,37345,IGALULA,HULU
SHINYANGA,37,KAHAMA,373,UKUNE,37345,IGALULA,IFUSO
SHINYANGA,37,KAHAMA,373,UKUNE,37345,KAYENZE,TULE
SHINYANGA,37,KAHAMA,373,UKUNE,37345,KAYENZE,MLIMANI
SHINYANGA,37,KAHAMA,373,UKUNE,37345,KAYENZE,SHILABELA
SHINYANGA,37,KAHAMA,373,UKUNE,37345,KAYENZE,MAJIMAJI
SHINYANGA,37,KAHAMA,373,UKUNE,37345,KAYENZE,SONGAMBELE
SHINYANGA,37,KAHAMA,373,UKUNE,37345,KAYENZE,IBAMBASI
SHINYANGA,37,KAHAMA,373,UKUNE,37345,ITALIKE,ITALIKE 'A' KASKAZINI
SHINYANGA,37,KAHAMA,373,UKUNE,37345,ITALIKE,ITALIKE 'B' KASKAZINI
SHINYANGA,37,KAHAMA,373,UKUNE,37345,ITALIKE,ITALIKE 'A' KUSINI
SHINYANGA,37,KAHAMA,373,UKUNE,37345,ITALIKE,ITALIKE 'B' KUSINI
SHINYANGA,37,KAHAMA,373,UKUNE,37345,ITALIKE,ITALIKE 'A' MASHARIKI
SHINYANGA,37,KAHAMA,373,UKUNE,37345,CHIBISO,CHIBISO
SHINYANGA,37,KAHAMA,373,UKUNE,37345,CHIBISO,IGOLOLA
SHINYANGA,37,KAHAMA,373,UKUNE,37345,CHIBISO,IGWESA
SHINYANGA,37,KAHAMA,373,UKUNE,37345,ILWILO,ILWILO
SHINYANGA,37,KAHAMA,373,UKUNE,37345,ILWILO,KATULI 'A'
SHINYANGA,37,KAHAMA,373,UKUNE,37345,ILWILO,KATULI 'B'
SHINYANGA,37,KAHAMA,373,UKUNE,37345,ILWILO,UKOMBOZI - IYOGELLO
SHINYANGA,37,KAHAMA,373,IGUNDA,37346,IGUNDA,IGUNDA SENTA
SHINYANGA,37,KAHAMA,373,IGUNDA,37346,IGUNDA,IKONONGO
SHINYANGA,37,KAHAMA,373,IGUNDA,37346,IGUNDA,MTAKUJA
SHINYANGA,37,KAHAMA,373,IGUNDA,37346,IGUNDA,MCHANGANI
SHINYANGA,37,KAHAMA,373,IGUNDA,37346,IGUNDA,NYAN'HANGA
SHINYANGA,37,KAHAMA,373,IGUNDA,37346,MHULIDEDE,MHULIDEDE
SHINYANGA,37,KAHAMA,373,IGUNDA,37346,MHULIDEDE,TUBANANE
SHINYANGA,37,KAHAMA,373,IGUNDA,37346,MHULIDEDE,NHIGU 'A'
SHINYANGA,37,KAHAMA,373,IGUNDA,37346,MHULIDEDE,NHIGU 'B'
SHINYANGA,37,KAHAMA,373,IGUNDA,37346,MHULIDEDE,VUMILIA
SHINYANGA,37,KAHAMA,373,IGUNDA,37346,KIGWA,KIGWA 'A'
SHINYANGA,37,KAHAMA,373,IGUNDA,37346,KIGWA,KIGWA 'B'
SHINYANGA,37,KAHAMA,373,IGUNDA,37346,KIGWA,LUGUMA
SHINYANGA,37,KAHAMA,373,IGUNDA,37346,KIGWA,SHIJENGELE
SHINYANGA,37,KAHAMA,373,IGUNDA,37346,MBUTA,MBUTA MASHARIKI
SHINYANGA,37,KAHAMA,373,IGUNDA,37346,MBUTA,MBUTA MAGHARIBI
SHINYANGA,37,KAHAMA,373,IGUNDA,37346,MBUTA,MBUTA KUSINI
SHINYANGA,37,KAHAMA,373,IGUNDA,37346,ZOBOGO,BULABADI
SHINYANGA,37,KAHAMA,373,IGUNDA,37346,ZOBOGO,BULANGARE
SHINYANGA,37,KAHAMA,373,IGUNDA,37346,ZOBOGO,KAGELEKO
SHINYANGA,37,KAHAMA,373,IGUNDA,37346,BUNASANI,BUNASANI SENTA
SHINYANGA,37,KAHAMA,373,IGUNDA,37346,BUNASANI,MAKINGO
SHINYANGA,37,KAHAMA,373,IGUNDA,37346,BUNASANI,KILOLENI
SHINYANGA,37,KAHAMA,373,IGUNDA,37346,BUNASANI,MNAZI MMOJA
SHINYANGA,37,KAHAMA,373,KINAMAPULA,37347,BUTIBU,BUTIBU 'A'
SHINYANGA,37,KAHAMA,373,KINAMAPULA,37347,BUTIBU,BUTIBU 'B'
SHINYANGA,37,KAHAMA,373,KINAMAPULA,37347,BUTIBU,MWABAGEHU
SHINYANGA,37,KAHAMA,373,KINAMAPULA,37347,BUTIBU,NKURUNGU 'A'
SHINYANGA,37,KAHAMA,373,KINAMAPULA,37347,BUTIBU,NKURUNGU 'B'
SHINYANGA,37,KAHAMA,373,KINAMAPULA,37347,BUTIBU,NKURUNGU 'C'
SHINYANGA,37,KAHAMA,373,KINAMAPULA,37347,BUTIBU,IWELYASHINGA
SHINYANGA,37,KAHAMA,373,KINAMAPULA,37347,BUTIBU,SHINYANGA
SHINYANGA,37,KAHAMA,373,KINAMAPULA,37347,BUTIBU,BUNG'ANG'ARA
SHINYANGA,37,KAHAMA,373,KINAMAPULA,37347,BUTIBU,KABEMBELA
SHINYANGA,37,KAHAMA,373,KINAMAPULA,37347,BUTIBU,BUTAMAGUKI
SHINYANGA,37,KAHAMA,373,KINAMAPULA,37347,KALAMA,IKINA
SHINYANGA,37,KAHAMA,373,KINAMAPULA,37347,KALAMA,MTAKUJA
SHINYANGA,37,KAHAMA,373,KINAMAPULA,37347,KALAMA,SONGAMBELE
SHINYANGA,37,KAHAMA,373,KINAMAPULA,37347,KALAMA,MWANGAZA
SHINYANGA,37,KAHAMA,373,KINAMAPULA,37347,HONGWA,HONGWA 'A'
SHINYANGA,37,KAHAMA,373,KINAMAPULA,37347,HONGWA,HONGWA 'B'
SHINYANGA,37,KAHAMA,373,KINAMAPULA,37347,HONGWA,PENZI 'A'
SHINYANGA,37,KAHAMA,373,KINAMAPULA,37347,HONGWA,PENZI 'B'
SHINYANGA,37,KAHAMA,373,KINAMAPULA,37347,HONGWA,UKOMBOZI
SHINYANGA,37,KAHAMA,373,KINAMAPULA,37347,HONGWA,MBUTA
SHINYANGA,37,KAHAMA,373,KINAMAPULA,37347,KINAMAPULA,KINAMAPULA 'A'
SHINYANGA,37,KAHAMA,373,KINAMAPULA,37347,KINAMAPULA,KINAMAPULA 'B'
SHINYANGA,37,KAHAMA,373,KINAMAPULA,37347,KINAMAPULA,KINAMAPULA SENTA
SHINYANGA,37,KAHAMA,373,KINAMAPULA,37347,KINAMAPULA,IPANDWAMHELA 'A'
SHINYANGA,37,KAHAMA,373,KINAMAPULA,37347,KINAMAPULA,IPANDWAMHELA 'B'
SHINYANGA,37,KAHAMA,373,KINAMAPULA,37347,KINAMAPULA,LUSHELO
SHINYANGA,37,KAHAMA,373,KINAMAPULA,37347,ILEMVE,KAZANA
SHINYANGA,37,KAHAMA,373,KINAMAPULA,37347,ILEMVE,KANGEMBE
SHINYANGA,37,KAHAMA,373,KINAMAPULA,37347,ILEMVE,MILIMANI
SHINYANGA,37,KAHAMA,373,KINAMAPULA,37347,ILEMVE,MIEMBENI
SHINYANGA,37,KAHAMA,373,KINAMAPULA,37347,KASOMELA,USHIRIKA
SHINYANGA,37,KAHAMA,373,KINAMAPULA,37347,KASOMELA,ISESAMAHALAGE
SHINYANGA,37,KAHAMA,373,KINAMAPULA,37347,KASOMELA,USHIROMBO
SHINYANGA,37,KAHAMA,373,KINAMAPULA,37347,KASOMELA,ISHOKELEJA
SHINYANGA,37,KAHAMA,373,KINAMAPULA,37347,KASOMELA,KASHISHI
SHINYANGA,37,KAHAMA,373,IGWAMANONI,37348,MWAMANYILI,MKUYUNI
SHINYANGA,37,KAHAMA,373,IGWAMANONI,37348,MWAMANYILI,MWAMANYILI
SHINYANGA,37,KAHAMA,373,IGWAMANONI,37348,MWAMANYILI,ISAKA
SHINYANGA,37,KAHAMA,373,IGWAMANONI,37348,KITONGO,KITONGO
SHINYANGA,37,KAHAMA,373,IGWAMANONI,37348,KITONGO,ITINDWAMBOGO
SHINYANGA,37,KAHAMA,373,IGWAMANONI,37348,KITONGO,BULENDE 'A'
SHINYANGA,37,KAHAMA,373,IGWAMANONI,37348,KITONGO,BULENDE 'B'
SHINYANGA,37,KAHAMA,373,IGWAMANONI,37348,IGWAMANONI,IGWAMANONI
SHINYANGA,37,KAHAMA,373,IGWAMANONI,37348,IGWAMANONI,NYASUBI
SHINYANGA,37,KAHAMA,373,IGWAMANONI,37348,IGWAMANONI,MIHUKU
SHINYANGA,37,KAHAMA,373,IGWAMANONI,37348,IGWAMANONI,SOBORA
SHINYANGA,37,KAHAMA,373,IGWAMANONI,37348,KIPANGU,KIPANGU
SHINYANGA,37,KAHAMA,373,IGWAMANONI,37348,KIPANGU,MWINGILO
SHINYANGA,37,KAHAMA,373,IGWAMANONI,37348,KIPANGU,GILASANGA
SHINYANGA,37,KAHAMA,373,IGWAMANONI,37348,IRAMBA,IRAMBA
SHINYANGA,37,KAHAMA,373,IGWAMANONI,37348,IRAMBA,NYASUBI
SHINYANGA,37,KAHAMA,373,IGWAMANONI,37348,IRAMBA,IGALULA
SHINYANGA,37,KAHAMA,373,IGWAMANONI,37348,NYAKASHATALA,NYAKASHATALA
SHINYANGA,37,KAHAMA,373,IGWAMANONI,37348,NYAKASHATALA,MWADUI
SHINYANGA,37,KAHAMA,373,IGWAMANONI,37348,NYAKASHATALA,BUYONGAYONGA
SHINYANGA,37,KAHAMA,373,IGWAMANONI,37348,LUHAGA,LUHAGA
SHINYANGA,37,KAHAMA,373,IGWAMANONI,37348,LUHAGA,NKWENI
SHINYANGA,37,KAHAMA,373,IGWAMANONI,37348,LUHAGA,BUFUKO
SHINYANGA,37,KAHAMA,373,MPUNZE,37349,BULIMA,BULIMA
SHINYANGA,37,KAHAMA,373,MPUNZE,37349,BULIMA,BUHABI
SHINYANGA,37,KAHAMA,373,MPUNZE,37349,BULIMA,KAKUNGUNI
SHINYANGA,37,KAHAMA,373,MPUNZE,37349,BULIMA,MPILIMO
SHINYANGA,37,KAHAMA,373,MPUNZE,37349,BULIMA,KANWANAME
SHINYANGA,37,KAHAMA,373,MPUNZE,37349,BUTENDE,HOLOHONDO
SHINYANGA,37,KAHAMA,373,MPUNZE,37349,BUTENDE,MBALAGANE
SHINYANGA,37,KAHAMA,373,MPUNZE,37349,BUTENDE,NYAVINO
SHINYANGA,37,KAHAMA,373,MPUNZE,37349,BUTENDE,ILEKEBU
SHINYANGA,37,KAHAMA,373,MPUNZE,37349,BUTENDE,BUTENDE
SHINYANGA,37,KAHAMA,373,MPUNZE,37349,MPUNZE,IMALANGE
SHINYANGA,37,KAHAMA,373,MPUNZE,37349,MPUNZE,IMELI
SHINYANGA,37,KAHAMA,373,MPUNZE,37349,MPUNZE,IGUSA
SHINYANGA,37,KAHAMA,373,MPUNZE,37349,MPUNZE,FOTOMA
SHINYANGA,37,KAHAMA,373,MPUNZE,37349,MPUNZE,GOMBANILA
SHINYANGA,37,KAHAMA,373,MPUNZE,37349,MPUNZE,IFUNDE
SHINYANGA,37,KAHAMA,373,MPUNZE,37349,MPUNZE,KASEKELA
SHINYANGA,37,KAHAMA,373,MPUNZE,37349,MPUNZE,KAHULUNGU
SHINYANGA,37,KAHAMA,373,MPUNZE,37349,MPUNZE,LUHUMBO
SHINYANGA,37,KAHAMA,373,MPUNZE,37349,MPUNZE,ITINDILYANI
SHINYANGA,37,KAHAMA,373,SABASABINI,37350,SABASABINI,IHASHI
SHINYANGA,37,KAHAMA,373,SABASABINI,37350,SABASABINI,IMALANGE
SHINYANGA,37,KAHAMA,373,SABASABINI,37350,SABASABINI,IGUSA
SHINYANGA,37,KAHAMA,373,SABASABINI,37350,SABASABINI,KAGALAMO
SHINYANGA,37,KAHAMA,373,SABASABINI,37350,SABASABINI,IMALABARUTI
SHINYANGA,37,KAHAMA,373,SABASABINI,37350,SABASABINI,KAHULUNGU
SHINYANGA,37,KAHAMA,373,SABASABINI,37350,BUBUNGU,BUBUNGU 'A'
SHINYANGA,37,KAHAMA,373,SABASABINI,37350,BUBUNGU,BUBUNGU 'B'
SHINYANGA,37,KAHAMA,373,SABASABINI,37350,BUBUNGU,BULYADILU
SHINYANGA,37,KAHAMA,373,SABASABINI,37350,KABANGA,KALOLE
SHINYANGA,37,KAHAMA,373,SABASABINI,37350,KABANGA,IMALANGE
SHINYANGA,37,KAHAMA,373,SABASABINI,37350,KABANGA,KABANGA
SHINYANGA,37,KAHAMA,373,SABASABINI,37350,LUSONZO,LUSONZO
SHINYANGA,37,KAHAMA,373,SABASABINI,37350,LUSONZO,MISAYU
SHINYANGA,37,KAHAMA,373,SABASABINI,37350,LUSONZO,BADI
SHINYANGA,37,KAHAMA,373,SABASABINI,37350,IPONYANHOLO,IPONYANG'HOLO
SHINYANGA,37,KAHAMA,373,SABASABINI,37350,IPONYANHOLO,SHIGWA 'A'
SHINYANGA,37,KAHAMA,373,SABASABINI,37350,IPONYANHOLO,SHIGWA 'B'
SHINYANGA,37,KAHAMA,373,IDAHINA,37351,NYAMTENGELA,NYAMTENGELA SENTA
SHINYANGA,37,KAHAMA,373,IDAHINA,37351,NYAMTENGELA,MAKILI
SHINYANGA,37,KAHAMA,373,IDAHINA,37351,NYAMTENGELA,BUKINDWASALI
SHINYANGA,37,KAHAMA,373,IDAHINA,37351,NYAMTENGELA,KASELA
SHINYANGA,37,KAHAMA,373,IDAHINA,37351,NYAMTENGELA,KAYENZE
SHINYANGA,37,KAHAMA,373,IDAHINA,37351,ISANGA,ISANGA 'A'
SHINYANGA,37,KAHAMA,373,IDAHINA,37351,ISANGA,ISANGA 'B'
SHINYANGA,37,KAHAMA,373,IDAHINA,37351,ISANGA,SHILABELA
SHINYANGA,37,KAHAMA,373,IDAHINA,37351,ISANGA,KAWEKAMO
SHINYANGA,37,KAHAMA,373,IDAHINA,37351,ISANGA,MWABALIMI
SHINYANGA,37,KAHAMA,373,IDAHINA,37351,IDAHINA,IDAHINA SENTA
SHINYANGA,37,KAHAMA,373,IDAHINA,37351,IDAHINA,MAKILI 'A'
SHINYANGA,37,KAHAMA,373,IDAHINA,37351,IDAHINA,MAKILI 'B'
SHINYANGA,37,KAHAMA,373,IDAHINA,37351,IDAHINA,CHAMVA 'A'
SHINYANGA,37,KAHAMA,373,IDAHINA,37351,IDAHINA,CHAMVA 'B'
SHINYANGA,37,KAHAMA,373,IDAHINA,37351,MWABOMBA,MWABOMBA
SHINYANGA,37,KAHAMA,373,IDAHINA,37351,MWABOMBA,MWAMAGILI
SHINYANGA,37,KAHAMA,373,IDAHINA,37351,MWABOMBA,LYABUKANDE
SHINYANGA,37,KAHAMA,373,IDAHINA,37351,MWABOMBA,NDAGALU
SHINYANGA,37,KAHAMA,373,IDAHINA,37351,MWABOMBA,MWALINHA
SHINYANGA,37,KAHAMA,373,IDAHINA,37351,MWABOMBA,BUSUMABU
SHINYANGA,37,KAHAMA,373,IDAHINA,37351,MWABOMBA,MASHUGUNU
SHINYANGA,37,KAHAMA,373,IDAHINA,37351,BUSULWANGUKU,BUSULWANGUKU 'A'
SHINYANGA,37,KAHAMA,373,IDAHINA,37351,BUSULWANGUKU,BUSULWANGUKU 'B'
SHINYANGA,37,KAHAMA,373,IDAHINA,37351,BUSULWANGUKU,BUSULWANGUKU 'C'
SHINYANGA,37,KAHAMA,373,IDAHINA,37351,BUSULWANGUKU,BUSULWANGUKU 'D'
SHINYANGA,37,KAHAMA,373,IDAHINA,37351,BUSULWANGUKU,BUSULWANGUKU 'E'
SHINYANGA,37,KAHAMA,373,IDAHINA,37351,IHAPULA,IHAPULA
SHINYANGA,37,KAHAMA,373,IDAHINA,37351,IHAPULA,BUKUBA 'A'
SHINYANGA,37,KAHAMA,373,IDAHINA,37351,IHAPULA,BUKUBA 'B'
SHINYANGA,37,KAHAMA,373,IDAHINA,37351,IHAPULA,BUKUBA  MLIMANI
SHINYANGA,37,KAHAMA,373,IDAHINA,37351,IHAPULA,MAKILI
SHINYANGA,37,KAHAMA,373,BULUNGWA,37352,SHAKA,SHAKA 'A'
SHINYANGA,37,KAHAMA,373,BULUNGWA,37352,SHAKA,SHAKA 'B'
SHINYANGA,37,KAHAMA,373,BULUNGWA,37352,MSEKI,MSEKI 'A'
SHINYANGA,37,KAHAMA,373,BULUNGWA,37352,MSEKI,MSEKI 'B'
SHINYANGA,37,KAHAMA,373,BULUNGWA,37352,NYAMKONDO,NYAMKONDO
SHINYANGA,37,KAHAMA,373,BULUNGWA,37352,NYAMKONDO,BULUMA
SHINYANGA,37,KAHAMA,373,BULUNGWA,37352,NYAMKONDO,MASHANA
SHINYANGA,37,KAHAMA,373,BULUNGWA,37352,NYAMKONDO,KINANHUNDU
SHINYANGA,37,KAHAMA,373,BULUNGWA,37352,NYAMKONDO,MGAYA
SHINYANGA,37,KAHAMA,373,BULUNGWA,37352,KINAMING'HWA,KINAMING'HWA
SHINYANGA,37,KAHAMA,373,BULUNGWA,37352,KINAMING'HWA,MWINGILO 'A'
SHINYANGA,37,KAHAMA,373,BULUNGWA,37352,KINAMING'HWA,MWINGILO 'B'
SHINYANGA,37,KAHAMA,373,BULUNGWA,37352,KINAMING'HWA,NYEMBE
SHINYANGA,37,KAHAMA,373,BULUNGWA,37352,KINAMING'HWA,MBAPYA
SHINYANGA,37,KAHAMA,373,BULUNGWA,37352,BUKALE,BUKALE
SHINYANGA,37,KAHAMA,373,BULUNGWA,37352,BUKALE,KANANGALWE
SHINYANGA,37,KAHAMA,373,BULUNGWA,37352,BUKALE,KASESA
SHINYANGA,37,KAHAMA,373,BULUNGWA,37352,BUKALE,NONDWE
SHINYANGA,37,KAHAMA,373,BULUNGWA,37352,MAKONGOLO,MAKONGOLO 'A'
SHINYANGA,37,KAHAMA,373,BULUNGWA,37352,MAKONGOLO,MAKONGOLO 'B'
SHINYANGA,37,KAHAMA,373,BULUNGWA,37352,MAKONGOLO,NAMATUTU
SHINYANGA,37,KAHAMA,373,BULUNGWA,37352,MAKONGOLO,KAZAROHO
SHINYANGA,37,KAHAMA,373,BULUNGWA,37352,MAKONGOLO,IPEJA
SHINYANGA,37,KAHAMA,373,BULUNGWA,37352,MAKONGOLO,KAGONGO
SHINYANGA,37,KAHAMA,373,BULUNGWA,37352,NYABUSALU,NYABUSALU NA. 5
SHINYANGA,37,KAHAMA,373,BULUNGWA,37352,NYABUSALU,NYABUSALU NA. 7
SHINYANGA,37,KAHAMA,373,BULUNGWA,37352,NYABUSALU,NYABUSALU NA. 8
SHINYANGA,37,KAHAMA,373,BULUNGWA,37352,NYABUSALU,ILEGI
SHINYANGA,37,KAHAMA,373,BULUNGWA,37352,NYABUSALU,KAMHUNDU
SHINYANGA,37,KAHAMA,373,BULUNGWA,37352,NYABUSALU,IPEJABATOLWA
SHINYANGA,37,KAHAMA,373,BULUNGWA,37352,IDETEMYA,IDETEMYA 'A'
SHINYANGA,37,KAHAMA,373,BULUNGWA,37352,IDETEMYA,IDETEMYA 'B'
SHINYANGA,37,KAHAMA,373,BULUNGWA,37352,IDETEMYA,SONGAMBELE
SHINYANGA,37,KAHAMA,373,BULUNGWA,37352,IDETEMYA,MIGAMBA
SHINYANGA,37,KAHAMA,373,BULUNGWA,37352,MULUNGU,MULUNGU 'A'
SHINYANGA,37,KAHAMA,373,BULUNGWA,37352,MULUNGU,MULUNGU 'B'
SHINYANGA,37,KAHAMA,373,BULUNGWA,37352,MULUNGU,KINANYENZE
SHINYANGA,37,KAHAMA,373,BULUNGWA,37352,MULUNGU,KAKOLA
SHINYANGA,37,KAHAMA,373,BULUNGWA,37352,MULUNGU,KIPALAPALA
SHINYANGA,37,KAHAMA,373,NYANKENDE,37353,NYANKENDE,NYANKENDE 'A'
SHINYANGA,37,KAHAMA,373,NYANKENDE,37353,NYANKENDE,NYANKENDE 'B'
SHINYANGA,37,KAHAMA,373,NYANKENDE,37353,NYANKENDE,NYANKENDE 'C'
SHINYANGA,37,KAHAMA,373,NYANKENDE,37353,NYANKENDE,MAJENGO
SHINYANGA,37,KAHAMA,373,NYANKENDE,37353,NYANKENDE,SHIDIMA
SHINYANGA,37,KAHAMA,373,NYANKENDE,37353,NYAMBESHI,NYAMBESHI 'A'
SHINYANGA,37,KAHAMA,373,NYANKENDE,37353,NYAMBESHI,NYAMBESHI 'B'
SHINYANGA,37,KAHAMA,373,NYANKENDE,37353,NYAMBESHI,MWABALIMILI 'A'
SHINYANGA,37,KAHAMA,373,NYANKENDE,37353,NYAMBESHI,MWABALIMILI 'B'
SHINYANGA,37,KAHAMA,373,NYANKENDE,37353,KAGERA,KAGERA 'A'
SHINYANGA,37,KAHAMA,373,NYANKENDE,37353,KAGERA,KAGERA 'B'
SHINYANGA,37,KAHAMA,373,NYANKENDE,37353,KAGERA,SONGAMBELE
SHINYANGA,37,KAHAMA,373,NYANKENDE,37353,KAGERA,BUNWANKERE
SHINYANGA,37,KAHAMA,373,NYANKENDE,37353,KAGERA,SHILABELA
SHINYANGA,37,KAHAMA,373,NYANKENDE,37353,BUNANDA,BUNANDA
SHINYANGA,37,KAHAMA,373,NYANKENDE,37353,BUNANDA,MWABALIMI
SHINYANGA,37,KAHAMA,373,NYANKENDE,37353,BUNANDA,IMALAMAWAZO
SHINYANGA,37,KAHAMA,373,NYANKENDE,37353,BUNANDA,MAJENGO
SHINYANGA,37,KAHAMA,373,NYANKENDE,37353,MWADUI,MWADUI
SHINYANGA,37,KAHAMA,373,NYANKENDE,37353,MWADUI,SINWANKERE
SHINYANGA,37,KAHAMA,373,NYANKENDE,37353,MWADUI,ILYAMCHELE
SHINYANGA,37,KAHAMA,373,NYANKENDE,37353,MWADUI,IGALULA
SHINYANGA,37,KAHAMA,373,NYANKENDE,37353,MASUMBWE,MASUMBWE
SHINYANGA,37,KAHAMA,373,NYANKENDE,37353,MASUMBWE,BUTOBA
SHINYANGA,37,KAHAMA,373,NYANKENDE,37353,MASUMBWE,MKOLANI
SHINYANGA,37,KAHAMA,373,NYANKENDE,37353,MASUMBWE,NAKAZYOBA
SHINYANGA,37,KAHAMA,373,NYANKENDE,37353,MASUMBWE,MLIMANI
SHINYANGA,37,KAHAMA,373,NYANKENDE,37353,IMALABUPINA,IMALABUPINA
SHINYANGA,37,KAHAMA,373,NYANKENDE,37353,IMALABUPINA,MWALUGULU
SHINYANGA,37,KAHAMA,373,NYANKENDE,37353,IMALABUPINA,MLIMANI
SHINYANGA,37,KAHAMA,373,NYANKENDE,37353,IMALABUPINA,MWABILIMI
SHINYANGA,37,KAHAMA,373,ULEWE,37354,KALO,KALO
SHINYANGA,37,KAHAMA,373,ULEWE,37354,KALO,NKEYEGE
SHINYANGA,37,KAHAMA,373,ULEWE,37354,NYALWELWE,NYALWELWE
SHINYANGA,37,KAHAMA,373,ULEWE,37354,NYALWELWE,MTAKUJA
SHINYANGA,37,KAHAMA,373,ULEWE,37354,NYALWELWE,MWABUKI
SHINYANGA,37,KAHAMA,373,ULEWE,37354,NYALWELWE,LUYENZE
SHINYANGA,37,KAHAMA,373,ULEWE,37354,NYALWELWE,INGWELO
SHINYANGA,37,KAHAMA,373,ULEWE,37354,ITEGA,ITEGA 'A'
SHINYANGA,37,KAHAMA,373,ULEWE,37354,ITEGA,ITEGA 'B'
SHINYANGA,37,KAHAMA,373,ULEWE,37354,ITEGA,KWALA
SHINYANGA,37,KAHAMA,373,ULEWE,37354,ITEGA,ISESAMAHALAGE
SHINYANGA,37,KAHAMA,373,ULEWE,37354,ITEGA,ILANGASHIKA
SHINYANGA,37,KAHAMA,373,ULEWE,37354,SHILABELA,SHILABELA
SHINYANGA,37,KAHAMA,373,ULEWE,37354,SHILABELA,MWAGIMAGI
SHINYANGA,37,KAHAMA,373,ULEWE,37354,BUGOMBA,KANYANGULI
SHINYANGA,37,KAHAMA,373,ULEWE,37354,BUGOMBA,BUGANDA
SHINYANGA,37,KAHAMA,373,ULEWE,37354,BUGOMBA,MAKANDA
SHINYANGA,37,KAHAMA,373,ULEWE,37354,BUGOMBA,BUGOMBA 'A'
SHINYANGA,37,KAHAMA,373,ULEWE,37354,BUGOMBA,BUGOMBA 'B'
SHINYANGA,37,KAHAMA,373,ULEWE,37354,BUGOMBA,KAKOLA
SHINYANGA,37,KAHAMA,373,ULEWE,37354,IYOGELO,IYOGELO
SHINYANGA,37,KAHAMA,373,ULEWE,37354,IYOGELO,KIPALAPALA MAJENGO MAPYA
SHINYANGA,37,KAHAMA,373,USHETU,37355,MBIKA,MBIKA 'A'
SHINYANGA,37,KAHAMA,373,USHETU,37355,MBIKA,MBIKA 'B'
SHINYANGA,37,KAHAMA,373,USHETU,37355,MBIKA,IKOYOGO
SHINYANGA,37,KAHAMA,373,USHETU,37355,MBIKA,ISUNUKA
SHINYANGA,37,KAHAMA,373,USHETU,37355,MBIKA,MIHAMA
SHINYANGA,37,KAHAMA,373,USHETU,37355,MBIKA,SHIKI
SHINYANGA,37,KAHAMA,373,USHETU,37355,MBIKA,BUSHILING'WA
SHINYANGA,37,KAHAMA,373,USHETU,37355,MBIKA,LUDOKE
SHINYANGA,37,KAHAMA,373,USHETU,37355,MBIKA,MAJENGO
SHINYANGA,37,KAHAMA,373,USHETU,37355,IBAMBALA,IBAMBALA 'A'
SHINYANGA,37,KAHAMA,373,USHETU,37355,IBAMBALA,IBAMBALA 'B'
SHINYANGA,37,KAHAMA,373,USHETU,37355,MKWANGULWA,MKWANGULWA 'A'
SHINYANGA,37,KAHAMA,373,USHETU,37355,MKWANGULWA,MKWANGULWA 'B'
SHINYANGA,37,KAHAMA,373,USHETU,37355,MKWANGULWA,LAINI
SHINYANGA,37,KAHAMA,373,USHETU,37355,MKWANGULWA,KIGUNGUMULI
SHINYANGA,37,KAHAMA,373,USHETU,37355,MKWANGULWA,MAKUBA
SHINYANGA,37,KAHAMA,373,USHETU,37355,KIDAN'HA,KIDAN'HA
SHINYANGA,37,KAHAMA,373,USHETU,37355,KIDAN'HA,IKINDIKA
SHINYANGA,37,KAHAMA,373,USHETU,37355,KIDAN'HA,ILAMBA
SHINYANGA,37,KAHAMA,373,USHETU,37355,KIDAN'HA,BUTUMBA
SHINYANGA,37,KAHAMA,373,USHETU,37355,MHUGE,MHUGE
SHINYANGA,37,KAHAMA,373,USHETU,37355,MHUGE,IGOMULA
SHINYANGA,37,KAHAMA,373,USHETU,37355,MHUGE,CHOGWA
SHINYANGA,37,KAHAMA,373,USHETU,37355,MHUGE,KIPUNGI
SHINYANGA,37,KAHAMA,373,USHETU,37355,MHUGE,NYANDOLWA
SHINYANGA,37,KAHAMA,373,USHETU,37355,IBELANSUHA,IKWENUKO
SHINYANGA,37,KAHAMA,373,USHETU,37355,IBELANSUHA,NYENYELA
SHINYANGA,37,KAHAMA,373,USHETU,37355,IBELANSUHA,MAHANGA
SHINYANGA,37,KAHAMA,373,USHETU,37355,IBELANSUHA,IBELANSUHA
SHINYANGA,37,KAHAMA,373,USHETU,37355,IBELANSUHA,UFINGULA
SHINYANGA,37,KAHAMA,373,USHETU,37355,IBELANSUHA,CHANG'OMMBE
SHINYANGA,37,KAHAMA,373,USHETU,37355,IBELANSUHA,LUGELA
SHINYANGA,37,KAHAMA,373,USHETU,37355,IBELANSUHA,SHIGANGA
SHINYANGA,37,KAHAMA,373,USHETU,37355,IBELANSUHA,NSIMBO
SHINYANGA,37,KAHAMA,373,UYOGO,37356,KALAMA,KALAMA KATI
SHINYANGA,37,KAHAMA,373,UYOGO,37356,KALAMA,BOMVE A
SHINYANGA,37,KAHAMA,373,UYOGO,37356,KALAMA,BOMVE B
SHINYANGA,37,KAHAMA,373,UYOGO,37356,KALAMA,KALAMA MAGHARIBI
SHINYANGA,37,KAHAMA,373,UYOGO,37356,UYOGO,"USALAMA  ""A"""
SHINYANGA,37,KAHAMA,373,UYOGO,37356,UYOGO,"USALAMA ""B''"
SHINYANGA,37,KAHAMA,373,UYOGO,37356,UYOGO,IBADAKULI
SHINYANGA,37,KAHAMA,373,UYOGO,37356,UYOGO,BULIMWANGALA
SHINYANGA,37,KAHAMA,373,UYOGO,37356,UYOGO,MAGEREZA
SHINYANGA,37,KAHAMA,373,UYOGO,37356,UYOGO,KANYENYE
SHINYANGA,37,KAHAMA,373,UYOGO,37356,UYOGO,SENAI
SHINYANGA,37,KAHAMA,373,UYOGO,37356,UYOGO,KAKOMA
SHINYANGA,37,KAHAMA,373,UYOGO,37356,MANUNGU,IZENGWA
SHINYANGA,37,KAHAMA,373,UYOGO,37356,MANUNGU,MANUNGU MAGHARIBI
SHINYANGA,37,KAHAMA,373,UYOGO,37356,MANUNGU,LUGUNGA
SHINYANGA,37,KAHAMA,373,UYOGO,37356,MANUNGU,KALUNDE
SHINYANGA,37,KAHAMA,373,UYOGO,37356,NSUNGA,NSUNGA KASKAZINI
SHINYANGA,37,KAHAMA,373,UYOGO,37356,NSUNGA,MAGOBEKO
SHINYANGA,37,KAHAMA,373,UYOGO,37356,NSUNGA,NSUNGA KUSINI
SHINYANGA,37,KAHAMA,373,UYOGO,37356,NSUNGA,BULYALYA
SHINYANGA,37,KAHAMA,373,UYOGO,37356,BUGOSHI,SOLE A
SHINYANGA,37,KAHAMA,373,UYOGO,37356,BUGOSHI,BUKULA
SHINYANGA,37,KAHAMA,373,UYOGO,37356,BUGOSHI,ISASAMBULWA
SHINYANGA,37,KAHAMA,373,UYOGO,37356,BUGOSHI,SOLE B
SHINYANGA,37,KAHAMA,373,UYOGO,37356,BUGOSHI,BUGOSHI
SHINYANGA,37,KAHAMA,373,ULOWA,37357,ULOWA,ULOWA NA. 1
SHINYANGA,37,KAHAMA,373,ULOWA,37357,ULOWA,ULOWA NA. 2 'A'
SHINYANGA,37,KAHAMA,373,ULOWA,37357,ULOWA,ULOWA NA. 2 'B'
SHINYANGA,37,KAHAMA,373,ULOWA,37357,ULOWA,ULOWA NA. 8
SHINYANGA,37,KAHAMA,373,ULOWA,37357,ULOWA,BUPANDANHULI
SHINYANGA,37,KAHAMA,373,ULOWA,37357,ULOWA,HENDYA
SHINYANGA,37,KAHAMA,373,ULOWA,37357,KANGEME,KANGEME NA. 3 'A'
SHINYANGA,37,KAHAMA,373,ULOWA,37357,KANGEME,KANGEME NA. 3 'B'
SHINYANGA,37,KAHAMA,373,ULOWA,37357,KANGEME,KANGEME NA. 5 'A'
SHINYANGA,37,KAHAMA,373,ULOWA,37357,KANGEME,KANGEME NA. 5 'B'
SHINYANGA,37,KAHAMA,373,ULOWA,37357,KANGEME,KANGEME NA. 3 'C
SHINYANGA,37,KAHAMA,373,ULOWA,37357,KANGEME,KANGEME NA. 5'C'
SHINYANGA,37,KAHAMA,373,ULOWA,37357,ULOWA NO. 4,KANGEME NA. 4 'A'
SHINYANGA,37,KAHAMA,373,ULOWA,37357,ULOWA NO. 5,KANGEME NA. 4 'B'
SHINYANGA,37,KAHAMA,373,ULOWA,37357,ULOWA NO. 6,KANGEME NA. 4 'C'
SHINYANGA,37,KAHAMA,373,ULOWA,37357,ULOWA NO. 7,KANGEME NA.4 'D'
SHINYANGA,37,KAHAMA,373,ULOWA,37357,ULOWA NO. 8,MKONDOGWA
SHINYANGA,37,KAHAMA,373,ULOWA,37357,ULOWA NO. 9,KASWAKADOTO
SHINYANGA,37,KAHAMA,373,ULOWA,37357,BUGELA,BUGELA 'A'
SHINYANGA,37,KAHAMA,373,ULOWA,37357,BUGELA,BUGELA 'B'
SHINYANGA,37,KAHAMA,373,ULOWA,37357,BUGELA,BUGELA 'C'
SHINYANGA,37,KAHAMA,373,ULOWA,37357,BUGELA,BUTUMBA 'A'
SHINYANGA,37,KAHAMA,373,ULOWA,37357,BUGELA,BUTUMBA 'B'
SHINYANGA,37,KAHAMA,373,ULOWA,37357,BUGELA,MAHONA
SHINYANGA,37,KAHAMA,373,ULOWA,37357,BUGELA,KAGWASHIMBA
SHINYANGA,37,KAHAMA,373,ULOWA,37357,ILOMELO,ILOMELO NA. 9 'A'
SHINYANGA,37,KAHAMA,373,ULOWA,37357,ILOMELO,ILOMELO NA. 9 'B'
SHINYANGA,37,KAHAMA,373,ULOWA,37357,ILOMELO,BUGELA
SHINYANGA,37,KAHAMA,373,ULOWA,37357,ILOMELO,ILOMELO NA. 6 'A'
SHINYANGA,37,KAHAMA,373,ULOWA,37357,ILOMELO,ILOMELO NA. 6 'B'
SHINYANGA,37,KAHAMA,373,ULOWA,37357,ILOMELO,ILOMELO NA. 6 'C'
SHINYANGA,37,KAHAMA,373,ULOWA,37357,ILOMELO,ILOMELO NA. 7 'A'
SHINYANGA,37,KAHAMA,373,ULOWA,37357,ILOMELO,ILOMELO NA. 7 'B'
SHINYANGA,37,KAHAMA,373,ULOWA,37357,ILOMELO,NZILYE
SHINYANGA,37,KAHAMA,373,ULOWA,37357,ILOMELO,MANOLELO
SHINYANGA,37,KAHAMA,373,ULOWA,37357,NGILIMBA,NGILIMBA 'A'
SHINYANGA,37,KAHAMA,373,ULOWA,37357,NGILIMBA,NGILIMBA 'B'
SHINYANGA,37,KAHAMA,373,ULOWA,37357,NGILIMBA,NGILIMBA 'C'
SHINYANGA,37,KAHAMA,373,UBAGWE,37358,UBAGWE,MWABASABI 'A'
SHINYANGA,37,KAHAMA,373,UBAGWE,37358,UBAGWE,MAZILAYO
SHINYANGA,37,KAHAMA,373,UBAGWE,37358,UBAGWE,IHATA
SHINYANGA,37,KAHAMA,373,UBAGWE,37358,UBAGWE,ILAMBA
SHINYANGA,37,KAHAMA,373,UBAGWE,37358,UBAGWE,STANKOMU
SHINYANGA,37,KAHAMA,373,UBAGWE,37358,ITOBOLA,MWABASABI 'B'
SHINYANGA,37,KAHAMA,373,UBAGWE,37358,ITOBOLA,MWABASABI 'C'
SHINYANGA,37,KAHAMA,373,UBAGWE,37358,ITOBOLA,ITOBOLA 'A'
SHINYANGA,37,KAHAMA,373,UBAGWE,37358,ITOBOLA,ITOBOLA ' B'
SHINYANGA,37,KAHAMA,373,UBAGWE,37358,ITOBOLA,ITOBOLA 'C'
SHINYANGA,37,KAHAMA,373,UBAGWE,37358,MISAYU,MISAYU
SHINYANGA,37,KAHAMA,373,UBAGWE,37358,MISAYU,KABANGA
SHINYANGA,37,KAHAMA,373,UBAGWE,37358,MISAYU,KONANNE
SHINYANGA,37,KAHAMA,373,UBAGWE,37358,MISAYU,IMALABUPINA
SHINYANGA,37,KAHAMA,373,UBAGWE,37358,MISAYU,NG'WASHAGULA
SHINYANGA,37,KAHAMA,373,UBAGWE,37358,MWADUI,MWADUI 'A'
SHINYANGA,37,KAHAMA,373,UBAGWE,37358,MWADUI,MWADUI 'B'
SHINYANGA,37,KAHAMA,373,UBAGWE,37358,MWADUI,TEMEKE
SHINYANGA,37,KAHAMA,373,UBAGWE,37358,MWADUI,MWABOMBA
SHINYANGA,37,KAHAMA,373,UBAGWE,37358,MWADUI,SHILABELA
SHINYANGA,37,KAHAMA,373,UBAGWE,37358,SALAWE,SALAWE 'A'
SHINYANGA,37,KAHAMA,373,UBAGWE,37358,SALAWE,MWAGIMAGI
SHINYANGA,37,KAHAMA,373,UBAGWE,37358,SALAWE,MILIMANI
SHINYANGA,37,KAHAMA,373,UBAGWE,37358,SALAWE,KATUNGULU
SHINYANGA,37,KAHAMA,373,UBAGWE,37358,SALAWE,SALAWE 'B'
SHINYANGA,37,KAHAMA,373,UBAGWE,37358,NONWE,NONWE 'A'
SHINYANGA,37,KAHAMA,373,UBAGWE,37358,NONWE,NONWE 'B'
SHINYANGA,37,KAHAMA,373,UBAGWE,37358,NONWE,NONWE 'C'
SHINYANGA,37,KAHAMA,373,UBAGWE,37358,NONWE,MLIMANI
SHINYANGA,37,KAHAMA,373,UBAGWE,37358,NONWE,NABE
SHINYANGA,37,KISHAPU,375,KISHAPU,37501,NONWE,ZAIRE
SHINYANGA,37,KISHAPU,375,KISHAPU,37501,NONWE,MTAKUJA
SHINYANGA,37,KISHAPU,375,KISHAPU,37501,NONWE,KARUME
SHINYANGA,37,KISHAPU,375,KISHAPU,37501,NONWE,MHUNZEJUU
SHINYANGA,37,KISHAPU,375,KISHAPU,37501,NONWE,MWABUSIGA
SHINYANGA,37,KISHAPU,375,KISHAPU,37501,NONWE,PEMBA
SHINYANGA,37,KISHAPU,375,KISHAPU,37501,NONWE,MNADANI
SHINYANGA,37,KISHAPU,375,KISHAPU,37501,NONWE,MWASELE B
SHINYANGA,37,KISHAPU,375,KISHAPU,37501,NONWE,MAGOGONGO
SHINYANGA,37,KISHAPU,375,KISHAPU,37501,NONWE,MAENDELEO
SHINYANGA,37,KISHAPU,375,KISHAPU,37501,NONWE,KANISANI
SHINYANGA,37,KISHAPU,375,KISHAPU,37501,NONWE,JAMHURI
SHINYANGA,37,KISHAPU,375,KISHAPU,37501,NONWE,MAJENGO
SHINYANGA,37,KISHAPU,375,KISHAPU,37501,NONWE,MTAKUJA
SHINYANGA,37,KISHAPU,375,KISHAPU,37501,NONWE,LYANDU
SHINYANGA,37,KISHAPU,375,KISHAPU,37501,NONWE,PAMBA
SHINYANGA,37,KISHAPU,375,KISHAPU,37501,NONWE,KISHAPU
SHINYANGA,37,KISHAPU,375,KISHAPU,37501,NONWE,IGUMO
SHINYANGA,37,KISHAPU,375,KISHAPU,37501,NONWE,MWANZA
SHINYANGA,37,KISHAPU,375,KISHAPU,37501,NONWE,ISELEMAGAZI
SHINYANGA,37,KISHAPU,375,KISHAPU,37501,NONWE,NYALUSANGA
SHINYANGA,37,KISHAPU,375,KISHAPU,37501,NONWE,NZAZA
SHINYANGA,37,KISHAPU,375,KISHAPU,37501,NONWE,IBEMBELE
SHINYANGA,37,KISHAPU,375,KISHAPU,37501,NONWE,LUBAGA
SHINYANGA,37,KISHAPU,375,KISHAPU,37501,NONWE,MWAMAGUNGULI
SHINYANGA,37,KISHAPU,375,KISHAPU,37501,NONWE,KILOLELI
SHINYANGA,37,KISHAPU,375,KISHAPU,37501,NONWE,MWANDULINDA
SHINYANGA,37,KISHAPU,375,KISHAPU,37501,NONWE,MATALE
SHINYANGA,37,KISHAPU,375,KISHAPU,37501,NONWE,LISOLYANG'WALE
SHINYANGA,37,KISHAPU,375,KISHAPU,37501,NONWE,ISANGA
SHINYANGA,37,KISHAPU,375,UCHUNGA,37502,UNYANYEMBE,UNYANYEMBE
SHINYANGA,37,KISHAPU,375,UCHUNGA,37502,UNYANYEMBE,KASHISHI
SHINYANGA,37,KISHAPU,375,UCHUNGA,37502,UNYANYEMBE,KASELYA
SHINYANGA,37,KISHAPU,375,UCHUNGA,37502,UNYANYEMBE,MWAJIJI
SHINYANGA,37,KISHAPU,375,UCHUNGA,37502,UNYANYEMBE,IGUNGUHYA
SHINYANGA,37,KISHAPU,375,UCHUNGA,37502,UNYANYEMBE,BUGALAMA
SHINYANGA,37,KISHAPU,375,UCHUNGA,37502,NGUNDANGALI,NG'WANG'HALANGA
SHINYANGA,37,KISHAPU,375,UCHUNGA,37502,NGUNDANGALI,NGUNDANGALI
SHINYANGA,37,KISHAPU,375,UCHUNGA,37502,NGUNDANGALI,JOMU
SHINYANGA,37,KISHAPU,375,UCHUNGA,37502,NGUNDANGALI,MWAKASUMBI
SHINYANGA,37,KISHAPU,375,UCHUNGA,37502,NGUNDANGALI,MWANDUNGUKU
SHINYANGA,37,KISHAPU,375,UCHUNGA,37502,NGUNDANGALI,BUKAMBA
SHINYANGA,37,KISHAPU,375,UCHUNGA,37502,KAKOLA,KAKOLA
SHINYANGA,37,KISHAPU,375,UCHUNGA,37502,KAKOLA,BULYASHI
SHINYANGA,37,KISHAPU,375,UCHUNGA,37502,KAKOLA,DASU
SHINYANGA,37,KISHAPU,375,UCHUNGA,37502,KAKOLA,WIZUNZA
SHINYANGA,37,KISHAPU,375,MWAMASHELE,37503,MWAMASHELE,BUGOYI
SHINYANGA,37,KISHAPU,375,MWAMASHELE,37503,MWAMASHELE,ISHIGWANDAMA
SHINYANGA,37,KISHAPU,375,MWAMASHELE,37503,MWAMASHELE,LUBEHO
SHINYANGA,37,KISHAPU,375,MWAMASHELE,37503,ISAGALA,MABAMBASI
SHINYANGA,37,KISHAPU,375,MWAMASHELE,37503,ISAGALA,NG'WAKALUNDI
SHINYANGA,37,KISHAPU,375,MWAMASHELE,37503,ISAGALA,MWAKALENDELO
SHINYANGA,37,KISHAPU,375,MWAMASHELE,37503,ISAGALA,MWAMTONDO
SHINYANGA,37,KISHAPU,375,MWAMASHELE,37503,BUBINZA,BUBINZA
SHINYANGA,37,KISHAPU,375,MWAMASHELE,37503,BUBINZA,IGUSAMASABA
SHINYANGA,37,KISHAPU,375,MWAMASHELE,37503,LWAGALALO,LWAGALALO
SHINYANGA,37,KISHAPU,375,MWAMASHELE,37503,LWAGALALO,MWAKALEMELO
SHINYANGA,37,KISHAPU,375,MWAMASHELE,37503,BUSONGO,IGUMILAMAWE
SHINYANGA,37,KISHAPU,375,MWAMASHELE,37503,BUSONGO,BUKULWA
SHINYANGA,37,KISHAPU,375,MWAMASHELE,37503,BUSONGO,MWAMNEMBA
SHINYANGA,37,KISHAPU,375,SHAGIHILU,37504,SHAGIHILU,MWASAYI MBUYUNI
SHINYANGA,37,KISHAPU,375,SHAGIHILU,37504,SHAGIHILU,MWASAYI BARABARANI
SHINYANGA,37,KISHAPU,375,SHAGIHILU,37504,MANGU,MANGU
SHINYANGA,37,KISHAPU,375,SHAGIHILU,37504,MANGU,PEMBA
SHINYANGA,37,KISHAPU,375,SHAGIHILU,37504,MANGU,ITONG'WANHOLO
SHINYANGA,37,KISHAPU,375,SHAGIHILU,37504,MANGU,MWAMALA
SHINYANGA,37,KISHAPU,375,SHAGIHILU,37504,MANGU,UTEMINI
SHINYANGA,37,KISHAPU,375,SHAGIHILU,37504,MWATUJU,MWATUJU
SHINYANGA,37,KISHAPU,375,SHAGIHILU,37504,MWATUJU,MWAKADUBA
SHINYANGA,37,KISHAPU,375,SHAGIHILU,37504,MWATUJU,IDUKILO
SHINYANGA,37,KISHAPU,375,SHAGIHILU,37504,MWATUJU,MWASHUSHI
SHINYANGA,37,KISHAPU,375,SHAGIHILU,37504,MWATUJU,IGWATA
SHINYANGA,37,KISHAPU,375,SHAGIHILU,37504,IJIMIJA,MADUKANI
SHINYANGA,37,KISHAPU,375,SHAGIHILU,37504,IJIMIJA,"BUGOGO ""A"""
SHINYANGA,37,KISHAPU,375,SHAGIHILU,37504,IJIMIJA,"BUGOGO ""B"""
SHINYANGA,37,KISHAPU,375,MWAKIPOYA,37505,MWAKIPOYA,ILULA
SHINYANGA,37,KISHAPU,375,MWAKIPOYA,37505,MWAKIPOYA,MWAKIJA MASHARIKI
SHINYANGA,37,KISHAPU,375,MWAKIPOYA,37505,MWAKIPOYA,MWAJIKA MAGHARIBI
SHINYANGA,37,KISHAPU,375,MWAKIPOYA,37505,MWAKIPOYA,MWAMALANDALA
SHINYANGA,37,KISHAPU,375,MWAKIPOYA,37505,MWAKIPOYA,SHIYA
SHINYANGA,37,KISHAPU,375,MWAKIPOYA,37505,NGEME,NGEME
SHINYANGA,37,KISHAPU,375,MWAKIPOYA,37505,NGEME,NZEGA
SHINYANGA,37,KISHAPU,375,MWAKIPOYA,37505,NGEME,MAYAGA
SHINYANGA,37,KISHAPU,375,MWAKIPOYA,37505,NGEME,BADI JUU
SHINYANGA,37,KISHAPU,375,MWAKIPOYA,37505,NGEME,GALUDA
SHINYANGA,37,KISHAPU,375,MWAKIPOYA,37505,NGEME,NGUDANGALI
SHINYANGA,37,KISHAPU,375,MWAKIPOYA,37505,NGEME,MWASELE
SHINYANGA,37,KISHAPU,375,MWAKIPOYA,37505,IBOJA,IPOJAMITWE
SHINYANGA,37,KISHAPU,375,MWAKIPOYA,37505,IBOJA,MWAKAYANGO
SHINYANGA,37,KISHAPU,375,MWAKIPOYA,37505,IBOJA,BUTENG'WAPANGA
SHINYANGA,37,KISHAPU,375,MWAKIPOYA,37505,IBOJA,KOROGWE
SHINYANGA,37,KISHAPU,375,MWAKIPOYA,37505,IBOJA,MWAMASOLOLO
SHINYANGA,37,KISHAPU,375,MWAKIPOYA,37505,IBOJA,MABAMBASI
SHINYANGA,37,KISHAPU,375,MWAKIPOYA,37505,IBOJA,KALANGALE
SHINYANGA,37,KISHAPU,375,MWAKIPOYA,37505,IBOJA,NG'WINEMBULA
SHINYANGA,37,KISHAPU,375,MWAKIPOYA,37505,IBOJA,SHIYA
SHINYANGA,37,KISHAPU,375,MWAKIPOYA,37505,MWANGONGO,IYOGELO
SHINYANGA,37,KISHAPU,375,MWAKIPOYA,37505,MWANGONGO,MWABALAMBU
SHINYANGA,37,KISHAPU,375,MWAKIPOYA,37505,MWANGONGO,IPOJA MITWE
SHINYANGA,37,KISHAPU,375,MWAKIPOYA,37505,MWANGONGO,KALANGALE
SHINYANGA,37,KISHAPU,375,MWAKIPOYA,37505,MWANGONGO,MWASHIMBE
SHINYANGA,37,KISHAPU,375,MWAKIPOYA,37505,MWANGONGO,MWAMASOLOLO
SHINYANGA,37,KISHAPU,375,MWAKIPOYA,37505,MWANGONGO,MABAMBASI
SHINYANGA,37,KISHAPU,375,MWAKIPOYA,37505,MWANGONGO,NG'WAKWINEMBULA
SHINYANGA,37,KISHAPU,375,SOMAGENDI,37506,MALWILO,BULYANAGA
SHINYANGA,37,KISHAPU,375,SOMAGENDI,37506,MALWILO,NGUGUNI
SHINYANGA,37,KISHAPU,375,SOMAGENDI,37506,MALWILO,KALANGALE
SHINYANGA,37,KISHAPU,375,SOMAGENDI,37506,MALWILO,BUTOJA
SHINYANGA,37,KISHAPU,375,SOMAGENDI,37506,MALWILO,JILIGITILA
SHINYANGA,37,KISHAPU,375,SOMAGENDI,37506,JIGULU,JIGULU
SHINYANGA,37,KISHAPU,375,SOMAGENDI,37506,JIGULU,MBUYUNI
SHINYANGA,37,KISHAPU,375,SOMAGENDI,37506,JIGULU,MASANGA
SHINYANGA,37,KISHAPU,375,SOMAGENDI,37506,JIGULU,SHULENI
SHINYANGA,37,KISHAPU,375,SOMAGENDI,37506,JIGULU,KISESA
SHINYANGA,37,KISHAPU,375,SOMAGENDI,37506,WIMATE,WIMATE
SHINYANGA,37,KISHAPU,375,SOMAGENDI,37506,WIMATE,BULYANZOBE
SHINYANGA,37,KISHAPU,375,SOMAGENDI,37506,WIMATE,MWAMBESHI
SHINYANGA,37,KISHAPU,375,SOMAGENDI,37506,WIMATE,MABAMBASI
SHINYANGA,37,KISHAPU,375,SOMAGENDI,37506,WIMATE,IYOGELO
SHINYANGA,37,KISHAPU,375,SOMAGENDI,37506,KISESA,MWABAYANDA
SHINYANGA,37,KISHAPU,375,SOMAGENDI,37506,KISESA,IMALABUPINA
SHINYANGA,37,KISHAPU,375,SOMAGENDI,37506,KISESA,NG'WANG'WIKA
SHINYANGA,37,KISHAPU,375,SOMAGENDI,37506,KISESA,MWASHIMBI
SHINYANGA,37,KISHAPU,375,SOMAGENDI,37506,KISESA,MIZANZA
SHINYANGA,37,KISHAPU,375,SOMAGENDI,37506,KISESA,NG'WANG'HALANGA
SHINYANGA,37,KISHAPU,375,SOMAGENDI,37506,KISESA,NYANGUGANWA
SHINYANGA,37,KISHAPU,375,SOMAGENDI,37506,KISESA,NG'WANG'HALAJA
SHINYANGA,37,KISHAPU,375,SOMAGENDI,37506,KISESA,KISESA
SHINYANGA,37,KISHAPU,375,SOMAGENDI,37506,KISESA,MWANGWESA
SHINYANGA,37,KISHAPU,375,MWAMALASA,37507,MWAMALASA,WIGETI
SHINYANGA,37,KISHAPU,375,MWAMALASA,37507,MWAMALASA,MIGUNGA
SHINYANGA,37,KISHAPU,375,MWAMALASA,37507,MWAMALASA,BULYANJEMU
SHINYANGA,37,KISHAPU,375,MWAMALASA,37507,MWAMALASA,USHIRIKA
SHINYANGA,37,KISHAPU,375,MWAMALASA,37507,MWANDU,MWAMABUGO
SHINYANGA,37,KISHAPU,375,MWAMALASA,37507,MWANDU,KALANGALE
SHINYANGA,37,KISHAPU,375,MWAMALASA,37507,MWANDU,MILUGHULUGHU
SHINYANGA,37,KISHAPU,375,MWAMALASA,37507,MWANDU,ITEGHELO
SHINYANGA,37,KISHAPU,375,MWAMALASA,37507,MWANDU,MALENDI
SHINYANGA,37,KISHAPU,375,MWAMALASA,37507,MWANDOMA,MONDO
SHINYANGA,37,KISHAPU,375,MWAMALASA,37507,MWANDOMA,NENDEGHESE
SHINYANGA,37,KISHAPU,375,MWAMALASA,37507,MWANDOMA,MWANDOMA
SHINYANGA,37,KISHAPU,375,MWAMALASA,37507,MWANDOMA,BUZIBA
SHINYANGA,37,KISHAPU,375,MWAMALASA,37507,MWAMASHIMBA,NG'WAMWENE
SHINYANGA,37,KISHAPU,375,MWAMALASA,37507,MWAMASHIMBA,KALANGALE
SHINYANGA,37,KISHAPU,375,MWAMALASA,37507,MWAMASHIMBA,MWAMASHIMBA
SHINYANGA,37,KISHAPU,375,MWAMALASA,37507,MWAMASHIMBA,MWABAYANDA
SHINYANGA,37,KISHAPU,375,MWAMALASA,37507,MWAMASHIMBA,MWASELE
SHINYANGA,37,KISHAPU,375,MWAMALASA,37507,MWAMASHIMBA,MWAMABUNGO
SHINYANGA,37,KISHAPU,375,MWAMALASA,37507,MWAMASHIMBA,IKULAMAWE
SHINYANGA,37,KISHAPU,375,MWAMALASA,37507,MWAMASHIMBA,MAKOMELO
SHINYANGA,37,KISHAPU,375,MWAMALASA,37507,MWAMASHIMBA,MWAKATALE
SHINYANGA,37,KISHAPU,375,MWAMALASA,37507,MWAMASHIMBA,NG'WANZUGI
SHINYANGA,37,KISHAPU,375,MWAMALASA,37507,KINAMPANDA,MADUKANI
SHINYANGA,37,KISHAPU,375,MWAMALASA,37507,KINAMPANDA,USHIRIKA
SHINYANGA,37,KISHAPU,375,MWAMALASA,37507,KINAMPANDA,MASAGALA
SHINYANGA,37,KISHAPU,375,MWAMALASA,37507,KINAMPANDA,NTIMVE
SHINYANGA,37,KISHAPU,375,MWAMALASA,37507,KINAMPANDA,MIYUGUYU
SHINYANGA,37,KISHAPU,375,MWAMALASA,37507,KINAMPANDA,MWANAKAZANGA
SHINYANGA,37,KISHAPU,375,MWAMALASA,37507,KINAMPANDA,ISOLASABO
SHINYANGA,37,KISHAPU,375,MWAMALASA,37507,MAGALATA,MWANZUGI
SHINYANGA,37,KISHAPU,375,MWAMALASA,37507,MAGALATA,ILSOLASABO
SHINYANGA,37,KISHAPU,375,MWAMALASA,37507,MAGALATA,SONGAMBELE
SHINYANGA,37,KISHAPU,375,MWAMALASA,37507,MAGALATA,MAGONANGILI
SHINYANGA,37,KISHAPU,375,MWAMALASA,37507,MAGALATA,MIYUGUYU
SHINYANGA,37,KISHAPU,375,MWAMALASA,37507,MAGALATA,MALWILO
SHINYANGA,37,KISHAPU,375,MWAMALASA,37507,MAGALATA,MAPUMBULA
SHINYANGA,37,KISHAPU,375,MWAMALASA,37507,MAGALATA,MWABUGESHI
SHINYANGA,37,KISHAPU,375,MWAMALASA,37507,MAGALATA,SOMANDA
SHINYANGA,37,KISHAPU,375,MWAMALASA,37507,MAGALATA,MAGALATA
SHINYANGA,37,KISHAPU,375,MASANGA,37508,BULEKELA,BULEKELA
SHINYANGA,37,KISHAPU,375,MASANGA,37508,BULEKELA,MABAMBASI
SHINYANGA,37,KISHAPU,375,MASANGA,37508,BULEKELA,KISHILI
SHINYANGA,37,KISHAPU,375,MASANGA,37508,BULEKELA,MIGUNGA
SHINYANGA,37,KISHAPU,375,MASANGA,37508,DODOMA,DODOMA
SHINYANGA,37,KISHAPU,375,MASANGA,37508,DODOMA,ISEMELO
SHINYANGA,37,KISHAPU,375,MASANGA,37508,DODOMA,ISANGA
SHINYANGA,37,KISHAPU,375,MASANGA,37508,NG'WANG'HALANGA,NG'WANG'HALANGA
SHINYANGA,37,KISHAPU,375,MASANGA,37508,NG'WANG'HALANGA,BUSESWA
SHINYANGA,37,KISHAPU,375,MASANGA,37508,NG'WANG'HALANGA,NG'WASUMBI
SHINYANGA,37,KISHAPU,375,MASANGA,37508,NG'WANG'HALANGA,KISHILI
SHINYANGA,37,KISHAPU,375,MASANGA,37508,NG'WANG'HALANGA,MUNGE
SHINYANGA,37,KISHAPU,375,MASANGA,37508,NG'WANG'HALANGA,NG'WAGALA
SHINYANGA,37,KISHAPU,375,MASANGA,37508,MWAJIDALALA,MWAJIDALALA
SHINYANGA,37,KISHAPU,375,MASANGA,37508,MWAJIDALALA,BUKUNDI
SHINYANGA,37,KISHAPU,375,MASANGA,37508,MWAJIDALALA,MWAMGASHI
SHINYANGA,37,KISHAPU,375,MASANGA,37508,MWAJIDALALA,MWAMAYUNGA
SHINYANGA,37,KISHAPU,375,MASANGA,37508,MWAJIDALALA,MWAMATILIGA
SHINYANGA,37,KISHAPU,375,MASANGA,37508,BUZINZA,BUZINZA
SHINYANGA,37,KISHAPU,375,MASANGA,37508,BUZINZA,HILISHI
SHINYANGA,37,KISHAPU,375,MASANGA,37508,BUZINZA,HINDAWASHI
SHINYANGA,37,KISHAPU,375,MASANGA,37508,BUZINZA,IKULAMAWE
SHINYANGA,37,KISHAPU,375,MASANGA,37508,BUZINZA,NTIMVE
SHINYANGA,37,KISHAPU,375,MASANGA,37508,BUZINZA,KILOLELI
SHINYANGA,37,KISHAPU,375,MASANGA,37508,MASANGA,MASANGA
SHINYANGA,37,KISHAPU,375,MASANGA,37508,MASANGA,ISHOSHAMANDEGE
SHINYANGA,37,KISHAPU,375,MASANGA,37508,MWAMPALO,MWAMASHIMBA
SHINYANGA,37,KISHAPU,375,MASANGA,37508,MWAMPALO,MWAMPALO
SHINYANGA,37,KISHAPU,375,MASANGA,37508,MWAMPALO,NELA
SHINYANGA,37,KISHAPU,375,MASANGA,37508,MWAMPALO,MWANGWEGWE
SHINYANGA,37,KISHAPU,375,LAGANA,37509,MIHAMA,MIHAMA
SHINYANGA,37,KISHAPU,375,LAGANA,37509,MIHAMA,MASESE
SHINYANGA,37,KISHAPU,375,LAGANA,37509,MIHAMA,BULYANZOBE
SHINYANGA,37,KISHAPU,375,LAGANA,37509,MIHAMA,UCHUNGA
SHINYANGA,37,KISHAPU,375,LAGANA,37509,MIHAMA,MANONGA
SHINYANGA,37,KISHAPU,375,LAGANA,37509,MIHAMA,MPINDO
SHINYANGA,37,KISHAPU,375,LAGANA,37509,MIHAMA,NG'WABULANDI
SHINYANGA,37,KISHAPU,375,LAGANA,37509,MWAMADULU,MWAMADULU
SHINYANGA,37,KISHAPU,375,LAGANA,37509,MWAMADULU,BUNGWANDEGE
SHINYANGA,37,KISHAPU,375,LAGANA,37509,MWAMADULU,NG'WAMBULI
SHINYANGA,37,KISHAPU,375,LAGANA,37509,MWAMADULU,NG'WABULAGA
SHINYANGA,37,KISHAPU,375,LAGANA,37509,MWAMADULU,MADUKANI
SHINYANGA,37,KISHAPU,375,LAGANA,37509,BELEDI,BELEDI
SHINYANGA,37,KISHAPU,375,LAGANA,37509,BELEDI,MIYUGUYU
SHINYANGA,37,KISHAPU,375,LAGANA,37509,BELEDI,BUKWINGWA
SHINYANGA,37,KISHAPU,375,LAGANA,37509,LAGANA,MLIMANI
SHINYANGA,37,KISHAPU,375,LAGANA,37509,LAGANA,NZUGIMTOGWE
SHINYANGA,37,KISHAPU,375,LAGANA,37509,LAGANA,ITINDIGULU
SHINYANGA,37,KISHAPU,375,LAGANA,37509,LAGANA,NHENDEGESE
SHINYANGA,37,KISHAPU,375,LAGANA,37509,LAGANA,MBALAGANE
SHINYANGA,37,KISHAPU,375,LAGANA,37509,NYAWA,WIMATE
SHINYANGA,37,KISHAPU,375,LAGANA,37509,NYAWA,IGALUKILO
SHINYANGA,37,KISHAPU,375,LAGANA,37509,NYAWA,NYAWA
SHINYANGA,37,KISHAPU,375,LAGANA,37509,NYAWA,MAGANZO
SHINYANGA,37,KISHAPU,375,LAGANA,37509,NYAWA,ISUKAMAHELA
SHINYANGA,37,KISHAPU,375,NGOFILA,37510,IDUSHI,IGUNGUMKILO
SHINYANGA,37,KISHAPU,375,NGOFILA,37510,IDUSHI,MWAMABU
SHINYANGA,37,KISHAPU,375,NGOFILA,37510,IDUSHI,IPONYAMHINDA
SHINYANGA,37,KISHAPU,375,NGOFILA,37510,IDUSHI,JOGHOYA
SHINYANGA,37,KISHAPU,375,NGOFILA,37510,NGOFILA,NGOFILA
SHINYANGA,37,KISHAPU,375,NGOFILA,37510,NGOFILA,GOMBINA
SHINYANGA,37,KISHAPU,375,NGOFILA,37510,NGOFILA,KAGOMU
SHINYANGA,37,KISHAPU,375,NGOFILA,37510,KALITU,KALITU
SHINYANGA,37,KISHAPU,375,NGOFILA,37510,KALITU,MWAMAPULI
SHINYANGA,37,KISHAPU,375,NGOFILA,37510,KALITU,IKULILO
SHINYANGA,37,KISHAPU,375,NGOFILA,37510,KALITU,BILITIYU
SHINYANGA,37,KISHAPU,375,NGOFILA,37510,MWAMANOTA,MWAMANOTA
SHINYANGA,37,KISHAPU,375,NGOFILA,37510,MWAMANOTA,MWANILILI
SHINYANGA,37,KISHAPU,375,NGOFILA,37510,MWAMANOTA,SINGISA
SHINYANGA,37,KISHAPU,375,NGOFILA,37510,INOLELO,INOLELO
SHINYANGA,37,KISHAPU,375,NGOFILA,37510,INOLELO,TANGANYIKA
SHINYANGA,37,KISHAPU,375,NGOFILA,37510,INOLELO,NG'WABAGOSHA
SHINYANGA,37,KISHAPU,375,KILOLELI,37511,KILOLELI,MIGUNGA
SHINYANGA,37,KISHAPU,375,KILOLELI,37511,KILOLELI,MWABUKI
SHINYANGA,37,KISHAPU,375,KILOLELI,37511,KILOLELI,IKONDA
SHINYANGA,37,KISHAPU,375,KILOLELI,37511,MUGUDA,BUSHOSHA
SHINYANGA,37,KISHAPU,375,KILOLELI,37511,MUGUDA,DUSANG'WA
SHINYANGA,37,KISHAPU,375,KILOLELI,37511,MUGUDA,MANONGA
SHINYANGA,37,KISHAPU,375,KILOLELI,37511,MIYUGUYU,ITUNDULU
SHINYANGA,37,KISHAPU,375,KILOLELI,37511,MIYUGUYU,SINGISA
SHINYANGA,37,KISHAPU,375,ITILIMA,37512,ITILIMA,ITILIMA
SHINYANGA,37,KISHAPU,375,ITILIMA,37512,ITILIMA,BULIMA
SHINYANGA,37,KISHAPU,375,ITILIMA,37512,ITILIMA,IKONDA
SHINYANGA,37,KISHAPU,375,ITILIMA,37512,ITILIMA,NG'WANG'HALANGA
SHINYANGA,37,KISHAPU,375,ITILIMA,37512,ITILIMA,BUTIAMA
SHINYANGA,37,KISHAPU,375,ITILIMA,37512,ITILIMA,ZAMU
SHINYANGA,37,KISHAPU,375,ITILIMA,37512,ITILIMA,MTAKUJA
SHINYANGA,37,KISHAPU,375,ITILIMA,37512,IPEJA,IPEJA
SHINYANGA,37,KISHAPU,375,ITILIMA,37512,IPEJA,KABONDO
SHINYANGA,37,KISHAPU,375,ITILIMA,37512,IPEJA,JIBONELE
SHINYANGA,37,KISHAPU,375,ITILIMA,37512,IPEJA,BUGOGO
SHINYANGA,37,KISHAPU,375,ITILIMA,37512,IPEJA,BUZUNGU
SHINYANGA,37,KISHAPU,375,ITILIMA,37512,IKONOKELO,IKONOKELO
SHINYANGA,37,KISHAPU,375,ITILIMA,37512,IKONOKELO,BUHUNGUKILA
SHINYANGA,37,KISHAPU,375,ITILIMA,37512,IKONOKELO,MACHIMBONI
SHINYANGA,37,KISHAPU,375,ITILIMA,37512,IKONOKELO,BUYUMBA
SHINYANGA,37,KISHAPU,375,ITILIMA,37512,MWAMALA `A`,MWAMALA
SHINYANGA,37,KISHAPU,375,ITILIMA,37512,MWAMALA `A`,IKONDA
SHINYANGA,37,KISHAPU,375,ITILIMA,37512,MWAMALA `A`,ILULAMBULI
SHINYANGA,37,KISHAPU,375,ITILIMA,37512,MWAMALA `A`,BUGUMWANGATA
SHINYANGA,37,KISHAPU,375,ITILIMA,37512,MWAMALA `A`,IPILILO
SHINYANGA,37,KISHAPU,375,ITILIMA,37512,MWAMALA `A`,MWAMANDILANHA
SHINYANGA,37,KISHAPU,375,ITILIMA,37512,MWAJINGINYA `B`,ZAIRE
SHINYANGA,37,KISHAPU,375,ITILIMA,37512,MWAJINGINYA `B`,BUKINGWA MANDEGE
SHINYANGA,37,KISHAPU,375,ITILIMA,37512,MWAJINGINYA `B`,MAJENGO
SHINYANGA,37,KISHAPU,375,ITILIMA,37512,MWAJINGINYA `B`,USHIRIKA
SHINYANGA,37,KISHAPU,375,ITILIMA,37512,MWAJINGINYA `B`,KABALE
SHINYANGA,37,KISHAPU,375,ITILIMA,37512,ILEBELEBE,MWAKASOLELI
SHINYANGA,37,KISHAPU,375,ITILIMA,37512,ILEBELEBE,ING`HONG'HOLYALUSHU
SHINYANGA,37,KISHAPU,375,ITILIMA,37512,ILEBELEBE,MWABAYANDA
SHINYANGA,37,KISHAPU,375,ITILIMA,37512,ILEBELEBE,SHILABELA
SHINYANGA,37,KISHAPU,375,ITILIMA,37512,ILEBELEBE,ITUBULA
SHINYANGA,37,KISHAPU,375,ITILIMA,37512,ILEBELEBE,KILOLELI
SHINYANGA,37,KISHAPU,375,ITILIMA,37512,IKOMA,IKOMA
SHINYANGA,37,KISHAPU,375,ITILIMA,37512,IKOMA,MATUNDULU
SHINYANGA,37,KISHAPU,375,ITILIMA,37512,IKOMA,MWABOMBA
SHINYANGA,37,KISHAPU,375,ITILIMA,37512,IKOMA,JISESA
SHINYANGA,37,KISHAPU,375,ITILIMA,37512,IKOMA,KONDOGWA
SHINYANGA,37,KISHAPU,375,ITILIMA,37512,IKOMA,NGEME
SHINYANGA,37,KISHAPU,375,ITILIMA,37512,IKOMA,MAJENGO
SHINYANGA,37,KISHAPU,375,ITILIMA,37512,IKOMA,ITOGWANG`HOLO
SHINYANGA,37,KISHAPU,375,ITILIMA,37512,LILINDILO,MATUNDULU
SHINYANGA,37,KISHAPU,375,ITILIMA,37512,LILINDILO,SHULENI
SHINYANGA,37,KISHAPU,375,ITILIMA,37512,LILINDILO,MALULA
SHINYANGA,37,KISHAPU,375,ITILIMA,37512,LILINDILO,LUSANGA
SHINYANGA,37,KISHAPU,375,ITILIMA,37512,LILINDILO,ISALANHANYA
SHINYANGA,37,KISHAPU,375,ITILIMA,37512,LILINDILO,MWAKALUNDI
SHINYANGA,37,KISHAPU,375,TALAGA,37513,NHOBOLA,TALAGA
SHINYANGA,37,KISHAPU,375,TALAGA,37513,NHOBOLA,NHOBOLA
SHINYANGA,37,KISHAPU,375,TALAGA,37513,NHOBOLA,NG'WAMAWE
SHINYANGA,37,KISHAPU,375,TALAGA,37513,NHOBOLA,CHANYA
SHINYANGA,37,KISHAPU,375,TALAGA,37513,NHOBOLA,NG'HOMANGO
SHINYANGA,37,KISHAPU,375,TALAGA,37513,NHOBOLA,BUGELA
SHINYANGA,37,KISHAPU,375,TALAGA,37513,NHOBOLA,SENGELEMA
SHINYANGA,37,KISHAPU,375,TALAGA,37513,NHOBOLA,KAZUNI
SHINYANGA,37,KISHAPU,375,TALAGA,37513,KIJONGO,KIJONGO
SHINYANGA,37,KISHAPU,375,TALAGA,37513,KIJONGO,MWABAYANDA
SHINYANGA,37,KISHAPU,375,TALAGA,37513,NHENDEGESE,IPANDWANZOBE
SHINYANGA,37,KISHAPU,375,TALAGA,37513,NHENDEGESE,NHENDEGESE
SHINYANGA,37,KISHAPU,375,TALAGA,37513,NGUNGA,ISENGWA
SHINYANGA,37,KISHAPU,375,TALAGA,37513,NGUNGA,UPODYA
SHINYANGA,37,KISHAPU,375,TALAGA,37513,NGUNGA,BULUNHA
SHINYANGA,37,KISHAPU,375,TALAGA,37513,NGUNGA,ISUKAMAHELA
SHINYANGA,37,KISHAPU,375,TALAGA,37513,NGUNGA,SUMBUKI
SHINYANGA,37,KISHAPU,375,TALAGA,37513,NGUNGA,IDUTUBIJA
SHINYANGA,37,KISHAPU,375,TALAGA,37513,NGUNGA,KIJONGO
SHINYANGA,37,KISHAPU,375,TALAGA,37513,LUNGUYA,MATANDA
SHINYANGA,37,KISHAPU,375,TALAGA,37513,LUNGUYA,MPOGOLO
SHINYANGA,37,KISHAPU,375,TALAGA,37513,LUNGUYA,BUSULWA
SHINYANGA,37,KISHAPU,375,TALAGA,37513,LUNGUYA,BUGOYI
SHINYANGA,37,KISHAPU,375,UKENYENGE,37514,UKENYENGE,UKENYENGE
SHINYANGA,37,KISHAPU,375,UKENYENGE,37514,UKENYENGE,MWAMALA
SHINYANGA,37,KISHAPU,375,UKENYENGE,37514,UKENYENGE,MWADANGA
SHINYANGA,37,KISHAPU,375,UKENYENGE,37514,UKENYENGE,LWELIMO
SHINYANGA,37,KISHAPU,375,UKENYENGE,37514,UKENYENGE,BUTOGWA
SHINYANGA,37,KISHAPU,375,UKENYENGE,37514,UKENYENGE,WILA
SHINYANGA,37,KISHAPU,375,UKENYENGE,37514,MWAWEJA,MWAWEJA
SHINYANGA,37,KISHAPU,375,UKENYENGE,37514,MWAWEJA,MWAMSEGETE
SHINYANGA,37,KISHAPU,375,UKENYENGE,37514,MWAWEJA,ISHISHANI
SHINYANGA,37,KISHAPU,375,UKENYENGE,37514,MWAWEJA,KASAJI
SHINYANGA,37,KISHAPU,375,UKENYENGE,37514,MWAWEJA,BUBATA
SHINYANGA,37,KISHAPU,375,UKENYENGE,37514,NEGEZI,NSHISHINULU
SHINYANGA,37,KISHAPU,375,UKENYENGE,37514,NEGEZI,KANAWA
SHINYANGA,37,KISHAPU,375,UKENYENGE,37514,NEGEZI,NG'WANG'HWELE
SHINYANGA,37,KISHAPU,375,UKENYENGE,37514,NEGEZI,NGABULILI
SHINYANGA,37,KISHAPU,375,UKENYENGE,37514,NEGEZI,MWAMAGILI
SHINYANGA,37,KISHAPU,375,UKENYENGE,37514,NEGEZI,BUKWIMBA
SHINYANGA,37,KISHAPU,375,UKENYENGE,37514,BULIMBA,BULIMBA
SHINYANGA,37,KISHAPU,375,UKENYENGE,37514,BULIMBA,BULEBA
SHINYANGA,37,KISHAPU,375,UKENYENGE,37514,BULIMBA,NHOBOLA
SHINYANGA,37,KISHAPU,375,UKENYENGE,37514,BULIMBA,IDUKILO
SHINYANGA,37,KISHAPU,375,UKENYENGE,37514,MAYANJI,MALIMBE
SHINYANGA,37,KISHAPU,375,UKENYENGE,37514,MAYANJI,MWANONI
SHINYANGA,37,KISHAPU,375,UKENYENGE,37514,MAYANJI,TALI
SHINYANGA,37,KISHAPU,375,UKENYENGE,37514,MAYANJI,MALEWE
SHINYANGA,37,KISHAPU,375,UKENYENGE,37514,MAYANJI,MUHIDA
SHINYANGA,37,KISHAPU,375,MWADUI LOHUMBO,37515,MWADUI LOHUMBO,MWADUI LOHUMBO ''A''
SHINYANGA,37,KISHAPU,375,MWADUI LOHUMBO,37515,MWADUI LOHUMBO,MANTARE
SHINYANGA,37,KISHAPU,375,MWADUI LOHUMBO,37515,MWADUI LOHUMBO,BUCHAMA
SHINYANGA,37,KISHAPU,375,MWADUI LOHUMBO,37515,MWADUI LOHUMBO,MWADUI LOHUMBO ''C''
SHINYANGA,37,KISHAPU,375,MWADUI LOHUMBO,37515,NYENZE,MALASA
SHINYANGA,37,KISHAPU,375,MWADUI LOHUMBO,37515,NYENZE,MWAMALA
SHINYANGA,37,KISHAPU,375,MWADUI LOHUMBO,37515,NYENZE,MWAMATELU
SHINYANGA,37,KISHAPU,375,MWADUI LOHUMBO,37515,NYENZE,BUSULE
SHINYANGA,37,KISHAPU,375,MWADUI LOHUMBO,37515,WINZUNZA,MWAWILONDO
SHINYANGA,37,KISHAPU,375,MWADUI LOHUMBO,37515,WINZUNZA,MWASWEYA
SHINYANGA,37,KISHAPU,375,MWADUI LOHUMBO,37515,WINZUNZA,MWANZUGI
SHINYANGA,37,KISHAPU,375,MWADUI LOHUMBO,37515,WINZUNZA,MWAJIJI
SHINYANGA,37,KISHAPU,375,MWADUI LOHUMBO,37515,WINZUNZA,MATUMBI
SHINYANGA,37,KISHAPU,375,MWADUI LOHUMBO,37515,WINZUNZA,MABABASI
SHINYANGA,37,KISHAPU,375,MWADUI LOHUMBO,37515,WINZUNZA,KASHISHI
SHINYANGA,37,KISHAPU,375,MWADUI LOHUMBO,37515,WINZUNZA,MWALILE
SHINYANGA,37,KISHAPU,375,MWADUI LOHUMBO,37515,WINZUNZA,ILOBE
SHINYANGA,37,KISHAPU,375,MWADUI LOHUMBO,37515,MWANG'HOLO,MWANG'HOLO
SHINYANGA,37,KISHAPU,375,MWADUI LOHUMBO,37515,MWANG'HOLO,NHENDEGESE
SHINYANGA,37,KISHAPU,375,MWADUI LOHUMBO,37515,MWANG'HOLO,IGUNGA
SHINYANGA,37,KISHAPU,375,MWADUI LOHUMBO,37515,MWANG'HOLO,MANAYI
SHINYANGA,37,KISHAPU,375,MWADUI LOHUMBO,37515,MWANG'HOLO,MALUNGU
SHINYANGA,37,KISHAPU,375,SONGWA,37516,SESEKO,SESEKO
SHINYANGA,37,KISHAPU,375,SONGWA,37516,SESEKO,PAMBE
SHINYANGA,37,KISHAPU,375,SONGWA,37516,SESEKO,ISHOSHA
SHINYANGA,37,KISHAPU,375,SONGWA,37516,SESEKO,NHALANGE
SHINYANGA,37,KISHAPU,375,SONGWA,37516,SONGWA,SONGWA STATION
SHINYANGA,37,KISHAPU,375,SONGWA,37516,SONGWA,SONGWA KUSINI
SHINYANGA,37,KISHAPU,375,SONGWA,37516,SONGWA,MWABUGONG'HO
SHINYANGA,37,KISHAPU,375,SONGWA,37516,SONGWA,SOWETO
SHINYANGA,37,KISHAPU,375,SONGWA,37516,SONGWA,USHIRIKA
SHINYANGA,37,KISHAPU,375,SONGWA,37516,MPUMBULA,IGEMBENSABO
SHINYANGA,37,KISHAPU,375,SONGWA,37516,MPUMBULA,IMALABUPINA
SHINYANGA,37,KISHAPU,375,SONGWA,37516,MPUMBULA,MKONDONI
SHINYANGA,37,KISHAPU,375,SONGWA,37516,MPUMBULA,ITEGAMATU
SHINYANGA,37,KISHAPU,375,SONGWA,37516,MPUMBULA,NG'WANHALE
SHINYANGA,37,KISHAPU,375,SONGWA,37516,MPUMBULA,IBINDO
SHINYANGA,37,KISHAPU,375,SONGWA,37516,MPUMBULA,MKONDONI
SHINYANGA,37,KISHAPU,375,MONDO,37517,KABILA,KABILA KATI
SHINYANGA,37,KISHAPU,375,MONDO,37517,KABILA,PILU
SHINYANGA,37,KISHAPU,375,MONDO,37517,KABILA,MAGOGO
SHINYANGA,37,KISHAPU,375,MONDO,37517,KABILA,NKONGOLO
SHINYANGA,37,KISHAPU,375,MONDO,37517,KABILA,WIMATE
SHINYANGA,37,KISHAPU,375,MONDO,37517,BUCHAMBI,NYAMIKOMA
SHINYANGA,37,KISHAPU,375,MONDO,37517,BUCHAMBI,BUCHAMBI
SHINYANGA,37,KISHAPU,375,MONDO,37517,BUCHAMBI,BULIMA
SHINYANGA,37,KISHAPU,375,MONDO,37517,MWIGUMBI,MWIGUMBI
SHINYANGA,37,KISHAPU,375,MONDO,37517,MWIGUMBI,BUGEMI
SHINYANGA,37,KISHAPU,375,MONDO,37517,MWIGUMBI,BULAHU
SHINYANGA,37,KISHAPU,375,MONDO,37517,MWIGUMBI,MWABAYANDA
SHINYANGA,37,KISHAPU,375,MONDO,37517,MWIGUMBI,JILANGAMILI
SHINYANGA,37,KISHAPU,375,MONDO,37517,WISHITELEJA,MONDO
SHINYANGA,37,KISHAPU,375,MONDO,37517,WISHITELEJA,BUSHOMA
SHINYANGA,37,KISHAPU,375,MONDO,37517,WISHITELEJA,NYASHIMBA
SHINYANGA,37,KISHAPU,375,MONDO,37517,WISHITELEJA,GOBASUMBA
SHINYANGA,37,KISHAPU,375,MONDO,37517,WISHITELEJA,SHIMBO
SHINYANGA,37,KISHAPU,375,MONDO,37517,WISHITELEJA,MWAMALA
SHINYANGA,37,KISHAPU,375,MONDO,37517,WISHITELEJA,MWAMADIMO
SHINYANGA,37,KISHAPU,375,MONDO,37517,BUGANIKA,BUGANIKA
SHINYANGA,37,KISHAPU,375,MONDO,37517,BUGANIKA,MWABANAMHALA
SHINYANGA,37,KISHAPU,375,MONDO,37517,BUGANIKA,MWAMALYELYE
SHINYANGA,37,KISHAPU,375,MONDO,37517,BUGANIKA,MWASENGE
SHINYANGA,37,KISHAPU,375,MONDO,37517,BUGANIKA,HASHI
SHINYANGA,37,KISHAPU,375,MONDO,37517,BUGANIKA,MWAKABINA
SHINYANGA,37,KISHAPU,375,MONDO,37517,BUGANIKA,NDEMA
SHINYANGA,37,KISHAPU,375,SEKE BUGORO,37518,BUGORO,BUGOLO ASILIA
SHINYANGA,37,KISHAPU,375,SEKE BUGORO,37518,BUGORO,BUTUNGA
SHINYANGA,37,KISHAPU,375,SEKE BUGORO,37518,BUGORO,NHENDEGESE
SHINYANGA,37,KISHAPU,375,SEKE BUGORO,37518,BUGORO,ITONGWANHOLO
SHINYANGA,37,KISHAPU,375,SEKE BUGORO,37518,IDIDI,IDIDI
SHINYANGA,37,KISHAPU,375,SEKE BUGORO,37518,IDIDI,NJIMA
SHINYANGA,37,KISHAPU,375,SEKE BUGORO,37518,IDIDI,WIZUNZA
SHINYANGA,37,KISHAPU,375,SEKE BUGORO,37518,IDIDI,ILENGE
SHINYANGA,37,KISHAPU,375,SEKE BUGORO,37518,IDIDI,ZALAMBI
SHINYANGA,37,KISHAPU,375,SEKE BUGORO,37518,IDIDI,SOMELA
SHINYANGA,37,KISHAPU,375,SEKE BUGORO,37518,IDIDI,BUTONGWA
SHINYANGA,37,KISHAPU,375,SEKE BUGORO,37518,IDIDI,SEKE MJINI
SHINYANGA,37,KISHAPU,375,SEKE BUGORO,37518,NG`WASHINOG`NHELA,NG`WASHINOG`HELA
SHINYANGA,37,KISHAPU,375,SEKE BUGORO,37518,NG`WASHINOG`NHELA,LUBAGA
SHINYANGA,37,KISHAPU,375,SEKE BUGORO,37518,NG`WASHINOG`NHELA,BUGABANHA
SHINYANGA,37,KISHAPU,375,SEKE BUGORO,37518,NG`WASHINOG`NHELA,SAGIDA
SHINYANGA,37,KISHAPU,375,SEKE BUGORO,37518,NG`WASHINOG`NHELA,MWAMANONGA
SHINYANGA,37,KISHAPU,375,SEKE BUGORO,37518,NG`WASHINOG`NHELA,MANI
SHINYANGA,37,KISHAPU,375,SEKE BUGORO,37518,NG`WASHINOG`NHELA,NG`WAMBULI
SHINYANGA,37,KISHAPU,375,SEKE BUGORO,37518,NG`WASHINOG`NHELA,BUSULE
SHINYANGA,37,KISHAPU,375,SEKE BUGORO,37518,NG`WASHINOG`NHELA,ISULILO
SHINYANGA,37,KISHAPU,375,SEKE BUGORO,37518,MIPA,MIPA
SHINYANGA,37,KISHAPU,375,SEKE BUGORO,37518,MIPA,SAMUYE
SHINYANGA,37,KISHAPU,375,SEKE BUGORO,37518,MIPA,NG`HUNGULUMA
SHINYANGA,37,KISHAPU,375,SEKE BUGORO,37518,MIPA,NTANGALA
SHINYANGA,37,KISHAPU,375,SEKE BUGORO,37518,MIPA,NGANDO
SHINYANGA,37,KISHAPU,375,SEKE BUGORO,37518,MIPA,INYANGA
SHINYANGA,37,KISHAPU,375,SEKE BUGORO,37518,DULISI,MWASHIGELA
SHINYANGA,37,KISHAPU,375,SEKE BUGORO,37518,DULISI,NYENZE
SHINYANGA,37,KISHAPU,375,SEKE BUGORO,37518,DULISI,BUNYANYEMBE
SHINYANGA,37,KISHAPU,375,SEKE BUGORO,37518,NG'WAKULONG'WA,ISANGA
SHINYANGA,37,KISHAPU,375,SEKE BUGORO,37518,NG'WAKULONG'WA,MWAKULONG'WA
SHINYANGA,37,KISHAPU,375,SEKE BUGORO,37518,NG'WAKULONG'WA,MBIKILIJA
SHINYANGA,37,KISHAPU,375,SEKE BUGORO,37518,NG'WAKULONG'WA,KAHANGO
SHINYANGA,37,KISHAPU,375,SEKE BUGORO,37518,NG'WAKULONG'WA,MBALA
SHINYANGA,37,KISHAPU,375,SEKE BUGORO,37518,NG'WAKULONG'WA,SHILABELA
SHINYANGA,37,KISHAPU,375,SEKE BUGORO,37518,MWAMASOLOLO,MWAMASOLOLO
SHINYANGA,37,KISHAPU,375,SEKE BUGORO,37518,MWAMASOLOLO,SAYU
SHINYANGA,37,KISHAPU,375,SEKE BUGORO,37518,MWAMASOLOLO,NHALANGE
SHINYANGA,37,KISHAPU,375,SEKE BUGORO,37518,NG'WAGALA NKULU,MWAHINDA
SHINYANGA,37,KISHAPU,375,SEKE BUGORO,37518,NG'WAGALA NKULU,MADETE
SHINYANGA,37,KISHAPU,375,SEKE BUGORO,37518,NG'WAGALA NKULU,MWAGALANKULU
SHINYANGA,37,KISHAPU,375,BUBIKI,37519,BUBIKI,BUBIKI
SHINYANGA,37,KISHAPU,375,BUBIKI,37519,BUBIKI,ILAMBABUSUNGA
SHINYANGA,37,KISHAPU,375,BUBIKI,37519,BUBIKI,NG'WAJINAGANYA
SHINYANGA,37,KISHAPU,375,BUBIKI,37519,"BUBIKI ""B""",NG'WAMANGHONDI
SHINYANGA,37,KISHAPU,375,BUBIKI,37519,"BUBIKI ""B""",NG'WAMILINGA
SHINYANGA,37,KISHAPU,375,BUBIKI,37519,NYANSAMBA,NYANSAMBA
SHINYANGA,37,KISHAPU,375,BUBIKI,37519,NYANSAMBA,BUDUMA
SHINYANGA,37,KISHAPU,375,BUBIKI,37519,NYANSAMBA,KISHILI
SHINYANGA,37,KISHAPU,375,BUBIKI,37519,NYANSAMBA,NG'WANDU
SHINYANGA,37,KISHAPU,375,BUBIKI,37519,NYANSAMBA,BULYANZOBE
SHINYANGA,37,KISHAPU,375,BUBIKI,37519,MWAMISHONI,WILIGWA
SHINYANGA,37,KISHAPU,375,BUBIKI,37519,MWAMISHONI,MAGUNGHWA
SHINYANGA,37,KISHAPU,375,BUBIKI,37519,MWAMISHONI,NG'WANDU
SHINYANGA,37,KISHAPU,375,BUBIKI,37519,MWAMISHONI,JISESA
SHINYANGA,37,KISHAPU,375,BUBIKI,37519,MWAMISHONI,SESEKO
SHINYANGA,37,KISHAPU,375,BUBIKI,37519,MWAMISHONI,NASHI
SHINYANGA,37,KISHAPU,375,BUNAMBIYU,37520,BUNAMBIYU,BUNAMBIYU
SHINYANGA,37,KISHAPU,375,BUNAMBIYU,37520,BUNAMBIYU,MWAMADITI
SHINYANGA,37,KISHAPU,375,BUNAMBIYU,37520,BUNAMBIYU,GONG'HOMA
SHINYANGA,37,KISHAPU,375,BUNAMBIYU,37520,BUNAMBIYU,MACHANJO
SHINYANGA,37,KISHAPU,375,BUNAMBIYU,37520,BUNAMBIYU,IHUNGE
SHINYANGA,37,KISHAPU,375,BUNAMBIYU,37520,BUNAMBIYU,NHENDEGESE
SHINYANGA,37,KISHAPU,375,BUNAMBIYU,37520,BUTUYU,MWAMAPE
SHINYANGA,37,KISHAPU,375,BUNAMBIYU,37520,BUTUYU,BUSAGALA
SHINYANGA,37,KISHAPU,375,BUNAMBIYU,37520,BUTUYU,DUHANI
SHINYANGA,37,KISHAPU,375,BUNAMBIYU,37520,BUTUYU,BUGE
SHINYANGA,37,KISHAPU,375,BUNAMBIYU,37520,BUTUYU,JISESA
SHINYANGA,37,KISHAPU,375,BUNAMBIYU,37520,BUTUYU,MWABALUHI
SHINYANGA,37,KISHAPU,375,BUNAMBIYU,37520,BUTUYU,BUGEMBE
SHINYANGA,37,KISHAPU,375,BUNAMBIYU,37520,BUTUYU,BUSHINI.
SHINYANGA,37,KISHAPU,375,BUNAMBIYU,37520,BUTUYU,MALULA
SHINYANGA,37,KISHAPU,375,BUNAMBIYU,37520,BUTUYU,JIMONDOLI
SHINYANGA,37,KISHAPU,375,BUNAMBIYU,37520,BUTUYU,MALULA A
SHINYANGA,37,KISHAPU,375,BUNAMBIYU,37520,BUTUYU,MALULA B
SHINYANGA,37,KISHAPU,375,MAGANZO,37521,MAGANZO,MAJIMAJI
SHINYANGA,37,KISHAPU,375,MAGANZO,37521,MAGANZO,BULUMBAGA
SHINYANGA,37,KISHAPU,375,MAGANZO,37521,MAGANZO,MACHINJIONI
SHINYANGA,37,KISHAPU,375,MAGANZO,37521,MAGANZO,MAGAGI
SHINYANGA,37,KISHAPU,375,MAGANZO,37521,MAGANZO,OYSTERBAY
SHINYANGA,37,KISHAPU,375,MAGANZO,37521,MAGANZO,USHASHINI
SHINYANGA,37,KISHAPU,375,MAGANZO,37521,MAGANZO,AMANI
SHINYANGA,37,KISHAPU,375,MAGANZO,37521,MAGANZO,BONDENI
SHINYANGA,37,KISHAPU,375,MAGANZO,37521,MAGANZO,MAJENGO
SHINYANGA,37,KISHAPU,375,MAGANZO,37521,MAGANZO,NGUZOMBILI
SHINYANGA,37,KISHAPU,375,MAGANZO,37521,MASAGALA,LUKELEGE
SHINYANGA,37,KISHAPU,375,MAGANZO,37521,MASAGALA,BUHANGIJA
SHINYANGA,37,KISHAPU,375,MAGANZO,37521,MASAGALA,BUCHUNGA
SHINYANGA,37,KISHAPU,375,MAGANZO,37521,MASAGALA,MWABUKI
SHINYANGA,37,KISHAPU,375,MAGANZO,37521,MASAGALA,MWEMBENI
SHINYANGA,37,KISHAPU,375,MAGANZO,37521,MASAGALA,MWANZAROAD
SHINYANGA,37,KISHAPU,375,MAGANZO,37521,MASAGALA,MAGANZO
SHINYANGA,37,KISHAPU,375,MAGANZO,37521,IKONONGO,IKONONGO
SHINYANGA,37,KISHAPU,375,MAGANZO,37521,IKONONGO,BULUNG'WAMBISU
SHINYANGA,37,KISHAPU,375,MAGANZO,37521,IKONONGO,IKOMBABUKI
SHINYANGA,37,KISHAPU,375,MAGANZO,37521,IKONONGO,NYASHIMBI
SHINYANGA,37,KISHAPU,375,MWAWEJA,37522,IKONDA A,IKONDA
SHINYANGA,37,KISHAPU,375,MWAWEJA,37522,IKONDA A,MATANDA
SHINYANGA,37,KISHAPU,375,MWAWEJA,37522,IKONDA A,MWAMAKEREMO
SHINYANGA,37,KISHAPU,375,MWAWEJA,37522,BUBATA,HINDUKI
SHINYANGA,37,KISHAPU,375,MWAWEJA,37522,BUBATA,UBATA
SHINYANGA,37,KISHAPU,375,MWAWEJA,37522,MWAJIGINYA ' A',MATANDA
SHINYANGA,37,KISHAPU,375,MWAWEJA,37522,MWAJIGINYA ' A',NYAGALU
SHINYANGA,37,KISHAPU,375,MWAWEJA,37522,MWAJIGINYA ' A',MWAMANGA
SHINYANGA,37,KISHAPU,375,MWAWEJA,37522,MWAJIGINYA ' A',KALANGALE
SHINYANGA,37,KISHAPU,375,MWAWEJA,37522,MWAJIGINYA ' A',MWAJIGINYA
SHINYANGA,37,KISHAPU,375,BUPIPI,37523,BUPIGI,BUPIGI
SHINYANGA,37,KISHAPU,375,BUPIPI,37523,BUPIGI,IJUKA
SHINYANGA,37,KISHAPU,375,BUPIPI,37523,BUPIGI,NG'WASAGONDI
SHINYANGA,37,KISHAPU,375,BUPIPI,37523,BUPIGI,MWAMALA
SHINYANGA,37,KISHAPU,375,BUPIPI,37523,BUTUNGWA,NZUGWAGWI
SHINYANGA,37,KISHAPU,375,BUPIPI,37523,BUTUNGWA,GOMAHOMA
SHINYANGA,37,KISHAPU,375,BUPIPI,37523,BUTUNGWA,BUTUNGWA
SHINYANGA,37,KISHAPU,375,BUPIPI,37523,BUTUNGWA,BULIMA
SHINYANGA,37,KISHAPU,375,BUPIPI,37523,WELA,WELA
SHINYANGA,37,KISHAPU,375,BUPIPI,37523,WELA,ITOGWANG'HOLO
SHINYANGA,37,KISHAPU,375,BUPIPI,37523,WELA,IHIYU
SHINYANGA,37,KISHAPU,375,BUPIPI,37523,WELA,NG'WABAGOSHA
SHINYANGA,37,KISHAPU,375,BUPIPI,37523,WELA,IDUKILO
SHINYANGA,37,KISHAPU,375,BUSANGWA,37524,MWANIMA,NGW'AMAPIGANO
SHINYANGA,37,KISHAPU,375,BUSANGWA,37524,MWANIMA,BUSANGWA MBUSHI
SHINYANGA,37,KISHAPU,375,BUSANGWA,37524,MWANIMA,MYANDUYANG'OMBE
SHINYANGA,37,KISHAPU,375,BUSANGWA,37524,MWANIMA,NG'WANHINGA
SHINYANGA,37,KISHAPU,375,BUSANGWA,37524,MWANIMA,ITINJE
SHINYANGA,37,KISHAPU,375,BUSANGWA,37524,MWAJININGU,NG'WAYEGE
SHINYANGA,37,KISHAPU,375,BUSANGWA,37524,MWAJININGU,ISANGA
SHINYANGA,37,KISHAPU,375,BUSANGWA,37524,MWAJININGU,INELE
SHINYANGA,37,KISHAPU,375,BUSANGWA,37524,MWAJININGU,MWABUFU
SHINYANGA,37,KISHAPU,375,BUSANGWA,37524,BUSANGWA,MYANDUYANG'OMBE
SHINYANGA,37,KISHAPU,375,BUSANGWA,37524,BUSANGWA,SHULENI
SHINYANGA,37,KISHAPU,375,BUSANGWA,37524,BUSANGWA,BUSANGWA SENTA
SHINYANGA,37,KISHAPU,375,BUSANGWA,37524,BUSANGWA,NHALANGE
SHINYANGA,37,KISHAPU,375,BUSANGWA,37524,MWAJIPUGILA,MWAGIGI
SHINYANGA,37,KISHAPU,375,BUSANGWA,37524,MWAJIPUGILA,KAKORA
SHINYANGA,37,KISHAPU,375,BUSANGWA,37524,MWAJIPUGILA,NG'WAJIPUGILA
SHINYANGA,37,KISHAPU,375,BUSANGWA,37524,MWAJIPUGILA,MALE
SHINYANGA,37,KISHAPU,375,BUSANGWA,37524,MWAJIPUGILA,MWANDELYA
SHINYANGA,37,KISHAPU,375,BUSANGWA,37524,MWAJIPUGILA,MWANDUNGUKO
SHINYANGA,37,KISHAPU,375,MWATAGA,37525,MWAJIPUGILA,MATAGA
SHINYANGA,37,KISHAPU,375,MWATAGA,37525,MWAJIPUGILA,MAPINDUZI
SHINYANGA,37,KISHAPU,375,MWATAGA,37525,MWAJIPUGILA,IPILILO
SHINYANGA,37,KISHAPU,375,MWATAGA,37525,MWAJIPUGILA,MITUJA
SHINYANGA,37,KISHAPU,375,MWATAGA,37525,MWAJIPUGILA,UPANNDWA
SHINYANGA,37,KISHAPU,375,MWATAGA,37525,MWAJIPUGILA,SONGAMBELE
SHINYANGA,37,KISHAPU,375,MWATAGA,37525,MWAJIPUGILA,NGUVUKAZI
SHINYANGA,37,KISHAPU,375,MWATAGA,37525,MWAJIPUGILA,MALAWI
SHINYANGA,37,KISHAPU,375,MWATAGA,37525,MWAJIPUGILA,MAPAMBANO
SHINYANGA,37,KISHAPU,375,MWATAGA,37525,MWAJIPUGILA,MWADUI
SHINYANGA,37,KISHAPU,375,MWATAGA,37525,MWAJIPUGILA,ZAIRE
SHINYANGA,37,KISHAPU,375,MWATAGA,37525,MWAJIPUGILA,KAGERA
SHINYANGA,37,KISHAPU,375,MWATAGA,37525,MWAJIPUGILA,AMKA TWENDE
SHINYANGA,37,KISHAPU,375,MWATAGA,37525,MWAJIPUGILA,MWAJILILI
SHINYANGA,37,KISHAPU,375,MWATAGA,37525,MWAJIPUGILA,MWAKIJA
SHINYANGA,37,KISHAPU,375,MWATAGA,37525,MWAJIPUGILA,MITIBYE
SHINYANGA,37,KISHAPU,375,MWATAGA,37525,MWAJIPUGILA,MIGUNGA
SHINYANGA,37,KISHAPU,375,MWATAGA,37525,MWAJIPUGILA,BUYAMBA
SHINYANGA,37,KISHAPU,375,MWATAGA,37525,MWAJIPUGILA,ISANGA
SHINYANGA,37,KISHAPU,375,MWATAGA,37525,MWAJIPUGILA,JIDETE
SHINYANGA,37,KISHAPU,375,MWATAGA,37525,MWAJIPUGILA,MISHISHI
SHINYANGA,37,KISHAPU,375,MWATAGA,37525,MWAJIPUGILA,MISION
SHINYANGA,37,KISHAPU,375,MWATAGA,37525,MWAJIPUGILA,MVANG'HALI
SHINYANGA,37,KISHAPU,375,MWATAGA,37525,MWAJIPUGILA,MWABALATULU
SHINYANGA,37,KISHAPU,375,MWATAGA,37525,MWAJIPUGILA,ISANGA
SHINYANGA,37,KISHAPU,375,MWATAGA,37525,MWAJIPUGILA,GULULU
SHINYANGA,37,KISHAPU,375,NDOLELEJI,37526,NDOLELEJI,NDOLELEJI
SHINYANGA,37,KISHAPU,375,NDOLELEJI,37526,NDOLELEJI,BUGOGO
SHINYANGA,37,KISHAPU,375,NDOLELEJI,37526,NDOLELEJI,JINALILYA
SHINYANGA,37,KISHAPU,375,NDOLELEJI,37526,NDOLELEJI,ISWAMATE
SHINYANGA,37,KISHAPU,375,NDOLELEJI,37526,NDOLELEJI,SHOKASHOKA
SHINYANGA,37,KISHAPU,375,NDOLELEJI,37526,NDOLELEJI,NYANGUGANWA
SHINYANGA,37,KISHAPU,375,NDOLELEJI,37526,NDOLELEJI,BUCHELA
SHINYANGA,37,KISHAPU,375,NDOLELEJI,37526,NDOLELEJI,MWASHELI
SHINYANGA,37,KISHAPU,375,NDOLELEJI,37526,SANJO,MWAZUNZU
SHINYANGA,37,KISHAPU,375,NDOLELEJI,37526,SANJO,INOLELO
SHINYANGA,37,KISHAPU,375,NDOLELEJI,37526,SANJO,MWAJIHANGO
SHINYANGA,37,KISHAPU,375,NDOLELEJI,37526,SANJO,BULEMELA
SHINYANGA,37,KISHAPU,375,NDOLELEJI,37526,SANJO,NG'WAMBUTU
SHINYANGA,37,KISHAPU,375,NDOLELEJI,37526,GIMAGI,MWAMANENO
SHINYANGA,37,KISHAPU,375,NDOLELEJI,37526,GIMAGI,BULYAMHULU
SHINYANGA,37,KISHAPU,375,NDOLELEJI,37526,GIMAGI,BUGWANDEGE
SHINYANGA,37,KISHAPU,375,NDOLELEJI,37526,GIMAGI,MWASUBI
SHINYANGA,37,KISHAPU,375,NDOLELEJI,37526,MWALATA,KAZUNI
SHINYANGA,37,KISHAPU,375,NDOLELEJI,37526,MWALATA,MATUNDULU
SHINYANGA,37,KISHAPU,375,NDOLELEJI,37526,MWALATA,MWABAYANDA
SHINYANGA,37,KISHAPU,375,NDOLELEJI,37526,MWALATA,MWAMANOTA
SHINYANGA,37,KISHAPU,375,MWASUBI,37527,MWASUBI,MWASUBI
SHINYANGA,37,KISHAPU,375,MWASUBI,37527,MWASUBI,MWALULYEHO
SHINYANGA,37,KISHAPU,375,MWASUBI,37527,MWASUBI,MWAMASANGU
SHINYANGA,37,KISHAPU,375,MWASUBI,37527,MWASUBI,SONGAMBELE
SHINYANGA,37,KISHAPU,375,MWASUBI,37527,MWASUBI,MAJENGO
SHINYANGA,37,KISHAPU,375,MWASUBI,37527,MWASUBI,GONG`HOMA
SHINYANGA,37,KISHAPU,375,MWASUBI,37527,MWASUBI,KIBITILWA
SHINYANGA,37,KISHAPU,375,MWASUBI,37527,MWASUBI,IZENGABASABI
SHINYANGA,37,KISHAPU,375,MWASUBI,37527,MWASUBI,BUSAGALA
SHINYANGA,37,KISHAPU,375,MWASUBI,37527,NG'WANG'HILI,MAENDELEO
SHINYANGA,37,KISHAPU,375,MWASUBI,37527,NG'WANG'HILI,MWAYUNGE
SHINYANGA,37,KISHAPU,375,MWASUBI,37527,NG'WANG'HILI,MUUNGANO
SHINYANGA,37,KISHAPU,375,MWASUBI,37527,NG'WANG'HILI,MWABAKIMA
SHINYANGA,37,KISHAPU,375,MWASUBI,37527,NG'WANG'HILI,NGUVUKAZI
SHINYANGA,37,KISHAPU,375,MWASUBI,37527,ITONGOITALE,MWAMAJIJI
SHINYANGA,37,KISHAPU,375,MWASUBI,37527,ITONGOITALE,MAENDELEO
SHINYANGA,37,KISHAPU,375,MWASUBI,37527,ITONGOITALE,UJAMAA
SHINYANGA,37,KISHAPU,375,MWASUBI,37527,ITONGOITALE,MWAYUNGE
SHINYANGA,37,KISHAPU,375,MWASUBI,37527,ITONGOITALE,MUUNGANO
SHINYANGA,37,KISHAPU,375,MWASUBI,37527,ITONGOITALE,MWABAKIMA
SHINYANGA,37,KISHAPU,375,MWASUBI,37527,ITONGOITALE,NGUVUKAZI
SHINYANGA,37,KISHAPU,375,MWASUBI,37527,ITONGOITALE,MSHIKAMANO
SHINYANGA,37,KISHAPU,375,IGAGA,37528,DUGUSHILU,DUGUSHILU
SHINYANGA,37,KISHAPU,375,IGAGA,37528,DUGUSHILU,BUTULWA
SHINYANGA,37,KISHAPU,375,IGAGA,37528,DUGUSHILU,MWAMABELE
SHINYANGA,37,KISHAPU,375,IGAGA,37528,DUGUSHILU,BUKINGW'AMINZI
SHINYANGA,37,KISHAPU,375,IGAGA,37528,DUGUSHILU,MWASAKWA
SHINYANGA,37,KISHAPU,375,IGAGA,37528,IGAGA ''A'',ITENGEJA
SHINYANGA,37,KISHAPU,375,IGAGA,37528,IGAGA ''A'',IKANGALA
SHINYANGA,37,KISHAPU,375,IGAGA,37528,IGAGA ''A'',JITULU
SHINYANGA,37,KISHAPU,375,IGAGA,37528,IGAGA ''A'',ITINJE
SHINYANGA,37,KISHAPU,375,IGAGA,37528,IGAGA ''A'',SULAGI
SHINYANGA,37,KISHAPU,375,IGAGA,37528,IGAGA''B'',NHOBOLA
SHINYANGA,37,KISHAPU,375,IGAGA,37528,IGAGA''B'',MOSHI
SHINYANGA,37,KISHAPU,375,IGAGA,37528,IGAGA''B'',WINENEKEJA
SHINYANGA,37,KISHAPU,375,IGAGA,37528,IGAGA''B'',JAGAWELILE
SHINYANGA,37,KISHAPU,375,IGAGA,37528,IGAGA''B'',IGAGA
SHINYANGA,37,KISHAPU,375,IDUKILO,37529,BULIMA,BULIMA
SHINYANGA,37,KISHAPU,375,IDUKILO,37529,BULIMA,BUSULE
SHINYANGA,37,KISHAPU,375,IDUKILO,37529,BULIMA,IKULUSI
SHINYANGA,37,KISHAPU,375,IDUKILO,37529,BULIMA,MISUNGWI
SHINYANGA,37,KISHAPU,375,IDUKILO,37529,BULIMA,MWAMAKELEMO
SHINYANGA,37,KISHAPU,375,IDUKILO,37529,IDUKILO,IDUKILO
SHINYANGA,37,KISHAPU,375,IDUKILO,37529,IDUKILO,IKULUSI
SHINYANGA,37,KISHAPU,375,IDUKILO,37529,IDUKILO,MAJENGO
SHINYANGA,37,KISHAPU,375,IDUKILO,37529,IDUKILO,BUGANIKA
SHINYANGA,37,KISHAPU,375,IDUKILO,37529,IDUKILO,MWABANANUKI
SHINYANGA,37,KISHAPU,375,IDUKILO,37529,SANJO,SANJO
SHINYANGA,37,KISHAPU,375,IDUKILO,37529,SANJO,MWAJILUTO
SHINYANGA,37,KISHAPU,375,IDUKILO,37529,SANJO,USHIRIKA
SHINYANGA,37,KISHAPU,375,IDUKILO,37529,SANJO,BUGEKE
SHINYANGA,37,KISHAPU,375,IDUKILO,37529,SANJO,MWABAYANDA
SHINYANGA,37,KISHAPU,375,IDUKILO,37529,IGUMANGOBO,IGUMANGOBO
SHINYANGA,37,KISHAPU,375,IDUKILO,37529,IGUMANGOBO,MWAMADULU
SHINYANGA,37,KISHAPU,375,IDUKILO,37529,IGUMANGOBO,LUBAGA
SHINYANGA,37,KISHAPU,375,IDUKILO,37529,IGUMANGOBO,MWAMALA
SHINYANGA,37,KISHAPU,375,IDUKILO,37529,IGUMANGOBO,ITINJE
