REGION,POSTCODE,DISTRICT,POSTCODE,WARD,POSTCODE,STREET,PLACES
SIMIYU,39,BARIADI,391,BARIADI,39101,VIWANDANI,
SIMIYU,39,BARIADI,391,BARIADI,39101,MAJENGO,
SIMIYU,39,BARIADI,391,BARIADI,39101,KIDINDA,
SIMIYU,39,BARIADI,391,BARIADI,39101,BUZUNZA,
SIMIYU,39,BARIADI,391,BARIADI,39101,NYANGAKA,
SIMIYU,39,BARIADI,391,BARIADI,39101,BARIADI,
SIMIYU,39,BARIADI,391,BUNAMHALA,39102,BUNAMHALA,
SIMIYU,39,BARIADI,391,BUNAMHALA,39102,SONGAMBELE,
SIMIYU,39,BARIADI,391,BUNAMHALA,39102,KIDALIMANDA,
SIMIYU,39,BARIADI,391,BUNAMHALA,39102,ITONGO,
SIMIYU,39,BARIADI,391,BUNAMHALA,39102,MWAMHUBA,
SIMIYU,39,BARIADI,391,BUNAMHALA,39102,IMALILO,
SIMIYU,39,BARIADI,391,BUNAMHALA,39102,MAHAHA,
SIMIYU,39,BARIADI,391,BUNAMHALA,39102,ISANZU,
SIMIYU,39,BARIADI,391,BUNAMHALA,39102,KILULU,
SIMIYU,39,BARIADI,391,BUNAMHALA,39102,MWANZIMBILA,
SIMIYU,39,BARIADI,391,BUNAMHALA,39102,GIRIKU,
SIMIYU,39,BARIADI,391,BUNAMHALA,39102,SAKAYI,
SIMIYU,39,BARIADI,391,BUNAMHALA,39102,NG'WAKIBOLO,
SIMIYU,39,BARIADI,391,SOMANDA,39103,YOMA,
SIMIYU,39,BARIADI,391,SOMANDA,39103,NYAMHIMBI,
SIMIYU,39,BARIADI,391,SOMANDA,39103,IZUNYA,
SIMIYU,39,BARIADI,391,SOMANDA,39103,BOMANI,
SIMIYU,39,BARIADI,391,SOMANDA,39103,SOMANDA,
SIMIYU,39,BARIADI,391,SOMANDA,39103,NTUZU,
SIMIYU,39,BARIADI,391,SOMANDA,39103,KISIWANI,
SIMIYU,39,BARIADI,391,SOMANDA,39103,SANUNGU,
SIMIYU,39,BARIADI,391,SOMANDA,39103,NYAUMATA,
SIMIYU,39,BARIADI,391,SOMANDA,39103,MAHINA,
SIMIYU,39,BARIADI,391,SIMA,39104,SOKONI,
SIMIYU,39,BARIADI,391,SIMA,39104,SALUNDA,
SIMIYU,39,BARIADI,391,SIMA,39104,LYALU,
SIMIYU,39,BARIADI,391,SIMA,39104,SIMA,
SIMIYU,39,BARIADI,391,SIMA,39104,BUDEKA,
SIMIYU,39,BARIADI,391,SIMA,39104,BUTIAMA,
SIMIYU,39,BARIADI,391,SIMA,39104,NG'WASWALE,
SIMIYU,39,BARIADI,391,MALAMBO,39105,VODA,
SIMIYU,39,BARIADI,391,MALAMBO,39105,SIMA JUU,
SIMIYU,39,BARIADI,391,MALAMBO,39105,MALAMBO,
SIMIYU,39,BARIADI,391,MALAMBO,39105,BENKI,
SIMIYU,39,BARIADI,391,MALAMBO,39105,GITOYA,
SIMIYU,39,BARIADI,391,MALAMBO,39105,NGASHANDA,
SIMIYU,39,BARIADI,391,SAKWE,39106,SAKWE,SAKWE MADUKANI
SIMIYU,39,BARIADI,391,SAKWE,39106,SAKWE,MWABULYOCHI
SIMIYU,39,BARIADI,391,SAKWE,39106,SAKWE,SONGAMBELE
SIMIYU,39,BARIADI,391,SAKWE,39106,SAKWE,MWAGALA
SIMIYU,39,BARIADI,391,SAKWE,39106,SAKWE,BUKANGILIJA
SIMIYU,39,BARIADI,391,SAKWE,39106,SAKWE,BUSULWA
SIMIYU,39,BARIADI,391,SAKWE,39106,SAKWE,NYANYA
SIMIYU,39,BARIADI,391,SAKWE,39106,IBULYU,MADUKANI
SIMIYU,39,BARIADI,391,SAKWE,39106,IBULYU,ILOMELO
SIMIYU,39,BARIADI,391,SAKWE,39106,IBULYU,MWABASABI
SIMIYU,39,BARIADI,391,SAKWE,39106,IBULYU,LUGONGO
SIMIYU,39,BARIADI,391,SAKWE,39106,IBULYU,MWAGABATE
SIMIYU,39,BARIADI,391,SAKWE,39106,IBULYU,MHANGO
SIMIYU,39,BARIADI,391,SAKWE,39106,IBULYU,GINGALI
SIMIYU,39,BARIADI,391,SAKWE,39106,NG'WANGIMU,MWAMASHUNULA
SIMIYU,39,BARIADI,391,SAKWE,39106,NG'WANGIMU,NGOWA
SIMIYU,39,BARIADI,391,SAKWE,39106,NG'WANGIMU,DADUGA
SIMIYU,39,BARIADI,391,SAKWE,39106,NG'WANGIMU,NYANDEKWA
SIMIYU,39,BARIADI,391,SAKWE,39106,NG'WANGIMU,NKOLOGOMA
SIMIYU,39,BARIADI,391,MHANGO,39107,MBITI MLIMANI,
SIMIYU,39,BARIADI,391,MHANGO,39107,MBITI SOKONI,
SIMIYU,39,BARIADI,391,MHANGO,39107,MHANGO,
SIMIYU,39,BARIADI,391,MHANGO,39107,ISENGWA,
SIMIYU,39,BARIADI,391,MHANGO,39107,SHIMBALE,
SIMIYU,39,BARIADI,391,MHANGO,39107,ISANGA,
SIMIYU,39,BARIADI,391,MHANGO,39107,NGOGOTE,
SIMIYU,39,BARIADI,391,MHANGO,39107,BUSULWA,
SIMIYU,39,BARIADI,391,KASOLI,39108,KASOLI,KASOLI A
SIMIYU,39,BARIADI,391,KASOLI,39108,KASOLI,KASOLI B
SIMIYU,39,BARIADI,391,KASOLI,39108,KASOLI,MWAMAGELANI A
SIMIYU,39,BARIADI,391,KASOLI,39108,KASOLI,MWAMAGELANI B
SIMIYU,39,BARIADI,391,KASOLI,39108,KASOLI,BUSESE A
SIMIYU,39,BARIADI,391,KASOLI,39108,KASOLI,BUSESE B
SIMIYU,39,BARIADI,391,KASOLI,39108,KASOLI,MITUNDU A
SIMIYU,39,BARIADI,391,KASOLI,39108,KASOLI,MITUNDU B
SIMIYU,39,BARIADI,391,KASOLI,39108,KASOLI,MWAGOYAYI A
SIMIYU,39,BARIADI,391,KASOLI,39108,KASOLI,MWAGOYAYI B
SIMIYU,39,BARIADI,391,KASOLI,39108,MWAMLAPA,MWAMLAPA
SIMIYU,39,BARIADI,391,KASOLI,39108,MWAMLAPA,BUSESE
SIMIYU,39,BARIADI,391,KASOLI,39108,MWAMLAPA,WICHAMOYO
SIMIYU,39,BARIADI,391,KASOLI,39108,MWAMLAPA,NG'WAMAHALA
SIMIYU,39,BARIADI,391,KASOLI,39108,MWAMLAPA,NKUNGU
SIMIYU,39,BARIADI,391,KASOLI,39108,MWAMLAPA,BUSUMABU
SIMIYU,39,BARIADI,391,KASOLI,39108,NDUHA,NDUHA
SIMIYU,39,BARIADI,391,KASOLI,39108,NDUHA,FUNE
SIMIYU,39,BARIADI,391,KASOLI,39108,NDUHA,BUGONG'HWA
SIMIYU,39,BARIADI,391,KASOLI,39108,NDUHA,NG'WABAKANGA
SIMIYU,39,BARIADI,391,KASOLI,39108,NDUHA,IMALILO
SIMIYU,39,BARIADI,391,KILALO,39109,KILALO,KILALO
SIMIYU,39,BARIADI,391,KILALO,39109,KILALO,KILABELA
SIMIYU,39,BARIADI,391,KILALO,39109,KILALO,BUCHELA
SIMIYU,39,BARIADI,391,KILALO,39109,KILALO,MKAPA
SIMIYU,39,BARIADI,391,KILALO,39109,KILALO,USHIRIKA
SIMIYU,39,BARIADI,391,KILALO,39109,NYAMISAGUSA,NYAMISAGUSA 'A'
SIMIYU,39,BARIADI,391,KILALO,39109,NYAMISAGUSA,NYAMISAGUSA 'B'
SIMIYU,39,BARIADI,391,KILALO,39109,NYAMISAGUSA,MAGUHWA
SIMIYU,39,BARIADI,391,KILALO,39109,NYAMISAGUSA,NG'WAKUZUKA
SIMIYU,39,BARIADI,391,KILALO,39109,NYAMISAGUSA,MTONI
SIMIYU,39,BARIADI,391,KILALO,39109,NYAMISAGUSA,NYERERE
SIMIYU,39,BARIADI,391,KILALO,39109,NYAMISAGUSA,MWANDU
SIMIYU,39,BARIADI,391,KILALO,39109,NYAMISAGUSA,NG'WASHEPI
SIMIYU,39,BARIADI,391,KILALO,39109,NYAMISAGUSA,NG'WABUKULIWA
SIMIYU,39,BARIADI,391,KILALO,39109,NYAMISAGUSA,BUSESE
SIMIYU,39,BARIADI,391,KILALO,39109,KILALO MASHARIKI,MWAHUMHA
SIMIYU,39,BARIADI,391,KILALO,39109,KILALO MASHARIKI,MWAMOLA
SIMIYU,39,BARIADI,391,KILALO,39109,KILALO MASHARIKI,BONDENI
SIMIYU,39,BARIADI,391,KILALO,39109,KILALO MASHARIKI,NGHESHA
SIMIYU,39,BARIADI,391,KILALO,39109,KILALO MASHARIKI,KILALO MASHARIKI
SIMIYU,39,BARIADI,391,KILALO,39109,IKUNGULYAMBESHI B,MTONI
SIMIYU,39,BARIADI,391,KILALO,39109,IKUNGULYAMBESHI B,ITALE
SIMIYU,39,BARIADI,391,KILALO,39109,IKUNGULYAMBESHI B,MADUKANI
SIMIYU,39,BARIADI,391,KILALO,39109,IKUNGULYAMBESHI B,NG'WAMGANDA
SIMIYU,39,BARIADI,391,KILALO,39109,IKUNGULYAMBESHI B,KULYANDE
SIMIYU,39,BARIADI,391,KILALO,39109,IKUNGULYAMBESHI B,NG'WASABALE
SIMIYU,39,BARIADI,391,KILALO,39109,IKUNGULYAMBESHI B,NYAMIKONZE
SIMIYU,39,BARIADI,391,KILALO,39109,IKUNGULYAMBESHI B,MITIMIREFU
SIMIYU,39,BARIADI,391,KILALO,39109,IKUNGULYAMBESHI B,MUUNGANO
SIMIYU,39,BARIADI,391,KILALO,39109,IKUNGULYAMBESHI B,NYANGUBU
SIMIYU,39,BARIADI,391,KILALO,39109,IKUNGULYAMBESHI A,IKUNGULYAMBESHI
SIMIYU,39,BARIADI,391,KILALO,39109,IKUNGULYAMBESHI A,NG'WABAGALU
SIMIYU,39,BARIADI,391,KILALO,39109,IKUNGULYAMBESHI A,NG'WAMANALA
SIMIYU,39,BARIADI,391,KILALO,39109,IKUNGULYAMBESHI A,NG'WAGOYAYI
SIMIYU,39,BARIADI,391,KILALO,39109,IKUNGULYAMBESHI A,KADOTO
SIMIYU,39,BARIADI,391,KILALO,39109,IKUNGULYAMBESHI A,BUTALWA
SIMIYU,39,BARIADI,391,GAMBOSI,39110,NYAMSWA,NYAMSWA
SIMIYU,39,BARIADI,391,GAMBOSI,39110,NYAMSWA,NYAMATALA
SIMIYU,39,BARIADI,391,GAMBOSI,39110,NYAMSWA,MWANGIMU
SIMIYU,39,BARIADI,391,GAMBOSI,39110,NYAMSWA,IPILILO
SIMIYU,39,BARIADI,391,GAMBOSI,39110,NYAMSWA,NGWABAYANDA
SIMIYU,39,BARIADI,391,GAMBOSI,39110,NYAMSWA,IGOMA
SIMIYU,39,BARIADI,391,GAMBOSI,39110,GAMBOSI,MABATINI
SIMIYU,39,BARIADI,391,GAMBOSI,39110,GAMBOSI,MADUKANI
SIMIYU,39,BARIADI,391,GAMBOSI,39110,GAMBOSI,MAGUNGULU
SIMIYU,39,BARIADI,391,GAMBOSI,39110,GAMBOSI,NG'WAULUGOBI
SIMIYU,39,BARIADI,391,GAMBOSI,39110,GAMBOSI,MWANSHELA
SIMIYU,39,BARIADI,391,GAMBOSI,39110,GAMBOSI,MWAFARU
SIMIYU,39,BARIADI,391,GAMBOSI,39110,GAMBOSI,BUGABU
SIMIYU,39,BARIADI,391,GAMBOSI,39110,GAMBOSI,MWABUKI
SIMIYU,39,BARIADI,391,GAMBOSI,39110,GAMBOSI,ISEBANDA
SIMIYU,39,BARIADI,391,NGULYATI,39111,NGULYATI,LAMBONI
SIMIYU,39,BARIADI,391,NGULYATI,39111,NGULYATI,SOKONI
SIMIYU,39,BARIADI,391,NGULYATI,39111,NGULYATI,MLIMANI
SIMIYU,39,BARIADI,391,NGULYATI,39111,NGULYATI,KADOTO A
SIMIYU,39,BARIADI,391,NGULYATI,39111,NGULYATI,NG'WABUNG'ANDO
SIMIYU,39,BARIADI,391,NGULYATI,39111,NGULYATI,MADUKANI
SIMIYU,39,BARIADI,391,NGULYATI,39111,NGULYATI,NYAMATALA
SIMIYU,39,BARIADI,391,NGULYATI,39111,NYANGUNGE,MADUKANI
SIMIYU,39,BARIADI,391,NGULYATI,39111,NYANGUNGE,MWAMOLA
SIMIYU,39,BARIADI,391,NGULYATI,39111,NYANGUNGE,NYAMBULI
SIMIYU,39,BARIADI,391,NGULYATI,39111,NYANGUNGE,NG'HESHA
SIMIYU,39,BARIADI,391,NGULYATI,39111,NGALLA,NGALLA SHULENI
SIMIYU,39,BARIADI,391,NGULYATI,39111,NGALLA,NYAMISELYA
SIMIYU,39,BARIADI,391,NGULYATI,39111,NGALLA,KABALE
SIMIYU,39,BARIADI,391,NGULYATI,39111,NGALLA,MWAUMANUNGU
SIMIYU,39,BARIADI,391,NGULYATI,39111,NYASOSI,MWAMALALE
SIMIYU,39,BARIADI,391,NGULYATI,39111,NYASOSI,NYASOSI
SIMIYU,39,BARIADI,391,NGULYATI,39111,NYASOSI,LUKALANGWA
SIMIYU,39,BARIADI,391,NGULYATI,39111,NYASOSI,KADOTO B
SIMIYU,39,BARIADI,391,NKOLOLO,39112,MWAMOTO,MWAMOTO
SIMIYU,39,BARIADI,391,NKOLOLO,39112,MWAMOTO,SANUNGU
SIMIYU,39,BARIADI,391,NKOLOLO,39112,MWAMOTO,BELEGEDI
SIMIYU,39,BARIADI,391,NKOLOLO,39112,MWAMOTO,MWABAGIKULU DARAJANI
SIMIYU,39,BARIADI,391,NKOLOLO,39112,NKOLOLO,NG'HULO
SIMIYU,39,BARIADI,391,NKOLOLO,39112,NKOLOLO,BUKILIGULU
SIMIYU,39,BARIADI,391,NKOLOLO,39112,NKOLOLO,IDAHILO MJINI
SIMIYU,39,BARIADI,391,NKOLOLO,39112,NKOLOLO,NKOLOLO A
SIMIYU,39,BARIADI,391,NKOLOLO,39112,NKOLOLO,NKOLOLO B
SIMIYU,39,BARIADI,391,NKOLOLO,39112,NKOLOLO,IDAHILO KIJIJINI
SIMIYU,39,BARIADI,391,NKOLOLO,39112,NKOLOLO,BETTA
SIMIYU,39,BARIADI,391,NKOLOLO,39112,NKOLOLO,ZANZIBAR
SIMIYU,39,BARIADI,391,NKOLOLO,39112,NKOLOLO,ISANGA
SIMIYU,39,BARIADI,391,NKOLOLO,39112,BUBALE,BUBALE A
SIMIYU,39,BARIADI,391,NKOLOLO,39112,BUBALE,BUBALE B
SIMIYU,39,BARIADI,391,NKOLOLO,39112,BUBALE,SONGOLATI
SIMIYU,39,BARIADI,391,NKOLOLO,39112,BUBALE,MWAKITAMOGA
SIMIYU,39,BARIADI,391,NKOLOLO,39112,BUBALE,NKOLOLO MBUGANI
SIMIYU,39,BARIADI,391,NKOLOLO,39112,BUBALE,MJI WA ZAMANI
SIMIYU,39,BARIADI,391,NKOLOLO,39112,MWABADIMI,MWABADIMI
SIMIYU,39,BARIADI,391,NKOLOLO,39112,MWABADIMI,MWAMALULA
SIMIYU,39,BARIADI,391,NKOLOLO,39112,MWABADIMI,GIYUKI
SIMIYU,39,BARIADI,391,NKOLOLO,39112,MWABADIMI,MWATENGA
SIMIYU,39,BARIADI,391,NKOLOLO,39112,MWABADIMI,IGENGELI
SIMIYU,39,BARIADI,391,NKOLOLO,39112,MWABADIMI,MWABAGIKULU JUU
SIMIYU,39,BARIADI,391,NKOLOLO,39112,CHUNGU CHA BAWAWA,CHUNGU MADUKANI
SIMIYU,39,BARIADI,391,NKOLOLO,39112,CHUNGU CHA BAWAWA,MWAMABUYUBUYU
SIMIYU,39,BARIADI,391,NKOLOLO,39112,CHUNGU CHA BAWAWA,IKUNGULYABOBA
SIMIYU,39,BARIADI,391,NKOLOLO,39112,CHUNGU CHA BAWAWA,MWANGOKAYAPE
SIMIYU,39,BARIADI,391,NKOLOLO,39112,CHUNGU CHA BAWAWA,HUHULYA
SIMIYU,39,BARIADI,391,NKOLOLO,39112,CHUNGU CHA BAWAWA,BADAGI
SIMIYU,39,BARIADI,391,NKOLOLO,39112,CHUNGU CHA BAWAWA,MWABOLA
SIMIYU,39,BARIADI,391,MWAUBINGI,39113,GASUMA,MADUKANI 'A'
SIMIYU,39,BARIADI,391,MWAUBINGI,39113,GASUMA,MADUKANI 'B'
SIMIYU,39,BARIADI,391,MWAUBINGI,39113,GASUMA,MLIMANI
SIMIYU,39,BARIADI,391,MWAUBINGI,39113,GASUMA,MWACHALALA
SIMIYU,39,BARIADI,391,MWAUBINGI,39113,GASUMA,IKUNGULYASHIMBA
SIMIYU,39,BARIADI,391,MWAUBINGI,39113,MWAUBINGI,ISANGA 'A'
SIMIYU,39,BARIADI,391,MWAUBINGI,39113,MWAUBINGI,ISANGA 'B'
SIMIYU,39,BARIADI,391,MWAUBINGI,39113,MWAUBINGI,GUYA
SIMIYU,39,BARIADI,391,MWAUBINGI,39113,MWAUBINGI,MIKUYUNI
SIMIYU,39,BARIADI,391,MWAUBINGI,39113,MWAUBINGI,MWAUBINGI
SIMIYU,39,BARIADI,391,MWAUBINGI,39113,BULUMBAKA,BULUMBAKA 'A'
SIMIYU,39,BARIADI,391,MWAUBINGI,39113,BULUMBAKA,BULUMBAKA 'B'
SIMIYU,39,BARIADI,391,MWAUBINGI,39113,BULUMBAKA,IHULA
SIMIYU,39,BARIADI,391,MWAUBINGI,39113,BULUMBAKA,SANGA
SIMIYU,39,BARIADI,391,MWAUBINGI,39113,BULUMBAKA,MWASHIPALU
SIMIYU,39,BARIADI,391,MWAUBINGI,39113,BULUMBAKA,MAGANZO
SIMIYU,39,BARIADI,391,MWAUBINGI,39113,BULUMBAKA,IHAMA
SIMIYU,39,BARIADI,391,MWAUBINGI,39113,BULUMBAKA,DUMA
SIMIYU,39,BARIADI,391,MWAUBINGI,39113,BULUMBAKA,MWAMALUMBI
SIMIYU,39,BARIADI,391,MWADOBANA,39114,MWADOBANA,IPANGA
SIMIYU,39,BARIADI,391,MWADOBANA,39114,MWADOBANA,ITINJE
SIMIYU,39,BARIADI,391,MWADOBANA,39114,MWADOBANA,MKUYUNI
SIMIYU,39,BARIADI,391,MWADOBANA,39114,MWADOBANA,MWASINONG'HELA
SIMIYU,39,BARIADI,391,MWADOBANA,39114,MWADOBANA,MWANKIMA
SIMIYU,39,BARIADI,391,MWADOBANA,39114,MWADOBANA,MUUNGANO
SIMIYU,39,BARIADI,391,MWADOBANA,39114,MWADOBANA,MWABABULI
SIMIYU,39,BARIADI,391,MWADOBANA,39114,IKUNGULYANDILI,ILULA
SIMIYU,39,BARIADI,391,MWADOBANA,39114,IKUNGULYANDILI,MADUKANI
SIMIYU,39,BARIADI,391,MWADOBANA,39114,IKUNGULYANDILI,IBAMBASI
SIMIYU,39,BARIADI,391,MWADOBANA,39114,IKUNGULYANDILI,MWAUKUEDA
SIMIYU,39,BARIADI,391,MWADOBANA,39114,IKUNGULYANDILI,MWAMANALA
SIMIYU,39,BARIADI,391,MWADOBANA,39114,IKUNGULYANDILI,GIDASHIDA
SIMIYU,39,BARIADI,391,MWADOBANA,39114,IKUNGULYANDILI,MIGONGWANI
SIMIYU,39,BARIADI,391,MWADOBANA,39114,BYUNA,BYUNA
SIMIYU,39,BARIADI,391,MWADOBANA,39114,BYUNA,GINGILYANI
SIMIYU,39,BARIADI,391,MWADOBANA,39114,BYUNA,MBUGANI
SIMIYU,39,BARIADI,391,MWADOBANA,39114,BYUNA,MADUKANI
SIMIYU,39,BARIADI,391,MWADOBANA,39114,BYUNA,ISESE
SIMIYU,39,BARIADI,391,MWADOBANA,39114,MWABULUDA,MWABULUDA
SIMIYU,39,BARIADI,391,MWADOBANA,39114,MWABULUDA,MATALE
SIMIYU,39,BARIADI,391,MWADOBANA,39114,MWABULUDA,ISOLO
SIMIYU,39,BARIADI,391,MWADOBANA,39114,MWABULUDA,NYAMIGUNGA
SIMIYU,39,BARIADI,391,MWADOBANA,39114,MWABULUDA,ILULA
SIMIYU,39,BARIADI,391,NKINDWABIYE,39115,SONGAMBELE,SONGAMBELE
SIMIYU,39,BARIADI,391,NKINDWABIYE,39115,SONGAMBELE,MWAKITWALYA
SIMIYU,39,BARIADI,391,NKINDWABIYE,39115,SONGAMBELE,MWAMALULA
SIMIYU,39,BARIADI,391,NKINDWABIYE,39115,SONGAMBELE,MWABAZINDI
SIMIYU,39,BARIADI,391,NKINDWABIYE,39115,SONGAMBELE,SOMANDA
SIMIYU,39,BARIADI,391,NKINDWABIYE,39115,HALAWA,KILOLELI
SIMIYU,39,BARIADI,391,NKINDWABIYE,39115,HALAWA,NYABUBELE
SIMIYU,39,BARIADI,391,NKINDWABIYE,39115,HALAWA,IBOLOLO
SIMIYU,39,BARIADI,391,NKINDWABIYE,39115,HALAWA,MADUKANI
SIMIYU,39,BARIADI,391,NKINDWABIYE,39115,HALAWA,MWABAYANDA
SIMIYU,39,BARIADI,391,NKINDWABIYE,39115,HALAWA,BUKUNDI
SIMIYU,39,BARIADI,391,NKINDWABIYE,39115,HALAWA,IKUNGULYAZA
SIMIYU,39,BARIADI,391,NKINDWABIYE,39115,NKINDWABIYE,ITUNDULU
SIMIYU,39,BARIADI,391,NKINDWABIYE,39115,NKINDWABIYE,MWAMANALA
SIMIYU,39,BARIADI,391,NKINDWABIYE,39115,NKINDWABIYE,KIDAMNIDA
SIMIYU,39,BARIADI,391,NKINDWABIYE,39115,NKINDWABIYE,MADUKANI
SIMIYU,39,BARIADI,391,NKINDWABIYE,39115,NKINDWABIYE,BARIADI
SIMIYU,39,BARIADI,391,NKINDWABIYE,39115,NKINDWABIYE,ISANGA
SIMIYU,39,BARIADI,391,NKINDWABIYE,39115,DAMIDAMI,BUSULWA A
SIMIYU,39,BARIADI,391,NKINDWABIYE,39115,DAMIDAMI,BUSULWA B
SIMIYU,39,BARIADI,391,NKINDWABIYE,39115,DAMIDAMI,DAMIDAMI
SIMIYU,39,BARIADI,391,NKINDWABIYE,39115,DAMIDAMI,MLIMANI
SIMIYU,39,BARIADI,391,NKINDWABIYE,39115,DAMIDAMI,SIBUKA
SIMIYU,39,BARIADI,391,NKINDWABIYE,39115,DAMIDAMI,MWANGIMU
SIMIYU,39,BARIADI,391,MWAUMATONDO,39116,MWAUMATONDO,GEGEDI
SIMIYU,39,BARIADI,391,MWAUMATONDO,39116,MWAUMATONDO,NG'WAMANALA
SIMIYU,39,BARIADI,391,MWAUMATONDO,39116,MWAUMATONDO,MIGOMBANI
SIMIYU,39,BARIADI,391,MWAUMATONDO,39116,MWAUMATONDO,MWAMABELE
SIMIYU,39,BARIADI,391,MWAUMATONDO,39116,MWAUMATONDO,IKOMA
SIMIYU,39,BARIADI,391,MWAUMATONDO,39116,MWAUMATONDO,BADAGI YA CHINI
SIMIYU,39,BARIADI,391,MWAUMATONDO,39116,MWASINASI,MWASINASI A
SIMIYU,39,BARIADI,391,MWAUMATONDO,39116,MWASINASI,MWASINASI B
SIMIYU,39,BARIADI,391,MWAUMATONDO,39116,MWASINASI,KISIMANI
SIMIYU,39,BARIADI,391,MWAUMATONDO,39116,MWASINASI,NYAWAMI
SIMIYU,39,BARIADI,391,MWAUMATONDO,39116,MWASINASI,ZANAKI
SIMIYU,39,BARIADI,391,MWAUMATONDO,39116,MWASINASI,MWAMABELE
SIMIYU,39,BARIADI,391,MWAUMATONDO,39116,MWASINASI,IMALANG'OMBE
SIMIYU,39,BARIADI,391,MWAUMATONDO,39116,MWASINASI,GUYA
SIMIYU,39,BARIADI,391,MWAUMATONDO,39116,MWASINASI,USWAHILI
SIMIYU,39,BARIADI,391,MWAUMATONDO,39116,MWASINASI,NG'ESHA A
SIMIYU,39,BARIADI,391,MWAUMATONDO,39116,MWASINASI,MWABALIZI
SIMIYU,39,BARIADI,391,MWAUMATONDO,39116,MWASINASI,NG'ESHA B
SIMIYU,39,BARIADI,391,MWAUMATONDO,39116,MWASINASI,GWADA
SIMIYU,39,BARIADI,391,MWAUMATONDO,39116,MWASINASI,MIGUNGANI
SIMIYU,39,BARIADI,391,MWAUMATONDO,39116,MWASINASI,MWANHUNDA
SIMIYU,39,BARIADI,391,MWAUMATONDO,39116,MWASINASI,MWANGEMO
SIMIYU,39,BARIADI,391,DUTWA,39117,IGAGANULWA,MADUKANI B
SIMIYU,39,BARIADI,391,DUTWA,39117,IGAGANULWA,MADUKANI C
SIMIYU,39,BARIADI,391,DUTWA,39117,IGAGANULWA,BUTIAMA
SIMIYU,39,BARIADI,391,DUTWA,39117,IGAGANULWA,MATENDEGWA
SIMIYU,39,BARIADI,391,DUTWA,39117,IGAGANULWA,NYAMAKOMELO
SIMIYU,39,BARIADI,391,DUTWA,39117,IGAGANULWA,NKINDA
SIMIYU,39,BARIADI,391,DUTWA,39117,ISENGE,ISENGE A
SIMIYU,39,BARIADI,391,DUTWA,39117,ISENGE,ISENGE B
SIMIYU,39,BARIADI,391,DUTWA,39117,ISENGE,ITEMELO A
SIMIYU,39,BARIADI,391,DUTWA,39117,ISENGE,ITEMELO B
SIMIYU,39,BARIADI,391,DUTWA,39117,ISENGE,MADUKANI A
SIMIYU,39,BARIADI,391,DUTWA,39117,MWAMONDI,MWAMATIGA
SIMIYU,39,BARIADI,391,DUTWA,39117,MWAMONDI,SWAGU
SIMIYU,39,BARIADI,391,DUTWA,39117,MWAMONDI,IPUNDULA
SIMIYU,39,BARIADI,391,DUTWA,39117,MWAMONDI,NYANKUNZI
SIMIYU,39,BARIADI,391,DUTWA,39117,MWAMONDI,MWAMONDI
SIMIYU,39,BARIADI,391,DUTWA,39117,SENGEREMA,SENGEREMA
SIMIYU,39,BARIADI,391,DUTWA,39117,SENGEREMA,ISOSO
SIMIYU,39,BARIADI,391,DUTWA,39117,SENGEREMA,MUSANGA
SIMIYU,39,BARIADI,391,DUTWA,39117,SENGEREMA,IGEYE
SIMIYU,39,BARIADI,391,DUTWA,39117,MAJENGO,LUBAGA
SIMIYU,39,BARIADI,391,DUTWA,39117,MAJENGO,NYANHIGA
SIMIYU,39,BARIADI,391,DUTWA,39117,MAJENGO,MAJENGO
SIMIYU,39,BARIADI,391,DUTWA,39117,MAJENGO,MUSANGA A
SIMIYU,39,BARIADI,391,DUTWA,39117,MWAMABU,MWAMABU A
SIMIYU,39,BARIADI,391,DUTWA,39117,MWAMABU,MWAMABU B
SIMIYU,39,BARIADI,391,DUTWA,39117,MWAMABU,LUMOGA
SIMIYU,39,BARIADI,391,DUTWA,39117,MWAMABU,ISHOLOBA
SIMIYU,39,BARIADI,391,DUTWA,39117,MWAMABU,MAYOLA A
SIMIYU,39,BARIADI,391,DUTWA,39117,MWAMABU,MAYOLA B
SIMIYU,39,BARIADI,391,GILYA,39118,NYAWA,KAUNDA
SIMIYU,39,BARIADI,391,GILYA,39118,NYAWA,MANALA A
SIMIYU,39,BARIADI,391,GILYA,39118,NYAWA,MANALA C
SIMIYU,39,BARIADI,391,GILYA,39118,NYAWA,SOKOINE
SIMIYU,39,BARIADI,391,GILYA,39118,NYAWA,MWAMAJAGI
SIMIYU,39,BARIADI,391,GILYA,39118,GILYA,MANALA B
SIMIYU,39,BARIADI,391,GILYA,39118,GILYA,LUGURU
SIMIYU,39,BARIADI,391,GILYA,39118,GILYA,JISESA
SIMIYU,39,BARIADI,391,GILYA,39118,GILYA,ITILIMA
SIMIYU,39,BARIADI,391,GILYA,39118,GILYA,TWIGA
SIMIYU,39,BARIADI,391,GILYA,39118,MWAUCHUMU,MLIMANI A
SIMIYU,39,BARIADI,391,GILYA,39118,MWAUCHUMU,MLIMANI B
SIMIYU,39,BARIADI,391,GILYA,39118,MWAUCHUMU,SHABITA
SIMIYU,39,BARIADI,391,GILYA,39118,MWAUCHUMU,MWABUKARASHA
SIMIYU,39,BARIADI,391,GILYA,39118,MWAUCHUMU,MWAUCHUMU
SIMIYU,39,BARIADI,391,GILYA,39118,MWAUCHUMU,GAMBASENI
SIMIYU,39,BARIADI,391,GILYA,39118,MWAUCHUMU,DUMA
SIMIYU,39,BARIADI,391,GILYA,39118,ISUYU,JIBISO
SIMIYU,39,BARIADI,391,GILYA,39118,ISUYU,NYAWILU A
SIMIYU,39,BARIADI,391,GILYA,39118,ISUYU,NYANG'HUNDE
SIMIYU,39,BARIADI,391,GILYA,39118,ISUYU,MPILINGITO
SIMIYU,39,BARIADI,391,GILYA,39118,ISUYU,GUNGUYI
SIMIYU,39,BARIADI,391,GILYA,39118,ISUYU,NYAWILU B
SIMIYU,39,BARIADI,391,GILYA,39118,ISUYU,MPILINGITO B
SIMIYU,39,BARIADI,391,GILYA,39118,ISUYU,NYANG'HUNDE B
SIMIYU,39,BARIADI,391,GILYA,39118,IKINABUSHU,IKINABUSHU
SIMIYU,39,BARIADI,391,GILYA,39118,IKINABUSHU,LYAMBILO
SIMIYU,39,BARIADI,391,GILYA,39118,IKINABUSHU,NYAGUDI
SIMIYU,39,BARIADI,391,GILYA,39118,IKINABUSHU,MWABASIMBE
SIMIYU,39,BARIADI,391,GILYA,39118,IKINABUSHU,MWANGIMU
SIMIYU,39,BARIADI,391,GILYA,39118,IKINABUSHU,MWAMAHE
SIMIYU,39,BARIADI,391,GILYA,39118,IKINABUSHU,LUTULA
SIMIYU,39,BARIADI,391,GILYA,39118,IKINABUSHU,MADUKANI
SIMIYU,39,BARIADI,391,SAPIWI,39119,IGEGU,MADUKANI A
SIMIYU,39,BARIADI,391,SAPIWI,39119,IGEGU,MADUKANI B
SIMIYU,39,BARIADI,391,SAPIWI,39119,IGEGU,MWAMBIZO
SIMIYU,39,BARIADI,391,SAPIWI,39119,IGEGU,BUSULWA
SIMIYU,39,BARIADI,391,SAPIWI,39119,IGEGU,SUKI
SIMIYU,39,BARIADI,391,SAPIWI,39119,IGEGU,JISESA
SIMIYU,39,BARIADI,391,SAPIWI,39119,IGEGU MAGHARIBI,SENTA
SIMIYU,39,BARIADI,391,SAPIWI,39119,IGEGU MAGHARIBI,MISRI
SIMIYU,39,BARIADI,391,SAPIWI,39119,IGEGU MAGHARIBI,NTINIPU
SIMIYU,39,BARIADI,391,SAPIWI,39119,IGEGU MAGHARIBI,MPILINGITO
SIMIYU,39,BARIADI,391,SAPIWI,39119,IGEGU MAGHARIBI,JIBISO
SIMIYU,39,BARIADI,391,SAPIWI,39119,IGEGU MAGHARIBI,IPONYANUMBU
SIMIYU,39,BARIADI,391,SAPIWI,39119,MWANDAMA,MADUKANI MAJENGO MAPYA
SIMIYU,39,BARIADI,391,SAPIWI,39119,MWANDAMA,BUNAMHALA B
SIMIYU,39,BARIADI,391,SAPIWI,39119,MWANDAMA,MWANDAMA
SIMIYU,39,BARIADI,391,SAPIWI,39119,MWANDAMA,SENTA
SIMIYU,39,BARIADI,391,SAPIWI,39119,MWANDAMA,MLIMANI
SIMIYU,39,BARIADI,391,SAPIWI,39119,MWANDAMA,NGAKAMA
SIMIYU,39,BARIADI,391,SAPIWI,39119,MWANDAMA,MWANKANGA
SIMIYU,39,BARIADI,391,SAPIWI,39119,MWANDAMA,DILANDA
SIMIYU,39,BARIADI,391,SAPIWI,39119,MWANDAMA,BUNAMHALA A
SIMIYU,39,BARIADI,391,SAPIWI,39119,MWANDAMA,MABONDENI
SIMIYU,39,BARIADI,391,SAPIWI,39119,MWANDAMA,MBUGANI
SIMIYU,39,BARIADI,391,SAPIWI,39119,NYAMIKOMA,NYUMA YA MLIMA
SIMIYU,39,BARIADI,391,SAPIWI,39119,NYAMIKOMA,MADUKANI
SIMIYU,39,BARIADI,391,SAPIWI,39119,NYAMIKOMA,IGWATA
SIMIYU,39,BARIADI,391,SAPIWI,39119,NYAMIKOMA,MLIMANI
SIMIYU,39,BARIADI,391,SAPIWI,39119,NYAMIKOMA,NG'WANHUNDA
SIMIYU,39,BARIADI,391,SAPIWI,39119,NYAMIKOMA,MWABAYANDA
SIMIYU,39,BARIADI,391,SAPIWI,39119,SAPIWI,MADUKANI
SIMIYU,39,BARIADI,391,SAPIWI,39119,SAPIWI,NKINDWABIYE A
SIMIYU,39,BARIADI,391,SAPIWI,39119,SAPIWI,NKINDWABIYE B
SIMIYU,39,BARIADI,391,SAPIWI,39119,SAPIWI,SAPIWI KASKAZINI
SIMIYU,39,BARIADI,391,SAPIWI,39119,SAPIWI,KISESA
SIMIYU,39,BARIADI,391,SAPIWI,39119,SAPIWI,JALALA
SIMIYU,39,BARIADI,391,SAPIWI,39119,SAPIWI,MAYOGOMA
SIMIYU,39,BARIADI,391,MATONGO,39120,MATONGO,MADUKANI
SIMIYU,39,BARIADI,391,MATONGO,39120,MATONGO,MWAMANALA
SIMIYU,39,BARIADI,391,MATONGO,39120,MATONGO,MWANOLELAGI
SIMIYU,39,BARIADI,391,MATONGO,39120,MATONGO,SERENGETI
SIMIYU,39,BARIADI,391,MATONGO,39120,MATONGO,CHUNGU
SIMIYU,39,BARIADI,391,MATONGO,39120,MATONGO,MATONGO
SIMIYU,39,BARIADI,391,MATONGO,39120,MATONGO,WALAJULU
SIMIYU,39,BARIADI,391,MATONGO,39120,MATONGO,MWABASABI 'A'
SIMIYU,39,BARIADI,391,MATONGO,39120,MATONGO,MWABASABI 'B'
SIMIYU,39,BARIADI,391,MATONGO,39120,MATONGO,JISESA
SIMIYU,39,BARIADI,391,MATONGO,39120,MATONGO,NG'WANG'HALANGA
SIMIYU,39,BARIADI,391,MATONGO,39120,MATONGO,SIBUKA
SIMIYU,39,BARIADI,391,MATONGO,39120,MWANTIMBA,MWANTIMBA 'A'
SIMIYU,39,BARIADI,391,MATONGO,39120,MWANTIMBA,MUDIYA
SIMIYU,39,BARIADI,391,MATONGO,39120,MWANTIMBA,SEKONDARI
SIMIYU,39,BARIADI,391,MATONGO,39120,MWANTIMBA,MWAKILATU
SIMIYU,39,BARIADI,391,MATONGO,39120,MWANTIMBA,MWABUMA
SIMIYU,39,BARIADI,391,MATONGO,39120,NG'ALITA,MADUKANI
SIMIYU,39,BARIADI,391,MATONGO,39120,NG'ALITA,NG'WABAYANDA
SIMIYU,39,BARIADI,391,MATONGO,39120,NG'ALITA,MWAMOTO
SIMIYU,39,BARIADI,391,MATONGO,39120,NG'ALITA,MLIMANI
SIMIYU,39,BARIADI,391,MATONGO,39120,NG'ALITA,LUTULA
SIMIYU,39,BARIADI,391,MATONGO,39120,NG'ALITA,BUBALE
SIMIYU,39,BARIADI,391,MATONGO,39120,NG'ALITA,MIDALELA
SIMIYU,39,BARIADI,391,MATONGO,39120,NG'ALITA,MBUGANI
SIMIYU,39,BARIADI,391,MATONGO,39120,NG'ALITA,MISHEPO
SIMIYU,39,BARIADI,391,MATONGO,39120,NG'ALITA,WITANG'HOMBA
SIMIYU,39,BARIADI,391,MATONGO,39120,SALALILYA,SALALILYA
SIMIYU,39,BARIADI,391,MATONGO,39120,SALALILYA,MWAMTIGITI
SIMIYU,39,BARIADI,391,MATONGO,39120,SALALILYA,MWAKIDUTA 'A'
SIMIYU,39,BARIADI,391,MATONGO,39120,SALALILYA,MWAKIDUTA 'B'
SIMIYU,39,BARIADI,391,MATONGO,39120,SALALILYA,WALAJULU
SIMIYU,39,BARIADI,391,MATONGO,39120,SALALILYA,IKOMALILO
SIMIYU,39,BARIADI,391,NYAKABINDI,39121,HINDA MALIGA,
SIMIYU,39,BARIADI,391,NYAKABINDI,39121,WALA,
SIMIYU,39,BARIADI,391,NYAKABINDI,39121,SESELE,
SIMIYU,39,BARIADI,391,NYAKABINDI,39121,NGAGABALI,
SIMIYU,39,BARIADI,391,NYAKABINDI,39121,NYAKABINDI,
SIMIYU,39,BARIADI,391,NYAKABINDI,39121,MWEMBENI,
SIMIYU,39,BARIADI,391,NYAKABINDI,39121,MWAKIBUGA,
SIMIYU,39,BARIADI,391,NYAKABINDI,39121,DUMA,
SIMIYU,39,BARIADI,391,NYAKABINDI,39121,OLD-MASWA,
SIMIYU,39,BARIADI,391,NYAKABINDI,39121,NG'WAHABI,
SIMIYU,39,BARIADI,391,NYAKABINDI,39121,NYANGAKA,
SIMIYU,39,BARIADI,391,NYAKABINDI,39121,BUPANDAGILA,
SIMIYU,39,BARIADI,391,NYAKABINDI,39121,GISADI,
SIMIYU,39,BARIADI,391,IKUNGULYABASHASHI,39122,LULAYU,NHOBORA
SIMIYU,39,BARIADI,391,IKUNGULYABASHASHI,39122,LULAYU,MWABALIMI
SIMIYU,39,BARIADI,391,IKUNGULYABASHASHI,39122,LULAYU,MWAMALWILO
SIMIYU,39,BARIADI,391,IKUNGULYABASHASHI,39122,LULAYU,IBABANJEGU
SIMIYU,39,BARIADI,391,IKUNGULYABASHASHI,39122,LULAYU,MADUKANI
SIMIYU,39,BARIADI,391,IKUNGULYABASHASHI,39122,MWAHALAJA,MWABASABI
SIMIYU,39,BARIADI,391,IKUNGULYABASHASHI,39122,MWAHALAJA,MGWAMANUNDO
SIMIYU,39,BARIADI,391,IKUNGULYABASHASHI,39122,MWAHALAJA,NZUNGWINAKILATU
SIMIYU,39,BARIADI,391,IKUNGULYABASHASHI,39122,MWAHALAJA,ZIZIMI
SIMIYU,39,BARIADI,391,IKUNGULYABASHASHI,39122,MWAHALAJA,MABONDENI
SIMIYU,39,BARIADI,391,IKUNGULYABASHASHI,39122,IKUNGULYABASHASHI,MADUKANI
SIMIYU,39,BARIADI,391,IKUNGULYABASHASHI,39122,IKUNGULYABASHASHI,JISESA
SIMIYU,39,BARIADI,391,IKUNGULYABASHASHI,39122,IKUNGULYABASHASHI,GOMA
SIMIYU,39,BARIADI,391,IKUNGULYABASHASHI,39122,IKUNGULYABASHASHI,NG'WANGONGO
SIMIYU,39,BARIADI,391,IKUNGULYABASHASHI,39122,IKUNGULYABASHASHI,NG'WABAYANDA
SIMIYU,39,BARIADI,391,IKUNGULYABASHASHI,39122,MKUYUNI,MWANDIMI
SIMIYU,39,BARIADI,391,IKUNGULYABASHASHI,39122,MKUYUNI,NG'HWENGE
SIMIYU,39,BARIADI,391,IKUNGULYABASHASHI,39122,MKUYUNI,KIDABUNWA
SIMIYU,39,BARIADI,391,IKUNGULYABASHASHI,39122,MKUYUNI,NG'WATONGILO
SIMIYU,39,BARIADI,391,IKUNGULYABASHASHI,39122,MKUYUNI,IGABULILO
SIMIYU,39,BARIADI,391,GUDUWI,39123,GUDUWI,
SIMIYU,39,BARIADI,391,GUDUWI,39123,NYALELE,
SIMIYU,39,BARIADI,391,GUDUWI,39123,DITIMA,
SIMIYU,39,BARIADI,391,GUDUWI,39123,NG'WANHANDE,
SIMIYU,39,BARIADI,391,GUDUWI,39123,NKULI,
SIMIYU,39,BARIADI,391,GUDUWI,39123,MBUGANI,
SIMIYU,39,BARIADI,391,GUDUWI,39123,YEYA,
SIMIYU,39,BARIADI,391,GUDUWI,39123,MONDO,
SIMIYU,39,BARIADI,391,ISANGA,39124,ISANGA,
SIMIYU,39,BARIADI,391,ISANGA,39124,LONDO,
SIMIYU,39,BARIADI,391,ISANGA,39124,KATENGA,
SIMIYU,39,BARIADI,391,ISANGA,39124,WALA,
SIMIYU,39,BARIADI,391,ISANGA,39124,MWATUNGU,
SIMIYU,39,BARIADI,391,ISANGA,39124,BUNDILYA,
SIMIYU,39,BARIADI,391,ISANGA,39124,MHULI,
SIMIYU,39,BARIADI,391,ISANGA,39124,MAJAHIDA,
SIMIYU,39,BARIADI,391,NYANGOKOLWA,39125,NYANGOKOLWA,
SIMIYU,39,BARIADI,391,NYANGOKOLWA,39125,ZINA,
SIMIYU,39,BARIADI,391,NYANGOKOLWA,39125,MBALANGA,
SIMIYU,39,BARIADI,391,NYANGOKOLWA,39125,NG'WANG'WALI,
SIMIYU,39,BARIADI,391,NYANGOKOLWA,39125,ILALAMBULI,
SIMIYU,39,BARIADI,391,NYANGOKOLWA,39125,NG'WAHESA,
SIMIYU,39,BARIADI,391,NYANGOKOLWA,39125,MATALE,
SIMIYU,39,BARIADI,391,NYANGOKOLWA,39125,NG'WAGULULI,
SIMIYU,39,BARIADI,391,NYANGOKOLWA,39125,MISSI,
SIMIYU,39,BARIADI,391,NYANGOKOLWA,39125,BIPYAYI,
SIMIYU,39,BARIADI,391,NYANGOKOLWA,39125,GAMIHUSI,
SIMIYU,39,BARIADI,391,NYANGOKOLWA,39125,MWAKILALO,
SIMIYU,39,BARIADI,391,NYANGOKOLWA,39125,MWAGITI,
SIMIYU,39,BARIADI,391,MASEWA,39127,MASEWA,MADUKANI
SIMIYU,39,BARIADI,391,MASEWA,39127,MASEWA,MASANGA 'A'
SIMIYU,39,BARIADI,391,MASEWA,39127,MASEWA,MASANGA 'B'
SIMIYU,39,BARIADI,391,MASEWA,39127,MASEWA,MBUGANI 'A'
SIMIYU,39,BARIADI,391,MASEWA,39127,MASEWA,MBUGANI 'B'
SIMIYU,39,BARIADI,391,MASEWA,39127,MASEWA,BUSHIGWAMHALA
SIMIYU,39,BARIADI,391,MASEWA,39127,MASEWA,MWABADABAGIJA
SIMIYU,39,BARIADI,391,MASEWA,39127,SENTA,MIKUYUNI
SIMIYU,39,BARIADI,391,MASEWA,39127,SENTA,MWANYABU
SIMIYU,39,BARIADI,391,MASEWA,39127,SENTA,IKELEGE
SIMIYU,39,BARIADI,391,MASEWA,39127,SENTA,SENTA
SIMIYU,39,BARIADI,391,MASEWA,39127,SENTA,MLIMANI
SIMIYU,39,BARIADI,391,MASEWA,39127,IGABANHILO,IGABANHILO
SIMIYU,39,BARIADI,391,MASEWA,39127,IGABANHILO,ITILIMA
SIMIYU,39,BARIADI,391,MASEWA,39127,IGABANHILO,MADUKANI
SIMIYU,39,BARIADI,391,MASEWA,39127,IGABANHILO,MWATIMBA 'B'
SIMIYU,39,BARIADI,391,MASEWA,39127,IGABANHILO,MUUNGANO
SIMIYU,39,BARIADI,391,MWASUBUYA,39128,MWASUBUYA,MADUKANI
SIMIYU,39,BARIADI,391,MWASUBUYA,39128,MWASUBUYA,MAKANISANI
SIMIYU,39,BARIADI,391,MWASUBUYA,39128,MWASUBUYA,MLIMANI
SIMIYU,39,BARIADI,391,MWASUBUYA,39128,MWASUBUYA,NG'WASABALE
SIMIYU,39,BARIADI,391,MWASUBUYA,39128,MWASUBUYA,MBUGANI
SIMIYU,39,BARIADI,391,MWASUBUYA,39128,ISENGWA,NYAMIJUNDU
SIMIYU,39,BARIADI,391,MWASUBUYA,39128,ISENGWA,IHULA
SIMIYU,39,BARIADI,391,MWASUBUYA,39128,ISENGWA,LUBUGU
SIMIYU,39,BARIADI,391,MWASUBUYA,39128,ISENGWA,KILABELA
SIMIYU,39,BARIADI,391,MWASUBUYA,39128,ISENGWA,KADOTO
SIMIYU,39,BARIADI,391,MWASUBUYA,39128,IGABULILO,NGUTU
SIMIYU,39,BARIADI,391,MWASUBUYA,39128,IGABULILO,NG'WAMAGANGA
SIMIYU,39,BARIADI,391,MWASUBUYA,39128,IGABULILO,NGEME
SIMIYU,39,BARIADI,391,MWASUBUYA,39128,IGABULILO,NGWANUNDI
SIMIYU,39,BARIADI,391,MWASUBUYA,39128,IGABULILO,KILIMANI
SIMIYU,39,BARIADI,391,MWASUBUYA,39128,MISWAKI,MADUKANI
SIMIYU,39,BARIADI,391,MWASUBUYA,39128,MISWAKI,MISWAKI
SIMIYU,39,BARIADI,391,MWASUBUYA,39128,MISWAKI,NYAKABINDI
SIMIYU,39,BARIADI,391,MWASUBUYA,39128,MISWAKI,NG'HONGE
SIMIYU,39,BARIADI,391,ITUBUKILO,39129,ITUBUKILO,ITUBUKILO 'A'
SIMIYU,39,BARIADI,391,ITUBUKILO,39129,ITUBUKILO,ITUBUKILO 'B'
SIMIYU,39,BARIADI,391,ITUBUKILO,39129,ITUBUKILO,SIBUKA
SIMIYU,39,BARIADI,391,ITUBUKILO,39129,ITUBUKILO,MWABASIMBE
SIMIYU,39,BARIADI,391,ITUBUKILO,39129,ITUBUKILO,MWABUKI
SIMIYU,39,BARIADI,391,ITUBUKILO,39129,MWAMBALANGE,MWAMBALANGE
SIMIYU,39,BARIADI,391,ITUBUKILO,39129,MWAMBALANGE,MWAPANDAGI
SIMIYU,39,BARIADI,391,ITUBUKILO,39129,MWAMBALANGE,LIGEMBE 'A'
SIMIYU,39,BARIADI,391,ITUBUKILO,39129,MWAMBALANGE,LIGEMBE 'B'
SIMIYU,39,BARIADI,391,ITUBUKILO,39129,MWAMBALANGE,NYEGEZI
SIMIYU,39,BARIADI,391,ITUBUKILO,39129,MWANZOYA,MWANZOYA MADUKANI
SIMIYU,39,BARIADI,391,ITUBUKILO,39129,MWANZOYA,MWAMALUGU
SIMIYU,39,BARIADI,391,ITUBUKILO,39129,MWANZOYA,IDOSELO
SIMIYU,39,BARIADI,391,ITUBUKILO,39129,MWANZOYA,BUKINGWAMINZI
SIMIYU,39,BARIADI,391,ITUBUKILO,39129,MWANZOYA,SELELYA
SIMIYU,39,BARIADI,391,ITUBUKILO,39129,KIHALAHALA,KIHALAHALA
SIMIYU,39,BARIADI,391,ITUBUKILO,39129,KIHALAHALA,MWAMIJONDO
SIMIYU,39,BARIADI,391,ITUBUKILO,39129,KIHALAHALA,GABASONGE
SIMIYU,39,BARIADI,391,ITUBUKILO,39129,KIHALAHALA,KISESA
SIMIYU,39,BARIADI,391,ITUBUKILO,39129,KIHALAHALA,NYABANA
SIMIYU,39,BARIADI,391,ITUBUKILO,39129,PUGU,INYONYA A
SIMIYU,39,BARIADI,391,ITUBUKILO,39129,PUGU,INYONYA B
SIMIYU,39,BARIADI,391,ITUBUKILO,39129,PUGU,PUGU
SIMIYU,39,BARIADI,391,ITUBUKILO,39129,PUGU,MWALIKU
SIMIYU,39,BARIADI,391,ITUBUKILO,39129,PUGU,NG'WASENGELA A
SIMIYU,39,BARIADI,391,ITUBUKILO,39129,PUGU,NG'WASENGELA B
SIMIYU,39,BARIADI,391,ITUBUKILO,39129,PUGU,MWASALAGE
SIMIYU,39,BARIADI,391,IHUSI,39130,MWASHAGATA,MWASHAGATA
SIMIYU,39,BARIADI,391,IHUSI,39130,MWASHAGATA,MWABALOBI
SIMIYU,39,BARIADI,391,IHUSI,39130,MWASHAGATA,MWABABULI
SIMIYU,39,BARIADI,391,IHUSI,39130,MWASHAGATA,NYAMADOKE
SIMIYU,39,BARIADI,391,IHUSI,39130,MWASHAGATA,MWAMAJANJA
SIMIYU,39,BARIADI,391,IHUSI,39130,IHUSI,MWAKITWALYA
SIMIYU,39,BARIADI,391,IHUSI,39130,IHUSI,MWABUMA 'A'
SIMIYU,39,BARIADI,391,IHUSI,39130,IHUSI,MWABUMA 'B'
SIMIYU,39,BARIADI,391,IHUSI,39130,IHUSI,LINGEKA
SIMIYU,39,BARIADI,391,IHUSI,39130,IHUSI,MWAMALULA
SIMIYU,39,BARIADI,391,IHUSI,39130,MWAMALULA,MWAMALULA
SIMIYU,39,BARIADI,391,IHUSI,39130,MWAMALULA,BADUNYUKI
SIMIYU,39,BARIADI,391,IHUSI,39130,MWAMALULA,KENYA
SIMIYU,39,BARIADI,391,IHUSI,39130,MWAMALULA,MWAKALUNDA
SIMIYU,39,BARIADI,391,IHUSI,39130,MWAMALULA,MWAZENA
SIMIYU,39,BARIADI,391,IHUSI,39130,MWASILIMBI,MWASILIMBI 'A'
SIMIYU,39,BARIADI,391,IHUSI,39130,MWASILIMBI,MWASILIMBI 'B'
SIMIYU,39,BARIADI,391,IHUSI,39130,MWASILIMBI,GUYA 'A'
SIMIYU,39,BARIADI,391,IHUSI,39130,MWASILIMBI,GUYA 'B'
SIMIYU,39,BARIADI,391,IHUSI,39130,MWASILIMBI,MWAKADOTO 'A'
SIMIYU,39,BARIADI,391,IHUSI,39130,MWASILIMBI,MWAKADOTO 'B'
SIMIYU,39,BARIADI,391,GIBISHI,39131,GIBISHI,IHUSI
SIMIYU,39,BARIADI,391,GIBISHI,39131,GIBISHI,KANADA
SIMIYU,39,BARIADI,391,GIBISHI,39131,GIBISHI,KAHAMA
SIMIYU,39,BARIADI,391,GIBISHI,39131,GIBISHI,MLIMANI 'A'
SIMIYU,39,BARIADI,391,GIBISHI,39131,GIBISHI,MLIMANI 'B'
SIMIYU,39,BARIADI,391,GIBISHI,39131,GIBISHI,MADUKANI
SIMIYU,39,BARIADI,391,GIBISHI,39131,CHUNGU,MAGANZO 'A'
SIMIYU,39,BARIADI,391,GIBISHI,39131,CHUNGU,CHUNGU
SIMIYU,39,BARIADI,391,GIBISHI,39131,CHUNGU,SONGAMBELE
SIMIYU,39,BARIADI,391,GIBISHI,39131,CHUNGU,ITUNDULU
SIMIYU,39,BARIADI,391,GIBISHI,39131,CHUNGU,MAGANZO 'B'
SIMIYU,39,BARIADI,391,GIBISHI,39131,MWABASABI,MBUGANI
SIMIYU,39,BARIADI,391,GIBISHI,39131,MWABASABI,MWABASABI 'A'
SIMIYU,39,BARIADI,391,GIBISHI,39131,MWABASABI,MWABASABI 'B'
SIMIYU,39,BARIADI,391,GIBISHI,39131,MWABASABI,KISESA
SIMIYU,39,BARIADI,391,GIBISHI,39131,MWABASABI,MADUKANI
SIMIYU,39,BARIADI,391,GIBISHI,39131,IHULA,IHULA
SIMIYU,39,BARIADI,391,GIBISHI,39131,IHULA,DUMA
SIMIYU,39,BARIADI,391,GIBISHI,39131,IHULA,MBUGANI 'B'
SIMIYU,39,BARIADI,391,GIBISHI,39131,IHULA,GUYA
SIMIYU,39,BARIADI,391,GIBISHI,39131,IHULA,IKUNGULYAZA
SIMIYU,39,BARIADI,391,BENEMHI,39132,KILABELA,MWAYANDE
SIMIYU,39,BARIADI,391,BENEMHI,39132,KILABELA,IHUSI
SIMIYU,39,BARIADI,391,BENEMHI,39132,KILABELA,MLIMANI
SIMIYU,39,BARIADI,391,BENEMHI,39132,KILABELA,DUGUDA
SIMIYU,39,BARIADI,391,BENEMHI,39132,KILABELA,BULUGUTA
SIMIYU,39,BARIADI,391,BENEMHI,39132,KILABELA,IPANGA
SIMIYU,39,BARIADI,391,BENEMHI,39132,MWAUNKWAYA,MWAMALUMBI
SIMIYU,39,BARIADI,391,BENEMHI,39132,MWAUNKWAYA,ZANZUI
SIMIYU,39,BARIADI,391,BENEMHI,39132,MWAUNKWAYA,MWAMISISI
SIMIYU,39,BARIADI,391,BENEMHI,39132,MWAUNKWAYA,MWAKIJETA
SIMIYU,39,BARIADI,391,BENEMHI,39132,MWAUNKWAYA,MWAUNKWAYA
SIMIYU,39,BARIADI,391,BENEMHI,39132,MWAUNKWAYA,KILABELA
SIMIYU,39,BARIADI,391,BENEMHI,39132,BANEMHI,GHOMANGO
SIMIYU,39,BARIADI,391,BENEMHI,39132,BANEMHI,MUUNGANO
SIMIYU,39,BARIADI,391,BENEMHI,39132,BANEMHI,NYALUHEMBE
SIMIYU,39,BARIADI,391,BENEMHI,39132,BANEMHI,MADUKANI
SIMIYU,39,BARIADI,391,BENEMHI,39132,BANEMHI,MITIMINGI
SIMIYU,39,BARIADI,391,BENEMHI,39132,MBUGANI,MASHAMBITI
SIMIYU,39,BARIADI,391,BENEMHI,39132,MBUGANI,MLIMANI
SIMIYU,39,BARIADI,391,BENEMHI,39132,MBUGANI,MWANYOBA
SIMIYU,39,BARIADI,391,BENEMHI,39132,MBUGANI,KOLOGWE
SIMIYU,39,BARIADI,391,BENEMHI,39132,MBUGANI,MWIKANYA
SIMIYU,39,BARIADI,391,BENEMHI,39132,NSANZAGUMA,SANGHUDI
SIMIYU,39,BARIADI,391,BENEMHI,39132,NSANZAGUMA,MWINYI
SIMIYU,39,BARIADI,391,BENEMHI,39132,NSANZAGUMA,MONDO
SIMIYU,39,BARIADI,391,BENEMHI,39132,NSANZAGUMA,MBUGABUTA
SIMIYU,39,BARIADI,391,BENEMHI,39132,NSANZAGUMA,MWASINUKA
SIMIYU,39,ITILIMA,392,LAGANGABILILI,39201,LAGANGABILILI,LAGANGABILILI
SIMIYU,39,ITILIMA,392,LAGANGABILILI,39201,LAGANGABILILI,MWANKOLA
SIMIYU,39,ITILIMA,392,LAGANGABILILI,39201,LAGANGABILILI,ILUGALA
SIMIYU,39,ITILIMA,392,LAGANGABILILI,39201,LAGANGABILILI,MATALE
SIMIYU,39,ITILIMA,392,LAGANGABILILI,39201,LAGANGABILILI,WALAGIDA
SIMIYU,39,ITILIMA,392,LAGANGABILILI,39201,ISENGWA,MWAGINDE
SIMIYU,39,ITILIMA,392,LAGANGABILILI,39201,ISENGWA,NGHALE
SIMIYU,39,ITILIMA,392,LAGANGABILILI,39201,ISENGWA,IBUMBA
SIMIYU,39,ITILIMA,392,LAGANGABILILI,39201,ISENGWA,ISENGWA
SIMIYU,39,ITILIMA,392,LAGANGABILILI,39201,NG’ESHA KANADI,NG'HESHA
SIMIYU,39,ITILIMA,392,LAGANGABILILI,39201,NG’ESHA KANADI,NDOLELEZI
SIMIYU,39,ITILIMA,392,LAGANGABILILI,39201,NG’ESHA KANADI,MWABUGENGE
SIMIYU,39,ITILIMA,392,LAGANGABILILI,39201,NG’ESHA KANADI,IGUMANG'OMBE
SIMIYU,39,ITILIMA,392,LAGANGABILILI,39201,NGUNO,MWASAHANI
SIMIYU,39,ITILIMA,392,LAGANGABILILI,39201,NGUNO,MWAMAKUMBO
SIMIYU,39,ITILIMA,392,LAGANGABILILI,39201,NGUNO,MWATUNGUNYI
SIMIYU,39,ITILIMA,392,LAGANGABILILI,39201,NGUNO,IBELAMBASA
SIMIYU,39,ITILIMA,392,LAGANGABILILI,39201,NGUNO,MWAKONDA
SIMIYU,39,ITILIMA,392,LAGANGABILILI,39201,LALI,MWAKAPONGO
SIMIYU,39,ITILIMA,392,LAGANGABILILI,39201,LALI,NDOLELEZI
SIMIYU,39,ITILIMA,392,LAGANGABILILI,39201,LALI,MWABAGIKULU
SIMIYU,39,ITILIMA,392,LAGANGABILILI,39201,LALI,SIGILU
SIMIYU,39,ITILIMA,392,BUDALABUJIGA,39202,MITOBO,MITOBO CENTRE
SIMIYU,39,ITILIMA,392,BUDALABUJIGA,39202,MITOBO,MBESI
SIMIYU,39,ITILIMA,392,BUDALABUJIGA,39202,MITOBO,WALAGIDA
SIMIYU,39,ITILIMA,392,BUDALABUJIGA,39202,MITOBO,MWASINDIMU
SIMIYU,39,ITILIMA,392,BUDALABUJIGA,39202,MITOBO,LANGULA
SIMIYU,39,ITILIMA,392,BUDALABUJIGA,39202,BUDALABUJIGA,BUDALABUJIGA
SIMIYU,39,ITILIMA,392,BUDALABUJIGA,39202,BUDALABUJIGA,ITUNDUJA
SIMIYU,39,ITILIMA,392,BUDALABUJIGA,39202,BUDALABUJIGA,MALWILO
SIMIYU,39,ITILIMA,392,BUDALABUJIGA,39202,BUDALABUJIGA,MWAKISANDU
SIMIYU,39,ITILIMA,392,BUDALABUJIGA,39202,BUDALABUJIGA,MWAMATUNGU
SIMIYU,39,ITILIMA,392,BUDALABUJIGA,39202,BUDALABUJIGA,MWABALAGI
SIMIYU,39,ITILIMA,392,BUDALABUJIGA,39202,MWAKATALE,MWAKATALE
SIMIYU,39,ITILIMA,392,BUDALABUJIGA,39202,MWAKATALE,ILUGALA
SIMIYU,39,ITILIMA,392,BUDALABUJIGA,39202,MWAKATALE,MWABALAGI
SIMIYU,39,ITILIMA,392,BUDALABUJIGA,39202,MWAKATALE,MELI
SIMIYU,39,ITILIMA,392,BUDALABUJIGA,39202,MWAKATALE,BUBALE
SIMIYU,39,ITILIMA,392,BUDALABUJIGA,39202,MWABASABI,SAGIDA
SIMIYU,39,ITILIMA,392,BUDALABUJIGA,39202,MWABASABI,BUSOLWAMHILYA
SIMIYU,39,ITILIMA,392,BUDALABUJIGA,39202,MWABASABI,MBESI
SIMIYU,39,ITILIMA,392,BUDALABUJIGA,39202,MWABASABI,MWALALAGI
SIMIYU,39,ITILIMA,392,BUDALABUJIGA,39202,MWABASABI,WALA
SIMIYU,39,ITILIMA,392,BUDALABUJIGA,39202,MWABASABI,LANGULA
SIMIYU,39,ITILIMA,392,MHUNZE,39203,MHUNZE,MHUNZE
SIMIYU,39,ITILIMA,392,MHUNZE,39203,MHUNZE,NG’WANKALI
SIMIYU,39,ITILIMA,392,MHUNZE,39203,MHUNZE,MWAKILYOMA
SIMIYU,39,ITILIMA,392,MHUNZE,39203,MHUNZE,MTAKUJA
SIMIYU,39,ITILIMA,392,MHUNZE,39203,MHUNZE,KIGWA
SIMIYU,39,ITILIMA,392,MHUNZE,39203,MADILANA,MADILANA A
SIMIYU,39,ITILIMA,392,MHUNZE,39203,MADILANA,MADILANA B
SIMIYU,39,ITILIMA,392,MHUNZE,39203,MADILANA,DUSALA
SIMIYU,39,ITILIMA,392,MHUNZE,39203,MADILANA,MWABABILI
SIMIYU,39,ITILIMA,392,MHUNZE,39203,MADILANA,KILULUMA
SIMIYU,39,ITILIMA,392,MHUNZE,39203,NGANDO,NGANDO
SIMIYU,39,ITILIMA,392,MHUNZE,39203,NGANDO,MATUMBI
SIMIYU,39,ITILIMA,392,MHUNZE,39203,NGANDO,DUSARA
SIMIYU,39,ITILIMA,392,MHUNZE,39203,NGANDO,JABUTWA
SIMIYU,39,ITILIMA,392,MHUNZE,39203,NGANDO,NG’WAKABUNDI
SIMIYU,39,ITILIMA,392,MHUNZE,39203,NG’WABULUGU,NG’WABULUGU
SIMIYU,39,ITILIMA,392,MHUNZE,39203,NG’WABULUGU,SALI
SIMIYU,39,ITILIMA,392,MHUNZE,39203,NG’WABULUGU,NAMBALO
SIMIYU,39,ITILIMA,392,MHUNZE,39203,NG’WABULUGU,MWASAHANI
SIMIYU,39,ITILIMA,392,MHUNZE,39203,NG’WABULUGU,MWAMDEKELA
SIMIYU,39,ITILIMA,392,MHUNZE,39203,NG’WABULUGU,MAJULESI
SIMIYU,39,ITILIMA,392,MIGATO,39204,MIGATO,MADUKANI
SIMIYU,39,ITILIMA,392,MIGATO,39204,MIGATO,SIMIYU A
SIMIYU,39,ITILIMA,392,MIGATO,39204,MIGATO,SIMIYU B
SIMIYU,39,ITILIMA,392,MIGATO,39204,MIGATO,MWAJEGE
SIMIYU,39,ITILIMA,392,MIGATO,39204,MIGATO,NDUBU
SIMIYU,39,ITILIMA,392,MIGATO,39204,MIGATO,SAKULE
SIMIYU,39,ITILIMA,392,MIGATO,39204,MIGATO,NG'WAMAYALA
SIMIYU,39,ITILIMA,392,MIGATO,39204,MIGATO,SHULENI
SIMIYU,39,ITILIMA,392,MIGATO,39204,MIGATO,BUKINGWAMINZI
SIMIYU,39,ITILIMA,392,MIGATO,39204,SIMIYU,NANGA
SIMIYU,39,ITILIMA,392,MIGATO,39204,SIMIYU,SAKULE
SIMIYU,39,ITILIMA,392,MIGATO,39204,SIMIYU,SEKONDARI
SIMIYU,39,ITILIMA,392,MIGATO,39204,SIMIYU,MNADANI
SIMIYU,39,ITILIMA,392,MIGATO,39204,SIMIYU,BONDENI
SIMIYU,39,ITILIMA,392,MIGATO,39204,SHISHANI,MADUKANI
SIMIYU,39,ITILIMA,392,MIGATO,39204,SHISHANI,HELENI
SIMIYU,39,ITILIMA,392,MIGATO,39204,SHISHANI,THOMAS
SIMIYU,39,ITILIMA,392,MIGATO,39204,SHISHANI,KIGULU
SIMIYU,39,ITILIMA,392,MIGATO,39204,SHISHANI,ZEGE
SIMIYU,39,ITILIMA,392,MIGATO,39204,SHISHANI,SHISHANI
SIMIYU,39,ITILIMA,392,MIGATO,39204,SHISHANI,ITALEIGUNGUHU
SIMIYU,39,ITILIMA,392,MIGATO,39204,SHISHANI,SMALL SHIASHANI
SIMIYU,39,ITILIMA,392,MIGATO,39204,SHISHANI,KASWALALA
SIMIYU,39,ITILIMA,392,MIGATO,39204,MWANHUNDA,BULYASHI
SIMIYU,39,ITILIMA,392,MIGATO,39204,MWANHUNDA,NGANDO
SIMIYU,39,ITILIMA,392,MIGATO,39204,MWANHUNDA,BULYANAGA
SIMIYU,39,ITILIMA,392,MIGATO,39204,MWANHUNDA,ILUJAMINZI
SIMIYU,39,ITILIMA,392,MIGATO,39204,MWANHUNDA,NTOBO
SIMIYU,39,ITILIMA,392,MIGATO,39204,LONGALOMBOGO,MAKOMELO
SIMIYU,39,ITILIMA,392,MIGATO,39204,LONGALOMBOGO,MWASOLO
SIMIYU,39,ITILIMA,392,MIGATO,39204,LONGALOMBOGO,KONG'OKO'NG'O
SIMIYU,39,ITILIMA,392,MIGATO,39204,LONGALOMBOGO,KIGULU
SIMIYU,39,ITILIMA,392,MIGATO,39204,LONGALOMBOGO,ITAGWASA
SIMIYU,39,ITILIMA,392,MIGATO,39204,LONGALOMBOGO,TEMBO
SIMIYU,39,ITILIMA,392,NDOLELEZI,39205,NDOLELEZI,NDOLELEZI
SIMIYU,39,ITILIMA,392,NDOLELEZI,39205,NDOLELEZI,BUSANGWA
SIMIYU,39,ITILIMA,392,NDOLELEZI,39205,NDOLELEZI,SHULENI
SIMIYU,39,ITILIMA,392,NDOLELEZI,39205,NDOLELEZI,MWAMABULI
SIMIYU,39,ITILIMA,392,NDOLELEZI,39205,NDOLELEZI,NTOBO
SIMIYU,39,ITILIMA,392,NDOLELEZI,39205,NANGALE,NANGALE
SIMIYU,39,ITILIMA,392,NDOLELEZI,39205,NANGALE,SUTWA
SIMIYU,39,ITILIMA,392,NDOLELEZI,39205,NANGALE,NG'WAMAYENZE
SIMIYU,39,ITILIMA,392,NDOLELEZI,39205,NANGALE,MATALE
SIMIYU,39,ITILIMA,392,NDOLELEZI,39205,NANGALE,MADUKANI
SIMIYU,39,ITILIMA,392,NDOLELEZI,39205,NG’WANYITANGA,NG’WANYITANGA
SIMIYU,39,ITILIMA,392,NDOLELEZI,39205,NG’WANYITANGA,NG’WANGIMU
SIMIYU,39,ITILIMA,392,NDOLELEZI,39205,NG’WANYITANGA,KISABO
SIMIYU,39,ITILIMA,392,NDOLELEZI,39205,NG’WANYITANGA,NG’WALUDELEKA
SIMIYU,39,ITILIMA,392,NDOLELEZI,39205,NG’WANYITANGA,ILABA
SIMIYU,39,ITILIMA,392,NDOLELEZI,39205,NG’WAOGAMA,NGENG'WAMBULA
SIMIYU,39,ITILIMA,392,NDOLELEZI,39205,NG’WAOGAMA,NG'WAOGAMA
SIMIYU,39,ITILIMA,392,NDOLELEZI,39205,NG’WAOGAMA,NG'WAMALILI
SIMIYU,39,ITILIMA,392,NDOLELEZI,39205,NG’WAOGAMA,NGONGWA
SIMIYU,39,ITILIMA,392,NDOLELEZI,39205,NG’WAOGAMA,MATALAMBITI
SIMIYU,39,ITILIMA,392,CHINAMILI,39206,NANGA,NANGA B
SIMIYU,39,ITILIMA,392,CHINAMILI,39206,NANGA,ILULA
SIMIYU,39,ITILIMA,392,CHINAMILI,39206,NANGA,NG'WABUKI
SIMIYU,39,ITILIMA,392,CHINAMILI,39206,NANGA,ISAGENG'HE
SIMIYU,39,ITILIMA,392,CHINAMILI,39206,NANGA,NANGA A
SIMIYU,39,ITILIMA,392,CHINAMILI,39206,NANGA,IMALANG'OMBE
SIMIYU,39,ITILIMA,392,CHINAMILI,39206,CHINAMILI,NG'WAMANKIMA
SIMIYU,39,ITILIMA,392,CHINAMILI,39206,CHINAMILI,NG'WAMHANGO
SIMIYU,39,ITILIMA,392,CHINAMILI,39206,CHINAMILI,NG'WANUNGU
SIMIYU,39,ITILIMA,392,CHINAMILI,39206,CHINAMILI,ITILIMA
SIMIYU,39,ITILIMA,392,CHINAMILI,39206,CHINAMILI,NG'WAMPOGOTA
SIMIYU,39,ITILIMA,392,CHINAMILI,39206,CHINAMILI,NG'WANG'HALANGA
SIMIYU,39,ITILIMA,392,CHINAMILI,39206,CHINAMILI,JANSALALA
SIMIYU,39,ITILIMA,392,CHINAMILI,39206,SENANI,SENANI
SIMIYU,39,ITILIMA,392,CHINAMILI,39206,SENANI,IKUNGULYAZA
SIMIYU,39,ITILIMA,392,CHINAMILI,39206,SENANI,NYAUMATA
SIMIYU,39,ITILIMA,392,CHINAMILI,39206,SENANI,KIYUNGUYUNGU
SIMIYU,39,ITILIMA,392,CHINAMILI,39206,SENANI,NAMBALO
SIMIYU,39,ITILIMA,392,CHINAMILI,39206,SALI,SALI
SIMIYU,39,ITILIMA,392,CHINAMILI,39206,SALI,BUSHUSHIGA
SIMIYU,39,ITILIMA,392,CHINAMILI,39206,SALI,IDUBILO
SIMIYU,39,ITILIMA,392,CHINAMILI,39206,SALI,KILABELA
SIMIYU,39,ITILIMA,392,CHINAMILI,39206,SALI,NG'WABUYUNGE
SIMIYU,39,ITILIMA,392,BUMERA,39207,BUMERA,BUKWAYA
SIMIYU,39,ITILIMA,392,BUMERA,39207,BUMERA,MWABURUGUSHIDA
SIMIYU,39,ITILIMA,392,BUMERA,39207,BUMERA,MWAKASANDA
SIMIYU,39,ITILIMA,392,BUMERA,39207,BUMERA,MWAKINANDAGO
SIMIYU,39,ITILIMA,392,BUMERA,39207,BUMERA,TALA
SIMIYU,39,ITILIMA,392,BUMERA,39207,BULOLAMBESHI,MWACHONZA
SIMIYU,39,ITILIMA,392,BUMERA,39207,BULOLAMBESHI,JISESA
SIMIYU,39,ITILIMA,392,BUMERA,39207,BULOLAMBESHI,BUSULILO
SIMIYU,39,ITILIMA,392,BUMERA,39207,BULOLAMBESHI,NGUGUNU
SIMIYU,39,ITILIMA,392,BUMERA,39207,BULOLAMBESHI,GANDAGI
SIMIYU,39,ITILIMA,392,BUMERA,39207,BULOLAMBESHI,MWANHALE
SIMIYU,39,ITILIMA,392,BUMERA,39207,BULOLAMBESHI,MWAUMISISI
SIMIYU,39,ITILIMA,392,BUMERA,39207,BULOLAMBESHI,MWABABULI
SIMIYU,39,ITILIMA,392,BUMERA,39207,MWAZIMBI,MWAZIMBI
SIMIYU,39,ITILIMA,392,BUMERA,39207,MWAZIMBI,MWANHALE
SIMIYU,39,ITILIMA,392,BUMERA,39207,MWAZIMBI,MWAUMISISI
SIMIYU,39,ITILIMA,392,BUMERA,39207,MWAZIMBI,MWABABULI
SIMIYU,39,ITILIMA,392,BUMERA,39207,MWAZIMBI,MWABAYANDA
SIMIYU,39,ITILIMA,392,BUMERA,39207,MWANDULU,MJINI
SIMIYU,39,ITILIMA,392,BUMERA,39207,MWANDULU,ZIBA
SIMIYU,39,ITILIMA,392,BUMERA,39207,MWANDULU,MWATEGA
SIMIYU,39,ITILIMA,392,BUMERA,39207,MWANDULU,SONGOI
SIMIYU,39,ITILIMA,392,BUMERA,39207,MWANDULU,MWAYAI
SIMIYU,39,ITILIMA,392,BUMERA,39207,MWANDULU,NGATO
SIMIYU,39,ITILIMA,392,BUMERA,39207,MWANDULU,NSASANDA
SIMIYU,39,ITILIMA,392,BUMERA,39207,HABIYA,NTOBO
SIMIYU,39,ITILIMA,392,BUMERA,39207,HABIYA,MAHAHA
SIMIYU,39,ITILIMA,392,BUMERA,39207,HABIYA,NINDILINDI
SIMIYU,39,ITILIMA,392,BUMERA,39207,HABIYA,MBALAGANE
SIMIYU,39,ITILIMA,392,BUMERA,39207,HABIYA,BUMALA
SIMIYU,39,ITILIMA,392,BUMERA,39207,HABIYA,MWANDIGA
SIMIYU,39,ITILIMA,392,IKINDILO,39208,IKINDILO,IKINDILO
SIMIYU,39,ITILIMA,392,IKINDILO,39208,IKINDILO,NGUNGA
SIMIYU,39,ITILIMA,392,IKINDILO,39208,IKINDILO,NGHUNE
SIMIYU,39,ITILIMA,392,IKINDILO,39208,IKINDILO,MWAMASWA
SIMIYU,39,ITILIMA,392,IKINDILO,39208,IKINDILO,MWABALATULU A
SIMIYU,39,ITILIMA,392,IKINDILO,39208,IKINDILO,MWABALATULU B
SIMIYU,39,ITILIMA,392,IKINDILO,39208,IKINDILO,MWAKILUNGUJA
SIMIYU,39,ITILIMA,392,IKINDILO,39208,NTENGA,NTENGA A
SIMIYU,39,ITILIMA,392,IKINDILO,39208,NTENGA,NTENGA B
SIMIYU,39,ITILIMA,392,IKINDILO,39208,NTENGA,IGADA
SIMIYU,39,ITILIMA,392,IKINDILO,39208,NTENGA,MWAMILE
SIMIYU,39,ITILIMA,392,IKINDILO,39208,NTENGA,MWAKILUNGUJA
SIMIYU,39,ITILIMA,392,IKINDILO,39208,MWAMUNGESHA,MWAMUNGESHA
SIMIYU,39,ITILIMA,392,IKINDILO,39208,MWAMUNGESHA,MILINJE
SIMIYU,39,ITILIMA,392,IKINDILO,39208,MWAMUNGESHA,NG'HUNGULUMA
SIMIYU,39,ITILIMA,392,IKINDILO,39208,MWAMUNGESHA,SONGE
SIMIYU,39,ITILIMA,392,IKINDILO,39208,MWABUKI,SHULENI
SIMIYU,39,ITILIMA,392,IKINDILO,39208,MWABUKI,KANISANI
SIMIYU,39,ITILIMA,392,IKINDILO,39208,MWABUKI,KATI
SIMIYU,39,ITILIMA,392,IKINDILO,39208,MWABUKI,NYAMBONO
SIMIYU,39,ITILIMA,392,IKINDILO,39208,MWABUKI,BUBALE
SIMIYU,39,ITILIMA,392,IKINDILO,39208,MWABUKI,MWALUBUDUKI
SIMIYU,39,ITILIMA,392,IKINDILO,39208,MWABUKI,NYANGOGO
SIMIYU,39,ITILIMA,392,IKINDILO,39208,MWABUKI,NYANG'OMBE
SIMIYU,39,ITILIMA,392,IKINDILO,39208,NYANG’OMBE,NYANG'OMBE
SIMIYU,39,ITILIMA,392,IKINDILO,39208,NYANG’OMBE,ZAHANATI
SIMIYU,39,ITILIMA,392,IKINDILO,39208,NYANG’OMBE,MWAMASHUNULA
SIMIYU,39,ITILIMA,392,IKINDILO,39208,NYANG’OMBE,NYANGOGO
SIMIYU,39,ITILIMA,392,IKINDILO,39208,NYANG’OMBE,NYAMBIZI
SIMIYU,39,ITILIMA,392,SAGATA,39209,SAGATA,NANGA
SIMIYU,39,ITILIMA,392,SAGATA,39209,SAGATA,NYAWA
SIMIYU,39,ITILIMA,392,SAGATA,39209,SAGATA,SAGATA
SIMIYU,39,ITILIMA,392,SAGATA,39209,SAGATA,WALA
SIMIYU,39,ITILIMA,392,SAGATA,39209,SAGATA,BUPANDAGILA
SIMIYU,39,ITILIMA,392,SAGATA,39209,SAGATA,MASHIKE
SIMIYU,39,ITILIMA,392,SAGATA,39209,SAGATA,MWANDAMO
SIMIYU,39,ITILIMA,392,SAGATA,39209,SAGATA,IPILILI A
SIMIYU,39,ITILIMA,392,SAGATA,39209,SAGATA,IPILILI B
SIMIYU,39,ITILIMA,392,SAGATA,39209,GASWA,KATI
SIMIYU,39,ITILIMA,392,SAGATA,39209,GASWA,NYAMISUNDA
SIMIYU,39,ITILIMA,392,SAGATA,39209,GASWA,MWAKIDIMU
SIMIYU,39,ITILIMA,392,SAGATA,39209,GASWA,MWANDISA
SIMIYU,39,ITILIMA,392,SAGATA,39209,GASWA,IGWATA
SIMIYU,39,ITILIMA,392,SAGATA,39209,LAINI A,MADUKANI
SIMIYU,39,ITILIMA,392,SAGATA,39209,LAINI A,MANG'ADA
SIMIYU,39,ITILIMA,392,SAGATA,39209,LAINI A,MWAKINASA
SIMIYU,39,ITILIMA,392,SAGATA,39209,LAINI A,NYAHIGA
SIMIYU,39,ITILIMA,392,SAGATA,39209,LAINI A,JABUTWA
SIMIYU,39,ITILIMA,392,SAGATA,39209,LAINI A,MWAJIBEBE
SIMIYU,39,ITILIMA,392,SAGATA,39209,LAINI B,SENGEREMA
SIMIYU,39,ITILIMA,392,SAGATA,39209,LAINI B,MWAKIBUGA
SIMIYU,39,ITILIMA,392,SAGATA,39209,LAINI B,MTULI
SIMIYU,39,ITILIMA,392,SAGATA,39209,LAINI B,MWAKISASI
SIMIYU,39,ITILIMA,392,SAGATA,39209,LAINI B,GATOGWA
SIMIYU,39,ITILIMA,392,SAGATA,39209,LAINI B,MWANG'HELEJA
SIMIYU,39,ITILIMA,392,MWAMTANI,39210,MWAMTANI,JABUTWA
SIMIYU,39,ITILIMA,392,MWAMTANI,39210,MWAMTANI,MWAKALEGI
SIMIYU,39,ITILIMA,392,MWAMTANI,39210,MWAMTANI,MWAMTANI A
SIMIYU,39,ITILIMA,392,MWAMTANI,39210,MWAMTANI,MWAMTANI B
SIMIYU,39,ITILIMA,392,MWAMTANI,39210,MWAMTANI,MWABADIMI
SIMIYU,39,ITILIMA,392,MWAMTANI,39210,MWAMTANI,BUSULWA
SIMIYU,39,ITILIMA,392,MWAMTANI,39210,MANASUBI,ITABALYAMBITI
SIMIYU,39,ITILIMA,392,MWAMTANI,39210,MANASUBI,MWAMAHONYA
SIMIYU,39,ITILIMA,392,MWAMTANI,39210,MANASUBI,LIGEMBE
SIMIYU,39,ITILIMA,392,MWAMTANI,39210,MANASUBI,MANASUBU
SIMIYU,39,ITILIMA,392,MWAMTANI,39210,MANASUBI,MWANDOYE
SIMIYU,39,ITILIMA,392,MWAMTANI,39210,MBOGO,MBOGO
SIMIYU,39,ITILIMA,392,MWAMTANI,39210,MBOGO,MWALUME
SIMIYU,39,ITILIMA,392,MWAMTANI,39210,MBOGO,NYASOSI
SIMIYU,39,ITILIMA,392,MWAMTANI,39210,MBOGO,NYASHIMBA
SIMIYU,39,ITILIMA,392,MWAMTANI,39210,MBOGO,NSELYA
SIMIYU,39,ITILIMA,392,MWAMTANI,39210,MBOGO,BASELEMO
SIMIYU,39,ITILIMA,392,MWAMTANI,39210,MWAMAKILI,MWAMAKILI
SIMIYU,39,ITILIMA,392,MWAMTANI,39210,MWAMAKILI,MWANINGILE
SIMIYU,39,ITILIMA,392,MWAMTANI,39210,MWAMAKILI,GWADA
SIMIYU,39,ITILIMA,392,MWAMTANI,39210,MWAMAKILI,SELYA
SIMIYU,39,ITILIMA,392,MWAMTANI,39210,MWAMAKILI,DUGUTI
SIMIYU,39,ITILIMA,392,NKUYU,39211,NKUYU,NKUYU MADUKANI
SIMIYU,39,ITILIMA,392,NKUYU,39211,NKUYU,SAGENGE
SIMIYU,39,ITILIMA,392,NKUYU,39211,NKUYU,NKUYU 'B'
SIMIYU,39,ITILIMA,392,NKUYU,39211,NKUYU,MWAMHALE
SIMIYU,39,ITILIMA,392,NKUYU,39211,NKUYU,BUCHIBAMATU
SIMIYU,39,ITILIMA,392,NKUYU,39211,NKUYU,NG'WAGITWINO
SIMIYU,39,ITILIMA,392,NKUYU,39211,NYANTUGUTU,NYANTUNGATU A
SIMIYU,39,ITILIMA,392,NKUYU,39211,NYANTUGUTU,NYANTUNGATU B
SIMIYU,39,ITILIMA,392,NKUYU,39211,NYANTUGUTU,MWAMAHONYA A
SIMIYU,39,ITILIMA,392,NKUYU,39211,NYANTUGUTU,MWAMAHONYA B
SIMIYU,39,ITILIMA,392,NKUYU,39211,NYANTUGUTU,MWAIKILISA
SIMIYU,39,ITILIMA,392,NKUYU,39211,NYANTUGUTU,MWAMATOLO
SIMIYU,39,ITILIMA,392,NKUYU,39211,LUNGWA,MWAMHONGO
SIMIYU,39,ITILIMA,392,NKUYU,39211,LUNGWA,LUNG'WA
SIMIYU,39,ITILIMA,392,NKUYU,39211,LUNGWA,MANDEKE
SIMIYU,39,ITILIMA,392,NKUYU,39211,LUNGWA,MALWILO
SIMIYU,39,ITILIMA,392,NKUYU,39211,LUNGWA,MWADAI
SIMIYU,39,ITILIMA,392,NKUYU,39211,LUNGWA,NG'WABADIMU
SIMIYU,39,ITILIMA,392,NKUYU,39211,LUNGWA,IKUNGULIPU
SIMIYU,39,ITILIMA,392,NKUYU,39211,PIJULU,PIJULU
SIMIYU,39,ITILIMA,392,NKUYU,39211,PIJULU,MLIMANI
SIMIYU,39,ITILIMA,392,NKUYU,39211,PIJULU,MUUNGANO
SIMIYU,39,ITILIMA,392,NKUYU,39211,PIJULU,MWANG'WANG'WA
SIMIYU,39,ITILIMA,392,NKUYU,39211,PIJULU,MONDO
SIMIYU,39,ITILIMA,392,MWASWALE,39212,MWASWALE,MWASWALE A
SIMIYU,39,ITILIMA,392,MWASWALE,39212,MWASWALE,MWASWALE B
SIMIYU,39,ITILIMA,392,MWASWALE,39212,MWASWALE,ZEMAZEMA A
SIMIYU,39,ITILIMA,392,MWASWALE,39212,MWASWALE,ZEMAZEMA B
SIMIYU,39,ITILIMA,392,MWASWALE,39212,MWASWALE,SONGAMBELE
SIMIYU,39,ITILIMA,392,MWASWALE,39212,MWASWALE,NG'HULU
SIMIYU,39,ITILIMA,392,MWASWALE,39212,MWAMALIZI,MWAMALINZI ''A''
SIMIYU,39,ITILIMA,392,MWASWALE,39212,MWAMALIZI,MWAMALINZI ''B''
SIMIYU,39,ITILIMA,392,MWASWALE,39212,MWAMALIZI,MWAMALINZI ''C''
SIMIYU,39,ITILIMA,392,MWASWALE,39212,MWAMALIZI,MWAMTUBI
SIMIYU,39,ITILIMA,392,MWASWALE,39212,MWAMALIZI,MWAMANUMBU
SIMIYU,39,ITILIMA,392,MWASWALE,39212,MWAMALIZI,BUGILA
SIMIYU,39,ITILIMA,392,MWASWALE,39212,NDING’HO,NDING'HO A
SIMIYU,39,ITILIMA,392,MWASWALE,39212,NDING’HO,NDING'HO B
SIMIYU,39,ITILIMA,392,MWASWALE,39212,NDING’HO,SONGAMBELE
SIMIYU,39,ITILIMA,392,MWASWALE,39212,NDING’HO,IKUNGULIPU
SIMIYU,39,ITILIMA,392,MWASWALE,39212,NDING’HO,MALULA
SIMIYU,39,ITILIMA,392,MWASWALE,39212,NG’WALALI,CHUNGUCHANTEMI
SIMIYU,39,ITILIMA,392,MWASWALE,39212,NG’WALALI,SAMU
SIMIYU,39,ITILIMA,392,MWASWALE,39212,NG’WALALI,NG'WAKUBIJA
SIMIYU,39,ITILIMA,392,MWASWALE,39212,NG’WALALI,NYABUCHAMA
SIMIYU,39,ITILIMA,392,NKOMA,39213,NKOMA,NG'WABASIMBE
SIMIYU,39,ITILIMA,392,NKOMA,39213,NKOMA,NKOMA JUU
SIMIYU,39,ITILIMA,392,NKOMA,39213,NKOMA,NG'WAMAGULYATI
SIMIYU,39,ITILIMA,392,NKOMA,39213,NKOMA,NG'WANGIMU
SIMIYU,39,ITILIMA,392,NKOMA,39213,NKOMA,NKOMA KATI
SIMIYU,39,ITILIMA,392,NKOMA,39213,NKOMA,NKOMA MJINI
SIMIYU,39,ITILIMA,392,NKOMA,39213,NKOMA,NKOMA CHINI
SIMIYU,39,ITILIMA,392,NKOMA,39213,NKOMA,NKOMA MJINI B
SIMIYU,39,ITILIMA,392,NKOMA,39213,DASINA,LUTALA
SIMIYU,39,ITILIMA,392,NKOMA,39213,DASINA,MHANDE
SIMIYU,39,ITILIMA,392,NKOMA,39213,DASINA,NSINGISA
SIMIYU,39,ITILIMA,392,NKOMA,39213,DASINA,DASINA KISIMANI
SIMIYU,39,ITILIMA,392,NKOMA,39213,DASINA,DASINA KISIMANI B
SIMIYU,39,ITILIMA,392,NKOMA,39213,DASINA,MWABASABI
SIMIYU,39,ITILIMA,392,NKOMA,39213,DASINA,MWABASABI B
SIMIYU,39,ITILIMA,392,NKOMA,39213,DASINA,MWAMBITI
SIMIYU,39,ITILIMA,392,NKOMA,39213,MWAMBAGWA,MWAMBAGWA MASHARIKI
SIMIYU,39,ITILIMA,392,NKOMA,39213,MWAMBAGWA,MWAMBAGWA MAGHAGHARIBI
SIMIYU,39,ITILIMA,392,NKOMA,39213,MWAMBAGWA,IKUNGULYANGHALANGA
SIMIYU,39,ITILIMA,392,NKOMA,39213,MWAMBAGWA,BUPANDWA
SIMIYU,39,ITILIMA,392,NKOMA,39213,MWAMBAGWA,MEMEA
SIMIYU,39,ITILIMA,392,NKOMA,39213,GAMBASINGU,MWAKUBILINGA
SIMIYU,39,ITILIMA,392,NKOMA,39213,GAMBASINGU,MBESI
SIMIYU,39,ITILIMA,392,NKOMA,39213,GAMBASINGU,MWABASAMBO
SIMIYU,39,ITILIMA,392,NKOMA,39213,GAMBASINGU,MWABASAMBO B
SIMIYU,39,ITILIMA,392,NKOMA,39213,GAMBASINGU,NSHENU
SIMIYU,39,ITILIMA,392,NKOMA,39213,GAMBASINGU,MWAJULA
SIMIYU,39,ITILIMA,392,NKOMA,39213,GAMBASINGU,ISIGA
SIMIYU,39,ITILIMA,392,NKOMA,39213,NG’WANG’WITA,SAGIDA
SIMIYU,39,ITILIMA,392,NKOMA,39213,NG’WANG’WITA,BUKANGILIJA
SIMIYU,39,ITILIMA,392,NKOMA,39213,NG’WANG’WITA,BUSULWA
SIMIYU,39,ITILIMA,392,NKOMA,39213,NG’WANG’WITA,MWABUSUNGU
SIMIYU,39,ITILIMA,392,NKOMA,39213,NG’WANG’WITA,IDISA
SIMIYU,39,ITILIMA,392,NKOMA,39213,MUSOMA,MUSOMA
SIMIYU,39,ITILIMA,392,NKOMA,39213,MUSOMA,MUSOMA B
SIMIYU,39,ITILIMA,392,NKOMA,39213,MUSOMA,MWANJEGELI
SIMIYU,39,ITILIMA,392,NKOMA,39213,MUSOMA,ISAGENG'HE
SIMIYU,39,ITILIMA,392,NKOMA,39213,MUSOMA,NG'WANDU
SIMIYU,39,ITILIMA,392,NKOMA,39213,MUSOMA,SAKAYI
SIMIYU,39,ITILIMA,392,NKOMA,39213,MWAMBAGWA,MEMEA
SIMIYU,39,ITILIMA,392,NKOMA,39213,MWAMBAGWA,BUPANDWA
SIMIYU,39,ITILIMA,392,NKOMA,39213,MWAMBAGWA,IKUNGULYANG'HALANGA
SIMIYU,39,ITILIMA,392,NKOMA,39213,MWAMBAGWA,MWAMBAGWA MAGHARIBI
SIMIYU,39,ITILIMA,392,NKOMA,39213,MWAMBAGWA,MWAMBWAGWA MASHARIKI
SIMIYU,39,ITILIMA,392,NKOMA,39213,NTAGWASA,BUTALWASURU
SIMIYU,39,ITILIMA,392,NKOMA,39213,NTAGWASA,LALAGO
SIMIYU,39,ITILIMA,392,NKOMA,39213,NTAGWASA,BULIASHI
SIMIYU,39,ITILIMA,392,NKOMA,39213,NTAGWASA,MOROGORO
SIMIYU,39,ITILIMA,392,NKOMA,39213,NTAGWASA,NTAGWASA
SIMIYU,39,ITILIMA,392,MWALUSHU,39214,MWALUSHU,MWALUSHU A
SIMIYU,39,ITILIMA,392,MWALUSHU,39214,MWALUSHU,MWALUSHU B
SIMIYU,39,ITILIMA,392,MWALUSHU,39214,MWALUSHU,MWALUSHU C
SIMIYU,39,ITILIMA,392,MWALUSHU,39214,MWALUSHU,MEMEA
SIMIYU,39,ITILIMA,392,MWALUSHU,39214,MWALUSHU,MEMEA B
SIMIYU,39,ITILIMA,392,MWALUSHU,39214,MWALUSHU,MEMEA C
SIMIYU,39,ITILIMA,392,MWALUSHU,39214,MWALUSHU,BWAWANI
SIMIYU,39,ITILIMA,392,MWALUSHU,39214,MWAMIGAGANI,LUGUNANO A
SIMIYU,39,ITILIMA,392,MWALUSHU,39214,MWAMIGAGANI,LUGUNANO B
SIMIYU,39,ITILIMA,392,MWALUSHU,39214,MWAMIGAGANI,MWAMIGAGANI A
SIMIYU,39,ITILIMA,392,MWALUSHU,39214,MWAMIGAGANI,MWAMIGAGANI B
SIMIYU,39,ITILIMA,392,MWALUSHU,39214,MWAMIGAGANI,MWAMIGAGANI C
SIMIYU,39,ITILIMA,392,MWALUSHU,39214,MWAMIGAGANI,NG'HOMANGO B
SIMIYU,39,ITILIMA,392,MWALUSHU,39214,MWAMIGAGANI,MITOBO A
SIMIYU,39,ITILIMA,392,MWALUSHU,39214,MWAMIGAGANI,MITOBO B
SIMIYU,39,ITILIMA,392,MWALUSHU,39214,MWAMIGAGANI,MITOBO C
SIMIYU,39,ITILIMA,392,MWALUSHU,39214,MWAMIGAGANI,HUNU
SIMIYU,39,ITILIMA,392,MWALUSHU,39214,MWAMANYANGU,MWAMANYANGU A
SIMIYU,39,ITILIMA,392,MWALUSHU,39214,MWAMANYANGU,MWAMANYANGU B
SIMIYU,39,ITILIMA,392,MWALUSHU,39214,MWAMANYANGU,MWAMANYANGU C
SIMIYU,39,ITILIMA,392,MWALUSHU,39214,MWAMANYANGU,MIKUYUNI C
SIMIYU,39,ITILIMA,392,MWALUSHU,39214,MWAMANYANGU,MIKUYUNI B
SIMIYU,39,ITILIMA,392,MWALUSHU,39214,MWAMANYANGU,MWABAYANDA A
SIMIYU,39,ITILIMA,392,MWALUSHU,39214,MWAMANYANGU,MWABAYANDA B
SIMIYU,39,ITILIMA,392,MWALUSHU,39214,MWANUNUI,NG'ONG'O
SIMIYU,39,ITILIMA,392,MWALUSHU,39214,MWANUNUI,BUJINGWA
SIMIYU,39,ITILIMA,392,MWALUSHU,39214,MWANUNUI,KASOLOLO
SIMIYU,39,ITILIMA,392,MWALUSHU,39214,MWANUNUI,MIEMBENI A
SIMIYU,39,ITILIMA,392,MWALUSHU,39214,MWANUNUI,MIEMBENI B
SIMIYU,39,ITILIMA,392,MWALUSHU,39214,MWANUNUI,MIKUYUNI A
SIMIYU,39,ITILIMA,392,MWALUSHU,39214,MWANUNUI,NG'WIPELE
SIMIYU,39,ITILIMA,392,MWALUSHU,39214,NG'HOMANGO,NG'HOMANGO A
SIMIYU,39,ITILIMA,392,MWALUSHU,39214,NG'HOMANGO,NG'HOMANGO B
SIMIYU,39,ITILIMA,392,MWALUSHU,39214,NG'HOMANGO,NG'WASUBI A
SIMIYU,39,ITILIMA,392,MWALUSHU,39214,NG'HOMANGO,NG'WASUBI B
SIMIYU,39,ITILIMA,392,MWALUSHU,39214,NG'HOMANGO,MALULA A
SIMIYU,39,ITILIMA,392,MWALUSHU,39214,NG'HOMANGO,NG'HOMANGO
SIMIYU,39,ITILIMA,392,NYAMALAPA,39215,NYAMALAPA,MAHELELO
SIMIYU,39,ITILIMA,392,NYAMALAPA,39215,NYAMALAPA,NYAMISELYA
SIMIYU,39,ITILIMA,392,NYAMALAPA,39215,NYAMALAPA,KABASA
SIMIYU,39,ITILIMA,392,NYAMALAPA,39215,NYAMALAPA,IGOMA
SIMIYU,39,ITILIMA,392,NYAMALAPA,39215,NYAMALAPA,NYAMALAPA
SIMIYU,39,ITILIMA,392,NYAMALAPA,39215,NYAMALAPA,MWAKILATU
SIMIYU,39,ITILIMA,392,NYAMALAPA,39215,KIMALI,KIMALI
SIMIYU,39,ITILIMA,392,NYAMALAPA,39215,KIMALI,NYAMILUNDI
SIMIYU,39,ITILIMA,392,NYAMALAPA,39215,KIMALI,BUPANDAGILA
SIMIYU,39,ITILIMA,392,NYAMALAPA,39215,KIMALI,TASAFU
SIMIYU,39,ITILIMA,392,NYAMALAPA,39215,KIMALI,MWITILO
SIMIYU,39,ITILIMA,392,NYAMALAPA,39215,ITILIMA,ITILIMA
SIMIYU,39,ITILIMA,392,NYAMALAPA,39215,ITILIMA,MBESI
SIMIYU,39,ITILIMA,392,NYAMALAPA,39215,ITILIMA,MATUMBI
SIMIYU,39,ITILIMA,392,NYAMALAPA,39215,ITILIMA,INALA
SIMIYU,39,ITILIMA,392,NYAMALAPA,39215,ITILIMA,MWAMANGA
SIMIYU,39,ITILIMA,392,NYAMALAPA,39215,BUNAMHALA MBUGANI,MADUKANI
SIMIYU,39,ITILIMA,392,NYAMALAPA,39215,BUNAMHALA MBUGANI,NG'WANG'WILU
SIMIYU,39,ITILIMA,392,NYAMALAPA,39215,BUNAMHALA MBUGANI,MAHELELO
SIMIYU,39,ITILIMA,392,NYAMALAPA,39215,BUNAMHALA MBUGANI,NYASOSI
SIMIYU,39,ITILIMA,392,NYAMALAPA,39215,BUNAMHALA MBUGANI,MWAMAPIGI
SIMIYU,39,ITILIMA,392,NYAMALAPA,39215,ISAKANG’WALE,IBINDO
SIMIYU,39,ITILIMA,392,NYAMALAPA,39215,ISAKANG’WALE,ITONGO
SIMIYU,39,ITILIMA,392,NYAMALAPA,39215,ISAKANG’WALE,ISAKANG'HWALE
SIMIYU,39,ITILIMA,392,NYAMALAPA,39215,ISAKANG’WALE,BUNAMHALA MBUGANI
SIMIYU,39,ITILIMA,392,NYAMALAPA,39215,ISAKANG’WALE,TASAFU
SIMIYU,39,ITILIMA,392,NYAMALAPA,39215,ISAKANG’WALE,LINGEKA
SIMIYU,39,ITILIMA,392,MWAMAPALALA,39216,MWAMAPALALA,MWAMAPALALA “A”
SIMIYU,39,ITILIMA,392,MWAMAPALALA,39216,MWAMAPALALA,MWAMAPALALA “B”
SIMIYU,39,ITILIMA,392,MWAMAPALALA,39216,MWAMAPALALA,MWAMAPALALA “C”
SIMIYU,39,ITILIMA,392,MWAMAPALALA,39216,MWAMAPALALA,MWAMAPALALA “D”
SIMIYU,39,ITILIMA,392,MWAMAPALALA,39216,MWAMAPALALA,JISESA “A”
SIMIYU,39,ITILIMA,392,MWAMAPALALA,39216,MWAMAPALALA,JISESA ‘B’
SIMIYU,39,ITILIMA,392,MWAMAPALALA,39216,MWAMAPALALA,IPANDAMAKILA
SIMIYU,39,ITILIMA,392,MWAMAPALALA,39216,MWAMAPALALA,MWANZUGUSENGI
SIMIYU,39,ITILIMA,392,MWAMAPALALA,39216,NKOLOLO ITILIMA,NKOLOLO A
SIMIYU,39,ITILIMA,392,MWAMAPALALA,39216,NKOLOLO ITILIMA,NKOLOLO B
SIMIYU,39,ITILIMA,392,MWAMAPALALA,39216,NKOLOLO ITILIMA,NKOLOLO C
SIMIYU,39,ITILIMA,392,MWAMAPALALA,39216,NKOLOLO ITILIMA,MWAKONYA A
SIMIYU,39,ITILIMA,392,MWAMAPALALA,39216,NKOLOLO ITILIMA,MWAKONYA B
SIMIYU,39,ITILIMA,392,MWAMAPALALA,39216,NKOLOLO ITILIMA,BUJINGWA
SIMIYU,39,ITILIMA,392,MWAMAPALALA,39216,NKOLOLO ITILIMA,MANUNUDA A
SIMIYU,39,ITILIMA,392,MWAMAPALALA,39216,NKOLOLO ITILIMA,MANUNUDA B
SIMIYU,39,ITILIMA,392,MWAMAPALALA,39216,NGEME,KILIMANJARO
SIMIYU,39,ITILIMA,392,MWAMAPALALA,39216,NGEME,HANIHANI
SIMIYU,39,ITILIMA,392,MWAMAPALALA,39216,NGEME,MADAKOANDULU
SIMIYU,39,ITILIMA,392,MWAMAPALALA,39216,NGEME,NJIAPANDA
SIMIYU,39,ITILIMA,392,MWAMAPALALA,39216,NGEME,NG’WANDU
SIMIYU,39,ITILIMA,392,MWAMAPALALA,39216,NGEME,MADUKANI
SIMIYU,39,ITILIMA,392,MWAMAPALALA,39216,NGEME,NKONZE
SIMIYU,39,ITILIMA,392,MWAMAPALALA,39216,NGEME,LINZI
SIMIYU,39,ITILIMA,392,MWAMAPALALA,39216,NGEME,JIJI
SIMIYU,39,ITILIMA,392,MWAMAPALALA,39216,NGEME,MAGANZO
SIMIYU,39,ITILIMA,392,MWAMAPALALA,39216,NGEME,MINZIMALULU
SIMIYU,39,ITILIMA,392,MWAMAPALALA,39216,NGEME,MBALANDWA
SIMIYU,39,ITILIMA,392,MWAMAPALALA,39216,MWAMUNHU,MWAMUNHU
SIMIYU,39,ITILIMA,392,MWAMAPALALA,39216,MWAMUNHU,MWAMUNHU  B
SIMIYU,39,ITILIMA,392,MWAMAPALALA,39216,MWAMUNHU,MWAMUNHU C
SIMIYU,39,ITILIMA,392,MWAMAPALALA,39216,MWAMUNHU,MONDO
SIMIYU,39,ITILIMA,392,MWAMAPALALA,39216,MWAMUNHU,HUMU
SIMIYU,39,ITILIMA,392,MWAMAPALALA,39216,MWAMUNHU,MWAUMALANGWA
SIMIYU,39,ITILIMA,392,MWAMAPALALA,39216,MWAMUNHU,KASOLOLO
SIMIYU,39,ITILIMA,392,MWAMAPALALA,39216,IDOSELO,NYASHIMBA “A”
SIMIYU,39,ITILIMA,392,MWAMAPALALA,39216,IDOSELO,NYASHIMBA “B”
SIMIYU,39,ITILIMA,392,MWAMAPALALA,39216,IDOSELO,MWANZWILO
SIMIYU,39,ITILIMA,392,MWAMAPALALA,39216,IDOSELO,MWASIYABO
SIMIYU,39,ITILIMA,392,MWAMAPALALA,39216,IDOSELO,MWABASABI
SIMIYU,39,ITILIMA,392,MWAMAPALALA,39216,IDOSELO,IDOSELO “A”
SIMIYU,39,ITILIMA,392,MWAMAPALALA,39216,IDOSELO,IDOSELO “B”
SIMIYU,39,ITILIMA,392,MWAMAPALALA,39216,IDOSELO,NKONGOLO
SIMIYU,39,ITILIMA,392,LUGURU,39217,LUGURU,LUGURU
SIMIYU,39,ITILIMA,392,LUGURU,39217,LUGURU,BANHYA
SIMIYU,39,ITILIMA,392,LUGURU,39217,LUGURU,MWALIMBU
SIMIYU,39,ITILIMA,392,LUGURU,39217,LUGURU,MG'WAOBALYUBA
SIMIYU,39,ITILIMA,392,LUGURU,39217,LUGURU,ITILIMA
SIMIYU,39,ITILIMA,392,LUGURU,39217,LUGURU,NYALWASA
SIMIYU,39,ITILIMA,392,LUGURU,39217,IKUNGULIPU,NGORONGORO
SIMIYU,39,ITILIMA,392,LUGURU,39217,IKUNGULIPU,ISANGA
SIMIYU,39,ITILIMA,392,LUGURU,39217,IKUNGULIPU,WALWA
SIMIYU,39,ITILIMA,392,LUGURU,39217,IKUNGULIPU,IKUNGULIPU
SIMIYU,39,ITILIMA,392,LUGURU,39217,IKUNGULIPU,MWAKIMISHA
SIMIYU,39,ITILIMA,392,LUGURU,39217,IKUNGULIPU,NSALALA
SIMIYU,39,ITILIMA,392,LUGURU,39217,IKUNGULIPU,SAGIDA
SIMIYU,39,ITILIMA,392,LUGURU,39217,IKUNGULIPU,MWAKAPAGALALE
SIMIYU,39,ITILIMA,392,LUGURU,39217,IKUNGULIPU,KASILI
SIMIYU,39,ITILIMA,392,LUGURU,39217,IKUNGULIPU,SILAGO
SIMIYU,39,ITILIMA,392,LUGURU,39217,ITUBILO,ITUBILO
SIMIYU,39,ITILIMA,392,LUGURU,39217,ITUBILO,ISANGA
SIMIYU,39,ITILIMA,392,LUGURU,39217,ITUBILO,CHULI
SIMIYU,39,ITILIMA,392,LUGURU,39217,ITUBILO,MWAUMISISI
SIMIYU,39,ITILIMA,392,LUGURU,39217,ITUBILO,MWABAYANDA
SIMIYU,39,ITILIMA,392,LUGURU,39217,ITUBILO,SOKONI
SIMIYU,39,ITILIMA,392,LUGURU,39217,INALO,INALO
SIMIYU,39,ITILIMA,392,LUGURU,39217,INALO,MWAUMALAGABU
SIMIYU,39,ITILIMA,392,LUGURU,39217,INALO,SOKOINE
SIMIYU,39,ITILIMA,392,LUGURU,39217,INALO,MWANDU
SIMIYU,39,ITILIMA,392,LUGURU,39217,INALO,SOKONI
SIMIYU,39,ITILIMA,392,LUGURU,39217,INALO,MWAUMATONDO
SIMIYU,39,ITILIMA,392,LUGURU,39217,INALO,ILABA
SIMIYU,39,ITILIMA,392,LUGURU,39217,INALO,NANGALE
SIMIYU,39,ITILIMA,392,LUGURU,39217,INALO,MJINI
SIMIYU,39,ITILIMA,392,LUGURU,39217,INALO,NGUNDI
SIMIYU,39,ITILIMA,392,NHOBORA,39218,NHOBORA,NHOBORA
SIMIYU,39,ITILIMA,392,NHOBORA,39218,NHOBORA,MWASHULI
SIMIYU,39,ITILIMA,392,NHOBORA,39218,NHOBORA,MWABALOGI
SIMIYU,39,ITILIMA,392,NHOBORA,39218,NHOBORA,MTAKUJA
SIMIYU,39,ITILIMA,392,NHOBORA,39218,NHOBORA,ILEMBO
SIMIYU,39,ITILIMA,392,NHOBORA,39218,NHOBORA,MWAHUMBUYU
SIMIYU,39,ITILIMA,392,NHOBORA,39218,MWABUYUNGE,MWABUYUNGE
SIMIYU,39,ITILIMA,392,NHOBORA,39218,MWABUYUNGE,ITINJE
SIMIYU,39,ITILIMA,392,NHOBORA,39218,MWABUYUNGE,NANGALE
SIMIYU,39,ITILIMA,392,NHOBORA,39218,MWABUYUNGE,MWASONA
SIMIYU,39,ITILIMA,392,NHOBORA,39218,MWABUYUNGE,NGUNDI
SIMIYU,39,ITILIMA,392,NHOBORA,39218,MWAUMISHENI,MWAUMISHENI
SIMIYU,39,ITILIMA,392,NHOBORA,39218,MWAUMISHENI,NYAMBITILWA
SIMIYU,39,ITILIMA,392,NHOBORA,39218,MWAUMISHENI,NKOZE
SIMIYU,39,ITILIMA,392,NHOBORA,39218,MWAUMISHENI,ZONE
SIMIYU,39,ITILIMA,392,NHOBORA,39218,MWAUMISHENI,MJINI
SIMIYU,39,ITILIMA,392,NHOBORA,39218,TAGAWI,TAGAWI
SIMIYU,39,ITILIMA,392,NHOBORA,39218,TAGAWI,MWAMASHUNULA
SIMIYU,39,ITILIMA,392,NHOBORA,39218,TAGAWI,NGULI
SIMIYU,39,ITILIMA,392,NHOBORA,39218,TAGAWI,MWASINDAI
SIMIYU,39,ITILIMA,392,NHOBORA,39218,TAGAWI,MWABASUZI
SIMIYU,39,ITILIMA,392,NHOBORA,39218,KILUGALA,KILUGALA
SIMIYU,39,ITILIMA,392,NHOBORA,39218,KILUGALA,MSUMBIJI A
SIMIYU,39,ITILIMA,392,NHOBORA,39218,KILUGALA,MSUMBIJI B
SIMIYU,39,ITILIMA,392,NHOBORA,39218,KILUGALA,MISSI
SIMIYU,39,ITILIMA,392,NHOBORA,39218,KILUGALA,MAKOMELO
SIMIYU,39,ITILIMA,392,KINANG’WELI,39219,KINANG’WELI,MADUKANI
SIMIYU,39,ITILIMA,392,KINANG’WELI,39219,KINANG’WELI,INOGU A
SIMIYU,39,ITILIMA,392,KINANG’WELI,39219,KINANG’WELI,NG'WANG'HALANGA B
SIMIYU,39,ITILIMA,392,KINANG’WELI,39219,KINANG’WELI,NG'WANG'HALANGA A
SIMIYU,39,ITILIMA,392,KINANG’WELI,39219,KINANG’WELI,INOGU B
SIMIYU,39,ITILIMA,392,KINANG’WELI,39219,KINANG’WELI,MWAMTEMI
SIMIYU,39,ITILIMA,392,KINANG’WELI,39219,KINANG’WELI,MWAWANDE
SIMIYU,39,ITILIMA,392,KINANG’WELI,39219,KINANG’WELI,MWAKINDA
SIMIYU,39,ITILIMA,392,KINANG’WELI,39219,KINANG’WELI,IDIDI
SIMIYU,39,ITILIMA,392,KINANG’WELI,39219,KINANG’WELI,ISOLO
SIMIYU,39,ITILIMA,392,KINANG’WELI,39219,MWAKILANGI,MADUKANI
SIMIYU,39,ITILIMA,392,KINANG’WELI,39219,MWAKILANGI,BUJUMILIKE
SIMIYU,39,ITILIMA,392,KINANG’WELI,39219,MWAKILANGI,MWAZUGUZUGU
SIMIYU,39,ITILIMA,392,KINANG’WELI,39219,MWAKILANGI,MWAGALU
SIMIYU,39,ITILIMA,392,KINANG’WELI,39219,MWAKILANGI,MWAKILANGI
SIMIYU,39,ITILIMA,392,KINANG’WELI,39219,MWAGIMAGI,MWAGIMAGI CHINI
SIMIYU,39,ITILIMA,392,KINANG’WELI,39219,MWAGIMAGI,MWAGIMAGI JUU
SIMIYU,39,ITILIMA,392,KINANG’WELI,39219,MWAGIMAGI,LUGULI A
SIMIYU,39,ITILIMA,392,KINANG’WELI,39219,MWAGIMAGI,LUGULI B
SIMIYU,39,ITILIMA,392,KINANG’WELI,39219,LALANG’OMBE,LALANG'OMBE
SIMIYU,39,ITILIMA,392,KINANG’WELI,39219,LALANG’OMBE,NJIA PANDA
SIMIYU,39,ITILIMA,392,KINANG’WELI,39219,LALANG’OMBE,ISADUKILO
SIMIYU,39,ITILIMA,392,KINANG’WELI,39219,LALANG’OMBE,IGWATA
SIMIYU,39,ITILIMA,392,KINANG’WELI,39219,LALANG’OMBE,ITULA
SIMIYU,39,ITILIMA,392,MBITA,39220,SUNZULA,SUNZULA CENTRE
SIMIYU,39,ITILIMA,392,MBITA,39220,SUNZULA,MWABAYANDA
SIMIYU,39,ITILIMA,392,MBITA,39220,SUNZULA,MWANSANGA
SIMIYU,39,ITILIMA,392,MBITA,39220,SUNZULA,LUGULI
SIMIYU,39,ITILIMA,392,MBITA,39220,SUNZULA,NYAKIDING’HA
SIMIYU,39,ITILIMA,392,MBITA,39220,SUNZULA,MWAGAMASA
SIMIYU,39,ITILIMA,392,MBITA,39220,NG'HESHA ITILIMA,NG’HESHA
SIMIYU,39,ITILIMA,392,MBITA,39220,NG'HESHA ITILIMA,SATO
SIMIYU,39,ITILIMA,392,MBITA,39220,NG'HESHA ITILIMA,KILALO
SIMIYU,39,ITILIMA,392,MBITA,39220,NG'HESHA ITILIMA,JABUTWA
SIMIYU,39,ITILIMA,392,MBITA,39220,NG'HESHA ITILIMA,MTAKUJA
SIMIYU,39,ITILIMA,392,MBITA,39220,MAHEMBE,KISESA
SIMIYU,39,ITILIMA,392,MBITA,39220,MAHEMBE,MWAMANONGA
SIMIYU,39,ITILIMA,392,MBITA,39220,MAHEMBE,BUSULWA
SIMIYU,39,ITILIMA,392,MBITA,39220,MAHEMBE,JIBISO
SIMIYU,39,ITILIMA,392,MBITA,39220,MAHEMBE,KISESA B
SIMIYU,39,ITILIMA,392,MBITA,39220,KIDULA,MWAMASELE
SIMIYU,39,ITILIMA,392,MBITA,39220,KIDULA,MWASUBUYA
SIMIYU,39,ITILIMA,392,MBITA,39220,KIDULA,
SIMIYU,39,ITILIMA,392,MBITA,39220,KIDULA,MWAMANYILI
SIMIYU,39,ITILIMA,392,MBITA,39220,KIDULA,KISESA
SIMIYU,39,ITILIMA,392,MBITA,39220,KIDULA,KISESA B
SIMIYU,39,ITILIMA,392,MBITA,39220,KIDULA,MBITA
SIMIYU,39,ITILIMA,392,MBITA,39220,KIDULA,KILABELA
SIMIYU,39,ITILIMA,392,MBITA,39220,KIDULA,NYAMBOGO
SIMIYU,39,ITILIMA,392,MBITA,39220,MWAMNEMHA,KIDULA
SIMIYU,39,ITILIMA,392,MBITA,39220,MWAMNEMHA,MWAMNEMHA
SIMIYU,39,ITILIMA,392,MBITA,39220,MWAMNEMHA,MWIKUMLO
SIMIYU,39,ITILIMA,392,MBITA,39220,MWAMNEMHA,MWAKIJA
SIMIYU,39,ITILIMA,392,MBITA,39220,MWAMNEMHA,MBITI ISANGA
SIMIYU,39,ITILIMA,392,MBITA,39220,MWAMNEMHA,KISESA
SIMIYU,39,ITILIMA,392,MBITA,39220,MWAMNEMHA,MWAKILYAMASWA
SIMIYU,39,ITILIMA,392,MBITA,39220,MWAMNEMHA,MWABAGOSHA
SIMIYU,39,ITILIMA,392,MBITA,39220,ISAGALA,ISAGALA
SIMIYU,39,ITILIMA,392,MBITA,39220,ISAGALA,
SIMIYU,39,ITILIMA,392,MBITA,39220,ISAGALA,BUJIMILIKE
SIMIYU,39,ITILIMA,392,MBITA,39220,ISAGALA,KAGONGOLO
SIMIYU,39,ITILIMA,392,MBITA,39220,ISAGALA,MWABASABI
SIMIYU,39,ITILIMA,392,MBITA,39220,ISAGALA,BUKWAYA
SIMIYU,39,ITILIMA,392,MBITA,39220,ISAGALA,MBUGANI
SIMIYU,39,ITILIMA,392,MBITA,39220,SONGAMBELE,IPILILO
SIMIYU,39,ITILIMA,392,MBITA,39220,SONGAMBELE,SONGAMBELE
SIMIYU,39,ITILIMA,392,MBITA,39220,SONGAMBELE,ITONJAMOTO A
SIMIYU,39,ITILIMA,392,MBITA,39220,SONGAMBELE,ITONJAMOTO B
SIMIYU,39,ITILIMA,392,MBITA,39220,SONGAMBELE,NYASHIMBA
SIMIYU,39,ITILIMA,392,MBITA,39220,SONGAMBELE,ITONJAMOTO STOONI
SIMIYU,39,ITILIMA,392,SAWIDA,39221,SAWIDA,MADUKANI
SIMIYU,39,ITILIMA,392,SAWIDA,39221,SAWIDA,NYAMAYUKI
SIMIYU,39,ITILIMA,392,SAWIDA,39221,SAWIDA,MBITI
SIMIYU,39,ITILIMA,392,SAWIDA,39221,SAWIDA,MBITI ISANGA
SIMIYU,39,ITILIMA,392,SAWIDA,39221,SAWIDA,KISESA
SIMIYU,39,ITILIMA,392,SAWIDA,39221,SAWIDA,MWAKILYAMASWA
SIMIYU,39,ITILIMA,392,SAWIDA,39221,SAWIDA,MWABAGOSHA
SIMIYU,39,ITILIMA,392,SAWIDA,39221,ISAGALA,ISAGALA
SIMIYU,39,ITILIMA,392,SAWIDA,39221,ISAGALA,BUJIMILIKE
SIMIYU,39,ITILIMA,392,SAWIDA,39221,ISAGALA,KAGONGOLO
SIMIYU,39,ITILIMA,392,SAWIDA,39221,ISAGALA,MWABASASI
SIMIYU,39,ITILIMA,392,SAWIDA,39221,ISAGALA,BUKWAYA
SIMIYU,39,ITILIMA,392,SAWIDA,39221,ISAGALA,MBUGANI
SIMIYU,39,ITILIMA,392,SAWIDA,39221,MAHEMBE,KISESA
SIMIYU,39,ITILIMA,392,SAWIDA,39221,MAHEMBE,MWAMANONGA
SIMIYU,39,ITILIMA,392,SAWIDA,39221,MAHEMBE,BUSULWA
SIMIYU,39,ITILIMA,392,SAWIDA,39221,MAHEMBE,JIBISO
SIMIYU,39,ITILIMA,392,SAWIDA,39221,MAHEMBE,KISESA B
SIMIYU,39,ITILIMA,392,SAWIDA,39221,SONGAMBELE,IPILILO
SIMIYU,39,ITILIMA,392,SAWIDA,39221,SONGAMBELE,SONGAMBELE
SIMIYU,39,ITILIMA,392,SAWIDA,39221,SONGAMBELE,ITONJAMOTO A
SIMIYU,39,ITILIMA,392,SAWIDA,39221,SONGAMBELE,ITONJAMOTO B
SIMIYU,39,ITILIMA,392,SAWIDA,39221,SONGAMBELE,NYASHIMBA
SIMIYU,39,ITILIMA,392,SAWIDA,39221,SONGAMBELE,ITONJAMOTO STOONI
SIMIYU,39,ITILIMA,392,ZAGAYU,39222,BUKINGWAMINZI,MADUKANI
SIMIYU,39,ITILIMA,392,ZAGAYU,39222,BUKINGWAMINZI,MADUKANI ‘B’
SIMIYU,39,ITILIMA,392,ZAGAYU,39222,BUKINGWAMINZI,SIMIYU
SIMIYU,39,ITILIMA,392,ZAGAYU,39222,BUKINGWAMINZI,MAGHARIBI
SIMIYU,39,ITILIMA,392,ZAGAYU,39222,ZANZUI,MADUKANI
SIMIYU,39,ITILIMA,392,ZAGAYU,39222,ZANZUI,NHOBORA “A”
SIMIYU,39,ITILIMA,392,ZAGAYU,39222,ZANZUI,IKUNGU
SIMIYU,39,ITILIMA,392,ZAGAYU,39222,ZANZUI,NYAMILAMA “A”
SIMIYU,39,ITILIMA,392,ZAGAYU,39222,ZANZUI,NYAMILAMA “B”
SIMIYU,39,ITILIMA,392,ZAGAYU,39222,ZANZUI,LULAGA
SIMIYU,39,ITILIMA,392,ZAGAYU,39222,MLIMANI,BULOLAMBESHI
SIMIYU,39,ITILIMA,392,ZAGAYU,39222,MLIMANI,KISESA
SIMIYU,39,ITILIMA,392,ZAGAYU,39222,MLIMANI,ISAGENG’HE A
SIMIYU,39,ITILIMA,392,ZAGAYU,39222,MLIMANI,ISAGENG’HE B
SIMIYU,39,ITILIMA,392,ZAGAYU,39222,MLIMANI,MWAMABITI
SIMIYU,39,ITILIMA,392,ZAGAYU,39222,MLIMANI,NHOBORA “B”
SIMIYU,39,ITILIMA,392,ZAGAYU,39222,SASAGO,SASAGO “A”
SIMIYU,39,ITILIMA,392,ZAGAYU,39222,SASAGO,SASAGO “B’
SIMIYU,39,ITILIMA,392,ZAGAYU,39222,SASAGO,NG’WAKISALILU
SIMIYU,39,ITILIMA,392,ZAGAYU,39222,SASAGO,KADASHI
SIMIYU,39,ITILIMA,392,ZAGAYU,39222,SASAGO,IKUNGU
SIMIYU,39,ITILIMA,392,ZAGAYU,39222,KABALE,SAGENGE
SIMIYU,39,ITILIMA,392,ZAGAYU,39222,KABALE,ILULA
SIMIYU,39,ITILIMA,392,ZAGAYU,39222,KABALE,BUSHOSHA
SIMIYU,39,ITILIMA,392,ZAGAYU,39222,KABALE,NSULULU
SIMIYU,39,ITILIMA,392,ZAGAYU,39222,KABALE,MING'ONGWA
SIMIYU,39,ITILIMA,392,ZAGAYU,39222,KASHISHI,MADUKANI
SIMIYU,39,ITILIMA,392,ZAGAYU,39222,KASHISHI,NANGA
SIMIYU,39,ITILIMA,392,ZAGAYU,39222,KASHISHI,MWAMUNHU
SIMIYU,39,ITILIMA,392,ZAGAYU,39222,KASHISHI,MWAKISABO
SIMIYU,39,ITILIMA,392,ZAGAYU,39222,KASHISHI,NYAMILAMA A
SIMIYU,39,ITILIMA,392,ZAGAYU,39222,KASHISHI,NYAMILAMA B
SIMIYU,39,ITILIMA,392,ZAGAYU,39222,KASHISHI,NYAHUMBILI
SIMIYU,39,MASWA,393,BUCHAMBI,39301,KIZUNGU,MWALUFUNYA
SIMIYU,39,MASWA,393,BUCHAMBI,39301,KIZUNGU,GINGHI
SIMIYU,39,MASWA,393,BUCHAMBI,39301,KIZUNGU,MWAMAGILI
SIMIYU,39,MASWA,393,BUCHAMBI,39301,KINAMWIGULU,BUCHIMA
SIMIYU,39,MASWA,393,BUCHAMBI,39301,KINAMWIGULU,MWANGOKO
SIMIYU,39,MASWA,393,BUCHAMBI,39301,KINAMWIGULU,IMALAMAKO
SIMIYU,39,MASWA,393,BUCHAMBI,39301,KINAMWIGULU,MWADUI
SIMIYU,39,MASWA,393,BUCHAMBI,39301,SAYUSAYU,IBANDA
SIMIYU,39,MASWA,393,BUCHAMBI,39301,SAYUSAYU,SAYUSAYU
SIMIYU,39,MASWA,393,BUCHAMBI,39301,SAYUSAYU,NYANHUMBILI
SIMIYU,39,MASWA,393,BUCHAMBI,39301,SAYUSAYU,NG'HAYA
SIMIYU,39,MASWA,393,BUCHAMBI,39301,NGHAYA,MBUGANI
SIMIYU,39,MASWA,393,BUCHAMBI,39301,NGHAYA,NG'HAYA
SIMIYU,39,MASWA,393,BUCHAMBI,39301,NGHAYA,MWANTONDO
SIMIYU,39,MASWA,393,BUCHAMBI,39301,INENWA,INENWA
SIMIYU,39,MASWA,393,BUCHAMBI,39301,INENWA,WAGAMOYO
SIMIYU,39,MASWA,393,ZANZUI,39302,MALITA,MWAMANYILI
SIMIYU,39,MASWA,393,ZANZUI,39302,MALITA,MADUKANI
SIMIYU,39,MASWA,393,ZANZUI,39302,MALITA,MAKUYUNI
SIMIYU,39,MASWA,393,ZANZUI,39302,MALITA,HABIA
SIMIYU,39,MASWA,393,ZANZUI,39302,MALITA,MBUGANI
SIMIYU,39,MASWA,393,ZANZUI,39302,MWABUJIKU,MWAMADIKE
SIMIYU,39,MASWA,393,ZANZUI,39302,MWABUJIKU,IKINABUSHU
SIMIYU,39,MASWA,393,ZANZUI,39302,MWABUJIKU,MWABADIMI
SIMIYU,39,MASWA,393,ZANZUI,39302,ZANZUI,MWAMISHIGALO
SIMIYU,39,MASWA,393,ZANZUI,39302,ZANZUI,MADUKANI 'A'
SIMIYU,39,MASWA,393,ZANZUI,39302,ZANZUI,MADUKANI 'B'
SIMIYU,39,MASWA,393,ZANZUI,39302,ZANZUI,SHIMAMA
SIMIYU,39,MASWA,393,ZANZUI,39302,ZANZUI,KILOLENI
SIMIYU,39,MASWA,393,ZANZUI,39302,ZANZUI,IKINDILO
SIMIYU,39,MASWA,393,MWAMASHIMBA,39303,BUYUBI,MWAMASHIMBA
SIMIYU,39,MASWA,393,MWAMASHIMBA,39303,BUYUBI,MWAKISAGA
SIMIYU,39,MASWA,393,MWAMASHIMBA,39303,BUYUBI,IKUNGULYASUBI
SIMIYU,39,MASWA,393,MWAMASHIMBA,39303,DODOMA,DODOMA
SIMIYU,39,MASWA,393,MWAMASHIMBA,39303,DODOMA,MWAHEGELA
SIMIYU,39,MASWA,393,MWAMASHIMBA,39303,DODOMA,MWANKALI
SIMIYU,39,MASWA,393,MWAMASHIMBA,39303,DODOMA,IGWATA
SIMIYU,39,MASWA,393,MWAMASHIMBA,39303,DODOMA,BUKOBA
SIMIYU,39,MASWA,393,MWAMASHIMBA,39303,IKUNGULYASUBI,IKUNGULYASUBI
SIMIYU,39,MASWA,393,MWAMASHIMBA,39303,IKUNGULYASUBI,MWAKIGANGA
SIMIYU,39,MASWA,393,ISANGA,39304,NJIAPANDA,MWAMAGAKA
SIMIYU,39,MASWA,393,ISANGA,39304,NJIAPANDA,NGEGEMO
SIMIYU,39,MASWA,393,ISANGA,39304,NJIAPANDA,BUSANDA
SIMIYU,39,MASWA,393,ISANGA,39304,NJIAPANDA,SAGENDA
SIMIYU,39,MASWA,393,ISANGA,39304,NJIAPANDA,JIJI
SIMIYU,39,MASWA,393,ISANGA,39304,FUNIKA,MALULA
SIMIYU,39,MASWA,393,ISANGA,39304,FUNIKA,GEMBE
SIMIYU,39,MASWA,393,ISANGA,39304,FUNIKA,BUGOLOLA
SIMIYU,39,MASWA,393,ISANGA,39304,FUNIKA,NTANGALA
SIMIYU,39,MASWA,393,ISANGA,39304,ISANGA,IGUNGULI
SIMIYU,39,MASWA,393,ISANGA,39304,ISANGA,IGUMO
SIMIYU,39,MASWA,393,ISANGA,39304,ISANGA,MWANG'HOLO
SIMIYU,39,MASWA,393,ISANGA,39304,ISANGA,NGALA
SIMIYU,39,MASWA,393,MASELA,39305,MASELA,PANDAGI
SIMIYU,39,MASWA,393,MASELA,39305,MASELA,MWAKWIBILINGA
SIMIYU,39,MASWA,393,MASELA,39305,MASELA,MASELA
SIMIYU,39,MASWA,393,MASELA,39305,WIGELEKELO,WIGELEKELO MASHARIKI
SIMIYU,39,MASWA,393,MASELA,39305,WIGELEKELO,WIGELEKELO MAGHARIBI
SIMIYU,39,MASWA,393,MASELA,39305,WIGELEKELO,ISAGENGHE
SIMIYU,39,MASWA,393,MASELA,39305,WIGELEKELO,NGHWANDE
SIMIYU,39,MASWA,393,MASELA,39305,WIGELEKELO,SHIGIHILU
SIMIYU,39,MASWA,393,MASELA,39305,MWASAYI,MWASAYI
SIMIYU,39,MASWA,393,MASELA,39305,MWASAYI,MWAJIJABENDE
SIMIYU,39,MASWA,393,MASELA,39305,MWASAYI,MWAKUDAWA
SIMIYU,39,MASWA,393,MASELA,39305,MWASAYI,IBINDO
SIMIYU,39,MASWA,393,MASELA,39305,MWASAYI,BUPUMBA
SIMIYU,39,MASWA,393,MASELA,39305,GUMALI,GUMALI
SIMIYU,39,MASWA,393,MASELA,39305,GUMALI,MASUHA
SIMIYU,39,MASWA,393,MASELA,39305,NG'WABUKI,MWABUKI
SIMIYU,39,MASWA,393,MASELA,39305,NG'WABUKI,LIKENEJO
SIMIYU,39,MASWA,393,MASELA,39305,NG'WABUKI,ISADA
SIMIYU,39,MASWA,393,MASELA,39305,NG'WABUKI,BULOLANGULU
SIMIYU,39,MASWA,393,MASELA,39305,NG'WABUKI,MWASAIDA
SIMIYU,39,MASWA,393,MASELA,39305,NG'WABUKI,MITA
SIMIYU,39,MASWA,393,SENG'WA,39306,MANDELA,NELA
SIMIYU,39,MASWA,393,SENG'WA,39306,MANDELA,MANDELA
SIMIYU,39,MASWA,393,SENG'WA,39306,MANDELA,BURUMWAMBISU
SIMIYU,39,MASWA,393,SENG'WA,39306,MANDELA,MWATAMBUKA
SIMIYU,39,MASWA,393,SENG'WA,39306,SENG'WA,IYOGELO
SIMIYU,39,MASWA,393,SENG'WA,39306,SENG'WA,KABALE
SIMIYU,39,MASWA,393,SENG'WA,39306,SENG'WA,GAGA
SIMIYU,39,MASWA,393,SENG'WA,39306,SENG'WA,KABALE MASHARIKI
SIMIYU,39,MASWA,393,SENG'WA,39306,SENG'WA,KITANGILI
SIMIYU,39,MASWA,393,SENG'WA,39306,SENG'WA,MLIMANI
SIMIYU,39,MASWA,393,SENG'WA,39306,MWABOMBA,MWABOMBA
SIMIYU,39,MASWA,393,SENG'WA,39306,MWABOMBA,NGEME
SIMIYU,39,MASWA,393,SENG'WA,39306,MWABOMBA,ISHINGWANDAMA
SIMIYU,39,MASWA,393,SENG'WA,39306,MWABOMBA,SAGENGE
SIMIYU,39,MASWA,393,SENG'WA,39306,MWABOMBA,NTULIZI
SIMIYU,39,MASWA,393,SENG'WA,39306,MWANUNDI,MWANUNDI
SIMIYU,39,MASWA,393,SENG'WA,39306,MWANUNDI,MAKULA
SIMIYU,39,MASWA,393,SENG'WA,39306,MWANUNDI,JAMAKUNDA
SIMIYU,39,MASWA,393,SENG'WA,39306,MANAWA,NYAMIGUNGA
SIMIYU,39,MASWA,393,SENG'WA,39306,MANAWA,MANAWA
SIMIYU,39,MASWA,393,SENG'WA,39306,MANAWA,NYASHIMBA
SIMIYU,39,MASWA,393,SENG'WA,39306,MANAWA,NYAMIKOMA
SIMIYU,39,MASWA,393,LALAGO,39307,LALAGO,BONDENI
SIMIYU,39,MASWA,393,LALAGO,39307,LALAGO,MWATAMBUKA
SIMIYU,39,MASWA,393,LALAGO,39307,LALAGO,MNADANI
SIMIYU,39,MASWA,393,LALAGO,39307,GULA,MWALYAGWA
SIMIYU,39,MASWA,393,LALAGO,39307,GULA,GULA
SIMIYU,39,MASWA,393,LALAGO,39307,GULA,BUSONGO
SIMIYU,39,MASWA,393,LALAGO,39307,GULA,GUGAYAMBELELE
SIMIYU,39,MASWA,393,LALAGO,39307,MWAKIDIGA,BAHEBE
SIMIYU,39,MASWA,393,LALAGO,39307,MWAKIDIGA,DAKAMA
SIMIYU,39,MASWA,393,LALAGO,39307,MWAKIDIGA,MAHUSHI
SIMIYU,39,MASWA,393,LALAGO,39307,MWAKIDIGA,KAYENZE
SIMIYU,39,MASWA,393,LALAGO,39307,MWAKIDIGA,NYAMHIMBI
SIMIYU,39,MASWA,393,LALAGO,39307,MWAKIDIGA,JINIKULU
SIMIYU,39,MASWA,393,LALAGO,39307,MWAKIDIGA,IJUKA
SIMIYU,39,MASWA,393,DAKAMA,39308,SHINYANGA MWENGE,BUTUNGA
SIMIYU,39,MASWA,393,DAKAMA,39308,SHINYANGA MWENGE,MAHENGE
SIMIYU,39,MASWA,393,DAKAMA,39308,SHINYANGA MWENGE,WITAMHILYA
SIMIYU,39,MASWA,393,DAKAMA,39308,SHINYANGA MWENGE,MWABULUKI
SIMIYU,39,MASWA,393,DAKAMA,39308,SANGA MWAMPUYA,SANGAMWAMPUYA
SIMIYU,39,MASWA,393,DAKAMA,39308,SANGA MWAMPUYA,MWAMAHONA
SIMIYU,39,MASWA,393,DAKAMA,39308,SANGA MWAMPUYA,MWANDILO
SIMIYU,39,MASWA,393,DAKAMA,39308,SANGA MWAMPUYA,ITINJE MASHARIKI
SIMIYU,39,MASWA,393,DAKAMA,39308,SANGA MWAMPUYA,ITINJE MASHARIKI
SIMIYU,39,MASWA,393,DAKAMA,39308,SANGA MWAMPUYA,ITINJE KUSINI
SIMIYU,39,MASWA,393,BUDEKWA,39309,BUDEKWA,BUDEKWA KATI
SIMIYU,39,MASWA,393,BUDEKWA,39309,BUDEKWA,MWAHAMALA
SIMIYU,39,MASWA,393,BUDEKWA,39309,BUDEKWA,BUSHINI
SIMIYU,39,MASWA,393,BUDEKWA,39309,KILOLELI,MWANTONDO
SIMIYU,39,MASWA,393,BUDEKWA,39309,KILOLELI,MWABAYANDA
SIMIYU,39,MASWA,393,BUDEKWA,39309,KILOLELI,KILOLELI
SIMIYU,39,MASWA,393,BUDEKWA,39309,KILOLELI,MWABALAMBU
SIMIYU,39,MASWA,393,BUDEKWA,39309,KILOLELI,MWANYAGULA
SIMIYU,39,MASWA,393,BUDEKWA,39309,KILOLELI,NYAMBUYI
SIMIYU,39,MASWA,393,BUDEKWA,39309,KILOLELI,LUBAGA
SIMIYU,39,MASWA,393,BUDEKWA,39309,KILOLELI,NG'WAGWIKINDIKA
SIMIYU,39,MASWA,393,BUDEKWA,39309,KILOLELI,KILUNGU
SIMIYU,39,MASWA,393,BUSILILI,39310,MASANWA,MASANWA
SIMIYU,39,MASWA,393,BUSILILI,39310,MASANWA,IWELIMO
SIMIYU,39,MASWA,393,BUSILILI,39310,MASANWA,JILUNGU
SIMIYU,39,MASWA,393,BUSILILI,39310,BUSHITALA,SHILINGI
SIMIYU,39,MASWA,393,BUSILILI,39310,BUSHITALA,NG'HONA
SIMIYU,39,MASWA,393,BUSILILI,39310,BUSHITALA,MLIMANI 'A'
SIMIYU,39,MASWA,393,BUSILILI,39310,BUSHITALA,MWALENDA 'A'
SIMIYU,39,MASWA,393,BUSILILI,39310,BUSHITALA,MWANTONDO
SIMIYU,39,MASWA,393,BUSILILI,39310,BUSHITALA,MWALENDA 'B'
SIMIYU,39,MASWA,393,BUSILILI,39310,BUSHITALA,NG'OMANGO
SIMIYU,39,MASWA,393,BUSILILI,39310,BUSHITALA,MLIMANI 'B'
SIMIYU,39,MASWA,393,BUSILILI,39310,BUSHITALA,NYAMIGUNGA
SIMIYU,39,MASWA,393,SUKUMA,39311,HINDUKI,LUBAGA
SIMIYU,39,MASWA,393,SUKUMA,39311,HINDUKI,JILIMILA
SIMIYU,39,MASWA,393,SUKUMA,39311,HINDUKI,JIDIMU
SIMIYU,39,MASWA,393,SUKUMA,39311,HINDUKI,MWAMISHIMO
SIMIYU,39,MASWA,393,SUKUMA,39311,HINDUKI,SULU
SIMIYU,39,MASWA,393,SUKUMA,39311,HINDUKI,NYANDEKWA
SIMIYU,39,MASWA,393,SUKUMA,39311,HINDUKI,ZIMALI
SIMIYU,39,MASWA,393,SUKUMA,39311,MWADILA,MWABULILO
SIMIYU,39,MASWA,393,SUKUMA,39311,MWADILA,MWALUTUBO
SIMIYU,39,MASWA,393,SUKUMA,39311,MWADILA,BUKINGWA
SIMIYU,39,MASWA,393,SUKUMA,39311,MWADILA,MONDO
SIMIYU,39,MASWA,393,SUKUMA,39311,ISAGENG'HE,ISAGENG'HE
SIMIYU,39,MASWA,393,SUKUMA,39311,ISAGENG'HE,ISAGENG'HE MAGHARIBI
SIMIYU,39,MASWA,393,SUKUMA,39311,ISAGENG'HE,NYAMIKOMA
SIMIYU,39,MASWA,393,SUKUMA,39311,ISAGENG'HE,NYAGATO
SIMIYU,39,MASWA,393,SUKUMA,39311,ISAGENG'HE,JILENGELA
SIMIYU,39,MASWA,393,SUKUMA,39311,ZABAZABA,ZABAZABA
SIMIYU,39,MASWA,393,SUKUMA,39311,ZABAZABA,MWALATU
SIMIYU,39,MASWA,393,NG'WIGWA,39312,NYASHIMBA,SULIGI
SIMIYU,39,MASWA,393,NG'WIGWA,39312,NYASHIMBA,MIGUMO
SIMIYU,39,MASWA,393,NG'WIGWA,39312,NYASHIMBA,BASHISHIDA
SIMIYU,39,MASWA,393,NG'WIGWA,39312,NYASHIMBA,LULUSHI
SIMIYU,39,MASWA,393,NG'WIGWA,39312,MWABAYANDA,AZIMIO
SIMIYU,39,MASWA,393,NG'WIGWA,39312,MWABAYANDA,MWAMASENA
SIMIYU,39,MASWA,393,NG'WIGWA,39312,MWABAYANDA,MWABAYANDA
SIMIYU,39,MASWA,393,NG'WIGWA,39312,MWABAYANDA,BUSUNUNHA
SIMIYU,39,MASWA,393,NG'WIGWA,39312,MWABAYANDA,MWALUGUNE
SIMIYU,39,MASWA,393,NG'WIGWA,39312,MWASITA,MWASITA
SIMIYU,39,MASWA,393,NG'WIGWA,39312,MWASITA,KABALE
SIMIYU,39,MASWA,393,NG'WIGWA,39312,IGONGWA,IGONGWA
SIMIYU,39,MASWA,393,NG'WIGWA,39312,IGONGWA,IDUKU
SIMIYU,39,MASWA,393,NG'WIGWA,39312,IGONGWA,NTANGALA
SIMIYU,39,MASWA,393,NG'WIGWA,39312,IGONGWA,NG'WIGWA
SIMIYU,39,MASWA,393,NG'WIGWA,39312,IGONGWA,ITALE
SIMIYU,39,MASWA,393,NG'WIGWA,39312,IGONGWA,LUNELE
SIMIYU,39,MASWA,393,NGULINGULI,39313,NGULIGULI,MADUKANI
SIMIYU,39,MASWA,393,NGULINGULI,39313,NGULIGULI,MALANGALE
SIMIYU,39,MASWA,393,NGULINGULI,39313,NGULIGULI,MALUGALA
SIMIYU,39,MASWA,393,NGULINGULI,39313,CHUGAMBULI,MATALE
SIMIYU,39,MASWA,393,NGULINGULI,39313,CHUGAMBULI,CHUGAMBULI
SIMIYU,39,MASWA,393,NGULINGULI,39313,CHUGAMBULI,MAGUNGA
SIMIYU,39,MASWA,393,NGULINGULI,39313,MWASHEGESHI,MWANONGA
SIMIYU,39,MASWA,393,NGULINGULI,39313,MWASHEGESHI,CHUGAMBULI
SIMIYU,39,MASWA,393,NGULINGULI,39313,MWASHEGESHI,ILAMBAMAKONO
SIMIYU,39,MASWA,393,NGULINGULI,39313,MWABALOGI,MWABALOGI
SIMIYU,39,MASWA,393,NGULINGULI,39313,MWABALOGI,WIDUNDUGAJA
SIMIYU,39,MASWA,393,NGULINGULI,39313,MWABALOGI,SEKONDARI
SIMIYU,39,MASWA,393,MWAMANENGE,39314,MWANG'HOLO,MWANG'HONOLI
SIMIYU,39,MASWA,393,MWAMANENGE,39314,MWANG'HOLO,NDOLE
SIMIYU,39,MASWA,393,MWAMANENGE,39314,MWANG'HOLO,KISESA
SIMIYU,39,MASWA,393,MWAMANENGE,39314,MWANG'HOLO,NYAMCHOLA
SIMIYU,39,MASWA,393,MWAMANENGE,39314,MWAMANENGE,MWAGUSHU
SIMIYU,39,MASWA,393,MWAMANENGE,39314,MWAMANENGE,MWANHINDILA
SIMIYU,39,MASWA,393,MWAMANENGE,39314,MWAMANENGE,LIGEMBE
SIMIYU,39,MASWA,393,MWAMANENGE,39314,MWAMANENGE,MWAFULA
SIMIYU,39,MASWA,393,MWAMANENGE,39314,MWAMANENGE,MWAMANENGE
SIMIYU,39,MASWA,393,MWAMANENGE,39314,IWELIMO,IWELIMO
SIMIYU,39,MASWA,393,MWAMANENGE,39314,IWELIMO,HOGI
SIMIYU,39,MASWA,393,MWAMANENGE,39314,IWELIMO,GIMBAGU
SIMIYU,39,MASWA,393,MWAMANENGE,39314,IWELIMO,SOMANDA
SIMIYU,39,MASWA,393,MWAMANENGE,39314,IWELIMO,MABUSHI
SIMIYU,39,MASWA,393,MWAMANENGE,39314,IWELIMO,MWABASAGI
SIMIYU,39,MASWA,393,MPINDO,39315,KIDAGANDA,KIDAGANDA KATI
SIMIYU,39,MASWA,393,MPINDO,39315,KIDAGANDA,IFUNGILO
SIMIYU,39,MASWA,393,MPINDO,39315,IGUMANGOBO,MWABUYUNGE
SIMIYU,39,MASWA,393,MPINDO,39315,IGUMANGOBO,ISEBANDA
SIMIYU,39,MASWA,393,MPINDO,39315,IGUMANGOBO,IGUMANGOBO
SIMIYU,39,MASWA,393,MPINDO,39315,SOMANDA,KABALE
SIMIYU,39,MASWA,393,MPINDO,39315,SOMANDA,SOMANDA
SIMIYU,39,MASWA,393,MPINDO,39315,MWAFUMBUKA,MWAFUMBUKA
SIMIYU,39,MASWA,393,MPINDO,39315,MWAFUMBUKA,BUSAGALA
SIMIYU,39,MASWA,393,MPINDO,39315,TAMANU,TAMANU
SIMIYU,39,MASWA,393,MPINDO,39315,TAMANU,MWABALATURU
SIMIYU,39,MASWA,393,MPINDO,39315,IFUNGILO,IFUNGILO
SIMIYU,39,MASWA,393,MPINDO,39315,IFUNGILO,MWANDITA
SIMIYU,39,MASWA,393,MPINDO,39315,IFUNGILO,ILAMBUKULU
SIMIYU,39,MASWA,393,SENANI,39316,SENANI,SENANI
SIMIYU,39,MASWA,393,SENANI,39316,SENANI,NIN'GONGWA
SIMIYU,39,MASWA,393,SENANI,39316,MWABADIMI,MWABADIMI
SIMIYU,39,MASWA,393,SENANI,39316,MWABADIMI,MWANYENYE
SIMIYU,39,MASWA,393,SENANI,39316,JILAGO,JILAGO
SIMIYU,39,MASWA,393,SENANI,39316,JILAGO,MWAMABUNGO
SIMIYU,39,MASWA,393,SENANI,39316,ILAMBAMBASA,ILAMBAMBASA
SIMIYU,39,MASWA,393,SENANI,39316,ILAMBAMBASA,IMILAMATE
SIMIYU,39,MASWA,393,SENANI,39316,ILAMBAMBASA,KILIMI
SIMIYU,39,MASWA,393,SENANI,39316,ZEBEYA,MADUKANI
SIMIYU,39,MASWA,393,SENANI,39316,ZEBEYA,KABALE
SIMIYU,39,MASWA,393,SENANI,39316,MBUGAMITA,MBUGAMITA
SIMIYU,39,MASWA,393,SENANI,39316,MBUGAMITA,MWAMASHA
SIMIYU,39,MASWA,393,SENANI,39316,MWABALATURU,MWAHAMALA
SIMIYU,39,MASWA,393,SENANI,39316,MWABALATURU,MWANGONGONO
SIMIYU,39,MASWA,393,SENANI,39316,MWABALATURU,MWABALATURU
SIMIYU,39,MASWA,393,IPILILO,39317,IPILILO,IPILILO
SIMIYU,39,MASWA,393,IPILILO,39317,IPILILO,MADUKANI
SIMIYU,39,MASWA,393,IPILILO,39317,IPILILO,ISIGA
SIMIYU,39,MASWA,393,IPILILO,39317,IPILILO,MAGANJU
SIMIYU,39,MASWA,393,IPILILO,39317,IPILILO,NGATO
SIMIYU,39,MASWA,393,IPILILO,39317,IPILILO,MBUGA
SIMIYU,39,MASWA,393,IPILILO,39317,MWAMITUMAI,MASOLOLO
SIMIYU,39,MASWA,393,IPILILO,39317,MWAMITUMAI,SHULENI
SIMIYU,39,MASWA,393,IPILILO,39317,MWAMITUMAI,MWAKABEYA
SIMIYU,39,MASWA,393,IPILILO,39317,IKUNGULYANKOMA,SHAGIHILU
SIMIYU,39,MASWA,393,IPILILO,39317,IKUNGULYANKOMA,IKUNGULYANKOMA
SIMIYU,39,MASWA,393,IPILILO,39317,NG'WAKABEYA,MTONI
SIMIYU,39,MASWA,393,IPILILO,39317,NG'WAKABEYA,MABAMBASI
SIMIYU,39,MASWA,393,IPILILO,39317,NG'WAKABEYA,MWAMIGWA
SIMIYU,39,MASWA,393,IPILILO,39317,BUSHASHI,LIWA
SIMIYU,39,MASWA,393,IPILILO,39317,BUSHASHI,NG'WABEYA
SIMIYU,39,MASWA,393,IPILILO,39317,SONGAMBELE,SONGAMBELE
SIMIYU,39,MASWA,393,IPILILO,39317,SONGAMBELE,ILOMELO
SIMIYU,39,MASWA,393,IPILILO,39317,SONGAMBELE,MWABUYUNGE
SIMIYU,39,MASWA,393,BINZA,39318,SONGAMBELE,MWAKALEKA
SIMIYU,39,MASWA,393,BINZA,39318,SONGAMBELE,MWAMBAGAYA
SIMIYU,39,MASWA,393,BINZA,39318,SONGAMBELE,BUGARAMA
SIMIYU,39,MASWA,393,BINZA,39318,SONGAMBELE,MATALAMBULI
SIMIYU,39,MASWA,393,BINZA,39318,SONGAMBELE,MWANDETE
SIMIYU,39,MASWA,393,BINZA,39318,SONGAMBELE,CHULI
SIMIYU,39,MASWA,393,BINZA,39318,SONGAMBELE,JASHIMBA
SIMIYU,39,MASWA,393,BINZA,39318,SONGAMBELE,MWANGUHI
SIMIYU,39,MASWA,393,BINZA,39318,SONGAMBELE,UJENZI
SIMIYU,39,MASWA,393,BINZA,39318,SONGAMBELE,NYAMASAKA
SIMIYU,39,MASWA,393,NYALIKUNGU,39319,SONGAMBELE,NYALIKUNGU
SIMIYU,39,MASWA,393,NYALIKUNGU,39319,SONGAMBELE,MNADANI
SIMIYU,39,MASWA,393,NYALIKUNGU,39319,SONGAMBELE,MWANTONJA
SIMIYU,39,MASWA,393,NYALIKUNGU,39319,SONGAMBELE,MAHAKAMANI
SIMIYU,39,MASWA,393,NYALIKUNGU,39319,SONGAMBELE,NG'WAWANYI
SIMIYU,39,MASWA,393,NYALIKUNGU,39319,SONGAMBELE,ILULA
SIMIYU,39,MASWA,393,NYALIKUNGU,39319,SONGAMBELE,NG'HAMI
SIMIYU,39,MASWA,393,NYALIKUNGU,39319,SONGAMBELE,MATALE
SIMIYU,39,MASWA,393,NYALIKUNGU,39319,SONGAMBELE,MWANZUGI
SIMIYU,39,MASWA,393,MALAMPAKA,39320,MALAMPAKA,ZAMBIA
SIMIYU,39,MASWA,393,MALAMPAKA,39320,MALAMPAKA,NGOKOLO
SIMIYU,39,MASWA,393,MALAMPAKA,39320,MALAMPAKA,MWENGE
SIMIYU,39,MASWA,393,MALAMPAKA,39320,MALAMPAKA,OIL MILL
SIMIYU,39,MASWA,393,MALAMPAKA,39320,NGULUG'WASHI,GANGALIGA
SIMIYU,39,MASWA,393,MALAMPAKA,39320,NGULUG'WASHI,HINDUKI
SIMIYU,39,MASWA,393,MALAMPAKA,39320,NGULUG'WASHI,GULUNG'WASHI
SIMIYU,39,MASWA,393,MALAMPAKA,39320,BUKIGI,MASALADI
SIMIYU,39,MASWA,393,MALAMPAKA,39320,BUKIGI,NYANHUNDU
SIMIYU,39,MASWA,393,MALAMPAKA,39320,BUKIGI,BUKIGI
SIMIYU,39,MASWA,393,MALAMPAKA,39320,BUKIGI,BUNHIBA
SIMIYU,39,MASWA,393,MALAMPAKA,39320,BUKIGI,BUGOMBA
SIMIYU,39,MASWA,393,MALAMPAKA,39320,BUKIGI,MAMADA
SIMIYU,39,MASWA,393,MALAMPAKA,39320,BUKIGI,MWATIGI
SIMIYU,39,MASWA,393,BADI,39321,MUHIDA,GUMALI
SIMIYU,39,MASWA,393,BADI,39321,MUHIDA,MUHIDA
SIMIYU,39,MASWA,393,BADI,39321,MUHIDA,MAGANZO
SIMIYU,39,MASWA,393,BADI,39321,MUHIDA,SULU
SIMIYU,39,MASWA,393,BADI,39321,NYASHIMBA,NYASHIMBA
SIMIYU,39,MASWA,393,BADI,39321,NYASHIMBA,NG'OMA
SIMIYU,39,MASWA,393,BADI,39321,NYASHIMBA,NG'HOMI
SIMIYU,39,MASWA,393,BADI,39321,NYASHIMBA,ITALE
SIMIYU,39,MASWA,393,BADI,39321,NYASHIMBA,BULUGALILA
SIMIYU,39,MASWA,393,BADI,39321,JIHU,JIHU A
SIMIYU,39,MASWA,393,BADI,39321,JIHU,JIHU B
SIMIYU,39,MASWA,393,BADI,39321,JIHU,NG'WABUSIGA
SIMIYU,39,MASWA,393,BADI,39321,IKUNGU,KAKOLA
SIMIYU,39,MASWA,393,BADI,39321,IKUNGU,MWANULA
SIMIYU,39,MASWA,393,BADI,39321,IKUNGU,IKUNGU
SIMIYU,39,MASWA,393,BADI,39321,BUKANGILIJA,GABU
SIMIYU,39,MASWA,393,BADI,39321,BUKANGILIJA,IKUNGU
SIMIYU,39,MASWA,393,BADI,39321,NHELELA,NHELELA
SIMIYU,39,MASWA,393,BADI,39321,NHELELA,KASHISHI
SIMIYU,39,MASWA,393,BADI,39321,NHELELA,KAKOLA
SIMIYU,39,MASWA,393,NYABUBINZA,39322,MWABAGALU,MWABASI
SIMIYU,39,MASWA,393,NYABUBINZA,39322,MWABAGALU,MWABAGALU
SIMIYU,39,MASWA,393,NYABUBINZA,39322,MWABAGALU,MWAONDONA
SIMIYU,39,MASWA,393,NYABUBINZA,39322,MWABAGALU,ZAGWAMA
SIMIYU,39,MASWA,393,NYABUBINZA,39322,MWANHEGELE,MWANHEGELA
SIMIYU,39,MASWA,393,NYABUBINZA,39322,MWANHEGELE,MWANDU
SIMIYU,39,MASWA,393,NYABUBINZA,39322,MWANHEGELE,PEZA
SIMIYU,39,MASWA,393,NYABUBINZA,39322,KIDABU,MWASWEYA
SIMIYU,39,MASWA,393,NYABUBINZA,39322,KIDABU,MWASHIAMBITI
SIMIYU,39,MASWA,393,NYABUBINZA,39322,KIDABU,MWAMALANAWA
SIMIYU,39,MASWA,393,NYABUBINZA,39322,MWAKULILIMA,MWAKULILIMA
SIMIYU,39,MASWA,393,NYABUBINZA,39322,MWAKULILIMA,MWASALAGE
SIMIYU,39,MASWA,393,NYABUBINZA,39322,MWAKULILIMA,MWAKUKALE
SIMIYU,39,MASWA,393,NYABUBINZA,39322,IGWATA,IGWATA
SIMIYU,39,MASWA,393,NYABUBINZA,39322,IGWATA,IKONGWA
SIMIYU,39,MASWA,393,NYABUBINZA,39322,IGWATA,MWAMASANGU
SIMIYU,39,MASWA,393,MWAN'HONOLI,39323,MWANG'HONOLI,MWANG'HONOLI
SIMIYU,39,MASWA,393,MWAN'HONOLI,39323,MWANG'HONOLI,CHAMVA
SIMIYU,39,MASWA,393,MWAN'HONOLI,39323,MWANG'HONOLI,MWAMABITI
SIMIYU,39,MASWA,393,MWAN'HONOLI,39323,MWANG'HONOLI,NYALUSONZO
SIMIYU,39,MASWA,393,MWAN'HONOLI,39323,MWANG'HONOLI,MWABUHABI
SIMIYU,39,MASWA,393,MWAN'HONOLI,39323,ZAWA,KAKOLA
SIMIYU,39,MASWA,393,MWAN'HONOLI,39323,ZAWA,ZAWA
SIMIYU,39,MASWA,393,MWAN'HONOLI,39323,ZAWA,MWANDILE
SIMIYU,39,MASWA,393,MWAN'HONOLI,39323,ZAWA,KATENGA
SIMIYU,39,MASWA,393,MWAN'HONOLI,39323,ZAWA,BUHAMBA
SIMIYU,39,MASWA,393,MWAN'HONOLI,39323,MWABULIMBU,MWABULIMBU
SIMIYU,39,MASWA,393,MWAN'HONOLI,39323,MWABULIMBU,BUSHASHI
SIMIYU,39,MASWA,393,MWAN'HONOLI,39323,MWABULIMBU,NYANG'HUBA
SIMIYU,39,MASWA,393,MWAN'HONOLI,39323,MWABULIMBU,MWANYOLOBI
SIMIYU,39,MASWA,393,MWAN'HONOLI,39323,MWABULIMBU,ZANZIBA
SIMIYU,39,MASWA,393,MWAN'HONOLI,39323,NGANZU,MWANYOLOBI
SIMIYU,39,MASWA,393,MWAN'HONOLI,39323,NGANZU,NGANZU
SIMIYU,39,MASWA,393,MWAN'HONOLI,39323,NGANZU,MWACHALO
SIMIYU,39,MASWA,393,KULIMI,39324,KULIMI,TUGI
SIMIYU,39,MASWA,393,KULIMI,39324,KULIMI,GONG'HOMA
SIMIYU,39,MASWA,393,KULIMI,39324,KULIMI,MWANYAHENA
SIMIYU,39,MASWA,393,KULIMI,39324,KULIMI,SHIMBO
SIMIYU,39,MASWA,393,KULIMI,39324,KULIMI,MWAGISU
SIMIYU,39,MASWA,393,KULIMI,39324,MWAMIHANZA,SUSUNIKA
SIMIYU,39,MASWA,393,KULIMI,39324,MWAMIHANZA,MWAMIHANZA
SIMIYU,39,MASWA,393,KULIMI,39324,MWAMIHANZA,MWANG'HULULI
SIMIYU,39,MASWA,393,KULIMI,39324,MWAMIHANZA,LUGEYE
SIMIYU,39,MASWA,393,KADOTO,39325,KADOTO,MWALUKILIKO
SIMIYU,39,MASWA,393,KADOTO,39325,KADOTO,BUGUMWA
SIMIYU,39,MASWA,393,KADOTO,39325,KADOTO,BUGESELA
SIMIYU,39,MASWA,393,KADOTO,39325,KADOTO,IGWATA
SIMIYU,39,MASWA,393,KADOTO,39325,MALEKANO,MADUKANI
SIMIYU,39,MASWA,393,KADOTO,39325,MALEKANO,MWALUNDI
SIMIYU,39,MASWA,393,KADOTO,39325,MALEKANO,MWANG'ALANGA
SIMIYU,39,MASWA,393,KADOTO,39325,MALEKANO,DASHINA
SIMIYU,39,MASWA,393,KADOTO,39325,MWANG'ANDA,KADOTO
SIMIYU,39,MASWA,393,KADOTO,39325,MWANG'ANDA,BUKUNDI
SIMIYU,39,MASWA,393,KADOTO,39325,MWANG'ANDA,MWAMINI
SIMIYU,39,MASWA,393,KADOTO,39325,MWANG'ANDA,DANI
SIMIYU,39,MASWA,393,KADOTO,39325,DULUNG'WA,KASHISHI
SIMIYU,39,MASWA,393,KADOTO,39325,DULUNG'WA,MWAMILO
SIMIYU,39,MASWA,393,KADOTO,39325,DULUNG'WA,NYANGUKU
SIMIYU,39,MASWA,393,SHISHIYU,39326,SHISHIYU,SHISHIYU MJINI
SIMIYU,39,MASWA,393,SHISHIYU,39326,SHISHIYU,MWANKALI
SIMIYU,39,MASWA,393,SHISHIYU,39326,SHISHIYU,BUKINGWA MINZI
SIMIYU,39,MASWA,393,SHISHIYU,39326,SHISHIYU,MWAMITUMBA
SIMIYU,39,MASWA,393,SHISHIYU,39326,SHISHIYU,TIGWA
SIMIYU,39,MASWA,393,SHISHIYU,39326,SHISHIYU,MAJENGO
SIMIYU,39,MASWA,393,SHISHIYU,39326,KAKOLA,KAKOLA
SIMIYU,39,MASWA,393,SHISHIYU,39326,KAKOLA,KISESA
SIMIYU,39,MASWA,393,SHISHIYU,39326,KAKOLA,MWAKAYELA
SIMIYU,39,MASWA,393,SHISHIYU,39326,MWALIGA,MWALIGA
SIMIYU,39,MASWA,393,SHISHIYU,39326,MWALIGA,MWANZILIGINI
SIMIYU,39,MASWA,393,SHISHIYU,39326,MWALIGA,MWADUBI
SIMIYU,39,MASWA,393,SHISHIYU,39326,MWALIGA,KABALE
SIMIYU,39,MASWA,393,SHISHIYU,39326,MWATUMBE,MADUKANI
SIMIYU,39,MASWA,393,SHISHIYU,39326,MWATUMBE,BUDULA
SIMIYU,39,MASWA,393,SHISHIYU,39326,MWATUMBE,MWAMATALE
SIMIYU,39,MASWA,393,SHISHIYU,39326,MWATUMBE,ISAGENG'HE
SIMIYU,39,MASWA,393,SHISHIYU,39326,MWATUMBE,MWAMHULI
SIMIYU,39,MASWA,393,SHISHIYU,39326,MWATUMBE,KANDULU
SIMIYU,39,MASWA,393,BUSANGI,39327,KIDEMA,IBOJA
SIMIYU,39,MASWA,393,BUSANGI,39327,KIDEMA,IPONDEJO
SIMIYU,39,MASWA,393,BUSANGI,39327,KIDEMA,NG'WAWITAGALA
SIMIYU,39,MASWA,393,BUSANGI,39327,KIDEMA,LASI
SIMIYU,39,MASWA,393,BUSANGI,39327,NGONGWA,NGONGWA
SIMIYU,39,MASWA,393,BUSANGI,39327,NGONGWA,MWANZAZANI
SIMIYU,39,MASWA,393,BUSANGI,39327,NGONGWA,NG'WAWILANISHI
SIMIYU,39,MASWA,393,BUSANGI,39327,NGONGWA,LUGULU
SIMIYU,39,MASWA,393,BUSANGI,39327,ISULILO,IPILILO
SIMIYU,39,MASWA,393,BUSANGI,39327,ISULILO,MINANGA
SIMIYU,39,MASWA,393,BUSANGI,39327,ISULILO,KASELA
SIMIYU,39,MASWA,393,BUSANGI,39327,ISULILO,FEYA
SIMIYU,39,MASWA,393,BUSANGI,39327,ISULILO,SALI
SIMIYU,39,MASWA,393,BUSANGI,39327,BUSAMUDA,BUSAMUDA
SIMIYU,39,MASWA,393,BUSANGI,39327,BUSAMUDA,ZEZEMA
SIMIYU,39,MASWA,393,BUSANGI,39327,BUSAMUDA,NYANGUGE
SIMIYU,39,MASWA,393,JIJA,39328,IGUNYA,MADUKANI
SIMIYU,39,MASWA,393,JIJA,39328,IGUNYA,TUMABU
SIMIYU,39,MASWA,393,JIJA,39328,IGUNYA,KISESA
SIMIYU,39,MASWA,393,JIJA,39328,IGUNYA,NG'UNGA
SIMIYU,39,MASWA,393,JIJA,39328,IGUNYA,MWANDU
SIMIYU,39,MASWA,393,JIJA,39328,IGUNYA,ILALUCHA
SIMIYU,39,MASWA,393,JIJA,39328,JIJA,MADUKANI
SIMIYU,39,MASWA,393,JIJA,39328,JIJA,IBUSHI
SIMIYU,39,MASWA,393,JIJA,39328,JIJA,BILISHI
SIMIYU,39,MASWA,393,JIJA,39328,JIJA,MWASIGILI
SIMIYU,39,MASWA,393,JIJA,39328,JIJA,NYANG'HINGI
SIMIYU,39,MASWA,393,JIJA,39328,JIJA,BUTALWA
SIMIYU,39,MASWA,393,JIJA,39328,IROBI,MWANGINJE
SIMIYU,39,MASWA,393,JIJA,39328,IROBI,MWAMIGUNDUI
SIMIYU,39,MASWA,393,JIJA,39328,IROBI,IROBI
SIMIYU,39,MASWA,393,JIJA,39328,IROBI,ILALUCHA
SIMIYU,39,MASWA,393,MBARAGANE,39329,MBARAGANE,ILUBI
SIMIYU,39,MASWA,393,MBARAGANE,39329,MBARAGANE,MLIMANI
SIMIYU,39,MASWA,393,MBARAGANE,39329,MBARAGANE,NG'WAGHANI
SIMIYU,39,MASWA,393,MBARAGANE,39329,MBARAGANE,NYASUBI
SIMIYU,39,MASWA,393,MBARAGANE,39329,MANDANG'OMBE,MANDANG'OMBE
SIMIYU,39,MASWA,393,MBARAGANE,39329,MANDANG'OMBE,KABONDO
SIMIYU,39,MASWA,393,MBARAGANE,39329,MANDANG'OMBE,SEGENGE/BUGARAMA
SIMIYU,39,MASWA,393,MBARAGANE,39329,MANDANG'OMBE,BUKUNANGUKI
SIMIYU,39,MASWA,393,MBARAGANE,39329,SULU,SULU A
SIMIYU,39,MASWA,393,MBARAGANE,39329,SULU,SULU B (BUHANGIJA)
SIMIYU,39,MASWA,393,MBARAGANE,39329,SULU,SULU C (MWALUGESHA)
SIMIYU,39,MASWA,393,MBARAGANE,39329,SULU,NYAMBITI
SIMIYU,39,MASWA,393,MBARAGANE,39329,SULU,MISHENI
SIMIYU,39,MASWA,393,MBARAGANE,39329,MLIMANI,NYASUBI
SIMIYU,39,MASWA,393,MBARAGANE,39329,MLIMANI,SALALA
SIMIYU,39,MASWA,393,MBARAGANE,39329,MLIMANI,MATALE
SIMIYU,39,MASWA,393,MBARAGANE,39329,BUHANGIJA,BUHANGIJA
SIMIYU,39,MASWA,393,MBARAGANE,39329,BUHANGIJA,NYAMBITI
SIMIYU,39,MASWA,393,MBARAGANE,39329,BUHANGIJA,BUZINZILI
SIMIYU,39,MASWA,393,SANGAMWALUGESHA,39330,SANGAMWALUGESHA,MJINI MASHARIKI
SIMIYU,39,MASWA,393,SANGAMWALUGESHA,39330,SANGAMWALUGESHA,MJINI MAGHARIBI
SIMIYU,39,MASWA,393,SANGAMWALUGESHA,39330,SANGAMWALUGESHA,MJINI KASKAZINI
SIMIYU,39,MASWA,393,SANGAMWALUGESHA,39330,SANGAMWALUGESHA,MJINI KUSINI
SIMIYU,39,MASWA,393,SANGAMWALUGESHA,39330,MWANDETE,IKULILO
SIMIYU,39,MASWA,393,SANGAMWALUGESHA,39330,MWANDETE,BUGOGO
SIMIYU,39,MASWA,393,SANGAMWALUGESHA,39330,MWANDETE,ITINJE
SIMIYU,39,MASWA,393,SANGAMWALUGESHA,39330,MWANDETE,MWANINDO
SIMIYU,39,MASWA,393,SANGAMWALUGESHA,39330,MWANDETE,NGEME
SIMIYU,39,MASWA,393,SANGAMWALUGESHA,39330,MWANDETE,IGOBEKO
SIMIYU,39,MASWA,393,SANGAMWALUGESHA,39330,MWANDETE,MATALE
SIMIYU,39,MASWA,393,MWABARATULU,39331,MWAMASHINDIKE,LUBALO
SIMIYU,39,MASWA,393,MWABARATULU,39331,MWAMASHINDIKE,BUSANDA
SIMIYU,39,MASWA,393,MWABARATULU,39331,MWAMASHINDIKE,ISHIGAMOTO
SIMIYU,39,MASWA,393,MWABARATULU,39331,MWAMASHINDIKE,MAHILA
SIMIYU,39,MASWA,393,MWABARATULU,39331,MWAMASHINDIKE,MANALA
SIMIYU,39,MASWA,393,MWABARATULU,39331,MWABARATURU,CHAMANI
SIMIYU,39,MASWA,393,MWABARATULU,39331,MWABARATURU,MABAMBASI
SIMIYU,39,MASWA,393,MWABARATULU,39331,MWABARATURU,NYALUSANGA
SIMIYU,39,MASWA,393,MWABARATULU,39331,MWABARATURU,NYALUSANGA
SIMIYU,39,MASWA,393,MWABARATULU,39331,MWABARATURU,MWATAMBUKA
SIMIYU,39,MASWA,393,BUGARAMA,39332,BUHUNGUKILA,BUHUNGUKILA
SIMIYU,39,MASWA,393,BUGARAMA,39332,BUHUNGUKILA,MWANZA
SIMIYU,39,MASWA,393,BUGARAMA,39332,BUHUNGUKILA,WIMATE
SIMIYU,39,MASWA,393,BUGARAMA,39332,BUGARAMA,NGOMENI
SIMIYU,39,MASWA,393,BUGARAMA,39332,BUGARAMA,ISHIMA
SIMIYU,39,MASWA,393,BUGARAMA,39332,BUGARAMA,KISESA
SIMIYU,39,MASWA,393,BUGARAMA,39332,BUGARAMA,NKONGOLO
SIMIYU,39,MASWA,393,BUGARAMA,39332,NGUDU,NGUDU
SIMIYU,39,MASWA,393,BUGARAMA,39332,NGUDU,ITULE
SIMIYU,39,MASWA,393,BUGARAMA,39332,NGUDU,GANDELU
SIMIYU,39,MASWA,393,BUGARAMA,39332,ISHIMA,ISHIMA
SIMIYU,39,MASWA,393,BUGARAMA,39332,ISHIMA,ILULA
SIMIYU,39,MASWA,393,BUGARAMA,39332,ISHIMA,NKILIFA
SIMIYU,39,MASWA,393,MATABA,39333,LALI,JINELI
SIMIYU,39,MASWA,393,MATABA,39333,LALI,LALI
SIMIYU,39,MASWA,393,MATABA,39333,LALI,MASANGA
SIMIYU,39,MASWA,393,MATABA,39333,LALI,MWASELE
SIMIYU,39,MASWA,393,MATABA,39333,NYABUBINZA,BUSHINI
SIMIYU,39,MASWA,393,MATABA,39333,NYABUBINZA,NYASHIMBA
SIMIYU,39,MASWA,393,MATABA,39333,NYABUBINZA,DESHI
SIMIYU,39,MASWA,393,MATABA,39333,NYABUBINZA,MWASOMI
SIMIYU,39,MASWA,393,MATABA,39333,NYABUBINZA,IPANGA
SIMIYU,39,MASWA,393,MWABAYANDA,39334,NG'WANDU,SADAMU
SIMIYU,39,MASWA,393,MWABAYANDA,39334,NG'WANDU,MWANDU
SIMIYU,39,MASWA,393,MWABAYANDA,39334,ILAMATA,NKINDO
SIMIYU,39,MASWA,393,MWABAYANDA,39334,ILAMATA,BUBATWA
SIMIYU,39,MASWA,393,MWABAYANDA,39334,MWABAYANDA,MWANHUNGU
SIMIYU,39,MASWA,393,MWABAYANDA,39334,MWABAYANDA,MWABAYANDA
SIMIYU,39,MASWA,393,MWABAYANDA,39334,MWABAYANDA,NYAMISELYA
SIMIYU,39,MASWA,393,MWABAYANDA,39334,MWABAYANDA,NG'HUNDI
SIMIYU,39,MASWA,393,MWABAYANDA,39334,MWABAYANDA,NZUGI
SIMIYU,39,MASWA,393,SOLA,39335,MWABAYANDA,MWABOMBA
SIMIYU,39,MASWA,393,SOLA,39335,MWABAYANDA,MWASHIGELA
SIMIYU,39,MASWA,393,SOLA,39335,MWABAYANDA,NJIAPANDA
SIMIYU,39,MASWA,393,SOLA,39335,MWABAYANDA,UWANJA WA NDEGE
SIMIYU,39,MASWA,393,SOLA,39335,MWABAYANDA,SOKONI
SIMIYU,39,MASWA,393,SOLA,39335,MWABAYANDA,UNYANYEMBE
SIMIYU,39,MASWA,393,SOLA,39335,MWABAYANDA,MWABOMBA
SIMIYU,39,MASWA,393,SOLA,39335,MWABAYANDA,MWAMALOLE
SIMIYU,39,MASWA,393,SOLA,39335,MWABAYANDA,SOLA
SIMIYU,39,MASWA,393,SOLA,39335,MWABAYANDA,GINNERY
SIMIYU,39,MASWA,393,SHANWA,39336,MWABAYANDA,STENDI MPYA
SIMIYU,39,MASWA,393,SHANWA,39336,MWABAYANDA,KUMALIJA
SIMIYU,39,MASWA,393,SHANWA,39336,MWABAYANDA,BIAFRA 'A''
SIMIYU,39,MASWA,393,SHANWA,39336,MWABAYANDA,MAJENGO MAPYA ''A''
SIMIYU,39,MASWA,393,SHANWA,39336,MWABAYANDA,MAJENGO MAPYA  'B'
SIMIYU,39,MASWA,393,SHANWA,39336,MWABAYANDA,NGUZO NANE
SIMIYU,39,MASWA,393,SHANWA,39336,MWABAYANDA,OLD SHANWA
SIMIYU,39,MASWA,393,SHANWA,39336,MWABAYANDA,BIAFRA 'B''
SIMIYU,39,MASWA,393,SHANWA,39336,MWABAYANDA,NYAMBITI
SIMIYU,39,MEATU,394,LUBIGA,39401,LUBIGA,MWAGALA A
SIMIYU,39,MEATU,394,LUBIGA,39401,LUBIGA,MWAGALA B
SIMIYU,39,MEATU,394,LUBIGA,39401,LUBIGA,MWABUJIKUNGU
SIMIYU,39,MEATU,394,LUBIGA,39401,LUBIGA,SHOGASHOGA
SIMIYU,39,MEATU,394,LUBIGA,39401,LUBIGA,MONDO
SIMIYU,39,MEATU,394,LUBIGA,39401,LUBIGA,MKUYUNI
SIMIYU,39,MEATU,394,LUBIGA,39401,LUBIGA,NTUNZU
SIMIYU,39,MEATU,394,LUBIGA,39401,LUBIGA,JILINGULI
SIMIYU,39,MEATU,394,LUBIGA,39401,LUBIGA,KASELA
SIMIYU,39,MEATU,394,LUBIGA,39401,MWANDU ITINJE,MABATINI
SIMIYU,39,MEATU,394,LUBIGA,39401,MWANDU ITINJE,MWANG'HONELA
SIMIYU,39,MEATU,394,LUBIGA,39401,MWANDU ITINJE,ITAMWA
SIMIYU,39,MEATU,394,LUBIGA,39401,MWANDU ITINJE,ISALALA
SIMIYU,39,MEATU,394,LUBIGA,39401,MWANDU ITINJE,WAKU
SIMIYU,39,MEATU,394,LUBIGA,39401,MWANDU ITINJE,SONGASONGA
SIMIYU,39,MEATU,394,LUBIGA,39401,MWANDU ITINJE,SALAMADA
SIMIYU,39,MEATU,394,LUBIGA,39401,ISAGIJO,BUSULWA
SIMIYU,39,MEATU,394,LUBIGA,39401,ISAGIJO,BUHANGIJA
SIMIYU,39,MEATU,394,LUBIGA,39401,ISAGIJO,NGAMBA
SIMIYU,39,MEATU,394,LUBIGA,39401,ISAGIJO,MWAMHUGE
SIMIYU,39,MEATU,394,MWANDOYA,39402,MWANDOYA,ITUGUTU
SIMIYU,39,MEATU,394,MWANDOYA,39402,MWANDOYA,MADUKANI
SIMIYU,39,MEATU,394,MWANDOYA,39402,MWANDOYA,MABONDENI
SIMIYU,39,MEATU,394,MWANDOYA,39402,MWANDOYA,KANISANI
SIMIYU,39,MEATU,394,MWANDOYA,39402,MWANDOYA,MANASUBI
SIMIYU,39,MEATU,394,MWANDOYA,39402,MWANDOYA,KISIMANI
SIMIYU,39,MEATU,394,MWANDOYA,39402,MWANDOYA,KALANGALE
SIMIYU,39,MEATU,394,MWANDOYA,39402,MWANDOYA,MUUNGANO
SIMIYU,39,MEATU,394,MWANDOYA,39402,MWANDOYA,SOKONI
SIMIYU,39,MEATU,394,MWANDOYA,39402,MWAKALUBA,MADUKANI
SIMIYU,39,MEATU,394,MWANDOYA,39402,MWAKALUBA,NHUMBI
SIMIYU,39,MEATU,394,MWANDOYA,39402,MWAKALUBA,IGOBE
SIMIYU,39,MEATU,394,MWANDOYA,39402,MWAKALUBA,NGENG'WAMBULA
SIMIYU,39,MEATU,394,MWANDOYA,39402,MWAKALUBA,MWAKALUBA
SIMIYU,39,MEATU,394,MWANDOYA,39402,MWAKALUBA,IWELIMO
SIMIYU,39,MEATU,394,MWANDOYA,39402,MWAKALUBA,MWAGUMADA
SIMIYU,39,MEATU,394,MWANDOYA,39402,MWAKALUBA,IGOBEKO
SIMIYU,39,MEATU,394,MWANDOYA,39402,MWAKALUBA,NANGALE
SIMIYU,39,MEATU,394,MWANDOYA,39402,MWAKALUBA,IMALAMASONGA
SIMIYU,39,MEATU,394,MWANDOYA,39402,IGOBE,MBUGANI
SIMIYU,39,MEATU,394,MWANDOYA,39402,IGOBE,MADUKANI
SIMIYU,39,MEATU,394,MWANDOYA,39402,IGOBE,SHULENI
SIMIYU,39,MEATU,394,MWANDOYA,39402,IGOBE,BOMBANI
SIMIYU,39,MEATU,394,MWANDOYA,39402,IGOBE,MWAGINGILI
SIMIYU,39,MEATU,394,MWANDOYA,39402,IGOBE,MLIMANI
SIMIYU,39,MEATU,394,MWANDOYA,39402,IGOBE,MWACHOMELA
SIMIYU,39,MEATU,394,MWANDOYA,39402,MAKOMANGWA,KASELA
SIMIYU,39,MEATU,394,MWANDOYA,39402,MAKOMANGWA,KALANGALE
SIMIYU,39,MEATU,394,MWANDOYA,39402,MAKOMANGWA,SHULENI
SIMIYU,39,MEATU,394,MWANDOYA,39402,MAKOMANGWA,ITUGUTU
SIMIYU,39,MEATU,394,MWANDOYA,39402,INONELWA,BALULI
SIMIYU,39,MEATU,394,MWANDOYA,39402,INONELWA,INONELWA
SIMIYU,39,MEATU,394,MWANDOYA,39402,INONELWA,IGEGESI
SIMIYU,39,MEATU,394,MWANDOYA,39402,INONELWA,NSWISWI
SIMIYU,39,MEATU,394,MWANDOYA,39402,MWAGUMADA,MBUGANI
SIMIYU,39,MEATU,394,MWANDOYA,39402,MWAGUMADA,MWAGUMADA
SIMIYU,39,MEATU,394,MWANDOYA,39402,MWAGUMADA,MADUKANI
SIMIYU,39,MEATU,394,MWANDOYA,39402,MWAGUMADA,UMOJA
SIMIYU,39,MEATU,394,MWAKISANDU,39403,MWAKISANDU,IDOSELO
SIMIYU,39,MEATU,394,MWAKISANDU,39403,MWAKISANDU,BUSULWA
SIMIYU,39,MEATU,394,MWAKISANDU,39403,MWAKISANDU,MWANANI
SIMIYU,39,MEATU,394,MWAKISANDU,39403,MWAKISANDU,MWANDUYA
SIMIYU,39,MEATU,394,MWAKISANDU,39403,MWAKISANDU,WANIKIJA
SIMIYU,39,MEATU,394,MWAKISANDU,39403,MWAKISANDU,BUKINGWAMINZI
SIMIYU,39,MEATU,394,MWAKISANDU,39403,MWAKISANDU,MWABASABI
SIMIYU,39,MEATU,394,MWAKISANDU,39403,MWAKISANDU,IWELIMO
SIMIYU,39,MEATU,394,MWAKISANDU,39403,MWAKISANDU,MASANGA
SIMIYU,39,MEATU,394,MWAKISANDU,39403,MWANINDWA,NG'HUNDI
SIMIYU,39,MEATU,394,MWAKISANDU,39403,MWANINDWA,BUSULWA
SIMIYU,39,MEATU,394,MWAKISANDU,39403,MWANINDWA,NG'HUNDI SENTA
SIMIYU,39,MEATU,394,MWAKISANDU,39403,MWANINDWA,BUKINGWAMBASA
SIMIYU,39,MEATU,394,MWAKISANDU,39403,NYANZA,WITINA
SIMIYU,39,MEATU,394,MWAKISANDU,39403,NYANZA,KISESA
SIMIYU,39,MEATU,394,MWAKISANDU,39403,NYANZA,IWELIMO
SIMIYU,39,MEATU,394,MWAKISANDU,39403,NYANZA,MASANGA
SIMIYU,39,MEATU,394,MWAKISANDU,39403,NYANZA,BUGOLO
SIMIYU,39,MEATU,394,MWAKISANDU,39403,NYANZA,CHONGE
SIMIYU,39,MEATU,394,MWABUSALU,39404,MWABUSALU,MWABUSALU
SIMIYU,39,MEATU,394,MWABUSALU,39404,MWABUSALU,MHUMUNU
SIMIYU,39,MEATU,394,MWABUSALU,39404,MWABUSALU,MASANGA
SIMIYU,39,MEATU,394,MWABUSALU,39404,MWABUSALU,MWAGOLOLOKA
SIMIYU,39,MEATU,394,MWABUSALU,39404,MWABUSALU,NENGE
SIMIYU,39,MEATU,394,MWABUSALU,39404,MWABUSALU,MAYAGA
SIMIYU,39,MEATU,394,MWABUSALU,39404,MWABUSALU,MWASAHANI
SIMIYU,39,MEATU,394,MWABUSALU,39404,MWABUSALU,MWAMAHEGA
SIMIYU,39,MEATU,394,MWABUSALU,39404,MWABUSALU,ISANGIJO
SIMIYU,39,MEATU,394,MWABUSALU,39404,MWABUSALU,ILUGALA
SIMIYU,39,MEATU,394,MWABUSALU,39404,MWABUSALU,UTURUKI
SIMIYU,39,MEATU,394,MWABUSALU,39404,MWABUSALU,TUMAINI
SIMIYU,39,MEATU,394,MWABUSALU,39404,MWABUSALU,MAJENGO
SIMIYU,39,MEATU,394,MWABUSALU,39404,NZANZA,NZANZA
SIMIYU,39,MEATU,394,MWABUSALU,39404,NZANZA,NKILO
SIMIYU,39,MEATU,394,MWABUSALU,39404,NZANZA,MWAGUMADA
SIMIYU,39,MEATU,394,MWABUSALU,39404,NZANZA,ITUGUTU
SIMIYU,39,MEATU,394,MWABUSALU,39404,NZANZA,MWAMAHEGA
SIMIYU,39,MEATU,394,MWABUSALU,39404,NZANZA,NTUZU
SIMIYU,39,MEATU,394,MWABUSALU,39404,NZANZA,MBUGANI
SIMIYU,39,MEATU,394,MWABUSALU,39404,NZANZA,SENGEREMA
SIMIYU,39,MEATU,394,MWABUSALU,39404,NZANZA,MADUKANI
SIMIYU,39,MEATU,394,MWABUSALU,39404,IKIGIJO,IKIGIJO
SIMIYU,39,MEATU,394,MWABUSALU,39404,IKIGIJO,SHIMBAGU
SIMIYU,39,MEATU,394,MWABUSALU,39404,IKIGIJO,IKAMU
SIMIYU,39,MEATU,394,MWABUSALU,39404,IKIGIJO,SANGA
SIMIYU,39,MEATU,394,MWABUSALU,39404,IKIGIJO,SESEGO
SIMIYU,39,MEATU,394,MWABUSALU,39404,IKIGIJO,MWAMBOGO
SIMIYU,39,MEATU,394,MWABUSALU,39404,MWAKIPUGILA,MWAKIPUGILA
SIMIYU,39,MEATU,394,MWABUSALU,39404,MWAKIPUGILA,MWABASABI
SIMIYU,39,MEATU,394,MWABUSALU,39404,MWAKIPUGILA,MAKOMELO
SIMIYU,39,MEATU,394,MWABUSALU,39404,MWAKIPUGILA,NJIA PANDA
SIMIYU,39,MEATU,394,MWABUSALU,39404,MWAKIPUGILA,FEYA
SIMIYU,39,MEATU,394,MWABUSALU,39404,MWAKIPUGILA,MWABASABI
SIMIYU,39,MEATU,394,MWABUSALU,39404,MWAKIPUGILA,MWANG'HALAJA
SIMIYU,39,MEATU,394,MWABUSALU,39404,IKIGIJO,MLIMANI
SIMIYU,39,MEATU,394,MWABUSALU,39404,IKIGIJO,KASELA
SIMIYU,39,MEATU,394,MWABUSALU,39404,IKIGIJO,IYOGELO
SIMIYU,39,MEATU,394,SAKASAKA,39405,SAKASAKA,MADUKANI
SIMIYU,39,MEATU,394,SAKASAKA,39405,SAKASAKA,UJAMA
SIMIYU,39,MEATU,394,SAKASAKA,39405,SAKASAKA,USHIRIKA
SIMIYU,39,MEATU,394,SAKASAKA,39405,SAKASAKA,KUJITEGEMEA
SIMIYU,39,MEATU,394,SAKASAKA,39405,SAKASAKA,MAYUNGE
SIMIYU,39,MEATU,394,SAKASAKA,39405,SAKASAKA,BONDENI
SIMIYU,39,MEATU,394,SAKASAKA,39405,SAKASAKA,SABATO
SIMIYU,39,MEATU,394,SAKASAKA,39405,BULYANDULU,MBUYUNI
SIMIYU,39,MEATU,394,SAKASAKA,39405,BULYANDULU,MLIMANI
SIMIYU,39,MEATU,394,SAKASAKA,39405,BULYANDULU,MANOLELO
SIMIYU,39,MEATU,394,SAKASAKA,39405,BULYANDULU,BULYANDULU
SIMIYU,39,MEATU,394,SAKASAKA,39405,BULYANDULU,MWATAMBUKA
SIMIYU,39,MEATU,394,SAKASAKA,39405,BULYANDULU,MWABABILI
SIMIYU,39,MEATU,394,SAKASAKA,39405,BULYANDULU,USALAMA
SIMIYU,39,MEATU,394,SAKASAKA,39405,BULYANDULU,UKOMBOZI
SIMIYU,39,MEATU,394,SAKASAKA,39405,BUTULI,MATALE
SIMIYU,39,MEATU,394,SAKASAKA,39405,BUTULI,MWABALATULU
SIMIYU,39,MEATU,394,SAKASAKA,39405,BUTULI,MWAMANOTA
SIMIYU,39,MEATU,394,SAKASAKA,39405,BUTULI,NG'OLADI
SIMIYU,39,MEATU,394,SAKASAKA,39405,BUTULI,MACHIMU
SIMIYU,39,MEATU,394,SAKASAKA,39405,MING'ONGWA,IPILILO
SIMIYU,39,MEATU,394,SAKASAKA,39405,MING'ONGWA,MING'ONGWA
SIMIYU,39,MEATU,394,SAKASAKA,39405,MING'ONGWA,BUSULWA
SIMIYU,39,MEATU,394,SAKASAKA,39405,MING'ONGWA,GANAWA
SIMIYU,39,MEATU,394,SAKASAKA,39405,MING'ONGWA,DAGWISHA
SIMIYU,39,MEATU,394,TINDABULIGI,39406,LONGALONHIGA,MABATINI
SIMIYU,39,MEATU,394,TINDABULIGI,39406,LONGALONHIGA,NKUYU
SIMIYU,39,MEATU,394,TINDABULIGI,39406,LONGALONHIGA,IGOMA
SIMIYU,39,MEATU,394,TINDABULIGI,39406,LONGALONHIGA,BUKINGWAMINZI
SIMIYU,39,MEATU,394,TINDABULIGI,39406,LONGALONHIGA,MAGU
SIMIYU,39,MEATU,394,TINDABULIGI,39406,LONGALONHIGA,KISESA
SIMIYU,39,MEATU,394,TINDABULIGI,39406,LONGALONHIGA,NHIGA
SIMIYU,39,MEATU,394,TINDABULIGI,39406,MATALE,IKIGIJO
SIMIYU,39,MEATU,394,TINDABULIGI,39406,MATALE,MAJIMAPYA
SIMIYU,39,MEATU,394,TINDABULIGI,39406,MATALE,LUNG'UDA
SIMIYU,39,MEATU,394,TINDABULIGI,39406,MATALE,MATALE
SIMIYU,39,MEATU,394,TINDABULIGI,39406,MATALE,MBUGANI
SIMIYU,39,MEATU,394,TINDABULIGI,39406,MATALE,MACHIMU
SIMIYU,39,MEATU,394,TINDABULIGI,39406,MALWILO MNADANI,WEMA
SIMIYU,39,MEATU,394,TINDABULIGI,39406,MALWILO MNADANI,MALWILOMADUKANI
SIMIYU,39,MEATU,394,TINDABULIGI,39406,MALWILO MNADANI,NG'WABAGALU
SIMIYU,39,MEATU,394,TINDABULIGI,39406,MALWILO MNADANI,MAKUNGU
SIMIYU,39,MEATU,394,TINDABULIGI,39406,MALWILO MNADANI,NG'WABUNONU
SIMIYU,39,MEATU,394,TINDABULIGI,39406,TINDABULIGI,BARIADI
SIMIYU,39,MEATU,394,TINDABULIGI,39406,TINDABULIGI,SHINYANGA
SIMIYU,39,MEATU,394,TINDABULIGI,39406,TINDABULIGI,MWABASIMBE
SIMIYU,39,MEATU,394,TINDABULIGI,39406,TINDABULIGI,MAYUNGE
SIMIYU,39,MEATU,394,TINDABULIGI,39406,TINDABULIGI,MASWA
SIMIYU,39,MEATU,394,TINDABULIGI,39406,TINDABULIGI,WAME
SIMIYU,39,MEATU,394,TINDABULIGI,39406,TINDABULIGI,NYANG'HANGA
SIMIYU,39,MEATU,394,LINGEKA,39407,LINGEKA,IJOSHO
SIMIYU,39,MEATU,394,LINGEKA,39407,LINGEKA,MWANZEZELE
SIMIYU,39,MEATU,394,LINGEKA,39407,LINGEKA,KISESA
SIMIYU,39,MEATU,394,LINGEKA,39407,LINGEKA,BUHANGIJA
SIMIYU,39,MEATU,394,LINGEKA,39407,LINGEKA,MWABAYANDA
SIMIYU,39,MEATU,394,LINGEKA,39407,LINGEKA,BUGANDA
SIMIYU,39,MEATU,394,LINGEKA,39407,LINGEKA,MBUGANI
SIMIYU,39,MEATU,394,LINGEKA,39407,LINGEKA,BALULI
SIMIYU,39,MEATU,394,LINGEKA,39407,LINGEKA,BUPANDA MAWE
SIMIYU,39,MEATU,394,LINGEKA,39407,LINGEKA,UPENDO
SIMIYU,39,MEATU,394,LINGEKA,39407,LINGEKA,MAJENGO
SIMIYU,39,MEATU,394,LINGEKA,39407,LINGEKA,MALULA
SIMIYU,39,MEATU,394,LINGEKA,39407,MASANGA,MWABASABI
SIMIYU,39,MEATU,394,LINGEKA,39407,MASANGA,BULYANJEMU
SIMIYU,39,MEATU,394,LINGEKA,39407,MASANGA,MBUGANI
SIMIYU,39,MEATU,394,LINGEKA,39407,MASANGA,MADUKANI
SIMIYU,39,MEATU,394,LINGEKA,39407,MASANGA,MWABAYANDA
SIMIYU,39,MEATU,394,LINGEKA,39407,MASANGA,MALELI
SIMIYU,39,MEATU,394,LINGEKA,39407,MASANGA,ISABILO
SIMIYU,39,MEATU,394,LINGEKA,39407,MASANGA,MWABASIMBE
SIMIYU,39,MEATU,394,LINGEKA,39407,MASANGA,MWAIDI
SIMIYU,39,MEATU,394,LINGEKA,39407,MASANGA,SONGAMBELE
SIMIYU,39,MEATU,394,LINGEKA,39407,MASANGA,MWABALUHI
SIMIYU,39,MEATU,394,LINGEKA,39407,MASANGA,MWAMAKOYE
SIMIYU,39,MEATU,394,LINGEKA,39407,MASANGA,MWABADIMI
SIMIYU,39,MEATU,394,MWASENGELA,39408,MWABULUTAGO,MWABALATURU
SIMIYU,39,MEATU,394,MWASENGELA,39408,MWABULUTAGO,NSINGISA
SIMIYU,39,MEATU,394,MWASENGELA,39408,MWABULUTAGO,MONGO BAKIMA
SIMIYU,39,MEATU,394,MWASENGELA,39408,MWABULUTAGO,ITIIMA
SIMIYU,39,MEATU,394,MWASENGELA,39408,MWABULUTAGO,MWABASABI
SIMIYU,39,MEATU,394,MWASENGELA,39408,MWABULUTAGO,BUDUHE
SIMIYU,39,MEATU,394,MWASENGELA,39408,MWABULUTAGO,MAGANZO
SIMIYU,39,MEATU,394,MWASENGELA,39408,MWABULUTAGO,MATALE
SIMIYU,39,MEATU,394,MWASENGELA,39408,MWABULUTAGO,USHIRIKA
SIMIYU,39,MEATU,394,MWASENGELA,39408,MWABULUTAGO,MEATU
SIMIYU,39,MEATU,394,MWASENGELA,39408,NG'HANGA,MWANTANIKO
SIMIYU,39,MEATU,394,MWASENGELA,39408,NG'HANGA,MPAKANI
SIMIYU,39,MEATU,394,MWASENGELA,39408,NG'HANGA,BWAWANI
SIMIYU,39,MEATU,394,MWASENGELA,39408,NG'HANGA,SIMIYU
SIMIYU,39,MEATU,394,MWASENGELA,39408,NG'HANGA,GHALA
SIMIYU,39,MEATU,394,MWASENGELA,39408,MWASENGELA,IZIMIJA
SIMIYU,39,MEATU,394,MWASENGELA,39408,MWASENGELA,BUBANDA MAWE
SIMIYU,39,MEATU,394,MWASENGELA,39408,MWASENGELA,MPAKANI
SIMIYU,39,MEATU,394,MWASENGELA,39408,MWASENGELA,MWABALOGI
SIMIYU,39,MEATU,394,MWASENGELA,39408,MWASENGELA,MTO-GHALA
SIMIYU,39,MEATU,394,MWASENGELA,39408,MWASENGELA,NKINDWABIYE
SIMIYU,39,MEATU,394,MWASENGELA,39408,MWAMHONGO,GHALA SANJO
SIMIYU,39,MEATU,394,MWASENGELA,39408,MWAMHONGO,GHALA MPAKANI
SIMIYU,39,MEATU,394,MWASENGELA,39408,MWAMHONGO,MWAGUNDAOWALWA
SIMIYU,39,MEATU,394,MWASENGELA,39408,MWAMHONGO,MALULA
SIMIYU,39,MEATU,394,MWASENGELA,39408,MWAMHONGO,MWALULUSHI
SIMIYU,39,MEATU,394,MWABUMA,39409,MWABUMA,MASANGA
SIMIYU,39,MEATU,394,MWABUMA,39409,MWABUMA,IBUMBA
SIMIYU,39,MEATU,394,MWABUMA,39409,MWABUMA,BEGA
SIMIYU,39,MEATU,394,MWABUMA,39409,MWABUMA,MALWILO
SIMIYU,39,MEATU,394,MWABUMA,39409,MWABUMA,ICHIMU
SIMIYU,39,MEATU,394,MWABUMA,39409,MWABUMA,NG'WANG'WINA
SIMIYU,39,MEATU,394,MWABUMA,39409,MWABUMA,BULYASULU
SIMIYU,39,MEATU,394,MWABUMA,39409,MWABUMA,NG'WANYOLE
SIMIYU,39,MEATU,394,MWABUMA,39409,MWABUMA,BUKINGWA
SIMIYU,39,MEATU,394,MWABUMA,39409,MWABUMA,NG'WAMILYANGO
SIMIYU,39,MEATU,394,MWABUMA,39409,MWAKASUMBI,MBUGANI
SIMIYU,39,MEATU,394,MWABUMA,39409,MWAKASUMBI,MADUKANI
SIMIYU,39,MEATU,394,MWABUMA,39409,MWAKASUMBI,MWAUKOLI
SIMIYU,39,MEATU,394,MWABUMA,39409,MWASHATA,MATALE
SIMIYU,39,MEATU,394,MWABUMA,39409,MWASHATA,UNION
SIMIYU,39,MEATU,394,MWABUMA,39409,MWASHATA,KATANI
SIMIYU,39,MEATU,394,MWABUMA,39409,MWASHATA,PANGA
SIMIYU,39,MEATU,394,MWABUMA,39409,BALULI,MALULA
SIMIYU,39,MEATU,394,MWABUMA,39409,BALULI,KISIMANI
SIMIYU,39,MEATU,394,MWABUMA,39409,BALULI,MLIMANI
SIMIYU,39,MEATU,394,KISESA,39410,KISESA,MWABUGULULA
SIMIYU,39,MEATU,394,KISESA,39410,KISESA,SONGAMBELE
SIMIYU,39,MEATU,394,KISESA,39410,KISESA,SERENGETI
SIMIYU,39,MEATU,394,KISESA,39410,KISESA,MWABASIMBE
SIMIYU,39,MEATU,394,KISESA,39410,KISESA,IYOGELO
SIMIYU,39,MEATU,394,KISESA,39410,KISESA,MWANGIMU
SIMIYU,39,MEATU,394,KISESA,39410,KISESA,MADUKANI
SIMIYU,39,MEATU,394,KISESA,39410,NGUGUNU,MWABAGALU
SIMIYU,39,MEATU,394,KISESA,39410,NGUGUNU,KISIMANI
SIMIYU,39,MEATU,394,KISESA,39410,NGUGUNU,MWASITOLYO
SIMIYU,39,MEATU,394,KISESA,39410,MWANDU KISESA,MWABABILI
SIMIYU,39,MEATU,394,KISESA,39410,MWANDU KISESA,IDOSELO
SIMIYU,39,MEATU,394,KISESA,39410,MWANDU KISESA,MAKUNGU
SIMIYU,39,MEATU,394,KISESA,39410,MWANDU KISESA,SENGELEMA
SIMIYU,39,MEATU,394,KISESA,39410,MWANDU KISESA,MWANZEZELE
SIMIYU,39,MEATU,394,KISESA,39410,MWANDU KISESA,MALULA
SIMIYU,39,MEATU,394,KISESA,39410,MWAUKOLI,MWAMANONGU
SIMIYU,39,MEATU,394,KISESA,39410,MWAUKOLI,MWAMIGAGANI
SIMIYU,39,MEATU,394,KISESA,39410,MWAUKOLI,MWAGALA
SIMIYU,39,MEATU,394,KISESA,39410,MWAUKOLI,NANGALE
SIMIYU,39,MEATU,394,KISESA,39410,MWAUKOLI,MALWILO
SIMIYU,39,MEATU,394,KISESA,39410,MWAUKOLI,CHUNGU
SIMIYU,39,MEATU,394,KISESA,39410,MWAUKOLI,BULYANJEMU
SIMIYU,39,MEATU,394,KISESA,39410,MWAUKOLI,MWABUGULULA
SIMIYU,39,MEATU,394,KISESA,39410,MWAUKOLI,MWABAGONDE
SIMIYU,39,MEATU,394,KISESA,39410,MWAUKOLI,NG'OLADI
SIMIYU,39,MEATU,394,KISESA,39410,NTOBO,MWABASIMBE
SIMIYU,39,MEATU,394,KISESA,39410,NTOBO,NJIA PANDA
SIMIYU,39,MEATU,394,KISESA,39410,NTOBO,NGEME
SIMIYU,39,MEATU,394,KISESA,39410,NTOBO,GIMBAGU
SIMIYU,39,MEATU,394,KISESA,39410,NTOBO,HASHI
SIMIYU,39,MEATU,394,KISESA,39410,NTOBO,SHULENI
SIMIYU,39,MEATU,394,KISESA,39410,NTOBO,MADUKANI
SIMIYU,39,MEATU,394,KISESA,39410,NTOBO,NG'WAZULA
SIMIYU,39,MEATU,394,KISESA,39410,NTOBO,BOMBANI
SIMIYU,39,MEATU,394,KISESA,39410,NTOBO,MDALA
SIMIYU,39,MEATU,394,ITINJE,39411,ITINJE,ISHIGA
SIMIYU,39,MEATU,394,ITINJE,39411,ITINJE,MWASHIMBA
SIMIYU,39,MEATU,394,ITINJE,39411,ITINJE,MKINDABIYE
SIMIYU,39,MEATU,394,ITINJE,39411,ITINJE,SHOGASHOGA
SIMIYU,39,MEATU,394,ITINJE,39411,ITINJE,MWABAYANDA
SIMIYU,39,MEATU,394,ITINJE,39411,ITINJE,MWANGIKULU
SIMIYU,39,MEATU,394,ITINJE,39411,ITINJE,MAJENGO
SIMIYU,39,MEATU,394,ITINJE,39411,ITINJE,MWAHOLO
SIMIYU,39,MEATU,394,ITINJE,39411,MWAGAYI,MWAGAYI MADUKANI
SIMIYU,39,MEATU,394,ITINJE,39411,MWAGAYI,MALWILO
SIMIYU,39,MEATU,394,ITINJE,39411,MWAGAYI,MWAFALE
SIMIYU,39,MEATU,394,ITINJE,39411,MWAGAYI,SONGAMBELE
SIMIYU,39,MEATU,394,ITINJE,39411,MWAGAYI,NJIA PANDA
SIMIYU,39,MEATU,394,ITINJE,39411,MWAGAYI,BUKINGWAMINZI
SIMIYU,39,MEATU,394,ITINJE,39411,MWAGAYI,MWAWIFA
SIMIYU,39,MEATU,394,ITINJE,39411,MWAGAYI,MWAGIMAGI
SIMIYU,39,MEATU,394,ITINJE,39411,MWAGAYI,MWANDUONENE
SIMIYU,39,MEATU,394,ITINJE,39411,MWAGAYI,MWAMATILA
SIMIYU,39,MEATU,394,ITINJE,39411,MWASUNGURA,MWAMHANDE
SIMIYU,39,MEATU,394,ITINJE,39411,MWASUNGURA,MWASHATA
SIMIYU,39,MEATU,394,ITINJE,39411,MWASUNGURA,MWASUNGURA
SIMIYU,39,MEATU,394,ITINJE,39411,MWASUNGURA,MWASHIMUDA
SIMIYU,39,MEATU,394,ITINJE,39411,MWASUNGURA,MAJENGO
SIMIYU,39,MEATU,394,MWANHUZI,39412,BOMANI,MWASHILINGI
SIMIYU,39,MEATU,394,MWANHUZI,39412,BOMANI,MWAMAYUNGA
SIMIYU,39,MEATU,394,MWANHUZI,39412,BOMANI,MWAKIPUGILA
SIMIYU,39,MEATU,394,MWANHUZI,39412,BOMANI,BENKI
SIMIYU,39,MEATU,394,MWANHUZI,39412,BOMANI,POSTA
SIMIYU,39,MEATU,394,MWANHUZI,39412,BOMANI,MLIMANI
SIMIYU,39,MEATU,394,MWANHUZI,39412,BOMANI,SABATO
SIMIYU,39,MEATU,394,MWANHUZI,39412,BOMANI,MAJENGO
SIMIYU,39,MEATU,394,MWANHUZI,39412,BOMANI,MWANGONGO
SIMIYU,39,MEATU,394,MWANHUZI,39412,BOMANI,MTONI
SIMIYU,39,MEATU,394,MWANHUZI,39412,MSHIKAMANO,BUMBUGU
SIMIYU,39,MEATU,394,MWANHUZI,39412,MSHIKAMANO,MAKUTANO
SIMIYU,39,MEATU,394,MWANHUZI,39412,MSHIKAMANO,MACHINJIONI
SIMIYU,39,MEATU,394,MWANHUZI,39412,MSHIKAMANO,MWASELE
SIMIYU,39,MEATU,394,MWANHUZI,39412,MSHIKAMANO,JITOBE
SIMIYU,39,MEATU,394,MWANHUZI,39412,MSHIKAMANO,MALUGALA
SIMIYU,39,MEATU,394,MWANHUZI,39412,MSHIKAMANO,GINERY
SIMIYU,39,MEATU,394,MWANHUZI,39412,MSHIKAMANO,MISSION
SIMIYU,39,MEATU,394,MWANHUZI,39412,MSHIKAMANO,MWANG'HALAJA
SIMIYU,39,MEATU,394,MWANHUZI,39412,MSHIKAMANO,TOTAL
SIMIYU,39,MEATU,394,MWANHUZI,39412,MWAMBEGWA,BULYASHIMBA
SIMIYU,39,MEATU,394,MWANHUZI,39412,MWAMBEGWA,USHIRIKA
SIMIYU,39,MEATU,394,MWANHUZI,39412,MWAMBEGWA,MABAMBASI
SIMIYU,39,MEATU,394,MWANHUZI,39412,MWAMBEGWA,ILAMAMAKOYE
SIMIYU,39,MEATU,394,MWANHUZI,39412,MWAMBEGWA,BUDAKAMA
SIMIYU,39,MEATU,394,MWANHUZI,39412,BULYANAGA,BUHANGIJA
SIMIYU,39,MEATU,394,MWANHUZI,39412,BULYANAGA,BULYANAGA
SIMIYU,39,MEATU,394,MWANHUZI,39412,BULYANAGA,KISESA
SIMIYU,39,MEATU,394,MWANHUZI,39412,BULYANAGA,MWAMALATI
SIMIYU,39,MEATU,394,MWANHUZI,39412,BULYANAGA,MALUGALA
SIMIYU,39,MEATU,394,MWANYAHINA,39413,MWANYAHINA,MASAGALA
SIMIYU,39,MEATU,394,MWANYAHINA,39413,MWANYAHINA,MWABAGALU
SIMIYU,39,MEATU,394,MWANYAHINA,39413,MWANYAHINA,SANJO
SIMIYU,39,MEATU,394,MWANYAHINA,39413,MWANYAHINA,WIMATE
SIMIYU,39,MEATU,394,MWANYAHINA,39413,MWANYAHINA,MAGWINA
SIMIYU,39,MEATU,394,MWANYAHINA,39413,MWANYAHINA,MWAMUNGELA
SIMIYU,39,MEATU,394,MWANYAHINA,39413,MWANYAHINA,MATALE
SIMIYU,39,MEATU,394,MWANYAHINA,39413,MWANYAHINA,KIZEZE
SIMIYU,39,MEATU,394,MWANYAHINA,39413,MWANYAHINA,MWANGHALAJA
SIMIYU,39,MEATU,394,MWANYAHINA,39413,MWANYAHINA,SAYU
SIMIYU,39,MEATU,394,MWANYAHINA,39413,MWAGWILA,MWAGWILA
SIMIYU,39,MEATU,394,MWANYAHINA,39413,MWAGWILA,BUHANGIJA
SIMIYU,39,MEATU,394,MWANYAHINA,39413,MWAGWILA,MWAKISULA
SIMIYU,39,MEATU,394,MWANYAHINA,39413,MWAGWILA,KISESA
SIMIYU,39,MEATU,394,MWANYAHINA,39413,MWAGWILA,MABATINI
SIMIYU,39,MEATU,394,MWANYAHINA,39413,MWAGWILA,MWAGAWE
SIMIYU,39,MEATU,394,MWANYAHINA,39413,MWAGWILA,IYOGELO
SIMIYU,39,MEATU,394,MWANYAHINA,39413,MWAGWILA,USWAHILI
SIMIYU,39,MEATU,394,MWANYAHINA,39413,MWAGWILA,MWAMANYENGE
SIMIYU,39,MEATU,394,MWANYAHINA,39413,BUGANZA,WITAMHIYA
SIMIYU,39,MEATU,394,MWANYAHINA,39413,BUGANZA,BUGOMBELA
SIMIYU,39,MEATU,394,MWANYAHINA,39413,BUGANZA,BULYANGHUNE
SIMIYU,39,MEATU,394,MWANYAHINA,39413,BUGANZA,KIZEZE
SIMIYU,39,MEATU,394,MWANYAHINA,39413,BUGANZA,BUSIA
SIMIYU,39,MEATU,394,MWANYAHINA,39413,BUGANZA,MWAMBULI
SIMIYU,39,MEATU,394,MWANYAHINA,39413,BUGANZA,SANJO
SIMIYU,39,MEATU,394,MWANYAHINA,39413,BUGANZA,MWADINDI-MUGA
SIMIYU,39,MEATU,394,MWANYAHINA,39413,BUGANZA,MING'ONGWA
SIMIYU,39,MEATU,394,MWANYAHINA,39413,BUGANZA,IYOGELO
SIMIYU,39,MEATU,394,MWANYAHINA,39413,BUGANZA,MWAMUSINGI
SIMIYU,39,MEATU,394,MWANYAHINA,39413,BUGANZA,MWANZAGAMBA
SIMIYU,39,MEATU,394,MWANYAHINA,39413,MWAJIDALALA,ZABUKO
SIMIYU,39,MEATU,394,MWANYAHINA,39413,MWAJIDALALA,MLIMANI
SIMIYU,39,MEATU,394,MWANYAHINA,39413,MWAJIDALALA,MABATINI
SIMIYU,39,MEATU,394,MWANYAHINA,39413,MWAJIDALALA,MWITUNI
SIMIYU,39,MEATU,394,MWAMISHALI,39414,MWAMISHALI,ITALWA
SIMIYU,39,MEATU,394,MWAMISHALI,39414,MWAMISHALI,MWANYAGULA
SIMIYU,39,MEATU,394,MWAMISHALI,39414,MWAMISHALI,KILOLELI
SIMIYU,39,MEATU,394,MWAMISHALI,39414,MWAMISHALI,MALUGALA
SIMIYU,39,MEATU,394,MWAMISHALI,39414,MWAMISHALI,MWAMILEKWA
SIMIYU,39,MEATU,394,MWAMISHALI,39414,MWAMISHALI,MABATINI
SIMIYU,39,MEATU,394,MWAMISHALI,39414,MWAMISHALI,KISESA
SIMIYU,39,MEATU,394,MWAMISHALI,39414,MWAMISHALI,MADUKANI
SIMIYU,39,MEATU,394,MWAMISHALI,39414,MWAMAGINGO,MWASUNGURA
SIMIYU,39,MEATU,394,MWAMISHALI,39414,MWAMAGINGO,MWASHEDE
SIMIYU,39,MEATU,394,MWAMISHALI,39414,MWAMAGINGO,MWANKOLA
SIMIYU,39,MEATU,394,MWAMISHALI,39414,MWAMAGINGO,MWAJIDUTU
SIMIYU,39,MEATU,394,MWAMISHALI,39414,BULYASHI,MWAMAPALALA
SIMIYU,39,MEATU,394,MWAMISHALI,39414,BULYASHI,MWANDONYA
SIMIYU,39,MEATU,394,MWAMISHALI,39414,BULYASHI,IPILILO
SIMIYU,39,MEATU,394,MWAMISHALI,39414,BULYASHI,MJINI
SIMIYU,39,MEATU,394,MWAMISHALI,39414,BULYASHI,MWABALOGI
SIMIYU,39,MEATU,394,MWAMISHALI,39414,BULYASHI,MWAFUGUJI
SIMIYU,39,MEATU,394,MWAMISHALI,39414,BULYASHI,MWAMALALE
SIMIYU,39,MEATU,394,MWAMISHALI,39414,BULYASHI,MWAMASANGU
SIMIYU,39,MEATU,394,MWAMISHALI,39414,DAKAMA,DAKAMA
SIMIYU,39,MEATU,394,MWAMISHALI,39414,DAKAMA,MWABAYANDA
SIMIYU,39,MEATU,394,MWAMISHALI,39414,DAKAMA,MWANKALI
SIMIYU,39,MEATU,394,MWAMISHALI,39414,MWAMBITI,BUHANGIJA
SIMIYU,39,MEATU,394,MWAMISHALI,39414,MWAMBITI,IYOGELO
SIMIYU,39,MEATU,394,MWAMISHALI,39414,MWAMBITI,BUBOLWANAGA
SIMIYU,39,MEATU,394,MWAMISHALI,39414,MWAMBITI,WIYELELWA
SIMIYU,39,MEATU,394,MWAMISHALI,39414,MWAMBITI,BUKINGWAMINZI
SIMIYU,39,MEATU,394,MWAMISHALI,39414,MWAMBITI,MWABASABI
SIMIYU,39,MEATU,394,MWAMISHALI,39414,MWAMBITI,NKONZE
SIMIYU,39,MEATU,394,MWAMISHALI,39414,MWAMBITI,MWABALAMBU
SIMIYU,39,MEATU,394,MWAMISHALI,39414,MWAMBITI,MABAMBASI
SIMIYU,39,MEATU,394,MWAMISHALI,39414,MWAMBITI,MWANKALI
SIMIYU,39,MEATU,394,MWAMISHALI,39414,ITONGOLYANG'HAMBA,NJIA PANDA
SIMIYU,39,MEATU,394,MWAMISHALI,39414,ITONGOLYANG'HAMBA,ITONGO
SIMIYU,39,MEATU,394,MWAMISHALI,39414,ITONGOLYANG'HAMBA,MIGUNGA
SIMIYU,39,MEATU,394,MWAMISHALI,39414,MALWILO,MWABASABI
SIMIYU,39,MEATU,394,MWAMISHALI,39414,MALWILO,MALWILO
SIMIYU,39,MEATU,394,MWAMISHALI,39414,MALWILO,BONDENI
SIMIYU,39,MEATU,394,MWAMISHALI,39414,MALWILO,NGULITI
SIMIYU,39,MEATU,394,KIMALI,39415,PAJI,BUGWANDEGE
SIMIYU,39,MEATU,394,KIMALI,39415,PAJI,MWAMAGILI
SIMIYU,39,MEATU,394,KIMALI,39415,PAJI,MWAMASAGALA
SIMIYU,39,MEATU,394,KIMALI,39415,PAJI,BULYANDULU
SIMIYU,39,MEATU,394,KIMALI,39415,PAJI,MWASENGELA
SIMIYU,39,MEATU,394,KIMALI,39415,PAJI,MWANGELELA
SIMIYU,39,MEATU,394,KIMALI,39415,PAJI,IKELELA
SIMIYU,39,MEATU,394,KIMALI,39415,PAJI,MIKUYUNI
SIMIYU,39,MEATU,394,KIMALI,39415,PAJI,MWAMAGANGA
SIMIYU,39,MEATU,394,KIMALI,39415,PAJI,MAKOMANGWA
SIMIYU,39,MEATU,394,KIMALI,39415,MWANYAGULA,KISESA
SIMIYU,39,MEATU,394,KIMALI,39415,MWANYAGULA,MADUKANI
SIMIYU,39,MEATU,394,KIMALI,39415,MWANYAGULA,LYUSA
SIMIYU,39,MEATU,394,KIMALI,39415,MWANYAGULA,MWAKISHEPO
SIMIYU,39,MEATU,394,KIMALI,39415,SAPA,MAKOMANGWA
SIMIYU,39,MEATU,394,KIMALI,39415,SAPA,SAPA
SIMIYU,39,MEATU,394,KIMALI,39415,SAPA,MAGUSA
SIMIYU,39,MEATU,394,KIMALI,39415,SAPA,NG'HUNGULU A
SIMIYU,39,MEATU,394,KIMALI,39415,SAPA,NG'HUNGULU B
SIMIYU,39,MEATU,394,MWANGUDO,39416,MWANGUDO,IMARABUPINA
SIMIYU,39,MEATU,394,MWANGUDO,39416,MWANGUDO,SONGAMBELE A
SIMIYU,39,MEATU,394,MWANGUDO,39416,MWANGUDO,SONGAMBELE B
SIMIYU,39,MEATU,394,MWANGUDO,39416,MWANGUDO,CHOMBONI
SIMIYU,39,MEATU,394,MWANGUDO,39416,MWANGUDO,ISELE
SIMIYU,39,MEATU,394,MWANGUDO,39416,IRAMBA NDOGO,MWANGEZA
SIMIYU,39,MEATU,394,MWANGUDO,39416,IRAMBA NDOGO,GWANG'HALAJA
SIMIYU,39,MEATU,394,MWANGUDO,39416,IRAMBA NDOGO,SOLO
SIMIYU,39,MEATU,394,MWANGUDO,39416,IRAMBA NDOGO,WIMATE
SIMIYU,39,MEATU,394,MWANGUDO,39416,IRAMBA NDOGO,KANDA
SIMIYU,39,MEATU,394,MWANGUDO,39416,IRAMBA NDOGO,ITALELYASHIMBA
SIMIYU,39,MEATU,394,MWANGUDO,39416,IRAMBA NDOGO,TURUMISA
SIMIYU,39,MEATU,394,MWANGUDO,39416,IRAMBA NDOGO,IGOBE
SIMIYU,39,MEATU,394,MWANGUDO,39416,SUNGU,MULIMASUNGU
SIMIYU,39,MEATU,394,MWANGUDO,39416,SUNGU,MWANYANGA
SIMIYU,39,MEATU,394,MWANGUDO,39416,SUNGU,PUGA
SIMIYU,39,MEATU,394,MWANGUDO,39416,SUNGU,SEGEYA
SIMIYU,39,MEATU,394,MWANGUDO,39416,SUNGU,BUTIMBA
SIMIYU,39,MEATU,394,MWANGUDO,39416,MAKAO,KOMISHA
SIMIYU,39,MEATU,394,MWANGUDO,39416,MAKAO,HEBABU
SIMIYU,39,MEATU,394,MWANGUDO,39416,MAKAO,LORGUMI
SIMIYU,39,MEATU,394,MWANGUDO,39416,MAKAO,MATIKO
SIMIYU,39,MEATU,394,MWANGUDO,39416,MAKAO,MAKAO CENTER
SIMIYU,39,MEATU,394,NKOMA,39417,NKOMA,LYUSA
SIMIYU,39,MEATU,394,NKOMA,39417,NKOMA,BUSULE
SIMIYU,39,MEATU,394,NKOMA,39417,NKOMA,CENTER
SIMIYU,39,MEATU,394,NKOMA,39417,NKOMA,BULYANJEMU
SIMIYU,39,MEATU,394,NKOMA,39417,NKOMA,IMALAPUPINA
SIMIYU,39,MEATU,394,NKOMA,39417,NKOMA,MWABASABI
SIMIYU,39,MEATU,394,NKOMA,39417,NKOMA,ISANGIJO
SIMIYU,39,MEATU,394,NKOMA,39417,ITABA,MSIMBAZI
SIMIYU,39,MEATU,394,NKOMA,39417,ITABA,IYOGELO
SIMIYU,39,MEATU,394,NKOMA,39417,ITABA,MWABUKI
SIMIYU,39,MEATU,394,NKOMA,39417,ITABA,CHOBE
SIMIYU,39,MEATU,394,NKOMA,39417,ITABA,IBAGA
SIMIYU,39,MEATU,394,NKOMA,39417,ITABA,MWAMAGANGA
SIMIYU,39,MEATU,394,NKOMA,39417,ITABA,MWAMASHIMBA
SIMIYU,39,MEATU,394,NKOMA,39417,ITABA,WIMATE
SIMIYU,39,MEATU,394,NKOMA,39417,ITABA,JILOLELI
SIMIYU,39,MEATU,394,NKOMA,39417,ITABA,SANJO
SIMIYU,39,MEATU,394,NKOMA,39417,MWABAGALU,USHIRIKA
SIMIYU,39,MEATU,394,NKOMA,39417,MWABAGALU,BADI
SIMIYU,39,MEATU,394,NKOMA,39417,MWABAGALU,MWABASABI
SIMIYU,39,MEATU,394,NKOMA,39417,MWABAGALU,MWANG'HALAJA
SIMIYU,39,MEATU,394,NKOMA,39417,IKIGIJO,MLIMANI
SIMIYU,39,MEATU,394,NKOMA,39417,IKIGIJO,KASELA
SIMIYU,39,MEATU,394,NKOMA,39417,IKIGIJO,IYOGELO
SIMIYU,39,MEATU,394,IMALASEKO,39418,IMALASEKO,AMANI
SIMIYU,39,MEATU,394,IMALASEKO,39418,IMALASEKO,MSHIKAMANO
SIMIYU,39,MEATU,394,IMALASEKO,39418,IMALASEKO,MWAKISATYA
SIMIYU,39,MEATU,394,IMALASEKO,39418,IMALASEKO,MWASUSU
SIMIYU,39,MEATU,394,IMALASEKO,39418,IMALASEKO,MALESELA
SIMIYU,39,MEATU,394,IMALASEKO,39418,IMALASEKO,MABUSHI
SIMIYU,39,MEATU,394,IMALASEKO,39418,NATA,MJINI
SIMIYU,39,MEATU,394,IMALASEKO,39418,NATA,MWAMAGANDAGA
SIMIYU,39,MEATU,394,IMALASEKO,39418,NATA,MWABAYANDA
SIMIYU,39,MEATU,394,IMALASEKO,39418,NATA,ISANGALYABAYEGE
SIMIYU,39,MEATU,394,IMALASEKO,39418,NATA,MWAMAKALANGA
SIMIYU,39,MEATU,394,IMALASEKO,39418,MWANG'HUMBI,MWAMANOTA
SIMIYU,39,MEATU,394,IMALASEKO,39418,MWANG'HUMBI,ISEMELO
SIMIYU,39,MEATU,394,IMALASEKO,39418,MWANG'HUMBI,PAMBA
SIMIYU,39,MEATU,394,IMALASEKO,39418,MWANG'HUMBI,IGEMBESABO
SIMIYU,39,MEATU,394,IMALASEKO,39418,ISANGA,JILAMBELA
SIMIYU,39,MEATU,394,IMALASEKO,39418,ISANGA,SANJO
SIMIYU,39,MEATU,394,IMALASEKO,39418,ISANGA,MIZANZA
SIMIYU,39,MEATU,394,NG'HOBOKO,39419,NG'HOBOKO,BUFU
SIMIYU,39,MEATU,394,NG'HOBOKO,39419,NG'HOBOKO,MWAWINGA
SIMIYU,39,MEATU,394,NG'HOBOKO,39419,NG'HOBOKO,MABAMBASI
SIMIYU,39,MEATU,394,NG'HOBOKO,39419,NG'HOBOKO,MADUKANI
SIMIYU,39,MEATU,394,NG'HOBOKO,39419,NG'HOBOKO,MIGUNGA
SIMIYU,39,MEATU,394,NG'HOBOKO,39419,MAWENI,NG'WANDULIWE
SIMIYU,39,MEATU,394,NG'HOBOKO,39419,MAWENI,MWAMASULE
SIMIYU,39,MEATU,394,NG'HOBOKO,39419,MAWENI,MAGULYA
SIMIYU,39,MEATU,394,NG'HOBOKO,39419,MAWENI,MWABASABI
SIMIYU,39,MEATU,394,NG'HOBOKO,39419,MAWENI,MAWENI
SIMIYU,39,MEATU,394,NG'HOBOKO,39419,ISEBANDA,NKOLOLO
SIMIYU,39,MEATU,394,NG'HOBOKO,39419,ISEBANDA,ISEBANDA
SIMIYU,39,MEATU,394,NG'HOBOKO,39419,ISEBANDA,MWANKALI
SIMIYU,39,MEATU,394,NG'HOBOKO,39419,ISEBANDA,BUFU
SIMIYU,39,MEATU,394,MWAMANONGU,39420,MWAKIPOPO,IDISA
SIMIYU,39,MEATU,394,MWAMANONGU,39420,MWAKIPOPO,MWABALAMBA
SIMIYU,39,MEATU,394,MWAMANONGU,39420,MWAKIPOPO,MAPONDA
SIMIYU,39,MEATU,394,MWAMANONGU,39420,MWAKIPOPO,MWATANDALA
SIMIYU,39,MEATU,394,MWAMANONGU,39420,MWAKIPOPO,MWABAGALU
SIMIYU,39,MEATU,394,MWAMANONGU,39420,MWAKIPOPO,SHINYANGA MADASO
SIMIYU,39,MEATU,394,MWAMANONGU,39420,MWAMANONGU,MWABALOGI
SIMIYU,39,MEATU,394,MWAMANONGU,39420,MWAMANONGU,ELIMU
SIMIYU,39,MEATU,394,MWAMANONGU,39420,MWAMANONGU,IYOGELO
SIMIYU,39,MEATU,394,MWAMANONGU,39420,MWAMANONGU,MWABASABI
SIMIYU,39,MEATU,394,MWAMANONGU,39420,MWAMANONGU,UZUNGUNI
SIMIYU,39,MEATU,394,MWAMANONGU,39420,MWAMANONGU,BUSANGU
SIMIYU,39,MEATU,394,MWAMANONGU,39420,MWAMAGEMBE,SHULENI
SIMIYU,39,MEATU,394,MWAMANONGU,39420,MWAMAGEMBE,SANJO
SIMIYU,39,MEATU,394,MWAMANONGU,39420,MWAMAGEMBE,KISESA
SIMIYU,39,MEATU,394,MWAMANONGU,39420,MWAMAGEMBE,MASANGA
SIMIYU,39,MEATU,394,MWAMANONGU,39420,MWAMAGEMBE,NJIA PANDA
SIMIYU,39,MEATU,394,MWAMANONGU,39420,IGUSHILU,MWATUJU
SIMIYU,39,MEATU,394,MWAMANONGU,39420,IGUSHILU,IGUSHILU
SIMIYU,39,MEATU,394,MWAMANONGU,39420,IGUSHILU,MAJENGO
SIMIYU,39,MEATU,394,MWAMANONGU,39420,IGUSHILU,BUYOLE
SIMIYU,39,MEATU,394,MWAMANONGU,39420,IGUSHILU,IBAGA
SIMIYU,39,MEATU,394,MWAMALOLE,39421,MWAMALOLE,MWAMALOLE
SIMIYU,39,MEATU,394,MWAMALOLE,39421,MWAMALOLE,MWANGIKULU
SIMIYU,39,MEATU,394,MWAMALOLE,39421,MWAMALOLE,KISESA
SIMIYU,39,MEATU,394,MWAMALOLE,39421,MWAMALOLE,MLIMANI
SIMIYU,39,MEATU,394,MWAMALOLE,39421,MWAMALOLE,MWABAGALU
SIMIYU,39,MEATU,394,MWAMALOLE,39421,MWAMALOLE,MWABAGOSHA
SIMIYU,39,MEATU,394,MWAMALOLE,39421,LATA,LATA
SIMIYU,39,MEATU,394,MWAMALOLE,39421,LATA,MWAMASUBI
SIMIYU,39,MEATU,394,MWAMALOLE,39421,LATA,BADI
SIMIYU,39,MEATU,394,MWAMALOLE,39421,LATA,MWABAGALU
SIMIYU,39,MEATU,394,MWAMALOLE,39421,LATA,GESHIGESHI
SIMIYU,39,MEATU,394,MWAMALOLE,39421,LATA,MWAHEMED
SIMIYU,39,MEATU,394,MWAMALOLE,39421,USIULIZE,USIULIZE
SIMIYU,39,MEATU,394,MWAMALOLE,39421,USIULIZE,MTAKUJA
SIMIYU,39,MEATU,394,MWAMALOLE,39421,USIULIZE,NHENDEGESE
SIMIYU,39,MEATU,394,MWAMALOLE,39421,USIULIZE,MWANKALI
SIMIYU,39,MEATU,394,MWAMALOLE,39421,USIULIZE,GEIGAI
SIMIYU,39,MEATU,394,MWAMALOLE,39421,USIULIZE,GESHIGESHI
SIMIYU,39,MEATU,394,MWAMALOLE,39421,USIULIZE,MIHAMA
SIMIYU,39,MEATU,394,MWAMANIMBA,39422,MWAMANIMBA,MWAMANIMBA
SIMIYU,39,MEATU,394,MWAMANIMBA,39422,MWAMANIMBA,MWABANYANDA
SIMIYU,39,MEATU,394,MWAMANIMBA,39422,MWAMANIMBA,MWAMASUBI
SIMIYU,39,MEATU,394,MWAMANIMBA,39422,MWAMANIMBA,MABAMBASI
SIMIYU,39,MEATU,394,MWAMANIMBA,39422,MWAMANIMBA,NJIA PANDA
SIMIYU,39,MEATU,394,MWAMANIMBA,39422,MWAMANIMBA,LYUSA
SIMIYU,39,MEATU,394,MWAMANIMBA,39422,MWAMATIGA,BUSWAHILINI
SIMIYU,39,MEATU,394,MWAMANIMBA,39422,MWAMATIGA,BUHANGIJA
SIMIYU,39,MEATU,394,MWAMANIMBA,39422,MWAMATIGA,BADI
SIMIYU,39,MEATU,394,MWAMANIMBA,39422,MWAMATIGA,NG'WANG'HALAJA
SIMIYU,39,MEATU,394,BUKUNDI,39423,BUKUNDI,MADUKANI
SIMIYU,39,MEATU,394,BUKUNDI,39423,BUKUNDI,MWANGADULE
SIMIYU,39,MEATU,394,BUKUNDI,39423,BUKUNDI,MWAMANONGU
SIMIYU,39,MEATU,394,BUKUNDI,39423,BUKUNDI,WIMATE
SIMIYU,39,MEATU,394,BUKUNDI,39423,BUKUNDI,KISESA
SIMIYU,39,MEATU,394,BUKUNDI,39423,BUKUNDI,BUKINGWANZIKU
SIMIYU,39,MEATU,394,BUKUNDI,39423,BUKUNDI,BUKINGWAMINZI
SIMIYU,39,MEATU,394,BUKUNDI,39423,BUKUNDI,MWASHIGELA
SIMIYU,39,MEATU,394,BUKUNDI,39423,LUKALE,NDUSHI
SIMIYU,39,MEATU,394,BUKUNDI,39423,LUKALE,MWAGOTOLO
SIMIYU,39,MEATU,394,BUKUNDI,39423,LUKALE,LIMBITA
SIMIYU,39,MEATU,394,BUKUNDI,39423,LUKALE,KASALA
SIMIYU,39,MEATU,394,BUKUNDI,39423,LUKALE,DUMANANG
SIMIYU,39,MEATU,394,BUKUNDI,39423,MWABAGIMU,SHULENI
SIMIYU,39,MEATU,394,BUKUNDI,39423,MWABAGIMU,ISHUNGULU
SIMIYU,39,MEATU,394,BUKUNDI,39423,MWABAGIMU,MWAJIMOSO
SIMIYU,39,MEATU,394,BUKUNDI,39423,MWABAGIMU,MIGUNGA
SIMIYU,39,MEATU,394,BUKUNDI,39423,MWABAGIMU,MWAMALULU
SIMIYU,39,MEATU,394,BUKUNDI,39423,MWABAGIMU,SINGILI
SIMIYU,39,MEATU,394,BUKUNDI,39423,MWABAGIMU,NYALANJA
SIMIYU,39,MEATU,394,BUKUNDI,39423,WITAMHIYA,WITAMHIYA
SIMIYU,39,MEATU,394,BUKUNDI,39423,WITAMHIYA,MWAMABOKU
SIMIYU,39,MEATU,394,MWABUZO,39424,MWABUZO,KAMBARAGE
SIMIYU,39,MEATU,394,MWABUZO,39424,MWABUZO,MIGUNGA
SIMIYU,39,MEATU,394,MWABUZO,39424,MWABUZO,SONGAMBELE
SIMIYU,39,MEATU,394,MWABUZO,39424,MWABUZO,MWAMASINGILI
SIMIYU,39,MEATU,394,MWABUZO,39424,MWABUZO,STOONI
SIMIYU,39,MEATU,394,MWABUZO,39424,MWABUZO,MABAMBASI
SIMIYU,39,MEATU,394,MWABUZO,39424,MWABUZO,UJAMAA
SIMIYU,39,MEATU,394,MWABUZO,39424,MWAMANONI,MADUKANI
SIMIYU,39,MEATU,394,MWABUZO,39424,MWAMANONI,KISESA
SIMIYU,39,MEATU,394,MWABUZO,39424,MWAMANONI,MWABALAMBU
SIMIYU,39,MEATU,394,MWABUZO,39424,MWAMANONI,MWANGIKULU
SIMIYU,39,MEATU,394,MWABUZO,39424,MWAMANONI,MIGUNGA
SIMIYU,39,MEATU,394,MWABUZO,39424,MWAMANONI,JAHULULA
SIMIYU,39,MEATU,394,MWABUZO,39424,MWANZUGI,MASANGA
SIMIYU,39,MEATU,394,MWABUZO,39424,MWANZUGI,MIKOMANGWA
SIMIYU,39,MEATU,394,MWABUZO,39424,MWANZUGI,"MWAMASIGILI ""B"""
SIMIYU,39,MEATU,394,MWABUZO,39424,MWANZUGI,IYOGELO
SIMIYU,39,MEATU,394,MWABUZO,39424,MWABALEBI,MWABALEBI
SIMIYU,39,MEATU,394,MWABUZO,39424,MWABALEBI,BUGWESA
SIMIYU,39,MEATU,394,MWABUZO,39424,MWABALEBI,MWAMASIGILI
SIMIYU,39,MEATU,394,MWABUZO,39424,MWABALEBI,MAPONDA
SIMIYU,39,MEATU,394,MWABUZO,39424,MWABALEBI,MABAMBASI
SIMIYU,39,MEATU,394,MWABUZO,39424,MWANGIKULU,MWALUGONDA
SIMIYU,39,MEATU,394,MWABUZO,39424,MWANGIKULU,MWANGILU
SIMIYU,39,MEATU,394,MWABUZO,39424,MWANGIKULU,MANALO
SIMIYU,39,MEATU,394,MWABUZO,39424,MWANGIKULU,HINDABULUGE
SIMIYU,39,MEATU,394,MWABUZO,39424,MWANGIKULU,KULWAMAKYA
SIMIYU,39,MEATU,394,MWANJOLO,39425,MWANJOLO,"ISANGIJO  ""A''"
SIMIYU,39,MEATU,394,MWANJOLO,39425,MWANJOLO,ISANGIJO  ''B''
SIMIYU,39,MEATU,394,MWANJOLO,39425,MWANJOLO,MWABASABI
SIMIYU,39,MEATU,394,MWANJOLO,39425,MWANJOLO,BADI
SIMIYU,39,MEATU,394,MWANJOLO,39425,MWANJOLO,MWABALEBI
SIMIYU,39,MEATU,394,MWANJOLO,39425,MWANJOLO,IDOSELO
SIMIYU,39,MEATU,394,MWANJOLO,39425,MWANJOLO,KISESA
SIMIYU,39,MEATU,394,MWANJOLO,39425,MWANJOLO,BUHANGIJA
SIMIYU,39,MEATU,394,MWANJOLO,39425,JINAMO,MWALEMEJA
SIMIYU,39,MEATU,394,MWANJOLO,39425,JINAMO,MWABALOMOLOMO
SIMIYU,39,MEATU,394,MWANJOLO,39425,JINAMO,GUNHUNI
SIMIYU,39,MEATU,394,MWANJOLO,39425,JINAMO,NGOFILA
SIMIYU,39,MEATU,394,MWANJOLO,39425,JINAMO,NZANZAGUMO
SIMIYU,39,MEATU,394,MWANJOLO,39425,CHAMBALA,KISESA
SIMIYU,39,MEATU,394,MWANJOLO,39425,CHAMBALA,MAGONANGILI
SIMIYU,39,MEATU,394,MWANJOLO,39425,CHAMBALA,BUPUNJA
SIMIYU,39,MEATU,394,MWANJOLO,39425,CHAMBALA,WIMATE
SIMIYU,39,MEATU,394,ISENGWA,39426,MWAGENI,LUGULU
SIMIYU,39,MEATU,394,ISENGWA,39426,MWAGENI,MWANKINDWA A
SIMIYU,39,MEATU,394,ISENGWA,39426,MWAGENI,MWANKINDWA B
SIMIYU,39,MEATU,394,ISENGWA,39426,MWAGENI,MWAKULWA
SIMIYU,39,MEATU,394,ISENGWA,39426,MWAGENI,MWANDUOMINZI
SIMIYU,39,MEATU,394,ISENGWA,39426,MWAGENI,MWANTANDU
SIMIYU,39,MEATU,394,ISENGWA,39426,ISENGWA,MASANGA
SIMIYU,39,MEATU,394,ISENGWA,39426,ISENGWA,ISENGWA KATI
SIMIYU,39,MEATU,394,ISENGWA,39426,ISENGWA,MWADASE
SIMIYU,39,MEATU,394,ISENGWA,39426,ISENGWA,MBUYUNI
SIMIYU,39,MEATU,394,ISENGWA,39426,ISENGWA,MWADUNDU
SIMIYU,39,MEATU,394,ISENGWA,39426,MWABUSUNGU,MWABUSUNGU
SIMIYU,39,MEATU,394,ISENGWA,39426,MWABUSUNGU,MWABASABI
SIMIYU,39,MEATU,394,ISENGWA,39426,MWABUSUNGU,KISESA
SIMIYU,39,MEATU,394,ISENGWA,39426,MWABUSUNGU,MUUNGANO
SIMIYU,39,MEATU,394,ISENGWA,39426,MWABUSUNGU,MAGULYA
SIMIYU,39,MEATU,394,ISENGWA,39426,SEMU,NYANZA
SIMIYU,39,MEATU,394,ISENGWA,39426,SEMU,IDOSELO
SIMIYU,39,MEATU,394,ISENGWA,39426,SEMU,MWABUNGA
SIMIYU,39,MEATU,394,ISENGWA,39426,SEMU,IKINABUSHU
SIMIYU,39,MEATU,394,ISENGWA,39426,SEMU,MABATINI
SIMIYU,39,MEATU,394,MBUGAYABANGHYA,39427,MWAMASHIMBA,MWAMASHIMBA
SIMIYU,39,MEATU,394,MBUGAYABANGHYA,39427,MWAMASHIMBA,MADUKANI
SIMIYU,39,MEATU,394,MBUGAYABANGHYA,39427,MWAMASHIMBA,WIMATE
SIMIYU,39,MEATU,394,MBUGAYABANGHYA,39427,MWAMASHIMBA,SHOLA
SIMIYU,39,MEATU,394,MBUGAYABANGHYA,39427,MWAMASHIMBA,SHOGASHOGA
SIMIYU,39,MEATU,394,MBUGAYABANGHYA,39427,MWAMASHIMBA,JILIGULI
SIMIYU,39,MEATU,394,MBUGAYABANGHYA,39427,MBUGAYABANGHYA,CHONGE A
SIMIYU,39,MEATU,394,MBUGAYABANGHYA,39427,MBUGAYABANGHYA,CHONGE B
SIMIYU,39,MEATU,394,MBUGAYABANGHYA,39427,MBUGAYABANGHYA,MWANGELENGWA
SIMIYU,39,MEATU,394,MBUGAYABANGHYA,39427,MBUGAYABANGHYA,MWAJIPANDA
SIMIYU,39,MEATU,394,MBUGAYABANGHYA,39427,MBUGAYABANGHYA,MABAMBASINI
SIMIYU,39,MEATU,394,MBUGAYABANGHYA,39427,MBALAGANE,MADUKANI
SIMIYU,39,MEATU,394,MBUGAYABANGHYA,39427,MBALAGANE,MWAMONDI
SIMIYU,39,MEATU,394,MBUGAYABANGHYA,39427,MBALAGANE,MWANKINDWA
SIMIYU,39,MEATU,394,MBUGAYABANGHYA,39427,MBALAGANE,MWABAGALU
SIMIYU,39,MEATU,394,MBUGAYABANGHYA,39427,MBALAGANE,NGOLUKUNU
SIMIYU,39,MEATU,394,MBUGAYABANGHYA,39427,MBALAGANE,ISENYE
SIMIYU,39,MEATU,394,MBUSHI,39428,MBUSHI,JILOLELI
SIMIYU,39,MEATU,394,MBUSHI,39428,MBUSHI,MWABASABI
SIMIYU,39,MEATU,394,MBUSHI,39428,MBUSHI,BUTUJA
SIMIYU,39,MEATU,394,MBUSHI,39428,MBUSHI,IPONANABOLO
SIMIYU,39,MEATU,394,MBUSHI,39428,MBUSHI,MWABALATURU
SIMIYU,39,MEATU,394,MBUSHI,39428,MBUSHI,MWIHANDO
SIMIYU,39,MEATU,394,MBUSHI,39428,MBUSHI,IMALABUPINA
SIMIYU,39,MEATU,394,MBUSHI,39428,SHUSUNI,SHUSHUNI
SIMIYU,39,MEATU,394,MBUSHI,39428,SHUSUNI,SAKASAKA
SIMIYU,39,MEATU,394,MBUSHI,39428,SHUSUNI,MWAMAPULI
SIMIYU,39,MEATU,394,MBUSHI,39428,SHUSUNI,PANDAGICHIZA
SIMIYU,39,MEATU,394,MBUSHI,39428,SHUSUNI,ILAMBOYANGUBU
SIMIYU,39,MEATU,394,MBUSHI,39428,SHUSUNI,ITALELYAWANGA
SIMIYU,39,MEATU,394,KABONDO,39429,KABONDO,NULA
SIMIYU,39,MEATU,394,KABONDO,39429,KABONDO,NJIA PANDA
SIMIYU,39,MEATU,394,KABONDO,39429,KABONDO,GULIONI
SIMIYU,39,MEATU,394,KABONDO,39429,KABONDO,MWAKISENGE
SIMIYU,39,MEATU,394,KABONDO,39429,KABONDO,MWAJILALA
SIMIYU,39,MEATU,394,KABONDO,39429,MAGULYA,MAWENI
SIMIYU,39,MEATU,394,KABONDO,39429,MAGULYA,MLIMANI
SIMIYU,39,MEATU,394,KABONDO,39429,MAGULYA,SAKASAKA A
SIMIYU,39,MEATU,394,KABONDO,39429,MAGULYA,SAKASAKA B
SIMIYU,39,MEATU,394,KABONDO,39429,MAGULYA,NZAGAMO
SIMIYU,39,MEATU,394,KABONDO,39429,MINYANDA,IDOSELO
SIMIYU,39,MEATU,394,KABONDO,39429,MINYANDA,KILOLELI
SIMIYU,39,MEATU,394,KABONDO,39429,MINYANDA,MBUGANI
SIMIYU,39,MEATU,394,KABONDO,39429,MINYANDA,BUSULWA
SIMIYU,39,MEATU,394,KABONDO,39429,MINYANDA,DAKAMA
SIMIYU,39,MEATU,394,KABONDO,39429,MWAFUGUJI,NG'WANTUMBA
SIMIYU,39,MEATU,394,KABONDO,39429,MWAFUGUJI,MABUSHI
SIMIYU,39,MEATU,394,KABONDO,39429,MWAFUGUJI,MAKALWE
SIMIYU,39,MEATU,394,KABONDO,39429,MWAFUGUJI,MABAMBASI
SIMIYU,39,MEATU,394,KABONDO,39429,MWAFUGUJI,MWAMASINDI
SIMIYU,39,BUSEGA,395,KABITA,39501,NYAMIKOMA A,NYAMIKOMA 'A'
SIMIYU,39,BUSEGA,395,KABITA,39501,NYAMIKOMA A,FOGOFOGO
SIMIYU,39,BUSEGA,395,KABITA,39501,NYAMIKOMA A,BUCHELA A
SIMIYU,39,BUSEGA,395,KABITA,39501,NYAMIKOMA B,NYAMIKOMA B
SIMIYU,39,BUSEGA,395,KABITA,39501,NYAMIKOMA B,NG’WALINHA
SIMIYU,39,BUSEGA,395,KABITA,39501,NYAMIKOMA B,NG’WAWAGA
SIMIYU,39,BUSEGA,395,KABITA,39501,NYAMIKOMA B,BUCHELA B
SIMIYU,39,BUSEGA,395,KABITA,39501,SHIMANILWE,LUKOBE
SIMIYU,39,BUSEGA,395,KABITA,39501,SHIMANILWE,CHUMVE
SIMIYU,39,BUSEGA,395,KABITA,39501,SHIMANILWE,MWABASABI
SIMIYU,39,BUSEGA,395,KABITA,39501,SHIMANILWE,KABUJAJA
SIMIYU,39,BUSEGA,395,KABITA,39501,KABITA,SOLIMA A
SIMIYU,39,BUSEGA,395,KABITA,39501,KABITA,SOLIMA B
SIMIYU,39,BUSEGA,395,KABITA,39501,KABITA,SOLIMA C
SIMIYU,39,BUSEGA,395,KABITA,39501,KABITA,DITIBAS
SIMIYU,39,BUSEGA,395,KABITA,39501,KABITA,NYAMBUYI
SIMIYU,39,BUSEGA,395,KABITA,39501,KABITA,MIKUYUNI
SIMIYU,39,BUSEGA,395,KABITA,39501,NYAKABOJA,NYAKABOJA
SIMIYU,39,BUSEGA,395,KABITA,39501,NYAKABOJA,BUKABILE
SIMIYU,39,BUSEGA,395,KABITA,39501,NYAKABOJA,MWAMAYOMBO
SIMIYU,39,BUSEGA,395,MWAMANYILI,39502,MWAMANYILI,SELYA
SIMIYU,39,BUSEGA,395,MWAMANYILI,39502,MWAMANYILI,ISADUKILO
SIMIYU,39,BUSEGA,395,MWAMANYILI,39502,MWAMANYILI,KONA
SIMIYU,39,BUSEGA,395,MWAMANYILI,39502,MWAMANYILI,BUKUNU
SIMIYU,39,BUSEGA,395,MWAMANYILI,39502,MWAMANYILI,MWABASABI
SIMIYU,39,BUSEGA,395,MWAMANYILI,39502,NASSA GINNERY,KANYAMBOGO A
SIMIYU,39,BUSEGA,395,MWAMANYILI,39502,NASSA GINNERY,KANYAMBOGO B
SIMIYU,39,BUSEGA,395,MWAMANYILI,39502,NASSA GINNERY,MBUGANI
SIMIYU,39,BUSEGA,395,MWAMANYILI,39502,NASSA GINNERY,NYANKALALA
SIMIYU,39,BUSEGA,395,MWAMANYILI,39502,MWANANGI,ISELEMAGAJI
SIMIYU,39,BUSEGA,395,MWAMANYILI,39502,MWANANGI,MWANANGI
SIMIYU,39,BUSEGA,395,MWAMANYILI,39502,MWANANGI,MWAMAKALANGA
SIMIYU,39,BUSEGA,395,MWAMANYILI,39502,MWANANGI,MWENZEGU A
SIMIYU,39,BUSEGA,395,MWAMANYILI,39502,MWANANGI,MWENZEGU B
SIMIYU,39,BUSEGA,395,MWAMANYILI,39502,MWANANGI,NYASHO A
SIMIYU,39,BUSEGA,395,MWAMANYILI,39502,MWANANGI,NYASHO B
SIMIYU,39,BUSEGA,395,MWAMANYILI,39502,MILAMBI,ISHINGILO A
SIMIYU,39,BUSEGA,395,MWAMANYILI,39502,MILAMBI,ISHINGILO B
SIMIYU,39,BUSEGA,395,MWAMANYILI,39502,MILAMBI,NYANGUBU
SIMIYU,39,BUSEGA,395,MWAMANYILI,39502,MILAMBI,NTUNDU
SIMIYU,39,BUSEGA,395,MWAMANYILI,39502,MILAMBI,MILAMBI
SIMIYU,39,BUSEGA,395,KILOLELI,39503,ILUMYA,KILULU
SIMIYU,39,BUSEGA,395,KILOLELI,39503,ILUMYA,MWABASABI
SIMIYU,39,BUSEGA,395,KILOLELI,39503,ILUMYA,ILUMYA KATI
SIMIYU,39,BUSEGA,395,KILOLELI,39503,ILUMYA,KIHALAHALA
SIMIYU,39,BUSEGA,395,KILOLELI,39503,ILUMYA,NYAMILAMA
SIMIYU,39,BUSEGA,395,KILOLELI,39503,ILUMYA,MWABUDULI
SIMIYU,39,BUSEGA,395,KILOLELI,39503,ILUMYA,NYANG'HOMANGO
SIMIYU,39,BUSEGA,395,KILOLELI,39503,ILUMYA,NGWANHUGWA
SIMIYU,39,BUSEGA,395,KILOLELI,39503,YITWIMILA A,BULOLAMBESHI
SIMIYU,39,BUSEGA,395,KILOLELI,39503,YITWIMILA A,NYAMIKOMA
SIMIYU,39,BUSEGA,395,KILOLELI,39503,YITWIMILA A,ICHILA
SIMIYU,39,BUSEGA,395,KILOLELI,39503,YITWIMILA A,MWAMISELYA
SIMIYU,39,BUSEGA,395,KILOLELI,39503,YITWIMILA A,NYASHIMBA
SIMIYU,39,BUSEGA,395,KILOLELI,39503,IHALE,IHALE
SIMIYU,39,BUSEGA,395,KILOLELI,39503,IHALE,LUKELEGE
SIMIYU,39,BUSEGA,395,KILOLELI,39503,IHALE,IGUNDULI
SIMIYU,39,BUSEGA,395,KILOLELI,39503,IJITU,BUKOME
SIMIYU,39,BUSEGA,395,KILOLELI,39503,IJITU,IJITU
SIMIYU,39,BUSEGA,395,KILOLELI,39503,IJITU,NGELA
SIMIYU,39,BUSEGA,395,KILOLELI,39503,YITWIMILA B,SENGEREMA
SIMIYU,39,BUSEGA,395,KILOLELI,39503,YITWIMILA B,KAYENZE
SIMIYU,39,BUSEGA,395,KILOLELI,39503,YITWIMILA B,MAGUGE
SIMIYU,39,BUSEGA,395,KILOLELI,39503,YITWIMILA B,NYAWA
SIMIYU,39,BUSEGA,395,KILOLELI,39503,YITWIMILA B,MITUNDU
SIMIYU,39,BUSEGA,395,KILOLELI,39503,YITWIMILA B,KASABA
SIMIYU,39,BUSEGA,395,NYALUHANDE,39504,NYALUHANDE,NYASUBI
SIMIYU,39,BUSEGA,395,NYALUHANDE,39504,NYALUHANDE,MADUKANI
SIMIYU,39,BUSEGA,395,NYALUHANDE,39504,NYALUHANDE,MWAPINDU
SIMIYU,39,BUSEGA,395,NYALUHANDE,39504,NYALUHANDE,MWANONI
SIMIYU,39,BUSEGA,395,NYALUHANDE,39504,NYALUHANDE,NYABIHALE
SIMIYU,39,BUSEGA,395,NYALUHANDE,39504,NYALUHANDE,NYANG’HAYA
SIMIYU,39,BUSEGA,395,NYALUHANDE,39504,MWAMKALA,SWEYA
SIMIYU,39,BUSEGA,395,NYALUHANDE,39504,MWAMKALA,MWAJOMBO A
SIMIYU,39,BUSEGA,395,NYALUHANDE,39504,MWAMKALA,NGUNO
SIMIYU,39,BUSEGA,395,NYALUHANDE,39504,MWAMKALA,MWAMKALA
SIMIYU,39,BUSEGA,395,NYALUHANDE,39504,MWAMKALA,MWAITAMBUKA
SIMIYU,39,BUSEGA,395,NYALUHANDE,39504,MWAMKALA,MWAMAGULU
SIMIYU,39,BUSEGA,395,NYALUHANDE,39504,MWAMKALA,MWAJOMBO B
SIMIYU,39,BUSEGA,395,NYALUHANDE,39504,MWAGINDI,MWABAYANDA
SIMIYU,39,BUSEGA,395,NYALUHANDE,39504,MWAGINDI,ISHILAMANZWI
SIMIYU,39,BUSEGA,395,NYALUHANDE,39504,MWAGINDI,BULYAHEKE
SIMIYU,39,BUSEGA,395,NYALUHANDE,39504,MWAGINDI,IWELIMO
SIMIYU,39,BUSEGA,395,NYALUHANDE,39504,MWAGINDI,NYANGULI
SIMIYU,39,BUSEGA,395,BADUGU,39505,BADUGU,MADUKANI
SIMIYU,39,BUSEGA,395,BADUGU,39505,BADUGU,MWABAGALU
SIMIYU,39,BUSEGA,395,BADUGU,39505,BADUGU,NGWANG'HALANGA
SIMIYU,39,BUSEGA,395,BADUGU,39505,BADUGU,KATULE
SIMIYU,39,BUSEGA,395,BADUGU,39505,BADUGU,LUSANGA
SIMIYU,39,BUSEGA,395,BADUGU,39505,BADUGU,ILUGALA 'B'
SIMIYU,39,BUSEGA,395,BADUGU,39505,BADUGU,MWABASABI 'B'
SIMIYU,39,BUSEGA,395,BADUGU,39505,BADUGU,MIZWALE 'A'
SIMIYU,39,BUSEGA,395,BADUGU,39505,BADUGU,MIZWALE 'B'
SIMIYU,39,BUSEGA,395,BADUGU,39505,BADUGU,MWABASABI 'A'
SIMIYU,39,BUSEGA,395,BADUGU,39505,BADUGU,ILUGALA 'A
SIMIYU,39,BUSEGA,395,BADUGU,39505,BADUGU,NYAMBONO
SIMIYU,39,BUSEGA,395,BADUGU,39505,MANALA,MWABUNGUSA
SIMIYU,39,BUSEGA,395,BADUGU,39505,MANALA,MWAWAGA
SIMIYU,39,BUSEGA,395,BADUGU,39505,MANALA,WELA
SIMIYU,39,BUSEGA,395,BADUGU,39505,MANALA,NYABUDITO
SIMIYU,39,BUSEGA,395,BADUGU,39505,MANALA,NYAKADUKU
SIMIYU,39,BUSEGA,395,BADUGU,39505,MANALA,IGWATA
SIMIYU,39,BUSEGA,395,BADUGU,39505,BUSAMI,NYAMONDE
SIMIYU,39,BUSEGA,395,BADUGU,39505,BUSAMI,MWAMASHIMBA
SIMIYU,39,BUSEGA,395,BADUGU,39505,BUSAMI,MWANG’ALANGA
SIMIYU,39,BUSEGA,395,BADUGU,39505,BUSAMI,BUSAMI
SIMIYU,39,BUSEGA,395,BADUGU,39505,BUSAMI,NYAMIGUNGA
SIMIYU,39,BUSEGA,395,BADUGU,39505,MWANIGA,NYAMHELA
SIMIYU,39,BUSEGA,395,BADUGU,39505,MWANIGA,BUGAGA
SIMIYU,39,BUSEGA,395,BADUGU,39505,MWANIGA,MWANIGA
SIMIYU,39,BUSEGA,395,BADUGU,39505,MWANIGA,NYANDILI
SIMIYU,39,BUSEGA,395,BADUGU,39505,MWANIGA,KALOLE
SIMIYU,39,BUSEGA,395,BADUGU,39505,MWANIGA,CHAWADU
SIMIYU,39,BUSEGA,395,BADUGU,39505,MWANIGA,KULATULU
SIMIYU,39,BUSEGA,395,SHIGALA,39506,SHIGALA,LUBAGA
SIMIYU,39,BUSEGA,395,SHIGALA,39506,SHIGALA,NENGE
SIMIYU,39,BUSEGA,395,SHIGALA,39506,SHIGALA,MWABASABI
SIMIYU,39,BUSEGA,395,SHIGALA,39506,SHIGALA,LANGI
SIMIYU,39,BUSEGA,395,SHIGALA,39506,SHIGALA,NYALAWASHI
SIMIYU,39,BUSEGA,395,SHIGALA,39506,SHIGALA,NYAMPILINGWA
SIMIYU,39,BUSEGA,395,SHIGALA,39506,SHIGALA,NYANG’HUNGULIMA
SIMIYU,39,BUSEGA,395,SHIGALA,39506,LWANGWE,NSUMBA
SIMIYU,39,BUSEGA,395,SHIGALA,39506,LWANGWE,LWANGWE
SIMIYU,39,BUSEGA,395,SHIGALA,39506,LWANGWE,LULINDI
SIMIYU,39,BUSEGA,395,SHIGALA,39506,LWANGWE,NYANG’OMA
SIMIYU,39,BUSEGA,395,SHIGALA,39506,LWANGWE,MBITI
SIMIYU,39,BUSEGA,395,SHIGALA,39506,NYAMATEMBE,SIKABAYI
SIMIYU,39,BUSEGA,395,SHIGALA,39506,NYAMATEMBE,NYIKABINDI
SIMIYU,39,BUSEGA,395,SHIGALA,39506,NYAMATEMBE,INOLAMAGEMBE
SIMIYU,39,BUSEGA,395,SHIGALA,39506,NYAMATEMBE,NYAMIGAMBA
SIMIYU,39,BUSEGA,395,SHIGALA,39506,NYAMATEMBE,NYAMATEMBE
SIMIYU,39,BUSEGA,395,SHIGALA,39506,IHAYABUYAGA,BUSEBA
SIMIYU,39,BUSEGA,395,SHIGALA,39506,IHAYABUYAGA,MWAMISANGU
SIMIYU,39,BUSEGA,395,SHIGALA,39506,IHAYABUYAGA,ILOJAMINZI
SIMIYU,39,BUSEGA,395,SHIGALA,39506,IHAYABUYAGA,DUMUSI
SIMIYU,39,BUSEGA,395,SHIGALA,39506,IHAYABUYAGA,IGOMA
SIMIYU,39,BUSEGA,395,SHIGALA,39506,IHAYABUYAGA,CHABAKALI
SIMIYU,39,BUSEGA,395,SHIGALA,39506,IHAYABUYAGA,MWANOGI
SIMIYU,39,BUSEGA,395,SHIGALA,39506,IHAYABUYAGA,ILULA
SIMIYU,39,BUSEGA,395,SHIGALA,39506,IHAYABUYAGA,MAJIMTO
SIMIYU,39,BUSEGA,395,KALEMELA,39507,CHAMUGASA,MUUNGANO
SIMIYU,39,BUSEGA,395,KALEMELA,39507,CHAMUGASA,MISHENI
SIMIYU,39,BUSEGA,395,KALEMELA,39507,CHAMUGASA,NYANG'HUMBI
SIMIYU,39,BUSEGA,395,KALEMELA,39507,CHAMUGASA,NYAKULUNDUMA
SIMIYU,39,BUSEGA,395,KALEMELA,39507,CHAMUGASA,SONGAMBELE B
SIMIYU,39,BUSEGA,395,KALEMELA,39507,CHAMUGASA,KALEMELA
SIMIYU,39,BUSEGA,395,KALEMELA,39507,CHAMUGASA,LAMBONI
SIMIYU,39,BUSEGA,395,KALEMELA,39507,CHAMUGASA,MWABUJOSE
SIMIYU,39,BUSEGA,395,KALEMELA,39507,CHAMUGASA,MWAGINAYI
SIMIYU,39,BUSEGA,395,KALEMELA,39507,BUSHIGWAMHALA,BUCHELA
SIMIYU,39,BUSEGA,395,KALEMELA,39507,BUSHIGWAMHALA,KAYENZE
SIMIYU,39,BUSEGA,395,KALEMELA,39507,BUSHIGWAMHALA,BUGANDO
SIMIYU,39,BUSEGA,395,KALEMELA,39507,BUSHIGWAMHALA,BUSHIGWAMHALA
SIMIYU,39,BUSEGA,395,KALEMELA,39507,MAYEGA,WALA A
SIMIYU,39,BUSEGA,395,KALEMELA,39507,MAYEGA,WALA B
SIMIYU,39,BUSEGA,395,KALEMELA,39507,MAYEGA,MKUYUNI
SIMIYU,39,BUSEGA,395,KALEMELA,39507,MAYEGA,MAYEGA
SIMIYU,39,BUSEGA,395,KALEMELA,39507,MAYEGA,BUCHELA
SIMIYU,39,BUSEGA,395,KALEMELA,39507,MAYEGA,MWABASABI
SIMIYU,39,BUSEGA,395,KALEMELA,39507,MAYEGA,KISESA
SIMIYU,39,BUSEGA,395,MKULA,39508,MKULA,MADUKANI
SIMIYU,39,BUSEGA,395,MKULA,39508,MKULA,SOKONI
SIMIYU,39,BUSEGA,395,MKULA,39508,MKULA,USHASHINI
SIMIYU,39,BUSEGA,395,MKULA,39508,MKULA,MASANGANI A
SIMIYU,39,BUSEGA,395,MKULA,39508,MKULA,MASANGANI B
SIMIYU,39,BUSEGA,395,MKULA,39508,MKULA,SEKOTURE
SIMIYU,39,BUSEGA,395,MKULA,39508,MKULA,SHULENI
SIMIYU,39,BUSEGA,395,MKULA,39508,MKULA,MBUGANI
SIMIYU,39,BUSEGA,395,MKULA,39508,MKULA,HOSPITALI
SIMIYU,39,BUSEGA,395,MKULA,39508,MKULA,DAGASHIDA
SIMIYU,39,BUSEGA,395,MKULA,39508,MKULA,MPAKANI
SIMIYU,39,BUSEGA,395,MKULA,39508,KIJERESHI,MADUKANI
SIMIYU,39,BUSEGA,395,MKULA,39508,KIJERESHI,MASANGANI A
SIMIYU,39,BUSEGA,395,MKULA,39508,KIJERESHI,MASANGANI B
SIMIYU,39,BUSEGA,395,MKULA,39508,KIJERESHI,LAMBONI
SIMIYU,39,BUSEGA,395,MKULA,39508,KIJERESHI,MWABUMBULI A
SIMIYU,39,BUSEGA,395,MKULA,39508,KIJERESHI,MWABUMBULI B
SIMIYU,39,BUSEGA,395,MKULA,39508,KIJERESHI,BONDENI
SIMIYU,39,BUSEGA,395,MKULA,39508,CHABUTWA,MADUKANI
SIMIYU,39,BUSEGA,395,MKULA,39508,CHABUTWA,BUCHELA
SIMIYU,39,BUSEGA,395,MKULA,39508,CHABUTWA,BULOLA A
SIMIYU,39,BUSEGA,395,MKULA,39508,CHABUTWA,BULOLA B
SIMIYU,39,BUSEGA,395,MKULA,39508,CHABUTWA,NYAMADOKE
SIMIYU,39,BUSEGA,395,MKULA,39508,CHABUTWA,NYANGWE
SIMIYU,39,BUSEGA,395,MKULA,39508,CHABUTWA,MBUGUNI
SIMIYU,39,BUSEGA,395,MKULA,39508,MWANHALE,MADUKANI
SIMIYU,39,BUSEGA,395,MKULA,39508,MWANHALE,MALANGALE
SIMIYU,39,BUSEGA,395,MKULA,39508,MWANHALE,MWABASABI
SIMIYU,39,BUSEGA,395,MKULA,39508,MWANHALE,DILANDA
SIMIYU,39,BUSEGA,395,MKULA,39508,MWANHALE,NGOLONGILINDA
SIMIYU,39,BUSEGA,395,IGALUKILO,39509,MWAMAGIGISI,MADUKANI
SIMIYU,39,BUSEGA,395,IGALUKILO,39509,MWAMAGIGISI,BULINGWA
SIMIYU,39,BUSEGA,395,IGALUKILO,39509,MWAMAGIGISI,IPILILO
SIMIYU,39,BUSEGA,395,IGALUKILO,39509,MWAMAGIGISI,MWAMALESA
SIMIYU,39,BUSEGA,395,IGALUKILO,39509,MWAMAGIGISI,IHAYABUYAGA
SIMIYU,39,BUSEGA,395,IGALUKILO,39509,MWAMAGIGISI,KILOLELI
SIMIYU,39,BUSEGA,395,IGALUKILO,39509,MWAMAGIGISI,GILAMITWE
SIMIYU,39,BUSEGA,395,IGALUKILO,39509,MWAMAGIGISI,MWAMBOJI
SIMIYU,39,BUSEGA,395,IGALUKILO,39509,MWAMAGIGISI,MWAMKINGA
SIMIYU,39,BUSEGA,395,IGALUKILO,39509,MWAMAGIGISI,MWANG’HALANGA
SIMIYU,39,BUSEGA,395,IGALUKILO,39509,LUNALA,MWASUBUYA
SIMIYU,39,BUSEGA,395,IGALUKILO,39509,LUNALA,MWABAYANDA
SIMIYU,39,BUSEGA,395,IGALUKILO,39509,LUNALA,MWABAGIKUKU
SIMIYU,39,BUSEGA,395,IGALUKILO,39509,LUNALA,ISAMILO
SIMIYU,39,BUSEGA,395,IGALUKILO,39509,NYANGILI,NYANGILI
SIMIYU,39,BUSEGA,395,IGALUKILO,39509,NYANGILI,IGALUKILO
SIMIYU,39,BUSEGA,395,IGALUKILO,39509,NYANGILI,SISA
SIMIYU,39,BUSEGA,395,IGALUKILO,39509,NYANGILI,BULOLAMBESHI
SIMIYU,39,BUSEGA,395,IGALUKILO,39509,NYANGILI,MWAMUNGOYA
SIMIYU,39,BUSEGA,395,IGALUKILO,39509,NYANGILI,CHANDULU
SIMIYU,39,BUSEGA,395,IGALUKILO,39509,MWAMUJULILA,SANJO
SIMIYU,39,BUSEGA,395,IGALUKILO,39509,MWAMUJULILA,MATONGO
SIMIYU,39,BUSEGA,395,IGALUKILO,39509,MWAMUJULILA,IHONJO
SIMIYU,39,BUSEGA,395,IGALUKILO,39509,MWAMUJULILA,MWAMUJULILA
SIMIYU,39,BUSEGA,395,IGALUKILO,39509,MALANGALE,MWAMISWA
SIMIYU,39,BUSEGA,395,IGALUKILO,39509,MALANGALE,MALANGALE
SIMIYU,39,BUSEGA,395,IGALUKILO,39509,MALANGALE,BUCHELA
SIMIYU,39,BUSEGA,395,IGALUKILO,39509,MALANGALE,MWAMALWILO
SIMIYU,39,BUSEGA,395,MALILI,39510,MWAMIGONGWA,NG'WABANAMHALA
SIMIYU,39,BUSEGA,395,MALILI,39510,MWAMIGONGWA,NYAMIKOMA
SIMIYU,39,BUSEGA,395,MALILI,39510,MWAMIGONGWA,MADUKANI
SIMIYU,39,BUSEGA,395,MALILI,39510,MWAMIGONGWA,ILUGALA
SIMIYU,39,BUSEGA,395,MALILI,39510,MWAMIGONGWA,MASANGANI
SIMIYU,39,BUSEGA,395,MALILI,39510,MWAMIGONGWA,LAMBONI
SIMIYU,39,BUSEGA,395,MALILI,39510,MWAMIGONGWA,MWABASABI
SIMIYU,39,BUSEGA,395,MALILI,39510,MWAMIGONGWA,MWABAYANDA
SIMIYU,39,BUSEGA,395,MALILI,39510,MWAMIGONGWA,MWAGENDI
SIMIYU,39,BUSEGA,395,MALILI,39510,MWAMIGONGWA,INONELWA
SIMIYU,39,BUSEGA,395,MALILI,39510,MWAMIGONGWA,BULYAHEKE A
SIMIYU,39,BUSEGA,395,MALILI,39510,MALILI,MALILI
SIMIYU,39,BUSEGA,395,MALILI,39510,MALILI,MISSION
SIMIYU,39,BUSEGA,395,MALILI,39510,MALILI,SHINANILI
SIMIYU,39,BUSEGA,395,MALILI,39510,MALILI,MAJIMOTO
SIMIYU,39,BUSEGA,395,MALILI,39510,MALILI,BULIYAHEKE B
SIMIYU,39,BUSEGA,395,MALILI,39510,MALILI,BUCHELA
SIMIYU,39,BUSEGA,395,MALILI,39510,MALILI,MTONI
SIMIYU,39,BUSEGA,395,MALILI,39510,MALILI,BUCHELA
SIMIYU,39,BUSEGA,395,MALILI,39510,GUNINIGA,MWAMANYANYA
SIMIYU,39,BUSEGA,395,MALILI,39510,GUNINIGA,IKUNGABINGI
SIMIYU,39,BUSEGA,395,MALILI,39510,GUNINIGA,MADUKANI
SIMIYU,39,BUSEGA,395,MALILI,39510,GUNINIGA,SHULENI
SIMIYU,39,BUSEGA,395,MALILI,39510,GUNINIGA,BUPANDAGILA
SIMIYU,39,BUSEGA,395,MALILI,39510,GUNINIGA,NYAWIDIMA
SIMIYU,39,BUSEGA,395,MALILI,39510,GUNINIGA,NYAMATALA
SIMIYU,39,BUSEGA,395,MALILI,39510,GUNINIGA,MWABALUHI
SIMIYU,39,BUSEGA,395,MALILI,39510,GUNINIGA,MWADILI 'A'
SIMIYU,39,BUSEGA,395,MALILI,39510,GUNINIGA,MWADILI 'B'
SIMIYU,39,BUSEGA,395,MALILI,39510,GUNINIGA,MWADUGULU
SIMIYU,39,BUSEGA,395,MALILI,39510,GUNINIGA,MWANG'HALANGA
SIMIYU,39,BUSEGA,395,MALILI,39510,MWAMUGOBA,MWANAWE
SIMIYU,39,BUSEGA,395,MALILI,39510,MWAMUGOBA,MWABUCHUMA
SIMIYU,39,BUSEGA,395,MALILI,39510,MWAMUGOBA,MWANGING’HI
SIMIYU,39,BUSEGA,395,MALILI,39510,MWAMUGOBA,MWALONO
SIMIYU,39,BUSEGA,395,MALILI,39510,MWAMUGOBA,NYANG'WALE
SIMIYU,39,BUSEGA,395,MALILI,39510,MWAMUGOBA,DULASI
SIMIYU,39,BUSEGA,395,MALILI,39510,NYANGOKO,IMALANZALE
SIMIYU,39,BUSEGA,395,MALILI,39510,NYANGOKO,NYANGOKO A
SIMIYU,39,BUSEGA,395,MALILI,39510,NYANGOKO,NYANGOKO B
SIMIYU,39,BUSEGA,395,MALILI,39510,NGUNGA,SWEYA
SIMIYU,39,BUSEGA,395,MALILI,39510,NGUNGA,KATI
SIMIYU,39,BUSEGA,395,MALILI,39510,NGUNGA,IPILILO
SIMIYU,39,BUSEGA,395,MALILI,39510,NGUNGA,MWAMANYILI
SIMIYU,39,BUSEGA,395,MALILI,39510,NGUNGA,NG’HUNG’HU
SIMIYU,39,BUSEGA,395,NGASAMO,39511,NGASAMO,ILUJAMINZI
SIMIYU,39,BUSEGA,395,NGASAMO,39511,NGASAMO,MADUKANI
SIMIYU,39,BUSEGA,395,NGASAMO,39511,NGASAMO,ISADUKILO
SIMIYU,39,BUSEGA,395,NGASAMO,39511,NGASAMO,UKULYANI
SIMIYU,39,BUSEGA,395,NGASAMO,39511,NGASAMO,MAKAMBANI
SIMIYU,39,BUSEGA,395,NGASAMO,39511,NGASAMO,IGABULILO
SIMIYU,39,BUSEGA,395,NGASAMO,39511,NGASAMO,BULYAHEKE
SIMIYU,39,BUSEGA,395,NGASAMO,39511,NGASAMO,NG'WAGEGU.
SIMIYU,39,BUSEGA,395,NGASAMO,39511,SANGA,NG’WALAMBO
SIMIYU,39,BUSEGA,395,NGASAMO,39511,SANGA,MTONI
SIMIYU,39,BUSEGA,395,NGASAMO,39511,SANGA,MADUKANI
SIMIYU,39,BUSEGA,395,NGASAMO,39511,SANGA,IWELIMO
SIMIYU,39,BUSEGA,395,NGASAMO,39511,SANGA,BUTENGE
SIMIYU,39,BUSEGA,395,NGASAMO,39511,SANGA,IBUMBA A
SIMIYU,39,BUSEGA,395,NGASAMO,39511,SANGA,IBUMBA B
SIMIYU,39,BUSEGA,395,NGASAMO,39511,SANGA,MWAMAJAWA A
SIMIYU,39,BUSEGA,395,NGASAMO,39511,SANGA,MWAMAJAWA B
SIMIYU,39,BUSEGA,395,NGASAMO,39511,SANGA,MWALYANGALA
SIMIYU,39,BUSEGA,395,NGASAMO,39511,SANGA,BUTENGE MTONI
SIMIYU,39,BUSEGA,395,NGASAMO,39511,SANGA,MALULANI
SIMIYU,39,BUSEGA,395,NYASHIMO,39512,BULIMA,MWANOGI
SIMIYU,39,BUSEGA,395,NYASHIMO,39512,BULIMA,BULIMA
SIMIYU,39,BUSEGA,395,NYASHIMO,39512,BULIMA,KASADIMA
SIMIYU,39,BUSEGA,395,NYASHIMO,39512,BULIMA,KIGOMA
SIMIYU,39,BUSEGA,395,NYASHIMO,39512,BULIMA,NYANG'HANGA 'A'
SIMIYU,39,BUSEGA,395,NYASHIMO,39512,BULIMA,NYANG'HANGA 'B'
SIMIYU,39,BUSEGA,395,NYASHIMO,39512,BULIMA,NG'WANG'ALANGA
SIMIYU,39,BUSEGA,395,NYASHIMO,39512,MWAGULANJA,MWAGULANJA
SIMIYU,39,BUSEGA,395,NYASHIMO,39512,MWAGULANJA,NYANGUKU
SIMIYU,39,BUSEGA,395,NYASHIMO,39512,MWAGULANJA,CHANELA
SIMIYU,39,BUSEGA,395,NYASHIMO,39512,MWAGULANJA,ISUKA
SIMIYU,39,BUSEGA,395,NYASHIMO,39512,MWAGULANJA,NYABULE
SIMIYU,39,BUSEGA,395,NYASHIMO,39512,BUKABILE,MWASIKULA 'A'
SIMIYU,39,BUSEGA,395,NYASHIMO,39512,BUKABILE,MWASIKULA 'B'
SIMIYU,39,BUSEGA,395,NYASHIMO,39512,BUKABILE,IBULABUJA
SIMIYU,39,BUSEGA,395,NYASHIMO,39512,BUKABILE,NYASHIMO
SIMIYU,39,BUSEGA,395,LAMADI,39513,LAMADI,MAKANISANI
SIMIYU,39,BUSEGA,395,LAMADI,39513,LAMADI,SOKONI
SIMIYU,39,BUSEGA,395,LAMADI,39513,LAMADI,KISESA
SIMIYU,39,BUSEGA,395,LAMADI,39513,LAMADI,ITONGO
SIMIYU,39,BUSEGA,395,LAMADI,39513,LAMADI,LAMADI
SIMIYU,39,BUSEGA,395,LAMADI,39513,LAMADI,MWALUKONGE
SIMIYU,39,BUSEGA,395,LAMADI,39513,KALAGO,KALAGO
SIMIYU,39,BUSEGA,395,LAMADI,39513,KALAGO,KASHISHI
SIMIYU,39,BUSEGA,395,LAMADI,39513,KALAGO,MWABULUGUA
SIMIYU,39,BUSEGA,395,LAMADI,39513,KALAGO,MWABULUGU B
SIMIYU,39,BUSEGA,395,LAMADI,39513,KALAGO,MAKUMBUSHO YA NYERERE
SIMIYU,39,BUSEGA,395,LAMADI,39513,MWABAYANDA,MWABAYANDA
SIMIYU,39,BUSEGA,395,LAMADI,39513,MWABAYANDA,MWABASABI 'A'
SIMIYU,39,BUSEGA,395,LAMADI,39513,MWABAYANDA,MWABASABI 'B'
SIMIYU,39,BUSEGA,395,LAMADI,39513,MWABAYANDA,ILOBASHI
SIMIYU,39,BUSEGA,395,LAMADI,39513,MWABAYANDA,ITABU
SIMIYU,39,BUSEGA,395,LAMADI,39513,MWABAYANDA,LAMBONI
SIMIYU,39,BUSEGA,395,LAMADI,39513,LUKUNGU,ISENI 'A'
SIMIYU,39,BUSEGA,395,LAMADI,39513,LUKUNGU,ISENI 'B'
SIMIYU,39,BUSEGA,395,LAMADI,39513,LUKUNGU,CHABAKAZI
SIMIYU,39,BUSEGA,395,LAMADI,39513,LUKUNGU,ZIWANI
SIMIYU,39,BUSEGA,395,LAMADI,39513,LUKUNGU,MWAMALOLE
SIMIYU,39,BUSEGA,395,LUTUBIGA,39514,MWASAMBA,MADUKANI
SIMIYU,39,BUSEGA,395,LUTUBIGA,39514,MWASAMBA,NYAKWITULYA
SIMIYU,39,BUSEGA,395,LUTUBIGA,39514,MWASAMBA,MWASAMBA 'A'
SIMIYU,39,BUSEGA,395,LUTUBIGA,39514,MWASAMBA,MWASAMBA 'B'
SIMIYU,39,BUSEGA,395,LUTUBIGA,39514,MWASAMBA,MWALUGESHA
SIMIYU,39,BUSEGA,395,LUTUBIGA,39514,MWASAMBA,GAMBOSHI
SIMIYU,39,BUSEGA,395,LUTUBIGA,39514,LUTUBIGA,SHULENI
SIMIYU,39,BUSEGA,395,LUTUBIGA,39514,LUTUBIGA,MWALANDALA 'B'
SIMIYU,39,BUSEGA,395,LUTUBIGA,39514,LUTUBIGA,KISESA
SIMIYU,39,BUSEGA,395,LUTUBIGA,39514,LUTUBIGA,NJIAPANDA
SIMIYU,39,BUSEGA,395,LUTUBIGA,39514,LUTUBIGA,MWALANDARA 'A'
SIMIYU,39,BUSEGA,395,LUTUBIGA,39514,LUTUBIGA,ZAHANATI
SIMIYU,39,BUSEGA,395,LUTUBIGA,39514,LUTUBIGA,LAMBONI 'A'
SIMIYU,39,BUSEGA,395,LUTUBIGA,39514,LUTUBIGA,LAMBONI 'B'
SIMIYU,39,BUSEGA,395,LUTUBIGA,39514,MWANGIKA,IBYOLOLO
SIMIYU,39,BUSEGA,395,LUTUBIGA,39514,MWANGIKA,MWASUBUYA
SIMIYU,39,BUSEGA,395,LUTUBIGA,39514,MWANGIKA,SHULENI
SIMIYU,39,BUSEGA,395,LUTUBIGA,39514,MWANGIKA,STOONI
SIMIYU,39,BUSEGA,395,LUTUBIGA,39514,MWAKILOBA,MILIMANI
SIMIYU,39,BUSEGA,395,LUTUBIGA,39514,MWAKILOBA,MWAKILOMBA SHULENI
SIMIYU,39,BUSEGA,395,LUTUBIGA,39514,MWAKILOBA,STOONI
SIMIYU,39,BUSEGA,395,LUTUBIGA,39514,MWAKILOBA,MWABASABI
SIMIYU,39,BUSEGA,395,LUTUBIGA,39514,MWAKILOBA,MBUGANI
SIMIYU,39,BUSEGA,395,IMALAMATE,39515,IMALAMATE,LUKALANGWA
SIMIYU,39,BUSEGA,395,IMALAMATE,39515,IMALAMATE,IMALAMATE
SIMIYU,39,BUSEGA,395,IMALAMATE,39515,IMALAMATE,IGUNGUMUKILO
SIMIYU,39,BUSEGA,395,IMALAMATE,39515,IMALAMATE,NYANZAWE
SIMIYU,39,BUSEGA,395,IMALAMATE,39515,IMALAMATE,ILULA
SIMIYU,39,BUSEGA,395,IMALAMATE,39515,IMALAMATE,ISAGENG'HE
SIMIYU,39,BUSEGA,395,IMALAMATE,39515,JISESA,JISESA
SIMIYU,39,BUSEGA,395,IMALAMATE,39515,JISESA,NG'WANG'HOLO
SIMIYU,39,BUSEGA,395,IMALAMATE,39515,JISESA,SONGAMBELE
SIMIYU,39,BUSEGA,395,IMALAMATE,39515,JISESA,BUGANDO
SIMIYU,39,BUSEGA,395,IMALAMATE,39515,NG'WANG'WENGE,IKUNGULYAMBESHI 'A'
SIMIYU,39,BUSEGA,395,IMALAMATE,39515,NG'WANG'WENGE,IKUNGULYAMBESHI 'B'
SIMIYU,39,BUSEGA,395,IMALAMATE,39515,NG'WANG'WENGE,MADUKANI
SIMIYU,39,BUSEGA,395,IMALAMATE,39515,NG'WANG'WENGE,MWABASABI
SIMIYU,39,BUSEGA,395,IMALAMATE,39515,NG'WANG'WENGE,SHINYANGA
SIMIYU,39,BUSEGA,395,IMALAMATE,39515,NG'WANG'WENGE,MWAMALWILO 'A'
SIMIYU,39,BUSEGA,395,IMALAMATE,39515,NG'WANG'WENGE,MWAMALWILO 'B'
SIMIYU,39,BUSEGA,395,IMALAMATE,39515,NG'WANG'WENGE,MASHIGAMBITI
SIMIYU,39,BUSEGA,395,IMALAMATE,39515,NG'WANG'WENGE,MIGUNGAMBILU
