REGION,POSTCODE,DISTRICT,POSTCODE,WARD,POSTCODE,STREET,PLACES
SINGIDA,43,SINGIDA CBD,431,UTEMINI,43101,UTEMINI,
SINGIDA,43,SINGIDA CBD,431,UTEMINI,43101,STATION,
SINGIDA,43,SINGIDA CBD,431,UTEMINI,43101,SABASABA,
SINGIDA,43,SINGIDA CBD,431,MUGHANGA,43102,BOMANI,
SINGIDA,43,SINGIDA CBD,431,MUGHANGA,43102,MJI WA ZAMANI,
SINGIDA,43,SINGIDA CBD,431,MITUNDURUNI,43103,MITUNDURUNI,
SINGIDA,43,SINGIDA CBD,431,MITUNDURUNI,43103,UNYANKINDI,
SINGIDA,43,SINGIDA CBD,431,MITUNDURUNI,43103,MANGUAMITOGHO,
SINGIDA,43,SINGIDA CBD,431,MITUNDURUNI,43103,KASEMBE,
SINGIDA,43,SINGIDA CBD,431,MITUNDURUNI,43103,MSUFUNI,
SINGIDA,43,SINGIDA CBD,431,MITUNDURUNI,43103,BIMA,
SINGIDA,43,SINGIDA CBD,431,MITUNDURUNI,43103,N.H.C.,
SINGIDA,43,SINGIDA CBD,431,MTAMAA,43104,MTAMAA A,MKWIO
SINGIDA,43,SINGIDA CBD,431,MTAMAA,43104,MTAMAA A,NKUMBANDII
SINGIDA,43,SINGIDA CBD,431,MTAMAA,43104,MTAMAA A,MATUTU
SINGIDA,43,SINGIDA CBD,431,MTAMAA,43104,MTAMAA B,MIFUMBU
SINGIDA,43,SINGIDA CBD,431,MTAMAA,43104,MTAMAA B,MAKYUNJE
SINGIDA,43,SINGIDA CBD,431,MTAMAA,43104,MTAMAA B,MGHISIU
SINGIDA,43,SINGIDA CBD,431,MTAMAA,43104,MTISI,
SINGIDA,43,SINGIDA CBD,431,MTAMAA,43104,MNYITUKA,
SINGIDA,43,SINGIDA CBD,431,MTAMAA,43104,KIMAI,
SINGIDA,43,SINGIDA CBD,431,MANDEWA,43105,MANDEWA,UNYAKUMI
SINGIDA,43,SINGIDA CBD,431,MANDEWA,43105,MANDEWA,UNYINGA
SINGIDA,43,SINGIDA CBD,431,MANDEWA,43105,MANDEWA,MAGWE
SINGIDA,43,SINGIDA CBD,431,MANDEWA,43105,MANDEWA,UWANJA WA NDEGE
SINGIDA,43,SINGIDA CBD,431,MANDEWA,43105,MANGUANJUKI,NJUKI
SINGIDA,43,SINGIDA CBD,431,MANDEWA,43105,MANGUANJUKI,MKARATUSI
SINGIDA,43,SINGIDA CBD,431,MANDEWA,43105,MANGUANJUKI,NKUKU
SINGIDA,43,SINGIDA CBD,431,MANDEWA,43105,MWAJA,
SINGIDA,43,SINGIDA CBD,431,MANDEWA,43105,UNYANKHAE,
SINGIDA,43,SINGIDA CBD,431,MWANKOKO,43106,ISOMIA,
SINGIDA,43,SINGIDA CBD,431,MWANKOKO,43106,MWANKOKO A,IKUSI A
SINGIDA,43,SINGIDA CBD,431,MWANKOKO,43106,MWANKOKO A,MUNYINGA
SINGIDA,43,SINGIDA CBD,431,MWANKOKO,43106,MWANKOKO A,MUGHUMO
SINGIDA,43,SINGIDA CBD,431,MWANKOKO,43106,MWANKOKO A,MWACHICHI
SINGIDA,43,SINGIDA CBD,431,MWANKOKO,43106,MWANKOKO A,DARAJANI
SINGIDA,43,SINGIDA CBD,431,MWANKOKO,43106,MWANKOKO B,KITOPE DARAJANI
SINGIDA,43,SINGIDA CBD,431,MWANKOKO,43106,MWANKOKO B,NKUWI MBUYUNI
SINGIDA,43,SINGIDA CBD,431,MWANKOKO,43106,MWANKOKO B,MISUNA
SINGIDA,43,SINGIDA CBD,431,MWANKOKO,43106,MWANKOKO B,MISIMIHI
SINGIDA,43,SINGIDA CBD,431,MWANKOKO,43106,MWANKOKO B,IKUSI B
SINGIDA,43,SINGIDA CBD,431,MWANKOKO,43106,MAKUNGU,
SINGIDA,43,SINGIDA CBD,431,MUNGUMAJI,43107,MUNGUMAJI,MUNGUMAJI
SINGIDA,43,SINGIDA CBD,431,MUNGUMAJI,43107,MUNGUMAJI,MKESE
SINGIDA,43,SINGIDA CBD,431,MUNGUMAJI,43107,MUNGUMAJI,NKUHI
SINGIDA,43,SINGIDA CBD,431,MUNGUMAJI,43107,MUNGUMAJI,IGUNGIE
SINGIDA,43,SINGIDA CBD,431,MUNGUMAJI,43107,MUNGUMAJI,SASU
SINGIDA,43,SINGIDA CBD,431,MUNGUMAJI,43107,KITITIMO,
SINGIDA,43,SINGIDA CBD,431,IPEMBE,43108,IPEMBE,
SINGIDA,43,SINGIDA CBD,431,IPEMBE,43108,SOKO,
SINGIDA,43,SINGIDA CBD,431,IPEMBE,43108,ZIMAMOTO,
SINGIDA,43,SINGIDA CBD,431,MAJENGO,43109,MWENGE,
SINGIDA,43,SINGIDA CBD,431,MAJENGO,43109,NG'ONGOAJIBU,
SINGIDA,43,SINGIDA CBD,431,MAJENGO,43109,STAND,
SINGIDA,43,SINGIDA CBD,431,MAJENGO,43109,JITULIZE,
SINGIDA,43,SINGIDA CBD,431,MAJENGO,43109,UKOMBOZI,
SINGIDA,43,SINGIDA CBD,431,MAJENGO,43109,MAJENGO,
SINGIDA,43,SINGIDA CBD,431,KINDAI,43110,KUNDAI,
SINGIDA,43,SINGIDA CBD,431,KINDAI,43110,KILAMBIDA,
SINGIDA,43,SINGIDA CBD,431,KINDAI,43110,MAHEMBE,
SINGIDA,43,SINGIDA CBD,431,KINDAI,43110,KIBAONI,
SINGIDA,43,SINGIDA CBD,431,KINDAI,43110,BOHARI,
SINGIDA,43,SINGIDA CBD,431,KINDAI,43110,SINGIDA MNANGI,
SINGIDA,43,SINGIDA CBD,431,KINDAI,43110,KIDINKUKU,
SINGIDA,43,SINGIDA CBD,431,MTIPA,43111,MTIPA,MADUKANI
SINGIDA,43,SINGIDA CBD,431,MTIPA,43111,MTIPA,MWAMPEMBEE
SINGIDA,43,SINGIDA CBD,431,MTIPA,43111,MTIPA,KIBAONI
SINGIDA,43,SINGIDA CBD,431,MTIPA,43111,MTIPA,MWEMBEMOJA
SINGIDA,43,SINGIDA CBD,431,MTIPA,43111,MTIPA,NYUNJWI
SINGIDA,43,SINGIDA CBD,431,MTIPA,43111,MTIPA MASHARIKI,
SINGIDA,43,SINGIDA CBD,431,MTIPA,43111,MANGA,MFIGWA
SINGIDA,43,SINGIDA CBD,431,MTIPA,43111,MANGA,MANGA
SINGIDA,43,SINGIDA CBD,431,MTIPA,43111,MANGA,MFUMBU
SINGIDA,43,SINGIDA CBD,431,MTIPA,43111,MANGA,SENGASENGA
SINGIDA,43,SINGIDA CBD,431,UNYAMBWA,43112,UNYAMBWA,SANGA
SINGIDA,43,SINGIDA CBD,431,UNYAMBWA,43112,UNYAMBWA,MAHAGYE
SINGIDA,43,SINGIDA CBD,431,UNYAMBWA,43112,UNYAMBWA,MILADE
SINGIDA,43,SINGIDA CBD,431,UNYAMBWA,43112,UNYAMBWA,UNYAMBWA C.C.M.
SINGIDA,43,SINGIDA CBD,431,UNYAMBWA,43112,UNYAMBWA,UNYAMBWA JUU
SINGIDA,43,SINGIDA CBD,431,UNYAMBWA,43112,UNYAMBWA,KINYAKAYA
SINGIDA,43,SINGIDA CBD,431,UNYAMBWA,43112,UNYAMBWA,MANGUAPYUGHU
SINGIDA,43,SINGIDA CBD,431,UNYAMBWA,43112,KISASIDA,MRAMA
SINGIDA,43,SINGIDA CBD,431,UNYAMBWA,43112,KISASIDA,NAMBARO
SINGIDA,43,SINGIDA CBD,431,UNYAMBWA,43112,KISASIDA,JANUKA
SINGIDA,43,SINGIDA CBD,431,UNYAMBWA,43112,KISASIDA,KISASIDA
SINGIDA,43,SINGIDA CBD,431,UNYAMBWA,43112,KISASIDA,NJIA PANDA
SINGIDA,43,SINGIDA CBD,431,UNYAMBWA,43112,IPUNGI,IPUNGI
SINGIDA,43,SINGIDA CBD,431,UNYAMBWA,43112,IPUNGI,KIHENDO
SINGIDA,43,SINGIDA CBD,431,UNYAMBWA,43112,IPUNGI,MLUWA
SINGIDA,43,SINGIDA CBD,431,UNYAMBWA,43112,IPUNGI,MIKUNGUU
SINGIDA,43,SINGIDA CBD,431,UNYAMBWA,43112,KINYAKAYA,KINYAKAYA
SINGIDA,43,SINGIDA CBD,431,UNYAMBWA,43112,KINYAKAYA,SANGA
SINGIDA,43,SINGIDA CBD,431,UNYAMBWA,43112,KINYAKAYA,MAHANGHIE
SINGIDA,43,SINGIDA CBD,431,UNYAMBWA,43112,KINYAKAYA,MILADE
SINGIDA,43,SINGIDA CBD,431,UNYAMIKUMBI,43113,UNYAMIKUMBI A,MITAU
SINGIDA,43,SINGIDA CBD,431,UNYAMIKUMBI,43113,UNYAMIKUMBI A,ULIHI
SINGIDA,43,SINGIDA CBD,431,UNYAMIKUMBI,43113,UNYAMIKUMBI A,UTAMAA
SINGIDA,43,SINGIDA CBD,431,UNYAMIKUMBI,43113,UNYAMIKUMBI A,MIKUNTYU
SINGIDA,43,SINGIDA CBD,431,UNYAMIKUMBI,43113,UNYAMIKUMBI A,NTUNDUU
SINGIDA,43,SINGIDA CBD,431,UNYAMIKUMBI,43113,UGHAUGHA A,INDORA
SINGIDA,43,SINGIDA CBD,431,UNYAMIKUMBI,43113,UGHAUGHA A,MANKHAU
SINGIDA,43,SINGIDA CBD,431,UNYAMIKUMBI,43113,UGHAUGHA A,KINYALISU
SINGIDA,43,SINGIDA CBD,431,UNYAMIKUMBI,43113,UGHAUGHA B,SAHALU
SINGIDA,43,SINGIDA CBD,431,UNYAMIKUMBI,43113,UGHAUGHA B,SUNDU
SINGIDA,43,SINGIDA CBD,431,UNYAMIKUMBI,43113,UGHAUGHA B,MASINDIBA
SINGIDA,43,SINGIDA CBD,431,UNYAMIKUMBI,43113,UGHAUGHA B,MAKUNYUI
SINGIDA,43,SINGIDA CBD,431,UNYAMIKUMBI,43113,UGHAUGHA B,LAVAS
SINGIDA,43,SINGIDA CBD,431,UNYAMIKUMBI,43113,KIHADE,
SINGIDA,43,SINGIDA CBD,431,MINGA,43114,MINGA,
SINGIDA,43,SINGIDA CBD,431,MINGA,43114,ARUSHA ROAD,
SINGIDA,43,SINGIDA CBD,431,MINGA,43114,ITUNGUKIA,
SINGIDA,43,SINGIDA CBD,431,MINGA,43114,MNUNG'UNA,
SINGIDA,43,SINGIDA CBD,431,MISUNA,43115,MISUNA,
SINGIDA,43,SINGIDA CBD,431,MISUNA,43115,SALMIN,
SINGIDA,43,SINGIDA CBD,431,MISUNA,43115,KIMPUNGUA,
SINGIDA,43,SINGIDA CBD,431,MISUNA,43115,SOKOINE,
SINGIDA,43,SINGIDA CBD,431,MISUNA,43115,KARAKANA,
SINGIDA,43,SINGIDA CBD,431,UHAMAKA,43116,MWAMRAFA,
SINGIDA,43,SINGIDA CBD,431,UHAMAKA,43116,UHAMAKA,NDIGA
SINGIDA,43,SINGIDA CBD,431,UHAMAKA,43116,UHAMAKA,MUGHANGA
SINGIDA,43,SINGIDA CBD,431,UHAMAKA,43116,UHAMAKA,MUMBIWI
SINGIDA,43,SINGIDA CBD,431,UHAMAKA,43116,UHAMAKA,MSIMIHI
SINGIDA,43,SINGIDA CBD,431,UHAMAKA,43116,UHAMAKA,MISUNA
SINGIDA,43,SINGIDA CBD,431,UHAMAKA,43116,UHAMAKA,MGHONDWE
SINGIDA,43,SINGIDA CBD,431,UHAMAKA,43116,UHAMAKA,NAMBARO
SINGIDA,43,SINGIDA CBD,431,UHAMAKA,43116,UHAMAKA,MNYAMBI
SINGIDA,43,SINGIDA CBD,431,UHAMAKA,43116,ITITI,
SINGIDA,43,SINGIDA CBD,431,UNYIANGA,43117,UNYIANGA ''A'',
SINGIDA,43,SINGIDA CBD,431,UNYIANGA,43117,UNYIANGA ''B'',
SINGIDA,43,SINGIDA CBD,431,KISAKI,43118,NG'AIDA,
SINGIDA,43,SINGIDA CBD,431,KISAKI,43118,IKENGA,
SINGIDA,43,SINGIDA CBD,431,KISAKI,43118,KISAKI,"KISAKI ""A"""
SINGIDA,43,SINGIDA CBD,431,KISAKI,43118,KISAKI,"KISAKI ""B"""
SINGIDA,43,SINGIDA CBD,431,KISAKI,43118,KISAKI,IYANGI
SINGIDA,43,SINGIDA CBD,431,KISAKI,43118,KISAKI,IRAO
SINGIDA,43,SINGIDA CBD,431,KISAKI,43118,KISAKI,KITOPE
SINGIDA,43,SINGIDA CBD,431,KISAKI,43118,"UNYAMIKUMBI ""B"" .",GHALU
SINGIDA,43,SINGIDA CBD,431,KISAKI,43118,"UNYAMIKUMBI ""B"" .",NKHAMBI
SINGIDA,43,SINGIDA CBD,431,KISAKI,43118,"UNYAMIKUMBI ""B"" .",ILAHU
SINGIDA,43,SINGIDA CBD,431,KISAKI,43118,"UNYAMIKUMBI ""B"" .",IDUMUNKU
SINGIDA,43,SINGIDA,432,MGORI,43201,MGORI,MGORI MADUKANI
SINGIDA,43,SINGIDA,432,MGORI,43201,MGORI,MWAMBA
SINGIDA,43,SINGIDA,432,MGORI,43201,MGORI,NKUNGUU
SINGIDA,43,SINGIDA,432,MGORI,43201,MGORI,NKWAE
SINGIDA,43,SINGIDA,432,MGORI,43201,MGORI,MITUNDURUNI
SINGIDA,43,SINGIDA,432,MGORI,43201,MGORI,SUHA
SINGIDA,43,SINGIDA,432,MGORI,43201,MUNKHOLA,MKOVA
SINGIDA,43,SINGIDA,432,MGORI,43201,MUNKHOLA,MAARO
SINGIDA,43,SINGIDA,432,MGORI,43201,MUNKHOLA,MWANASE
SINGIDA,43,SINGIDA,432,MGORI,43201,MUNKHOLA,UNYAMPANDA
SINGIDA,43,SINGIDA,432,MGORI,43201,MUNKHOLA,MSIKII
SINGIDA,43,SINGIDA,432,MGORI,43201,MUNKHOLA,ITAGHATA
SINGIDA,43,SINGIDA,432,MGORI,43201,MUNKHOLA,NKHONGOO
SINGIDA,43,SINGIDA,432,MGORI,43201,MUNKHOLA,ITOGHOO
SINGIDA,43,SINGIDA,432,MGORI,43201,SUGHANA,UKOMBOZI
SINGIDA,43,SINGIDA,432,MGORI,43201,SUGHANA,ISANGA
SINGIDA,43,SINGIDA,432,MGORI,43201,SUGHANA,NTINDIGHA
SINGIDA,43,SINGIDA,432,MGORI,43201,SUGHANA,IKAKA
SINGIDA,43,SINGIDA,432,MGORI,43201,SUGHANA,IROO
SINGIDA,43,SINGIDA,432,MGORI,43201,SUGHANA,KIROGI
SINGIDA,43,SINGIDA,432,MGORI,43201,SUGHANA,UNYANJOKA
SINGIDA,43,SINGIDA,432,MGORI,43201,SUGHANA,KINYANTUNDU
SINGIDA,43,SINGIDA,432,MGORI,43201,SUGHANA,NTINDIGHA  A
SINGIDA,43,SINGIDA,432,MGORI,43201,SUGHANA,UJAIRE
SINGIDA,43,SINGIDA,432,MGORI,43201,SUGHANA,MAJENGO MAPYA
SINGIDA,43,SINGIDA,432,MUGHUNGA,43202,NDUAMUGHANGA,NDUAMUGHANGA
SINGIDA,43,SINGIDA,432,MUGHUNGA,43202,NDUAMUGHANGA,DIGHWEDA
SINGIDA,43,SINGIDA,432,MUGHUNGA,43202,NDUAMUGHANGA,MTAKUJA
SINGIDA,43,SINGIDA,432,MUGHUNGA,43202,NDUAMUGHANGA,LANGALANGASE
SINGIDA,43,SINGIDA,432,MUGHUNGA,43202,NDUAMUGHANGA,UKOMBOZI
SINGIDA,43,SINGIDA,432,MUGHUNGA,43202,NDUAMUGHANGA,MAJENGO MAPYA
SINGIDA,43,SINGIDA,432,MUGHUNGA,43202,NDUAMUGHANGA,MKULU
SINGIDA,43,SINGIDA,432,MUGHUNGA,43202,NDUAMUGHANGA,NKUNGI
SINGIDA,43,SINGIDA,432,MUGHUNGA,43202,MUGHUNGA,MBUYUNI
SINGIDA,43,SINGIDA,432,MUGHUNGA,43202,MUGHUNGA,MWEMBU
SINGIDA,43,SINGIDA,432,MUGHUNGA,43202,MUGHUNGA,UNYANKANYA
SINGIDA,43,SINGIDA,432,MUGHUNGA,43202,MUGHUNGA,ISOMIA
SINGIDA,43,SINGIDA,432,MUGHUNGA,43202,UNYAMPANDA,MUUNGANO
SINGIDA,43,SINGIDA,432,MUGHUNGA,43202,UNYAMPANDA,MWENGE
SINGIDA,43,SINGIDA,432,MUGHUNGA,43202,UNYAMPANDA,MTAKUJA
SINGIDA,43,SINGIDA,432,MUGHUNGA,43202,UNYAMPANDA,GWIRI
SINGIDA,43,SINGIDA,432,NGIMU,43203,NGIMU,MDUKANI
SINGIDA,43,SINGIDA,432,NGIMU,43203,NGIMU,NGIMU
SINGIDA,43,SINGIDA,432,NGIMU,43203,NGIMU,SONGELAELI
SINGIDA,43,SINGIDA,432,NGIMU,43203,NGIMU,CHUI
SINGIDA,43,SINGIDA,432,NGIMU,43203,NGIMU,MKESE
SINGIDA,43,SINGIDA,432,NGIMU,43203,NGIMU,MISUNA
SINGIDA,43,SINGIDA,432,NGIMU,43203,NGIMU,GAIRO
SINGIDA,43,SINGIDA,432,NGIMU,43203,MWIGHANJI,MASWERE
SINGIDA,43,SINGIDA,432,NGIMU,43203,MWIGHANJI,MAINGASI
SINGIDA,43,SINGIDA,432,NGIMU,43203,MWIGHANJI,NGARAMTONI
SINGIDA,43,SINGIDA,432,NGIMU,43203,MWIGHANJI,MAJENGO MAPYA
SINGIDA,43,SINGIDA,432,NGIMU,43203,MWIGHANJI,NKUNGI
SINGIDA,43,SINGIDA,432,NGIMU,43203,MWIGHANJI,KITYURA
SINGIDA,43,SINGIDA,432,NGIMU,43203,MWIGHANJI,CAMP
SINGIDA,43,SINGIDA,432,NGIMU,43203,LAMBA,LAMBA
SINGIDA,43,SINGIDA,432,NGIMU,43203,LAMBA,MAKUNGU
SINGIDA,43,SINGIDA,432,NGIMU,43203,LAMBA,MNKHONKO
SINGIDA,43,SINGIDA,432,NGIMU,43203,LAMBA,MANTANINGA
SINGIDA,43,SINGIDA,432,NGIMU,43203,POHAMA,POHAMA KATI
SINGIDA,43,SINGIDA,432,NGIMU,43203,POHAMA,POHAMA JUU
SINGIDA,43,SINGIDA,432,NGIMU,43203,POHAMA,NKUHI
SINGIDA,43,SINGIDA,432,NGIMU,43203,POHAMA,MILADE
SINGIDA,43,SINGIDA,432,NGIMU,43203,POHAMA,MUGHAMO
SINGIDA,43,SINGIDA,432,NGIMU,43203,POHAMA,JENGO
SINGIDA,43,SINGIDA,432,NGIMU,43203,POHAMA,MWACHONJA
SINGIDA,43,SINGIDA,432,NGIMU,43203,POHAMA,POHAMA MRUMBA
SINGIDA,43,SINGIDA,432,NGIMU,43203,POHAMA,MASIRIVA
SINGIDA,43,SINGIDA,432,ITAJA,43204,SAGARA,SAGARA MADUKANI
SINGIDA,43,SINGIDA,432,ITAJA,43204,SAGARA,MORAMU
SINGIDA,43,SINGIDA,432,ITAJA,43204,SAGARA,SAGARA KUSINI
SINGIDA,43,SINGIDA,432,ITAJA,43204,SAGARA,MIJUHU
SINGIDA,43,SINGIDA,432,ITAJA,43204,SAGARA,GAIRU
SINGIDA,43,SINGIDA,432,ITAJA,43204,ITAJA,ITAJA
SINGIDA,43,SINGIDA,432,ITAJA,43204,ITAJA,MASWELE
SINGIDA,43,SINGIDA,432,ITAJA,43204,ITAJA,GAIRU ITAJA
SINGIDA,43,SINGIDA,432,ITAJA,43204,ITAJA,SAGARA ITAJA
SINGIDA,43,SINGIDA,432,ITAJA,43204,ITAJA,MAGHONGE
SINGIDA,43,SINGIDA,432,ITAJA,43204,ITAJA,MFURU
SINGIDA,43,SINGIDA,432,ITAJA,43204,KINYAMWENDA,KINYAMWENDA A
SINGIDA,43,SINGIDA,432,ITAJA,43204,KINYAMWENDA,KINYAMWENDA B
SINGIDA,43,SINGIDA,432,ITAJA,43204,KINYAMWENDA,MWASIMO
SINGIDA,43,SINGIDA,432,ITAJA,43204,KINYAMWENDA,MSHIKAMANO
SINGIDA,43,SINGIDA,432,ILONGERO,43205,ILONGERO,MWANGAZA
SINGIDA,43,SINGIDA,432,ILONGERO,43205,ILONGERO,MIEMBENI
SINGIDA,43,SINGIDA,432,ILONGERO,43205,ILONGERO,MITUNDURUNI
SINGIDA,43,SINGIDA,432,ILONGERO,43205,ILONGERO,MKESE
SINGIDA,43,SINGIDA,432,ILONGERO,43205,MADAMIGHA,ISALANDA
SINGIDA,43,SINGIDA,432,ILONGERO,43205,MADAMIGHA,SEKERUA
SINGIDA,43,SINGIDA,432,ILONGERO,43205,MADAMIGHA,MADAMIGHA KATI
SINGIDA,43,SINGIDA,432,ILONGERO,43205,MADAMIGHA,MWAMRINGA
SINGIDA,43,SINGIDA,432,ILONGERO,43205,MADAMIGHA,ILONGERO MADUKANI
SINGIDA,43,SINGIDA,432,ILONGERO,43205,SEKOUTOURE,NKUHI
SINGIDA,43,SINGIDA,432,ILONGERO,43205,SEKOUTOURE,MWAMJEE
SINGIDA,43,SINGIDA,432,ILONGERO,43205,SEKOUTOURE,MWAKINDURI
SINGIDA,43,SINGIDA,432,ILONGERO,43205,SEKOUTOURE,UNYANG’OMBE
SINGIDA,43,SINGIDA,432,ILONGERO,43205,SEKOUTOURE,IDALAGHANGA
SINGIDA,43,SINGIDA,432,ILONGERO,43205,MWAHANGO,NTAMBUKO
SINGIDA,43,SINGIDA,432,ILONGERO,43205,MWAHANGO,MPANGAMBURI
SINGIDA,43,SINGIDA,432,ILONGERO,43205,MWAHANGO,MWAHANGOMAJI
SINGIDA,43,SINGIDA,432,ILONGERO,43205,MWAHANGO,MAKUFANTIGHA
SINGIDA,43,SINGIDA,432,MRAMA,43206,MWAKITI,MZALENDO
SINGIDA,43,SINGIDA,432,MRAMA,43206,MWAKITI,MAPINDUZI
SINGIDA,43,SINGIDA,432,MRAMA,43206,MWAKITI,UNYANGII
SINGIDA,43,SINGIDA,432,MRAMA,43206,MWAKITI,NAMBARO ‘A’
SINGIDA,43,SINGIDA,432,MRAMA,43206,MWAKITI,NAMBARO ‘B’
SINGIDA,43,SINGIDA,432,MRAMA,43206,MRAMA,MIGUNGA
SINGIDA,43,SINGIDA,432,MRAMA,43206,MRAMA,UNYARUGE
SINGIDA,43,SINGIDA,432,MRAMA,43206,MRAMA,BWARAGHI
SINGIDA,43,SINGIDA,432,MRAMA,43206,ITAMKA,MWAYADI
SINGIDA,43,SINGIDA,432,MRAMA,43206,ITAMKA,UNYARUGE
SINGIDA,43,SINGIDA,432,MRAMA,43206,ITAMKA,SANDAGHE
SINGIDA,43,SINGIDA,432,MRAMA,43206,ITAMKA,MIUNDU
SINGIDA,43,SINGIDA,432,MRAMA,43206,IDDI SIMBA,KISIMANGUU
SINGIDA,43,SINGIDA,432,MRAMA,43206,IDDI SIMBA,MAKUJA
SINGIDA,43,SINGIDA,432,MRAMA,43206,IDDI SIMBA,KIJUGHIA
SINGIDA,43,SINGIDA,432,MRAMA,43206,IDDI SIMBA,MWANTANDU
SINGIDA,43,SINGIDA,432,MRAMA,43206,MAKHANDI,MAKHANDI
SINGIDA,43,SINGIDA,432,MRAMA,43206,MAKHANDI,MWALABIA
SINGIDA,43,SINGIDA,432,MRAMA,43206,MAKHANDI,NGONGOJEGHO
SINGIDA,43,SINGIDA,432,KINYETO,43207,MINYAA,MWANGAWA
SINGIDA,43,SINGIDA,432,KINYETO,43207,MINYAA,HURIA
SINGIDA,43,SINGIDA,432,KINYETO,43207,MINYAA,BONDENI
SINGIDA,43,SINGIDA,432,KINYETO,43207,NTUNDUU,MWENGE
SINGIDA,43,SINGIDA,432,KINYETO,43207,NTUNDUU,MJINI
SINGIDA,43,SINGIDA,432,KINYETO,43207,NTUNDUU,MTWARA
SINGIDA,43,SINGIDA,432,KINYETO,43207,NTUNDUU,MKOA
SINGIDA,43,SINGIDA,432,KINYETO,43207,KINYETO,NKUNGUU
SINGIDA,43,SINGIDA,432,KINYETO,43207,KINYETO,KINYETO
SINGIDA,43,SINGIDA,432,KINYETO,43207,KINYETO,MWASIJA
SINGIDA,43,SINGIDA,432,KINYETO,43207,KINYETO,IKHANGAO
SINGIDA,43,SINGIDA,432,KINYETO,43207,KINYETO,MIANGAE
SINGIDA,43,SINGIDA,432,KINYETO,43207,MKIMBII,MSAGHAA
SINGIDA,43,SINGIDA,432,KINYETO,43207,MKIMBII,MLOGHAA
SINGIDA,43,SINGIDA,432,KINYETO,43207,MKIMBII,MKIMBII MAJI
SINGIDA,43,SINGIDA,432,KINYETO,43207,MKIMBII,MAUMBAKI
SINGIDA,43,SINGIDA,432,KINYETO,43207,MKIMBII,MUGHAMO
SINGIDA,43,SINGIDA,432,KINYAGIGI,43208,KINYAGIGI,KINYAGIGI
SINGIDA,43,SINGIDA,432,KINYAGIGI,43208,KINYAGIGI,SIMBO
SINGIDA,43,SINGIDA,432,KINYAGIGI,43208,KINYAGIGI,MILADE
SINGIDA,43,SINGIDA,432,KINYAGIGI,43208,KINYAGIGI,MLUNGU
SINGIDA,43,SINGIDA,432,KINYAGIGI,43208,KINYAGIGI,MIRUNGI
SINGIDA,43,SINGIDA,432,KINYAGIGI,43208,MWANYONYE,MWAMUNGWE
SINGIDA,43,SINGIDA,432,KINYAGIGI,43208,MWANYONYE,MWAMWEMBU
SINGIDA,43,SINGIDA,432,KINYAGIGI,43208,MWANYONYE,MBUYUNI
SINGIDA,43,SINGIDA,432,KINYAGIGI,43208,MWANYONYE,SINAWIDA
SINGIDA,43,SINGIDA,432,KINYAGIGI,43208,MITULA,MITULA
SINGIDA,43,SINGIDA,432,KINYAGIGI,43208,MITULA,MWAKITEU
SINGIDA,43,SINGIDA,432,KINYAGIGI,43208,MITULA,BWABWAYA
SINGIDA,43,SINGIDA,432,KINYAGIGI,43208,MITULA,MWALALI
SINGIDA,43,SINGIDA,432,KINYAGIGI,43208,KIHUNADI,KIHUNADI
SINGIDA,43,SINGIDA,432,KINYAGIGI,43208,KIHUNADI,MWAMUNGU
SINGIDA,43,SINGIDA,432,KINYAGIGI,43208,KIHUNADI,MABURURU
SINGIDA,43,SINGIDA,432,KINYAGIGI,43208,KIHUNADI,MWAMISIANGE
SINGIDA,43,SINGIDA,432,MWASAUYA,43209,NGAMU,SOFIA
SINGIDA,43,SINGIDA,432,MWASAUYA,43209,NGAMU,KAGERA
SINGIDA,43,SINGIDA,432,MWASAUYA,43209,NGAMU,MAILANDA
SINGIDA,43,SINGIDA,432,MWASAUYA,43209,NGAMU,MPIPITI
SINGIDA,43,SINGIDA,432,MWASAUYA,43209,NGAMU,MAPINDUZI
SINGIDA,43,SINGIDA,432,MWASAUYA,43209,MDILU,MAENDELEO
SINGIDA,43,SINGIDA,432,MWASAUYA,43209,MDILU,AZIMIO
SINGIDA,43,SINGIDA,432,MWASAUYA,43209,MDILU,MWENGE
SINGIDA,43,SINGIDA,432,MWASAUYA,43209,MDILU,MWACHAMBIA
SINGIDA,43,SINGIDA,432,MWASAUYA,43209,MDILU,SONGAMBELE A
SINGIDA,43,SINGIDA,432,MWASAUYA,43209,MDILU,MWAISUMBI
SINGIDA,43,SINGIDA,432,MWASAUYA,43209,MDILU,SONGAMBELE B
SINGIDA,43,SINGIDA,432,MWASAUYA,43209,MWASAUYA,MWONGOZO
SINGIDA,43,SINGIDA,432,MWASAUYA,43209,MWASAUYA,MUUNGANO
SINGIDA,43,SINGIDA,432,MWASAUYA,43209,MWASAUYA,MAENDELEO
SINGIDA,43,SINGIDA,432,MWASAUYA,43209,MWASAUYA,SONGAMBELE
SINGIDA,43,SINGIDA,432,MWASAUYA,43209,MWASAUYA,MWENGE
SINGIDA,43,SINGIDA,432,MWASAUYA,43209,MWASAUYA,SOKOINE
SINGIDA,43,SINGIDA,432,MWASAUYA,43209,MWASAUYA,MAPINDUZI
SINGIDA,43,SINGIDA,432,MUGHAMO,43210,MSIKII,MSIKII
SINGIDA,43,SINGIDA,432,MUGHAMO,43210,MSIKII,SONGA
SINGIDA,43,SINGIDA,432,MUGHAMO,43210,MSIKII,MWAMTINYA
SINGIDA,43,SINGIDA,432,MUGHAMO,43210,MSIKII,MWAMOMBI
SINGIDA,43,SINGIDA,432,MUGHAMO,43210,MUGHAMO,MUGHAMO
SINGIDA,43,SINGIDA,432,MUGHAMO,43210,MUGHAMO,KINYASATU
SINGIDA,43,SINGIDA,432,MUGHAMO,43210,MUGHAMO,NJIA PANDA
SINGIDA,43,SINGIDA,432,MUGHAMO,43210,MUGHAMO,NDANG’ONGO
SINGIDA,43,SINGIDA,432,MUGHAMO,43210,MUGHAMO,NG'ONGOAJUU
SINGIDA,43,SINGIDA,432,MUGHAMO,43210,MUGHAMO,MWANDUMO
SINGIDA,43,SINGIDA,432,NTONGE,43211,NTONGE,CCM
SINGIDA,43,SINGIDA,432,NTONGE,43211,NTONGE,IGWERIKA
SINGIDA,43,SINGIDA,432,NTONGE,43211,IFOMBOU,IFOMBOU
SINGIDA,43,SINGIDA,432,NTONGE,43211,IFOMBOU,NKWEMA
SINGIDA,43,SINGIDA,432,NTONGE,43211,IGAURI,MINJI
SINGIDA,43,SINGIDA,432,NTONGE,43211,IGAURI,ISENGA
SINGIDA,43,SINGIDA,432,NTONGE,43211,IGAURI,KIGONGO
SINGIDA,43,SINGIDA,432,NTONGE,43211,IGAURI,MWAMBIBIDA
SINGIDA,43,SINGIDA,432,NTONGE,43211,IGAURI,SONGAMBELE
SINGIDA,43,SINGIDA,432,IKHANODA,43212,IKHANODA,MAJENGO MAPYA
SINGIDA,43,SINGIDA,432,IKHANODA,43212,IKHANODA,IKHANODA KATI
SINGIDA,43,SINGIDA,432,IKHANODA,43212,IKHANODA,MBOGHURU
SINGIDA,43,SINGIDA,432,IKHANODA,43212,IKHANODA,MAJI
SINGIDA,43,SINGIDA,432,IKHANODA,43212,IKHANODA,MANG’ONYI
SINGIDA,43,SINGIDA,432,IKHANODA,43212,MJUGHUDA,MISOGHWEDA
SINGIDA,43,SINGIDA,432,IKHANODA,43212,MJUGHUDA,MPIPITI
SINGIDA,43,SINGIDA,432,IKHANODA,43212,MJUGHUDA,ZIWANI
SINGIDA,43,SINGIDA,432,IKHANODA,43212,MJUGHUDA,NG’ONGOAMWANDU
SINGIDA,43,SINGIDA,432,IKHANODA,43212,MJUGHUDA,MLIMANI
SINGIDA,43,SINGIDA,432,IKHANODA,43212,MJUGHUDA,MWANKINDIKO
SINGIDA,43,SINGIDA,432,IKHANODA,43212,MSIMIHI,CCM
SINGIDA,43,SINGIDA,432,IKHANODA,43212,MSIMIHI,MBIRU
SINGIDA,43,SINGIDA,432,IKHANODA,43212,MSIMIHI,MLAHA
SINGIDA,43,SINGIDA,432,IKHANODA,43212,MSIMIHI,MTUNGULU
SINGIDA,43,SINGIDA,432,MERYA,43213,MERYA,IKUGHA MAGHARIBI
SINGIDA,43,SINGIDA,432,MERYA,43213,MERYA,IKUGHA MASHARIKI
SINGIDA,43,SINGIDA,432,MERYA,43213,MERYA,MERYA JUU
SINGIDA,43,SINGIDA,432,MERYA,43213,MERYA,AMANI
SINGIDA,43,SINGIDA,432,MERYA,43213,MERYA,KAWAWA
SINGIDA,43,SINGIDA,432,MERYA,43213,KINYAMWAMBO,KINYAMWAMBO  MASHARIKI
SINGIDA,43,SINGIDA,432,MERYA,43213,KINYAMWAMBO,KINYAMWAMBO KUSINI
SINGIDA,43,SINGIDA,432,MERYA,43213,KINYAMWAMBO,GHOYOSITA
SINGIDA,43,SINGIDA,432,MERYA,43213,MVAE,KITANJIGHA
SINGIDA,43,SINGIDA,432,MERYA,43213,MVAE,MVAE
SINGIDA,43,SINGIDA,432,MERYA,43213,MVAE,KALOVYA
SINGIDA,43,SINGIDA,432,MERYA,43213,MVAE,MKUNGUU
SINGIDA,43,SINGIDA,432,MERYA,43213,MVAE,KAWAWA
SINGIDA,43,SINGIDA,432,MERYA,43213,MWARUFYU,MATONGO  “A”
SINGIDA,43,SINGIDA,432,MERYA,43213,MWARUFYU,MATONGO “B”
SINGIDA,43,SINGIDA,432,MERYA,43213,MWARUFYU,MWARUFYU
SINGIDA,43,SINGIDA,432,MAGHOJOA,43214,MIPILO,KINYAMPEMBEE
SINGIDA,43,SINGIDA,432,MAGHOJOA,43214,MIPILO,KILALU
SINGIDA,43,SINGIDA,432,MAGHOJOA,43214,MIPILO,MIPILO
SINGIDA,43,SINGIDA,432,MAGHOJOA,43214,MIPILO,MASUKA
SINGIDA,43,SINGIDA,432,MAGHOJOA,43214,MAGHOJOA,MAGHOJOA
SINGIDA,43,SINGIDA,432,MAGHOJOA,43214,MAGHOJOA,KIYERO
SINGIDA,43,SINGIDA,432,MAGHOJOA,43214,MAGHOJOA,NKAMBI
SINGIDA,43,SINGIDA,432,MAGHOJOA,43214,MAGHOJOA,MUUNGANO
SINGIDA,43,SINGIDA,432,MAGHOJOA,43214,GHATA,CCM
SINGIDA,43,SINGIDA,432,MAGHOJOA,43214,GHATA,AZIMIO
SINGIDA,43,SINGIDA,432,MAGHOJOA,43214,GHATA,MAENDELEO
SINGIDA,43,SINGIDA,432,MAGHOJOA,43214,GHATA,MUUNGANO
SINGIDA,43,SINGIDA,432,MAGHOJOA,43214,GHATA,SOKOINE
SINGIDA,43,SINGIDA,432,MAGHOJOA,43214,MWACHAMBIA,JITEGEMEE
SINGIDA,43,SINGIDA,432,MAGHOJOA,43214,MWACHAMBIA,MAPINDUZI
SINGIDA,43,SINGIDA,432,MAGHOJOA,43214,MWACHAMBIA,MURIGHA
SINGIDA,43,SINGIDA,432,MSANGE,43215,MSANGE,MOTOMOTO
SINGIDA,43,SINGIDA,432,MSANGE,43215,MSANGE,KUJITEGEMEA
SINGIDA,43,SINGIDA,432,MSANGE,43215,MSANGE,AZIMIO
SINGIDA,43,SINGIDA,432,MSANGE,43215,MSANGE,SUKE
SINGIDA,43,SINGIDA,432,MSANGE,43215,MSANGE,MAPAMBANO
SINGIDA,43,SINGIDA,432,MSANGE,43215,MSANGE,JANGWA
SINGIDA,43,SINGIDA,432,MSANGE,43215,MSANGE,MWONGOZO
SINGIDA,43,SINGIDA,432,MSANGE,43215,MANGIDA,BWAWANI
SINGIDA,43,SINGIDA,432,MSANGE,43215,MANGIDA,MAPINDUZI
SINGIDA,43,SINGIDA,432,MSANGE,43215,MANGIDA,MWONGOZO
SINGIDA,43,SINGIDA,432,MSANGE,43215,MANGIDA,SENGA
SINGIDA,43,SINGIDA,432,MSANGE,43215,MANGIDA,MUMBII
SINGIDA,43,SINGIDA,432,MSANGE,43215,SEFUNGA,SUKE
SINGIDA,43,SINGIDA,432,MSANGE,43215,SEFUNGA,KISIWANI
SINGIDA,43,SINGIDA,432,MSANGE,43215,SEFUNGA,MIJUHU
SINGIDA,43,SINGIDA,432,MSANGE,43215,SEFUNGA,UTEMINI “A”
SINGIDA,43,SINGIDA,432,MSANGE,43215,SEFUNGA,UTEMINI “B”
SINGIDA,43,SINGIDA,432,MSANGE,43215,SEFUNGA,NGOLO
SINGIDA,43,SINGIDA,432,MSANGE,43215,ENDESHI,ENDESHI
SINGIDA,43,SINGIDA,432,MSANGE,43215,ENDESHI,JUHUDI
SINGIDA,43,SINGIDA,432,MSANGE,43215,ENDESHI,RAGHACHANDA
SINGIDA,43,SINGIDA,432,MSANGE,43215,ENDESHI,MUUNGANO
SINGIDA,43,SINGIDA,432,MSANGE,43215,ENDESHI,MLIMANI
SINGIDA,43,SINGIDA,432,MTINKO,43216,MTINKO,MADUKANI KATI
SINGIDA,43,SINGIDA,432,MTINKO,43216,MTINKO,MLIMANI
SINGIDA,43,SINGIDA,432,MTINKO,43216,MTINKO,MDIMONYAMA
SINGIDA,43,SINGIDA,432,MTINKO,43216,MTINKO,MINYINGA
SINGIDA,43,SINGIDA,432,MTINKO,43216,MTINKO,MSISI
SINGIDA,43,SINGIDA,432,MTINKO,43216,MTINKO,MIUNDU
SINGIDA,43,SINGIDA,432,MTINKO,43216,MTINKO,KISUTU
SINGIDA,43,SINGIDA,432,MTINKO,43216,MWAKICHENCHE,BWAWANI
SINGIDA,43,SINGIDA,432,MTINKO,43216,MWAKICHENCHE,MAJENGO MAPYA
SINGIDA,43,SINGIDA,432,MTINKO,43216,MWAKICHENCHE,KANANDA
SINGIDA,43,SINGIDA,432,MTINKO,43216,MINYENYE,BWALI
SINGIDA,43,SINGIDA,432,MTINKO,43216,MINYENYE,AMANI
SINGIDA,43,SINGIDA,432,MTINKO,43216,MINYENYE,MWONGOZO
SINGIDA,43,SINGIDA,432,MTINKO,43216,MINYENYE,MUUNGANO
SINGIDA,43,SINGIDA,432,MTINKO,43216,MINYENYE,JAMIDA
SINGIDA,43,SINGIDA,432,MTINKO,43216,MINYENYE,KUJITEGEMEA
SINGIDA,43,SINGIDA,432,MTINKO,43216,MINYENYE,MZALENDO
SINGIDA,43,SINGIDA,432,MTINKO,43216,NDUGHWIRA,MUUNGANO
SINGIDA,43,SINGIDA,432,MTINKO,43216,NDUGHWIRA,MAPINDUZI
SINGIDA,43,SINGIDA,432,MTINKO,43216,NDUGHWIRA,MZALENDO
SINGIDA,43,SINGIDA,432,MTINKO,43216,NDUGHWIRA,IKUMELA
SINGIDA,43,SINGIDA,432,MTINKO,43216,MPAMBAA,CHIEF GWAU
SINGIDA,43,SINGIDA,432,MTINKO,43216,MPAMBAA,NYERERE
SINGIDA,43,SINGIDA,432,MTINKO,43216,MPAMBAA,MUUNGANO
SINGIDA,43,SINGIDA,432,MTINKO,43216,MPAMBAA,KAFANABO
SINGIDA,43,SINGIDA,432,MTINKO,43216,MPAMBAA,MAKIKIWE
SINGIDA,43,SINGIDA,432,MTINKO,43216,MPAMBAA,UTEMINI
SINGIDA,43,SINGIDA,432,MTINKO,43216,MUGHANGA,UWT
SINGIDA,43,SINGIDA,432,MTINKO,43216,MUGHANGA,MUHUVI
SINGIDA,43,SINGIDA,432,MTINKO,43216,MUGHANGA,DODOMA
SINGIDA,43,SINGIDA,432,MTINKO,43216,MUGHANGA,KATI
SINGIDA,43,SINGIDA,432,MTINKO,43216,MUGHANGA,NYUKI
SINGIDA,43,SINGIDA,432,MTINKO,43216,MUGHANGA,MISUNA
SINGIDA,43,SINGIDA,432,MTINKO,43216,MALOLO,MAPINDUZI
SINGIDA,43,SINGIDA,432,MTINKO,43216,MALOLO,MWISHO WA LAMI
SINGIDA,43,SINGIDA,432,MTINKO,43216,MALOLO,MAJENGO MAPYA
SINGIDA,43,SINGIDA,432,MTINKO,43216,MALOLO,BUSSA
SINGIDA,43,SINGIDA,432,MTINKO,43216,MALOLO,MZALENDO
SINGIDA,43,SINGIDA,432,MTINKO,43216,MALOLO,MNINGA
SINGIDA,43,SINGIDA,432,MTINKO,43216,MALOLO,MAFUNDE
SINGIDA,43,SINGIDA,432,KIJOTA,43217,MITONTO,MITONTO
SINGIDA,43,SINGIDA,432,KIJOTA,43217,MITONTO,MITELO
SINGIDA,43,SINGIDA,432,KIJOTA,43217,MITONTO,MITUMBA
SINGIDA,43,SINGIDA,432,KIJOTA,43217,MITONTO,NAMBARO “B”
SINGIDA,43,SINGIDA,432,KIJOTA,43217,MITONTO,MIJUHU
SINGIDA,43,SINGIDA,432,KIJOTA,43217,IKIWU,IKIWU KATI
SINGIDA,43,SINGIDA,432,KIJOTA,43217,IKIWU,MBURA
SINGIDA,43,SINGIDA,432,KIJOTA,43217,IKIWU,MUUNGANO
SINGIDA,43,SINGIDA,432,KIJOTA,43217,IKIWU,NKWAE
SINGIDA,43,SINGIDA,432,KIJOTA,43217,IKIWU,MATUNDI
SINGIDA,43,SINGIDA,432,KIJOTA,43217,IKIWU,NAMBARO
SINGIDA,43,SINGIDA,432,KIJOTA,43217,IKIWU,MITELA
SINGIDA,43,SINGIDA,432,KIJOTA,43217,IKIWU,MTUMBA
SINGIDA,43,SINGIDA,432,KIJOTA,43217,IKIWU,MIJUHU
SINGIDA,43,SINGIDA,432,KIJOTA,43217,IKIWU,MITONTO
SINGIDA,43,SINGIDA,432,KIJOTA,43217,NDUU,UTEMINI
SINGIDA,43,SINGIDA,432,KIJOTA,43217,NDUU,UJAMAA
SINGIDA,43,SINGIDA,432,KIJOTA,43217,NDUU,MNTUMBA
SINGIDA,43,SINGIDA,432,KIJOTA,43217,NDUU,MLIMANI
SINGIDA,43,SINGIDA,432,KIJOTA,43217,KIJOTA,MALIASILI
SINGIDA,43,SINGIDA,432,KIJOTA,43217,KIJOTA,KIJOTA ASILI
SINGIDA,43,SINGIDA,432,KIJOTA,43217,KIJOTA,MWENGE
SINGIDA,43,SINGIDA,432,KIJOTA,43217,KIJOTA,MLIMANI
SINGIDA,43,SINGIDA,432,UGHANDI,43218,MISINKO,MFUMBU “B”
SINGIDA,43,SINGIDA,432,UGHANDI,43218,MISINKO,MNANG’ANA
SINGIDA,43,SINGIDA,432,UGHANDI,43218,MISINKO,MFUMBU MAGEUZI
SINGIDA,43,SINGIDA,432,UGHANDI,43218,MISINKO,MFUMBU MLIMANI
SINGIDA,43,SINGIDA,432,UGHANDI,43218,MISINKO,MBURI
SINGIDA,43,SINGIDA,432,UGHANDI,43218,MISINKO,BONDENI
SINGIDA,43,SINGIDA,432,UGHANDI,43218,MISINKO,MAJENGO MAPYA
SINGIDA,43,SINGIDA,432,UGHANDI,43218,MISINKO,SONGAMBELE
SINGIDA,43,SINGIDA,432,UGHANDI,43218,MISINKO,ELIMU
SINGIDA,43,SINGIDA,432,UGHANDI,43218,MISINKO,MITUNDURUNI
SINGIDA,43,SINGIDA,432,UGHANDI,43218,LAGHANIDA,USALAMA
SINGIDA,43,SINGIDA,432,UGHANDI,43218,LAGHANIDA,NGUVUMALI
SINGIDA,43,SINGIDA,432,UGHANDI,43218,LAGHANIDA,NYUKI
SINGIDA,43,SINGIDA,432,UGHANDI,43218,LAGHANIDA,AMANI
SINGIDA,43,SINGIDA,432,UGHANDI,43218,LAGHANIDA,MAPINDUZI
SINGIDA,43,SINGIDA,432,UGHANDI,43218,LAGHANIDA,NDUGHWIRA
SINGIDA,43,SINGIDA,432,UGHANDI,43218,LAGHANIDA,HUDUMA
SINGIDA,43,SINGIDA,432,UGHANDI,43218,UGHANDI B,UKOMBOZI
SINGIDA,43,SINGIDA,432,UGHANDI,43218,UGHANDI B,ELIMU
SINGIDA,43,SINGIDA,432,UGHANDI,43218,UGHANDI B,NGUVUKAZI
SINGIDA,43,SINGIDA,432,UGHANDI,43218,UGHANDI B,MAPAMBANO
SINGIDA,43,SINGIDA,432,UGHANDI,43218,UGHANDI B,MAJENGO
SINGIDA,43,SINGIDA,432,UGHANDI,43218,UGHANDI B,MAENDELEO
SINGIDA,43,SINGIDA,432,UGHANDI,43218,UGHANDI B,MALIASILI
SINGIDA,43,SINGIDA,432,UGHANDI,43218,UGHANDI A,JAMHURI
SINGIDA,43,SINGIDA,432,UGHANDI,43218,UGHANDI A,MADUKANI
SINGIDA,43,SINGIDA,432,UGHANDI,43218,UGHANDI A,UKOMBOZI
SINGIDA,43,SINGIDA,432,UGHANDI,43218,UGHANDI A,MAPINDUZI
SINGIDA,43,SINGIDA,432,UGHANDI,43218,UGHANDI A,JUHUDI
SINGIDA,43,SINGIDA,432,UGHANDI,43218,UGHANDI A,MZALENDO
SINGIDA,43,SINGIDA,432,UGHANDI,43218,UGHANDI A,KILIMO
SINGIDA,43,SINGIDA,432,UGHANDI,43218,UGHANDI A,NYUKI
SINGIDA,43,SINGIDA,432,UGHANDI,43218,SEMFURU,IGHANGE
SINGIDA,43,SINGIDA,432,UGHANDI,43218,SEMFURU,SONGAMBELE
SINGIDA,43,SINGIDA,432,UGHANDI,43218,SEMFURU,KUJITEGEMEA
SINGIDA,43,SINGIDA,432,UGHANDI,43218,SEMFURU,UZALISHAJI
SINGIDA,43,SINGIDA,432,UGHANDI,43218,SEMFURU,MAPINDUZI
SINGIDA,43,SINGIDA,432,MSISI,43219,MSISI,MAILI KUMI
SINGIDA,43,SINGIDA,432,MSISI,43219,MSISI,KISUTU
SINGIDA,43,SINGIDA,432,MSISI,43219,MSISI,MWAGHINDI
SINGIDA,43,SINGIDA,432,MSISI,43219,MSISI,MGHONDWE
SINGIDA,43,SINGIDA,432,MSISI,43219,MSISI,MNUNG’UNA
SINGIDA,43,SINGIDA,432,MSISI,43219,MSISI,NYAGHAMIDA
SINGIDA,43,SINGIDA,432,MSISI,43219,MSISI,BARABARA KUU
SINGIDA,43,SINGIDA,432,MSISI,43219,NTONDO,ILALA
SINGIDA,43,SINGIDA,432,MSISI,43219,NTONDO,KAMBI YA FISI
SINGIDA,43,SINGIDA,432,MSISI,43219,NTONDO,IKULU
SINGIDA,43,SINGIDA,432,MSISI,43219,NTONDO,KIGOMA
SINGIDA,43,SINGIDA,432,MSISI,43219,NTONDO,MSUMBIJI
SINGIDA,43,SINGIDA,432,MSISI,43219,NTONDO,SOKOMOKO
SINGIDA,43,SINGIDA,432,MSISI,43219,NKWAE,IKULU
SINGIDA,43,SINGIDA,432,MSISI,43219,NKWAE,MAPINDUZI
SINGIDA,43,SINGIDA,432,MSISI,43219,NKWAE,AMANI
SINGIDA,43,SINGIDA,432,MSISI,43219,NKWAE,NYERERE
SINGIDA,43,SINGIDA,432,MSISI,43219,MNUNG'UNA,MAPAMBANO
SINGIDA,43,SINGIDA,432,MSISI,43219,MNUNG'UNA,MAJENGO
SINGIDA,43,SINGIDA,432,MSISI,43219,MNUNG'UNA,MNUNG'UNA
SINGIDA,43,SINGIDA,432,MAKURO,43220,MAKURO,MAJENGO MAPYA
SINGIDA,43,SINGIDA,432,MAKURO,43220,MAKURO,MAKURO KATI
SINGIDA,43,SINGIDA,432,MAKURO,43220,MAKURO,MWAGHAMBI
SINGIDA,43,SINGIDA,432,MAKURO,43220,MAKURO,MUGHUNGA
SINGIDA,43,SINGIDA,432,MAKURO,43220,MWALALA,KIRANGA
SINGIDA,43,SINGIDA,432,MAKURO,43220,MWALALA,MSOMOLO
SINGIDA,43,SINGIDA,432,MAKURO,43220,MWALALA,MWALALA KATI
SINGIDA,43,SINGIDA,432,MAKURO,43220,GHALUNYANGU,MWAGODA
SINGIDA,43,SINGIDA,432,MAKURO,43220,GHALUNYANGU,MWALALA
SINGIDA,43,SINGIDA,432,MAKURO,43220,GHALUNYANGU,MITUNDURUNI
SINGIDA,43,SINGIDA,432,MAKURO,43220,GHALUNYANGU,MITULA
SINGIDA,43,SINGIDA,432,MAKURO,43220,GHALUNYANGU,KINYAMBURI
SINGIDA,43,SINGIDA,432,MAKURO,43220,NG’ONGOAMPOKU,MSOMOLO
SINGIDA,43,SINGIDA,432,MAKURO,43220,NG’ONGOAMPOKU,CCM
SINGIDA,43,SINGIDA,432,MAKURO,43220,NG’ONGOAMPOKU,MGHUMO
SINGIDA,43,SINGIDA,432,MAKURO,43220,NG’ONGOAMPOKU,LANIKO “A”
SINGIDA,43,SINGIDA,432,MAKURO,43220,NG’ONGOAMPOKU,LANIKO “B”
SINGIDA,43,SINGIDA,432,MAKURO,43220,NG’ONGOAMPOKU,MWANDELA
SINGIDA,43,SINGIDA,432,MAKURO,43220,MATUMBO,CCM
SINGIDA,43,SINGIDA,432,MAKURO,43220,MATUMBO,MVAE
SINGIDA,43,SINGIDA,432,MAKURO,43220,MATUMBO,MUGHUNGA
SINGIDA,43,SINGIDA,432,MAKURO,43220,MATUMBO,MUGHUMO
SINGIDA,43,SINGIDA,432,MAKURO,43220,MIKUYU,MIKUYU
SINGIDA,43,SINGIDA,432,MAKURO,43220,MIKUYU,MLEGEA
SINGIDA,43,SINGIDA,432,MAKURO,43220,MIKUYU,KICHOGHWA
SINGIDA,43,SINGIDA,432,MAKURO,43220,MIKUYU,MISIGHUMBI
SINGIDA,43,SINGIDA,432,MAKURO,43220,MKENGE,MNANG’ANA
SINGIDA,43,SINGIDA,432,MAKURO,43220,MKENGE,UNYAMBWA
SINGIDA,43,SINGIDA,432,MAKURO,43220,MKENGE,MSAGHAA “A”
SINGIDA,43,SINGIDA,432,MAKURO,43220,MKENGE,MSAGHAA “B”
SINGIDA,43,SINGIDA,432,MAKURO,43220,MKENGE,MUGHUNGA
SINGIDA,43,SINGIDA,432,MAKURO,43220,MKENGE,KATANI
SINGIDA,43,SINGIDA,432,MUDIDA,43221,MPIPITI,MAPINDUZI
SINGIDA,43,SINGIDA,432,MUDIDA,43221,MPIPITI,MWONGOZO
SINGIDA,43,SINGIDA,432,MUDIDA,43221,MPIPITI,AZIMIO
SINGIDA,43,SINGIDA,432,MUDIDA,43221,MPIPITI,UMOJA
SINGIDA,43,SINGIDA,432,MUDIDA,43221,MPIPITI,KUJITEGEMEA
SINGIDA,43,SINGIDA,432,MUDIDA,43221,MPIPITI,MAPAMBANO
SINGIDA,43,SINGIDA,432,MUDIDA,43221,MUDIDA,MHIMBILI
SINGIDA,43,SINGIDA,432,MUDIDA,43221,MUDIDA,MPAKANI
SINGIDA,43,SINGIDA,432,MUDIDA,43221,MUDIDA,MUHOGO
SINGIDA,43,SINGIDA,432,MUDIDA,43221,MUDIDA,UJAMAA
SINGIDA,43,SINGIDA,432,MUDIDA,43221,MUDIDA,KIBAONI
SINGIDA,43,SINGIDA,432,MUDIDA,43221,MUDIDA,NDUU
SINGIDA,43,SINGIDA,432,MUDIDA,43221,MUDIDA,MRAMA
SINGIDA,43,SINGIDA,432,MUDIDA,43221,KIBAONI,KIBAONI
SINGIDA,43,SINGIDA,432,MUDIDA,43221,KIBAONI,NDUU MABANDANI
SINGIDA,43,SINGIDA,432,MUDIDA,43221,KIBAONI,MUUNGANO
SINGIDA,43,SINGIDA,432,MUDIDA,43221,KIBAONI,BWAWANI
SINGIDA,43,SINGIDA,432,MUDIDA,43221,KIBAONI,MGODINI ”A”
SINGIDA,43,SINGIDA,432,MUDIDA,43221,KIBAONI,MGODINI “B”
SINGIDA,43,SINGIDA,432,MUDIDA,43221,MIGUGU,KIFUNDA
SINGIDA,43,SINGIDA,432,MUDIDA,43221,MIGUGU,MTARO
SINGIDA,43,SINGIDA,432,MUDIDA,43221,MIGUGU,MWANGAE
SINGIDA,43,SINGIDA,432,MUDIDA,43221,MIGUGU,MVAE
SINGIDA,43,SINGIDA,432,MUDIDA,43221,MIGUGU,MIKATOKATO
SINGIDA,43,SINGIDA,432,MUDIDA,43221,MIGUGU,MINYINGA
SINGIDA,43,IRAMBA,433,KIOMBOI,43301,MIGUGU,LULUMBA
SINGIDA,43,IRAMBA,433,KIOMBOI,43301,MIGUGU,SHULENI
SINGIDA,43,IRAMBA,433,KIOMBOI,43301,MIGUGU,ZAHANATI
SINGIDA,43,IRAMBA,433,KIOMBOI,43301,MIGUGU,SOWETO
SINGIDA,43,IRAMBA,433,KIOMBOI,43301,MIGUGU,INALA 'A'
SINGIDA,43,IRAMBA,433,KIOMBOI,43301,MIGUGU,KIZEGA
SINGIDA,43,IRAMBA,433,KIOMBOI,43301,MIGUGU,MDUNKU
SINGIDA,43,IRAMBA,433,KIOMBOI,43301,MIGUGU,IGUMO
SINGIDA,43,IRAMBA,433,KIOMBOI,43301,MIGUGU,NG'UNA
SINGIDA,43,IRAMBA,433,KIOMBOI,43301,MIGUGU,LUNSANGA
SINGIDA,43,IRAMBA,433,KIOMBOI,43301,MIGUGU,MGALAMO
SINGIDA,43,IRAMBA,433,KIOMBOI,43301,MIGUGU,KYAMBI
SINGIDA,43,IRAMBA,433,KIOMBOI,43301,MIGUGU,INALA 'B'
SINGIDA,43,IRAMBA,433,KIOMBOI,43301,MIGUGU,"TUTU ""A"""
SINGIDA,43,IRAMBA,433,KIOMBOI,43301,MIGUGU,"TUTU ""B"""
SINGIDA,43,IRAMBA,433,KIOMBOI,43301,MIGUGU,MLUTANI
SINGIDA,43,IRAMBA,433,KIOMBOI,43301,MIGUGU,MGULUKA
SINGIDA,43,IRAMBA,433,KIOMBOI,43301,MIGUGU,LIKE
SINGIDA,43,IRAMBA,433,KIOMBOI,43301,MIGUGU,MSISI
SINGIDA,43,IRAMBA,433,KIOMBOI,43301,MIGUGU,KIKAKU
SINGIDA,43,IRAMBA,433,KIOMBOI,43301,MIGUGU,NKANANGA
SINGIDA,43,IRAMBA,433,KIOMBOI,43301,MIGUGU,MGULUKO
SINGIDA,43,IRAMBA,433,KIOMBOI,43301,MIGUGU,KILINDO
SINGIDA,43,IRAMBA,433,KIOMBOI,43301,MIGUGU,SHARTI KATI
SINGIDA,43,IRAMBA,433,KIOMBOI,43301,MIGUGU,SHENGELO
SINGIDA,43,IRAMBA,433,KIOMBOI,43301,MIGUGU,LOWA A
SINGIDA,43,IRAMBA,433,KIOMBOI,43301,MIGUGU,LOWA B
SINGIDA,43,IRAMBA,433,KINAMPANDA,43302,KYALOSANGI,NDOROBO
SINGIDA,43,IRAMBA,433,KINAMPANDA,43302,KYALOSANGI,MGOGO
SINGIDA,43,IRAMBA,433,KINAMPANDA,43302,KYALOSANGI,MTEKELA
SINGIDA,43,IRAMBA,433,KINAMPANDA,43302,KYALOSANGI,KYALOSANGI
SINGIDA,43,IRAMBA,433,KINAMPANDA,43302,KYALOSANGI,MWAMBAO
SINGIDA,43,IRAMBA,433,KINAMPANDA,43302,KYALOSANGI,KITUSHA
SINGIDA,43,IRAMBA,433,KINAMPANDA,43302,UWANZA,MTUMBILI
SINGIDA,43,IRAMBA,433,KINAMPANDA,43302,UWANZA,MZUU
SINGIDA,43,IRAMBA,433,KINAMPANDA,43302,UWANZA,MKOKOTENA
SINGIDA,43,IRAMBA,433,KINAMPANDA,43302,UWANZA,ITINKU
SINGIDA,43,IRAMBA,433,KINAMPANDA,43302,UWANZA,UWANZA
SINGIDA,43,IRAMBA,433,KINAMPANDA,43302,UWANZA,MONELE
SINGIDA,43,IRAMBA,433,KINAMPANDA,43302,GALANGALA,MUKONZE
SINGIDA,43,IRAMBA,433,KINAMPANDA,43302,GALANGALA,GALANGALA
SINGIDA,43,IRAMBA,433,KINAMPANDA,43302,GALANGALA,MGEMBE
SINGIDA,43,IRAMBA,433,KINAMPANDA,43302,KISHARITA,NKULUSI
SINGIDA,43,IRAMBA,433,KINAMPANDA,43302,KISHARITA,MASANGIA
SINGIDA,43,IRAMBA,433,KINAMPANDA,43302,KISHARITA,MASEA
SINGIDA,43,IRAMBA,433,KINAMPANDA,43302,KISHARITA,MGUMO
SINGIDA,43,IRAMBA,433,ULEMO,43303,ULEMO,MADUKANI
SINGIDA,43,IRAMBA,433,ULEMO,43303,ULEMO,MSISI
SINGIDA,43,IRAMBA,433,ULEMO,43303,ULEMO,MAJENGO
SINGIDA,43,IRAMBA,433,ULEMO,43303,ULEMO,MPULI
SINGIDA,43,IRAMBA,433,ULEMO,43303,KITUKUTU,KODOSA
SINGIDA,43,IRAMBA,433,ULEMO,43303,KITUKUTU,MLULA
SINGIDA,43,IRAMBA,433,ULEMO,43303,KITUKUTU,KISINGU
SINGIDA,43,IRAMBA,433,ULEMO,43303,KITUKUTU,KIELE
SINGIDA,43,IRAMBA,433,ULEMO,43303,KITUKUTU,TYENGEMARA
SINGIDA,43,IRAMBA,433,ULEMO,43303,MISIGIRI,NJIAPANDA
SINGIDA,43,IRAMBA,433,ULEMO,43303,MISIGIRI,MSIMBAZI
SINGIDA,43,IRAMBA,433,ULEMO,43303,MISIGIRI,KICHANGANI
SINGIDA,43,IRAMBA,433,ULEMO,43303,MISIGIRI,NKINGI
SINGIDA,43,IRAMBA,433,ULEMO,43303,MISIGIRI,MIEMBENI
SINGIDA,43,IRAMBA,433,ULEMO,43303,MISIGIRI,KIZAGA
SINGIDA,43,IRAMBA,433,KYENGENGE,43304,KYENGEGE,NDUA
SINGIDA,43,IRAMBA,433,KYENGENGE,43304,KYENGEGE,MGALILWA
SINGIDA,43,IRAMBA,433,KYENGENGE,43304,KYENGEGE,MAGATI
SINGIDA,43,IRAMBA,433,KYENGENGE,43304,KYENGEGE,JENGELANGULU
SINGIDA,43,IRAMBA,433,KYENGENGE,43304,MUGUNDU,TYANDU
SINGIDA,43,IRAMBA,433,KYENGENGE,43304,MUGUNDU,LYUNGILO
SINGIDA,43,IRAMBA,433,KYENGENGE,43304,MUGUNDU,SOKOINE
SINGIDA,43,IRAMBA,433,KYENGENGE,43304,MAKUNDA,MONELE A
SINGIDA,43,IRAMBA,433,KYENGENGE,43304,MAKUNDA,MONELE B
SINGIDA,43,IRAMBA,433,KYENGENGE,43304,MAKUNDA,ULYANG’OMBE
SINGIDA,43,IRAMBA,433,KYENGENGE,43304,MAKUNDA,ITUNDA
SINGIDA,43,IRAMBA,433,KASELYA,43305,KASELYA,MSEMEMBO
SINGIDA,43,IRAMBA,433,KASELYA,43305,KASELYA,MNADANI
SINGIDA,43,IRAMBA,433,KASELYA,43305,KASELYA,MADUKANI
SINGIDA,43,IRAMBA,433,KASELYA,43305,KASELYA,ZANZIBAR
SINGIDA,43,IRAMBA,433,KASELYA,43305,KASELYA,MPAMBAA
SINGIDA,43,IRAMBA,433,KASELYA,43305,KASELYA,MSISI
SINGIDA,43,IRAMBA,433,KASELYA,43305,KASELYA,IZENGALANGULU
SINGIDA,43,IRAMBA,433,KASELYA,43305,NSONGA,KIPIMBI
SINGIDA,43,IRAMBA,433,KASELYA,43305,NSONGA,MIKOROSHONI
SINGIDA,43,IRAMBA,433,KASELYA,43305,NSONGA,IMALAMAKUO
SINGIDA,43,IRAMBA,433,KASELYA,43305,NSONGA,MWEMBENI A
SINGIDA,43,IRAMBA,433,KASELYA,43305,NSONGA,KATI
SINGIDA,43,IRAMBA,433,KASELYA,43305,MUGUNGIA,UGAI
SINGIDA,43,IRAMBA,433,KASELYA,43305,MUGUNGIA,DALA JUU
SINGIDA,43,IRAMBA,433,KASELYA,43305,MUGUNGIA,DALA KATI
SINGIDA,43,IRAMBA,433,KASELYA,43305,MUGUNGIA,MSISI
SINGIDA,43,IRAMBA,433,KASELYA,43305,MUGUNGIA,MWANDU
SINGIDA,43,IRAMBA,433,MTEKENTE,43306,LUNSANGA,MTAKUJA
SINGIDA,43,IRAMBA,433,MTEKENTE,43306,LUNSANGA,KAGERA
SINGIDA,43,IRAMBA,433,MTEKENTE,43306,LUNSANGA,SHULENI
SINGIDA,43,IRAMBA,433,MTEKENTE,43306,LUNSANGA,MNADANI
SINGIDA,43,IRAMBA,433,MTEKENTE,43306,LUNSANGA,KIGULUNSUNGI
SINGIDA,43,IRAMBA,433,MTEKENTE,43306,LUNSANGA,LUNSANGA
SINGIDA,43,IRAMBA,433,MTEKENTE,43306,LUNSANGA,KIMBAI A
SINGIDA,43,IRAMBA,433,MTEKENTE,43306,LUNSANGA,KIMBAI B
SINGIDA,43,IRAMBA,433,MTEKENTE,43306,LUNSANGA,KIMBAI C
SINGIDA,43,IRAMBA,433,MTEKENTE,43306,MSANSAO,USWAHILINI
SINGIDA,43,IRAMBA,433,MTEKENTE,43306,MSANSAO,SHULENI
SINGIDA,43,IRAMBA,433,MTEKENTE,43306,MSANSAO,NKALEMUI
SINGIDA,43,IRAMBA,433,MTEKENTE,43306,MSANSAO,MAGOBA
SINGIDA,43,IRAMBA,433,MTEKENTE,43306,MSANSAO,NUMBANUMBA
SINGIDA,43,IRAMBA,433,MTEKENTE,43306,MSANSAO,MSANSAO
SINGIDA,43,IRAMBA,433,MTEKENTE,43306,MSANSAO,MATINJE A
SINGIDA,43,IRAMBA,433,MTEKENTE,43306,MSANSAO,MATINJE B
SINGIDA,43,IRAMBA,433,MTEKENTE,43306,UJUNGU,UJUNGU A
SINGIDA,43,IRAMBA,433,MTEKENTE,43306,UJUNGU,UJUNGU B
SINGIDA,43,IRAMBA,433,MTEKENTE,43306,UJUNGU,UJUNGU C
SINGIDA,43,IRAMBA,433,MTEKENTE,43306,UJUNGU,UJUNGU D
SINGIDA,43,IRAMBA,433,MTEKENTE,43306,KISONGA,MSIKITINI
SINGIDA,43,IRAMBA,433,MTEKENTE,43306,KISONGA,SHULENI
SINGIDA,43,IRAMBA,433,MTEKENTE,43306,KISONGA,KANISANI
SINGIDA,43,IRAMBA,433,MTEKENTE,43306,KISONGA,ZAIRE
SINGIDA,43,IRAMBA,433,URUGHU,43307,URUGHU,MSUMBIJI
SINGIDA,43,IRAMBA,433,URUGHU,43307,URUGHU,URUGHU
SINGIDA,43,IRAMBA,433,URUGHU,43307,URUGHU,SUTUNGAI
SINGIDA,43,IRAMBA,433,URUGHU,43307,URUGHU,SEMU
SINGIDA,43,IRAMBA,433,URUGHU,43307,URUGHU,HAILA
SINGIDA,43,IRAMBA,433,URUGHU,43307,MLANDALA,USASI
SINGIDA,43,IRAMBA,433,URUGHU,43307,MLANDALA,ILOWILO
SINGIDA,43,IRAMBA,433,URUGHU,43307,MLANDALA,MSOMBI
SINGIDA,43,IRAMBA,433,URUGHU,43307,MLANDALA,MADALAWA
SINGIDA,43,IRAMBA,433,URUGHU,43307,MASIMBA,MASIMBA A
SINGIDA,43,IRAMBA,433,URUGHU,43307,MASIMBA,MASIMBA B
SINGIDA,43,IRAMBA,433,URUGHU,43307,MASIMBA,MAKIO
SINGIDA,43,IRAMBA,433,URUGHU,43307,MASIMBA,UTALULA
SINGIDA,43,IRAMBA,433,URUGHU,43307,MASIMBA,MAYANZANI
SINGIDA,43,IRAMBA,433,URUGHU,43307,MANG'OLE,MANG’OLE
SINGIDA,43,IRAMBA,433,URUGHU,43307,MANG'OLE,MPUGIZI
SINGIDA,43,IRAMBA,433,URUGHU,43307,MANG'OLE,MBUYUNI
SINGIDA,43,IRAMBA,433,URUGHU,43307,MANG'OLE,UNAMBIU
SINGIDA,43,IRAMBA,433,MBELEKESE,43308,MBELEKESE,MPULI
SINGIDA,43,IRAMBA,433,MBELEKESE,43308,MBELEKESE,MBUYUNI
SINGIDA,43,IRAMBA,433,MBELEKESE,43308,MBELEKESE,C. C. M
SINGIDA,43,IRAMBA,433,MBELEKESE,43308,MBELEKESE,MBELEKESE
SINGIDA,43,IRAMBA,433,MBELEKESE,43308,MBELEKESE,MPAMBAA
SINGIDA,43,IRAMBA,433,MBELEKESE,43308,KIKONGE,MWASINTAO
SINGIDA,43,IRAMBA,433,MBELEKESE,43308,KIKONGE,MABANDA
SINGIDA,43,IRAMBA,433,MBELEKESE,43308,KIKONGE,NKULUSI
SINGIDA,43,IRAMBA,433,MBELEKESE,43308,KIKONGE,MUMUNO A
SINGIDA,43,IRAMBA,433,MBELEKESE,43308,KIKONGE,MUMUNO B
SINGIDA,43,IRAMBA,433,MBELEKESE,43308,KIKONGE,ILOELYA
SINGIDA,43,IRAMBA,433,MBELEKESE,43308,KIKONGE,MPAMBAA
SINGIDA,43,IRAMBA,433,MBELEKESE,43308,KIKONGE,IGORA
SINGIDA,43,IRAMBA,433,MBELEKESE,43308,KIKONGE,MTAKUJA
SINGIDA,43,IRAMBA,433,MBELEKESE,43308,USURE,MALANGO
SINGIDA,43,IRAMBA,433,MBELEKESE,43308,USURE,MAPINDUZI
SINGIDA,43,IRAMBA,433,MBELEKESE,43308,USURE,MUUNGANO
SINGIDA,43,IRAMBA,433,MBELEKESE,43308,USURE,AZIMIO
SINGIDA,43,IRAMBA,433,MBELEKESE,43308,USURE,MPULI B
SINGIDA,43,IRAMBA,433,MBELEKESE,43308,MISUNA,MADUKANI
SINGIDA,43,IRAMBA,433,MBELEKESE,43308,MISUNA,KILAMBAZI
SINGIDA,43,IRAMBA,433,MBELEKESE,43308,MISUNA,ISENENKWA
SINGIDA,43,IRAMBA,433,MBELEKESE,43308,MISUNA,MASUNKUNE
SINGIDA,43,IRAMBA,433,MBELEKESE,43308,MISUNA,MPAMBAA
SINGIDA,43,IRAMBA,433,MBELEKESE,43308,MISUNA,MTAKUJA
SINGIDA,43,IRAMBA,433,NDAGO,43309,NGUVUMALI,ILONGELO
SINGIDA,43,IRAMBA,433,NDAGO,43309,NGUVUMALI,NKULUSI
SINGIDA,43,IRAMBA,433,NDAGO,43309,NGUVUMALI,MASIMBA
SINGIDA,43,IRAMBA,433,NDAGO,43309,NGUVUMALI,MDONKOTO
SINGIDA,43,IRAMBA,433,NDAGO,43309,NGUVUMALI,NDAGO KATI
SINGIDA,43,IRAMBA,433,NDAGO,43309,ZINZILIGI,ZINZILIGI
SINGIDA,43,IRAMBA,433,NDAGO,43309,ZINZILIGI,LUNUA
SINGIDA,43,IRAMBA,433,NDAGO,43309,ZINZILIGI,KINISHANGA
SINGIDA,43,IRAMBA,433,NDAGO,43309,ZINZILIGI,MTAKUJA
SINGIDA,43,IRAMBA,433,NDAGO,43309,ZINZILIGI,MARUJA
SINGIDA,43,IRAMBA,433,NDAGO,43309,SONGAMBELE,LYOWELYA
SINGIDA,43,IRAMBA,433,NDAGO,43309,SONGAMBELE,KIBAYA MAGHARIBI
SINGIDA,43,IRAMBA,433,NDAGO,43309,SONGAMBELE,KIBAYA MASHARIKI
SINGIDA,43,IRAMBA,433,NDAGO,43309,SONGAMBELE,JENGELANGULU
SINGIDA,43,IRAMBA,433,NDAGO,43309,SONGAMBELE,USHORA KATI
SINGIDA,43,IRAMBA,433,NDAGO,43309,SONGAMBELE,MAPERA B
SINGIDA,43,IRAMBA,433,NDAGO,43309,SONGAMBELE,SHEMWELA
SINGIDA,43,IRAMBA,433,NDAGO,43309,LUZILUKULU,MAPERA A
SINGIDA,43,IRAMBA,433,NDAGO,43309,LUZILUKULU,LUZILUKULU NG’AMBO
SINGIDA,43,IRAMBA,433,NDAGO,43309,LUZILUKULU,LUZILUKULU  BONDENI
SINGIDA,43,IRAMBA,433,NDAGO,43309,LUZILUKULU,KABUTWA
SINGIDA,43,IRAMBA,433,SHELUI,43310,NSELEMBWE,NSELEMBWE
SINGIDA,43,IRAMBA,433,SHELUI,43310,NSELEMBWE,PANGANI
SINGIDA,43,IRAMBA,433,SHELUI,43310,NSELEMBWE,ISHANGA
SINGIDA,43,IRAMBA,433,SHELUI,43310,NSELEMBWE,MAKIKI
SINGIDA,43,IRAMBA,433,SHELUI,43310,NSELEMBWE,KINTENDE
SINGIDA,43,IRAMBA,433,SHELUI,43310,NSELEMBWE,SAWASAWA
SINGIDA,43,IRAMBA,433,SHELUI,43310,NSELEMBWE,TYUTA
SINGIDA,43,IRAMBA,433,SHELUI,43310,NSELEMBWE,NKYALA
SINGIDA,43,IRAMBA,433,SHELUI,43310,WEMBERE,KINANKUMBI
SINGIDA,43,IRAMBA,433,SHELUI,43310,WEMBERE,MSINSI
SINGIDA,43,IRAMBA,433,SHELUI,43310,WEMBERE,KIDUI
SINGIDA,43,IRAMBA,433,SHELUI,43310,WEMBERE,BUSULWANKOKO
SINGIDA,43,IRAMBA,433,SHELUI,43310,KIBIGIRI,SHULENI
SINGIDA,43,IRAMBA,433,SHELUI,43310,KIBIGIRI,MBUYUNI
SINGIDA,43,IRAMBA,433,SHELUI,43310,KIBIGIRI,MKWAJUNI
SINGIDA,43,IRAMBA,433,SHELUI,43310,KIBIGIRI,MKUYUNI
SINGIDA,43,IRAMBA,433,SHELUI,43310,TINTIGULU,TINIGULU
SINGIDA,43,IRAMBA,433,SHELUI,43310,TINTIGULU,KISELELO
SINGIDA,43,IRAMBA,433,SHELUI,43310,TINTIGULU,MULUMBA
SINGIDA,43,IRAMBA,433,SHELUI,43310,TINTIGULU,BATI
SINGIDA,43,IRAMBA,433,SHELUI,43310,NKYALA,NKYALA
SINGIDA,43,IRAMBA,433,SHELUI,43310,NKYALA,MSANSAO
SINGIDA,43,IRAMBA,433,SHELUI,43310,NKYALA,KISHOMALI
SINGIDA,43,IRAMBA,433,MTOA,43311,MGELA,STOO
SINGIDA,43,IRAMBA,433,MTOA,43311,MGELA,MGELA KATI
SINGIDA,43,IRAMBA,433,MTOA,43311,MGELA,KISUA
SINGIDA,43,IRAMBA,433,MTOA,43311,MTOA,IBAMBASI
SINGIDA,43,IRAMBA,433,MTOA,43311,MTOA,MTOA KATI
SINGIDA,43,IRAMBA,433,MTOA,43311,MTOA,MPAMBAA
SINGIDA,43,IRAMBA,433,MTOA,43311,MSAI,NTIMBWE
SINGIDA,43,IRAMBA,433,MTOA,43311,MSAI,MPAMBAA
SINGIDA,43,IRAMBA,433,MTOA,43311,MSAI,DODOMA
SINGIDA,43,IRAMBA,433,MTOA,43311,MSAI,MSAI MASHARIKI
SINGIDA,43,IRAMBA,433,MTOA,43311,MSAI,MSAI MAGHARIBI
SINGIDA,43,IRAMBA,433,MTOA,43311,MSAI,MSAI KATI
SINGIDA,43,IRAMBA,433,MTOA,43311,TYEME,MLUNGU
SINGIDA,43,IRAMBA,433,MTOA,43311,TYEME,TYEME MASHARIKI
SINGIDA,43,IRAMBA,433,MTOA,43311,TYEME,IKARANGA
SINGIDA,43,IRAMBA,433,MTOA,43311,TYEME,MKIMA
SINGIDA,43,IRAMBA,433,MTOA,43311,TYEME,TYEME KATI
SINGIDA,43,IRAMBA,433,MTOA,43311,TYEME,KATEMBO
SINGIDA,43,IRAMBA,433,MTOA,43311,TYEME,NKYALA
SINGIDA,43,IRAMBA,433,MTOA,43311,MASAGI,SHULENI
SINGIDA,43,IRAMBA,433,MTOA,43311,MASAGI,KIPEKE
SINGIDA,43,IRAMBA,433,MTOA,43311,MASAGI,MGUNGA
SINGIDA,43,IRAMBA,433,MTOA,43311,KINKUNGU,STOO
SINGIDA,43,IRAMBA,433,MTOA,43311,KINKUNGU,MIEMBENI
SINGIDA,43,IRAMBA,433,MTOA,43311,KINKUNGU,MASHINENI
SINGIDA,43,IRAMBA,433,NTWIKE,43312,MINGELA,JENGELYAMPANDI
SINGIDA,43,IRAMBA,433,NTWIKE,43312,MINGELA,MINGELA
SINGIDA,43,IRAMBA,433,NTWIKE,43312,MINGELA,TYELU
SINGIDA,43,IRAMBA,433,NTWIKE,43312,MINGELA,MILAMBO
SINGIDA,43,IRAMBA,433,NTWIKE,43312,MINGELA,INONELO
SINGIDA,43,IRAMBA,433,NTWIKE,43312,MINGELA,WAGAMOYO
SINGIDA,43,IRAMBA,433,NTWIKE,43312,NSUNSU,YALYAMWANA
SINGIDA,43,IRAMBA,433,NTWIKE,43312,NSUNSU,MONGO
SINGIDA,43,IRAMBA,433,NTWIKE,43312,NSUNSU,MNEMBULE
SINGIDA,43,IRAMBA,433,NTWIKE,43312,NSUNSU,NSUNSU A
SINGIDA,43,IRAMBA,433,NTWIKE,43312,NSUNSU,NSUNSU B
SINGIDA,43,IRAMBA,433,NTWIKE,43312,NSUNSU,JUJU
SINGIDA,43,IRAMBA,433,NTWIKE,43312,NSUNSU,NG’UNGA
SINGIDA,43,IRAMBA,433,NTWIKE,43312,NSUNSU,SANGASA
SINGIDA,43,IRAMBA,433,NTWIKE,43312,NTWIKE,MONELE
SINGIDA,43,IRAMBA,433,NTWIKE,43312,NTWIKE,MUNSUNSU
SINGIDA,43,IRAMBA,433,NTWIKE,43312,NTWIKE,MSANGA
SINGIDA,43,IRAMBA,433,NTWIKE,43312,NTWIKE,KISUAMANDO
SINGIDA,43,IRAMBA,433,NTWIKE,43312,NTWIKE,ITYANGA
SINGIDA,43,IRAMBA,433,NTWIKE,43312,NTWIKE,ILYEPU
SINGIDA,43,IRAMBA,433,NTWIKE,43312,NTWIKE,MUNSANGA
SINGIDA,43,IRAMBA,433,NTWIKE,43312,NKONKILANGI,MNSELE
SINGIDA,43,IRAMBA,433,NTWIKE,43312,NKONKILANGI,NKONKILANGI KATI
SINGIDA,43,IRAMBA,433,NTWIKE,43312,NKONKILANGI,IPULI
SINGIDA,43,IRAMBA,433,NTWIKE,43312,NKONKILANGI,KISIWANI
SINGIDA,43,IRAMBA,433,NTWIKE,43312,NKONKILANGI,KITYUNGULU
SINGIDA,43,IRAMBA,433,NTWIKE,43312,NKONKILANGI,KIBULULU
SINGIDA,43,IRAMBA,433,NTWIKE,43312,SHELUI  II,MIEMBENI
SINGIDA,43,IRAMBA,433,NTWIKE,43312,SHELUI  II,MSISI
SINGIDA,43,IRAMBA,433,NTWIKE,43312,SHELUI  II,KYULUNGU
SINGIDA,43,IRAMBA,433,NTWIKE,43312,SHELUI  II,ILYOMO
SINGIDA,43,IRAMBA,433,NTWIKE,43312,SHELUI  II,SHELUI
SINGIDA,43,IRAMBA,433,NTWIKE,43312,SHELUI  II,SHUNGILO
SINGIDA,43,IRAMBA,433,KISIRIRI,43313,KISIRIRI,MGWE A
SINGIDA,43,IRAMBA,433,KISIRIRI,43313,KISIRIRI,MGWE B
SINGIDA,43,IRAMBA,433,KISIRIRI,43313,KISIRIRI,MGONGO
SINGIDA,43,IRAMBA,433,KISIRIRI,43313,KISIRIRI,IGANGE
SINGIDA,43,IRAMBA,433,KISIRIRI,43313,KISIRIRI,NTULU
SINGIDA,43,IRAMBA,433,KISIRIRI,43313,KISIRIRI,MAZUTA
SINGIDA,43,IRAMBA,433,KISIRIRI,43313,KISIRIRI,NSUNGUI
SINGIDA,43,IRAMBA,433,KISIRIRI,43313,KINALILYA,DIYANANGE
SINGIDA,43,IRAMBA,433,KISIRIRI,43313,KINALILYA,SHIGANI
SINGIDA,43,IRAMBA,433,KISIRIRI,43313,KINALILYA,GULUMBA
SINGIDA,43,IRAMBA,433,KISIRIRI,43313,KINALILYA,MLINDO
SINGIDA,43,IRAMBA,433,KISIRIRI,43313,KISANA,KISALUSALU
SINGIDA,43,IRAMBA,433,KISIRIRI,43313,KISANA,KILAMBAZI
SINGIDA,43,IRAMBA,433,KISIRIRI,43313,KISANA,KYONGOLO
SINGIDA,43,IRAMBA,433,KISIRIRI,43313,KISANA,WANGU
SINGIDA,43,IRAMBA,433,KISIRIRI,43313,KISANA,NZUWA
SINGIDA,43,IRAMBA,433,KISIRIRI,43313,KISANA,KISANA JUU
SINGIDA,43,IRAMBA,433,KISIRIRI,43313,KISANA,KINAKUMI
SINGIDA,43,IRAMBA,433,KISIRIRI,43313,KISANA,MPAZU
SINGIDA,43,IRAMBA,433,KISIRIRI,43313,KISANA,KINTAMBA
SINGIDA,43,IRAMBA,433,KISIRIRI,43313,KISIMBA,KISIMBA
SINGIDA,43,IRAMBA,433,KISIRIRI,43313,KISIMBA,KIMPUNDA
SINGIDA,43,IRAMBA,433,KISIRIRI,43313,KISIMBA,IGUGULYA
SINGIDA,43,IRAMBA,433,TULYA,43314,MIGILANGO,MAUGULU
SINGIDA,43,IRAMBA,433,TULYA,43314,MIGILANGO,MIGILANGO
SINGIDA,43,IRAMBA,433,TULYA,43314,MIGILANGO,MILAI
SINGIDA,43,IRAMBA,433,TULYA,43314,MIGILANGO,SHAURITANGA
SINGIDA,43,IRAMBA,433,TULYA,43314,TULYA,TULYA
SINGIDA,43,IRAMBA,433,TULYA,43314,TULYA,MNSELE
SINGIDA,43,IRAMBA,433,TULYA,43314,TULYA,BAMBALAGA
SINGIDA,43,IRAMBA,433,TULYA,43314,TULYA,YOMBO
SINGIDA,43,IRAMBA,433,TULYA,43314,DOROMONI,DOROMONI
SINGIDA,43,IRAMBA,433,TULYA,43314,DOROMONI,KITEKA
SINGIDA,43,IRAMBA,433,TULYA,43314,DOROMONI,GETA
SINGIDA,43,IRAMBA,433,TULYA,43314,DOROMONI,KIBIGIRI
SINGIDA,43,IRAMBA,433,KIDARU,43315,LUONO,LUONO
SINGIDA,43,IRAMBA,433,KIDARU,43315,LUONO,MBUGAYAMPOKU
SINGIDA,43,IRAMBA,433,KIDARU,43315,LUONO,MDAMA
SINGIDA,43,IRAMBA,433,KIDARU,43315,LUONO,MWAMAPULI
SINGIDA,43,IRAMBA,433,KIDARU,43315,LUONO,KIGAA
SINGIDA,43,IRAMBA,433,KIDARU,43315,TYEGELO,SAMORA
SINGIDA,43,IRAMBA,433,KIDARU,43315,TYEGELO,AMANI
SINGIDA,43,IRAMBA,433,KIDARU,43315,TYEGELO,NKHURUMA A
SINGIDA,43,IRAMBA,433,KIDARU,43315,TYEGELO,NKHURUMA B
SINGIDA,43,IRAMBA,433,KIDARU,43315,KIDARU,MWANDO
SINGIDA,43,IRAMBA,433,KIDARU,43315,KIDARU,DUKUSILU
SINGIDA,43,IRAMBA,433,KIDARU,43315,KIDARU,MLUMBA
SINGIDA,43,IRAMBA,433,KIDARU,43315,KIDARU,TWELAMBWA
SINGIDA,43,IRAMBA,433,KIDARU,43315,KIDARU,LAINI
SINGIDA,43,IRAMBA,433,KIDARU,43315,KIDARU,MAGEMA
SINGIDA,43,IRAMBA,433,KIDARU,43315,NDURUMO,NDURUMO
SINGIDA,43,IRAMBA,433,KIDARU,43315,NDURUMO,MAKIMAMAMBI
SINGIDA,43,IRAMBA,433,KIDARU,43315,NDURUMO,MAKALE
SINGIDA,43,IRAMBA,433,NDULUNGU,43316,NDULUNGU,MJENGA
SINGIDA,43,IRAMBA,433,NDULUNGU,43316,NDULUNGU,MKONZE
SINGIDA,43,IRAMBA,433,NDULUNGU,43316,NDULUNGU,SHEMWELA
SINGIDA,43,IRAMBA,433,NDULUNGU,43316,NDULUNGU,MISUGHAA
SINGIDA,43,IRAMBA,433,NDULUNGU,43316,NDULUNGU,ISUNTIYA
SINGIDA,43,IRAMBA,433,NDULUNGU,43316,MWANDAIGEMBE,NYERERE
SINGIDA,43,IRAMBA,433,NDULUNGU,43316,MWANDAIGEMBE,RUDISHA
SINGIDA,43,IRAMBA,433,NDULUNGU,43316,MWANDAIGEMBE,SHEMWELA
SINGIDA,43,IRAMBA,433,NDULUNGU,43316,MWANDAIGEMBE,KIPAMPA
SINGIDA,43,IRAMBA,433,NDULUNGU,43316,MWANDAIGEMBE,IGORA
SINGIDA,43,IRAMBA,433,NDULUNGU,43316,MAHOLA,MAHOLA
SINGIDA,43,IRAMBA,433,NDULUNGU,43316,MAHOLA,KIPEMBAWE
SINGIDA,43,IRAMBA,433,NDULUNGU,43316,MAHOLA,NDULUNGU
SINGIDA,43,IRAMBA,433,NDULUNGU,43316,KIPUMA,KIPUMA
SINGIDA,43,IRAMBA,433,NDULUNGU,43316,KIPUMA,MAKUNGU
SINGIDA,43,IRAMBA,433,NDULUNGU,43316,KIPUMA,LUZILUKULU
SINGIDA,43,IRAMBA,433,NDULUNGU,43316,KIPUMA,FUNDI MAJAMVI
SINGIDA,43,IRAMBA,433,MGONGO,43317,MGONGO,MNTAMBA A
SINGIDA,43,IRAMBA,433,MGONGO,43317,MGONGO,MNTAMBA B
SINGIDA,43,IRAMBA,433,MGONGO,43317,MGONGO,MAJENGO
SINGIDA,43,IRAMBA,433,MGONGO,43317,MGONGO,MATONGO
SINGIDA,43,IRAMBA,433,MGONGO,43317,KIZONZO,MSANSAO
SINGIDA,43,IRAMBA,433,MGONGO,43317,KIZONZO,KIZONZO
SINGIDA,43,IRAMBA,433,MGONGO,43317,KIZONZO,NCHALA
SINGIDA,43,IRAMBA,433,MGONGO,43317,MSEKO,MWAMLULA
SINGIDA,43,IRAMBA,433,MGONGO,43317,MSEKO,MSEKO A
SINGIDA,43,IRAMBA,433,MGONGO,43317,MSEKO,MSEKO B
SINGIDA,43,IRAMBA,433,MGONGO,43317,MSEKO,MALENDI
SINGIDA,43,IRAMBA,433,MGONGO,43317,KISONGA,ISUNA A
SINGIDA,43,IRAMBA,433,MGONGO,43317,KISONGA,ISUNA B
SINGIDA,43,IRAMBA,433,MGONGO,43317,KISONGA,KISONGA
SINGIDA,43,IRAMBA,433,MGONGO,43317,KISONGA,LAIDA
SINGIDA,43,IRAMBA,433,OLD KIOMBOI,43318,KISONGA,MADUKANI
SINGIDA,43,IRAMBA,433,OLD KIOMBOI,43318,KISONGA,KYAYA
SINGIDA,43,IRAMBA,433,OLD KIOMBOI,43318,KISONGA,MAMPAMPA
SINGIDA,43,IRAMBA,433,OLD KIOMBOI,43318,KISONGA,YOMBWE
SINGIDA,43,IRAMBA,433,OLD KIOMBOI,43318,KISONGA,MANG'ATA
SINGIDA,43,IRAMBA,433,OLD KIOMBOI,43318,KISONGA,PYULULU
SINGIDA,43,IRAMBA,433,OLD KIOMBOI,43318,KISONGA,MAGULA
SINGIDA,43,IRAMBA,433,OLD KIOMBOI,43318,KISONGA,MELI KATI
SINGIDA,43,IRAMBA,433,OLD KIOMBOI,43318,KISONGA,MGAGAI
SINGIDA,43,IRAMBA,433,OLD KIOMBOI,43318,KISONGA,MELINSELE
SINGIDA,43,IRAMBA,433,OLD KIOMBOI,43318,KISONGA,MBUTIA
SINGIDA,43,IRAMBA,433,OLD KIOMBOI,43318,KISONGA,NTALANGE
SINGIDA,43,IRAMBA,433,OLD KIOMBOI,43318,KISONGA,NHUILE
SINGIDA,43,IRAMBA,433,OLD KIOMBOI,43318,KISONGA,TIGWAMBULI
SINGIDA,43,IRAMBA,433,OLD KIOMBOI,43318,KISONGA,TINKU
SINGIDA,43,IRAMBA,433,OLD KIOMBOI,43318,KISONGA,KING'INGA
SINGIDA,43,IRAMBA,433,OLD KIOMBOI,43318,KISONGA,MSOMA
SINGIDA,43,IRAMBA,433,OLD KIOMBOI,43318,KISONGA,MSINSI
SINGIDA,43,IRAMBA,433,OLD KIOMBOI,43318,KISONGA,MLANGALI
SINGIDA,43,IRAMBA,433,OLD KIOMBOI,43318,KISONGA,MIEMBENI
SINGIDA,43,IRAMBA,433,OLD KIOMBOI,43318,KISONGA,KIBAONI
SINGIDA,43,IRAMBA,433,OLD KIOMBOI,43318,KISONGA,IDEMU
SINGIDA,43,IRAMBA,433,OLD KIOMBOI,43318,KISONGA,ZUMAGI
SINGIDA,43,IRAMBA,433,OLD KIOMBOI,43318,KISONGA,MLINGOTI
SINGIDA,43,IRAMBA,433,OLD KIOMBOI,43318,KISONGA,MLUMBITA
SINGIDA,43,IRAMBA,433,OLD KIOMBOI,43318,KISONGA,MLULUMA
SINGIDA,43,IRAMBA,433,MALUGA,43319,NG'ANG'ULI,IKETO
SINGIDA,43,IRAMBA,433,MALUGA,43319,NG'ANG'ULI,NG'ANG'ULI
SINGIDA,43,IRAMBA,433,MALUGA,43319,NG'ANG'ULI,MASUNKUNE
SINGIDA,43,IRAMBA,433,MALUGA,43319,MALUGA,MITUNDURUNI
SINGIDA,43,IRAMBA,433,MALUGA,43319,MALUGA,NKULUSI
SINGIDA,43,IRAMBA,433,MALUGA,43319,MALUGA,MALUGA
SINGIDA,43,IRAMBA,433,MALUGA,43319,MALUGA,MITULU
SINGIDA,43,IRAMBA,433,MALUGA,43319,MALUGA,MASANGU
SINGIDA,43,IRAMBA,433,MALUGA,43319,MALUGA,KONA
SINGIDA,43,IRAMBA,433,MUKULU,43320,MUKULU,MKULU A
SINGIDA,43,IRAMBA,433,MUKULU,43320,MUKULU,MKULU B
SINGIDA,43,IRAMBA,433,MUKULU,43320,MUKULU,MKUU   C
SINGIDA,43,IRAMBA,433,MUKULU,43320,MUKULU,MKULU  D
SINGIDA,43,IRAMBA,433,MUKULU,43320,MOTOMOTO,STEPHANO SHILA
SINGIDA,43,IRAMBA,433,MUKULU,43320,MOTOMOTO,MWAMPITI
SINGIDA,43,IRAMBA,433,MUKULU,43320,MOTOMOTO,MTANDAO
SINGIDA,43,IRAMBA,433,MUKULU,43320,SIMBALUNGWALA,MAGUGU
SINGIDA,43,IRAMBA,433,MUKULU,43320,SIMBALUNGWALA,KILAMBAZI
SINGIDA,43,IRAMBA,433,MUKULU,43320,SIMBALUNGWALA,SHULENI
SINGIDA,43,IRAMBA,433,MUKULU,43320,SIMBALUNGWALA,ULONGO
SINGIDA,43,MANYONI,434,MANYONI URBAN,43401,MANYONI URBAN,MJINI
SINGIDA,43,MANYONI,434,MANYONI URBAN,43401,MANYONI URBAN,MITOO CHINI
SINGIDA,43,MANYONI,434,MANYONI URBAN,43401,MANYONI URBAN,MWEMBENI
SINGIDA,43,MANYONI,434,MANYONI URBAN,43401,MANYONI URBAN,SAMARIA
SINGIDA,43,MANYONI,434,MANYONI URBAN,43401,MANYONI URBAN,KALOLENI
SINGIDA,43,MANYONI,434,MANYONI URBAN,43401,MANYONI URBAN,TAMBUKARELI
SINGIDA,43,MANYONI,434,MANYONI URBAN,43401,MANYONI URBAN,KIPONDODA
SINGIDA,43,MANYONI,434,MANYONI URBAN,43401,MANYONI URBAN,BOMA SAYUNI
SINGIDA,43,MANYONI,434,MANYONI URBAN,43401,MANYONI URBAN,MADUKANI
SINGIDA,43,MANYONI,434,MANYONI URBAN,43401,MANYONI URBAN,MWANZI
SINGIDA,43,MANYONI,434,MANYONI URBAN,43401,MANYONI URBAN,MASIGATI
SINGIDA,43,MANYONI,434,MANYONI URBAN,43401,MANYONI URBAN,MAJENGO
SINGIDA,43,MANYONI,434,MANYONI URBAN,43401,MANYONI URBAN,MGULUWANG’OMBE
SINGIDA,43,MANYONI,434,MANYONI URBAN,43401,MANYONI URBAN,CHANG’OMBE
SINGIDA,43,MANYONI,434,MKWESE,43402,MKWESE,STENDI
SINGIDA,43,MANYONI,434,MKWESE,43402,MKWESE,MAJENGO
SINGIDA,43,MANYONI,434,MKWESE,43402,MKWESE,MPAMAA
SINGIDA,43,MANYONI,434,MKWESE,43402,MKWESE,MIYOMBONI
SINGIDA,43,MANYONI,434,MKWESE,43402,MKWESE,MBUYUNI
SINGIDA,43,MANYONI,434,MKWESE,43402,MKWESE,TAMBUKARELI
SINGIDA,43,MANYONI,434,MKWESE,43402,MKWESE,MITOO
SINGIDA,43,MANYONI,434,MKWESE,43402,MKWESE,KINANGALI
SINGIDA,43,MANYONI,434,MKWESE,43402,MKWESE,KINYIKA
SINGIDA,43,MANYONI,434,MKWESE,43402,MKWESE,MININGAA
SINGIDA,43,MANYONI,434,MUHALALA,43403,MUHALALA,BARABARANI
SINGIDA,43,MANYONI,434,MUHALALA,43403,MUHALALA,IGUMILA
SINGIDA,43,MANYONI,434,MUHALALA,43403,MUHALALA,KAPITI
SINGIDA,43,MANYONI,434,MUHALALA,43403,MUHALALA,MBWEKOO
SINGIDA,43,MANYONI,434,MUHALALA,43403,MUHALALA,KATI
SINGIDA,43,MANYONI,434,MUHALALA,43403,MUHALALA,GENGENI
SINGIDA,43,MANYONI,434,CHIKUYU,43404,CHIKUYU,MJINI KATI A
SINGIDA,43,MANYONI,434,CHIKUYU,43404,CHIKUYU,MIJNI KATI B
SINGIDA,43,MANYONI,434,CHIKUYU,43404,CHIKUYU,KORO
SINGIDA,43,MANYONI,434,CHIKUYU,43404,MWIBOO,MWIBOO KATI
SINGIDA,43,MANYONI,434,CHIKUYU,43404,MWIBOO,NDEBESII
SINGIDA,43,MANYONI,434,CHIKUYU,43404,MWIBOO,MANG’ONYI
SINGIDA,43,MANYONI,434,CHIKUYU,43404,MWIBOO,USANGUNI
SINGIDA,43,MANYONI,434,CHIKUYU,43404,MWIBOO,WALANKONDO
SINGIDA,43,MANYONI,434,CHIKUYU,43404,MWIBOO,MWILAGWA
SINGIDA,43,MANYONI,434,CHIKUYU,43404,CHILEJEO,CHILEJEO
SINGIDA,43,MANYONI,434,CHIKUYU,43404,CHILEJEO,NYAMAGOGOO
SINGIDA,43,MANYONI,434,CHIKUYU,43404,CHILEJEO,MABALANGU
SINGIDA,43,MANYONI,434,CHIKUYU,43404,MTIWE,MTIWE
SINGIDA,43,MANYONI,434,CHIKUYU,43404,MTIWE,MAGEREZA
SINGIDA,43,MANYONI,434,CHIKUYU,43404,MTIWE,NZUGUU
SINGIDA,43,MANYONI,434,CHIKUYU,43404,MTIWE,MJINI
SINGIDA,43,MANYONI,434,MAKUTOPORA,43405,MAKUTUPORA,CHISONGO A
SINGIDA,43,MANYONI,434,MAKUTOPORA,43405,MAKUTUPORA,CHISONGO B
SINGIDA,43,MANYONI,434,MAKUTOPORA,43405,MAKUTUPORA,MAKUTUPORA KATI
SINGIDA,43,MANYONI,434,MAKUTOPORA,43405,MAKUTUPORA,WALANCHINZA
SINGIDA,43,MANYONI,434,MAKUTOPORA,43405,MAKUTUPORA,MGOMOLE
SINGIDA,43,MANYONI,434,MAKUTOPORA,43405,MBWASA,MPYONKO
SINGIDA,43,MANYONI,434,MAKUTOPORA,43405,MBWASA,MKILANGWA
SINGIDA,43,MANYONI,434,MAKUTOPORA,43405,MBWASA,MBWASA KATI
SINGIDA,43,MANYONI,434,MAKUTOPORA,43405,MBWASA,MLOWA NG'AMBO
SINGIDA,43,MANYONI,434,MAKUTOPORA,43405,MBWASA,NKAMBALA
SINGIDA,43,MANYONI,434,MAKUTOPORA,43405,DABIA,MAKURU
SINGIDA,43,MANYONI,434,MAKUTOPORA,43405,DABIA,MAKORONGOO
SINGIDA,43,MANYONI,434,MAKUTOPORA,43405,DABIA,DABIA JUU
SINGIDA,43,MANYONI,434,MAKUTOPORA,43405,DABIA,NDIBOO
SINGIDA,43,MANYONI,434,MAKUTOPORA,43405,DABIA,MPAPAGU
SINGIDA,43,MANYONI,434,MAKANDA,43406,MAKANDA,MAKANDA A
SINGIDA,43,MANYONI,434,MAKANDA,43406,MAKANDA,MAKANDA B
SINGIDA,43,MANYONI,434,MAKANDA,43406,MAKANDA,MAKANDA C
SINGIDA,43,MANYONI,434,MAKANDA,43406,MAGASAI,MAGASAI A
SINGIDA,43,MANYONI,434,MAKANDA,43406,MAGASAI,MAGASAI B
SINGIDA,43,MANYONI,434,MAKANDA,43406,MAGASAI,MAKORONGOO
SINGIDA,43,MANYONI,434,MAKANDA,43406,MAGASAI,CHISUGALA
SINGIDA,43,MANYONI,434,MAKANDA,43406,MAGASAI,MAKANG'WA
SINGIDA,43,MANYONI,434,MAKANDA,43406,KITALALO,AZIMIO
SINGIDA,43,MANYONI,434,MAKANDA,43406,KITALALO,KILIMO
SINGIDA,43,MANYONI,434,MAKANDA,43406,KITALALO,MAPINDUZI
SINGIDA,43,MANYONI,434,KINTINKU,43407,KINTINKU,MSIKITINI
SINGIDA,43,MANYONI,434,KINTINKU,43407,KINTINKU,RELI MADUKANI
SINGIDA,43,MANYONI,434,KINTINKU,43407,KINTINKU,KANISANI
SINGIDA,43,MANYONI,434,KINTINKU,43407,KINTINKU,KARAKANA
SINGIDA,43,MANYONI,434,KINTINKU,43407,KINTINKU,KINTINKU NJE
SINGIDA,43,MANYONI,434,KINTINKU,43407,KINTINKU,MNADANI
SINGIDA,43,MANYONI,434,KINTINKU,43407,UDIMAA,UDIMAA SHULENI
SINGIDA,43,MANYONI,434,KINTINKU,43407,UDIMAA,UDIMAA MASHARIKI
SINGIDA,43,MANYONI,434,KINTINKU,43407,UDIMAA,UDIMAA
SINGIDA,43,MANYONI,434,KINTINKU,43407,UDIMAA,WANGAMA A
SINGIDA,43,MANYONI,434,KINTINKU,43407,UDIMAA,MALYULYU
SINGIDA,43,MANYONI,434,KINTINKU,43407,UDIMAA,KINYUMBA
SINGIDA,43,MANYONI,434,KINTINKU,43407,LUSILILE,SOKONI
SINGIDA,43,MANYONI,434,KINTINKU,43407,LUSILILE,RC MISSION
SINGIDA,43,MANYONI,434,KINTINKU,43407,LUSILILE,RELI MASHARIKI
SINGIDA,43,MANYONI,434,KINTINKU,43407,LUSILILE,WARAKA IFAD
SINGIDA,43,MANYONI,434,KINTINKU,43407,LUSILILE,WARAKA RELI
SINGIDA,43,MANYONI,434,KINTINKU,43407,LUSILILE,NKANYAGWA
SINGIDA,43,MANYONI,434,KINTINKU,43407,LUSILILE,NDAMLOI
SINGIDA,43,MANYONI,434,MAWENI,43408,MAWENI,NTAMBALIZA
SINGIDA,43,MANYONI,434,MAWENI,43408,MAWENI,CHINYIKA
SINGIDA,43,MANYONI,434,MAWENI,43408,MAWENI,MKULU
SINGIDA,43,MANYONI,434,MAWENI,43408,MAWENI,SAIGOMI
SINGIDA,43,MANYONI,434,MAWENI,43408,MAWENI,KANAMALENGA
SINGIDA,43,MANYONI,434,MAWENI,43408,NGAITI,MBIJILI
SINGIDA,43,MANYONI,434,MAWENI,43408,NGAITI,UTEMINI
SINGIDA,43,MANYONI,434,MAWENI,43408,NGAITI,IGOSE
SINGIDA,43,MANYONI,434,MAWENI,43408,NGAITI,MPUJE
SINGIDA,43,MANYONI,434,MAWENI,43408,NGAITI,MNASE
SINGIDA,43,MANYONI,434,MAWENI,43408,MVUMI,MVUMI KATI
SINGIDA,43,MANYONI,434,MAWENI,43408,MVUMI,UTEMINI
SINGIDA,43,MANYONI,434,MAWENI,43408,MVUMI,NCHEMBOO
SINGIDA,43,MANYONI,434,MAWENI,43408,MVUMI,SIMANJIRO
SINGIDA,43,MANYONI,434,MAWENI,43408,MVUMI,LUGANDI
SINGIDA,43,MANYONI,434,CHIKOLA,43409,CHIKOLA,CHIKOLA
SINGIDA,43,MANYONI,434,CHIKOLA,43409,CHIKOLA,CHISIMBO
SINGIDA,43,MANYONI,434,CHIKOLA,43409,CHIKOLA,UYANZI
SINGIDA,43,MANYONI,434,CHIKOLA,43409,CHIKOLA,MITURU
SINGIDA,43,MANYONI,434,CHIKOLA,43409,CHIKOLA,IPULULU
SINGIDA,43,MANYONI,434,CHIKOLA,43409,KASANII,KASANII A
SINGIDA,43,MANYONI,434,CHIKOLA,43409,KASANII,KASANII B
SINGIDA,43,MANYONI,434,CHIKOLA,43409,KASANII,MJENDIYAGA
SINGIDA,43,MANYONI,434,CHIKOLA,43409,KASANII,IDOLE
SINGIDA,43,MANYONI,434,CHIKOLA,43409,ITETEMA,ITETEMA
SINGIDA,43,MANYONI,434,CHIKOLA,43409,ITETEMA,MATONGORO
SINGIDA,43,MANYONI,434,CHIKOLA,43409,ITETEMA,NKAMBALA
SINGIDA,43,MANYONI,434,CHIKOLA,43409,ITETEMA,NKAMBALA B
SINGIDA,43,MANYONI,434,CHIKOLA,43409,ITETEMA,ISANGA
SINGIDA,43,MANYONI,434,CHIKOLA,43409,CHIDAMSULU,CHIDAMSULU A
SINGIDA,43,MANYONI,434,CHIKOLA,43409,CHIDAMSULU,CHIDAMSULU B
SINGIDA,43,MANYONI,434,CHIKOLA,43409,CHIDAMSULU,MGUJI
SINGIDA,43,MANYONI,434,CHIKOLA,43409,WINAMILA,WINAMILA
SINGIDA,43,MANYONI,434,CHIKOLA,43409,WINAMILA,CHIBWE
SINGIDA,43,MANYONI,434,CHIKOLA,43409,WINAMILA,CHIKUYU
SINGIDA,43,MANYONI,434,CHIKOLA,43409,WINAMILA,NKUNZI
SINGIDA,43,MANYONI,434,HEKA,43410,HEKA AZIMIO,MEJENGO
SINGIDA,43,MANYONI,434,HEKA,43410,HEKA AZIMIO,HEKA KATI
SINGIDA,43,MANYONI,434,HEKA,43410,HEKA AZIMIO,CHIDAMSULU
SINGIDA,43,MANYONI,434,HEKA,43410,HEKA AZIMIO,IGONJAA
SINGIDA,43,MANYONI,434,HEKA,43410,MAZUCHII,MAZUCHII
SINGIDA,43,MANYONI,434,HEKA,43410,MAZUCHII,CHIGURU CHIPANDE
SINGIDA,43,MANYONI,434,HEKA,43410,MAZUCHII,MAPELA
SINGIDA,43,MANYONI,434,HEKA,43410,CHIKOMBO,CHIKOMBO KATI
SINGIDA,43,MANYONI,434,HEKA,43410,CHIKOMBO,MKONDOA
SINGIDA,43,MANYONI,434,HEKA,43410,CHIKOMBO,CHEMCHEM
SINGIDA,43,MANYONI,434,SASILO,43411,IMALAMPAKA,IMALAMPAKA
SINGIDA,43,MANYONI,434,SASILO,43411,IMALAMPAKA,NGUMOO
SINGIDA,43,MANYONI,434,SASILO,43411,IMALAMPAKA,MAJENGO
SINGIDA,43,MANYONI,434,SASILO,43411,IMALAMPAKA,MTANISIKIA
SINGIDA,43,MANYONI,434,SASILO,43411,IMALAMPAKA,MPANDEPANDE
SINGIDA,43,MANYONI,434,SASILO,43411,IMALAMPAKA,UKIMBU
SINGIDA,43,MANYONI,434,SASILO,43411,SASILO,VUMILIA
SINGIDA,43,MANYONI,434,SASILO,43411,SASILO,HONGERA
SINGIDA,43,MANYONI,434,SASILO,43411,SASILO,WANGAMA
SINGIDA,43,MANYONI,434,SASILO,43411,SASILO,NKUNKUNI
SINGIDA,43,MANYONI,434,SASILO,43411,SASILO,IZEZEJE
SINGIDA,43,MANYONI,434,SASILO,43411,CHISINGISA,CHISINGISA
SINGIDA,43,MANYONI,434,SASILO,43411,CHISINGISA,CHIWONDO
SINGIDA,43,MANYONI,434,SASILO,43411,CHISINGISA,DARAJANI
SINGIDA,43,MANYONI,434,SASILO,43411,MWITIKILA,MWITIKILA
SINGIDA,43,MANYONI,434,SASILO,43411,MWITIKILA,MDAMBULO
SINGIDA,43,MANYONI,434,SASILO,43411,MWITIKILA,MSUTYEE
SINGIDA,43,MANYONI,434,NKONKO,43412,NKONKO,ILAMBAA
SINGIDA,43,MANYONI,434,NKONKO,43412,NKONKO,MAKULU
SINGIDA,43,MANYONI,434,NKONKO,43412,NKONKO,IDODOMA
SINGIDA,43,MANYONI,434,NKONKO,43412,MPOLA,USALAMA
SINGIDA,43,MANYONI,434,NKONKO,43412,MPOLA,WALANCHIZA
SINGIDA,43,MANYONI,434,NKONKO,43412,MPOLA,MAZUCHII
SINGIDA,43,MANYONI,434,NKONKO,43412,MPOLA,IMALAMAKUO
SINGIDA,43,MANYONI,434,NKONKO,43412,MPOLA,IDEKAA
SINGIDA,43,MANYONI,434,NKONKO,43412,NTUMBI,MSANYANTE
SINGIDA,43,MANYONI,434,NKONKO,43412,NTUMBI,NDAIFUMILE
SINGIDA,43,MANYONI,434,NKONKO,43412,NTUMBI,MBWEKULOO
SINGIDA,43,MANYONI,434,NKONKO,43412,NTUMBI,WAIDARA
SINGIDA,43,MANYONI,434,NKONKO,43412,NTUMBI,CHIPETU
SINGIDA,43,MANYONI,434,SANZA,43413,SANZA,CHITINDE
SINGIDA,43,MANYONI,434,SANZA,43413,SANZA,MCHETYEE
SINGIDA,43,MANYONI,434,SANZA,43413,SANZA,MTAKUJA
SINGIDA,43,MANYONI,434,SANZA,43413,SANZA,CHIKUYU
SINGIDA,43,MANYONI,434,SANZA,43413,SANZA,MAKOPA
SINGIDA,43,MANYONI,434,SANZA,43413,NTOPE,MAKULU
SINGIDA,43,MANYONI,434,SANZA,43413,NTOPE,MUUNGANO
SINGIDA,43,MANYONI,434,SANZA,43413,NTOPE,AZIMIO
SINGIDA,43,MANYONI,434,SANZA,43413,NTOPE,MABATINI
SINGIDA,43,MANYONI,434,SANZA,43413,IKASI,MADUKANI
SINGIDA,43,MANYONI,434,SANZA,43413,IKASI,KIJIWENI
SINGIDA,43,MANYONI,434,SANZA,43413,IKASI,MKWAJUNI
SINGIDA,43,MANYONI,434,SANZA,43413,IKASI,CHAMWINO
SINGIDA,43,MANYONI,434,SANZA,43413,CHICHEHO,CHINYIKA
SINGIDA,43,MANYONI,434,SANZA,43413,CHICHEHO,MATURE
SINGIDA,43,MANYONI,434,SANZA,43413,CHICHEHO,NKUNKUNI
SINGIDA,43,MANYONI,434,SANZA,43413,CHICHEHO,CHINOJE
SINGIDA,43,MANYONI,434,ISSEKE,43414,ISSEKE,IKULU
SINGIDA,43,MANYONI,434,ISSEKE,43414,ISSEKE,MLIMA CHIPALANGURU
SINGIDA,43,MANYONI,434,ISSEKE,43414,ISSEKE,UTAMBALA
SINGIDA,43,MANYONI,434,ISSEKE,43414,IGWAMADETE,IGWAMADETE
SINGIDA,43,MANYONI,434,ISSEKE,43414,IGWAMADETE,CHANDAMA
SINGIDA,43,MANYONI,434,ISSEKE,43414,IGWAMADETE,WOTA
SINGIDA,43,MANYONI,434,ISSEKE,43414,IGWAMADETE,MWANGUSEE
SINGIDA,43,MANYONI,434,ISSEKE,43414,IGWAMADETE,IPALA
SINGIDA,43,MANYONI,434,ISSEKE,43414,IPANDUKA,IPANDUKA
SINGIDA,43,MANYONI,434,ISSEKE,43414,IPANDUKA,NYAVILINGO
SINGIDA,43,MANYONI,434,ISSEKE,43414,IPANDUKA,CHIPALANGULU
SINGIDA,43,MANYONI,434,ISSEKE,43414,MPAPA,MPAPA
SINGIDA,43,MANYONI,434,ISSEKE,43414,MPAPA,IKOLA
SINGIDA,43,MANYONI,434,ISSEKE,43414,MPAPA,MKONAME
SINGIDA,43,MANYONI,434,ISSEKE,43414,MPAPA,CHISULULU
SINGIDA,43,MANYONI,434,ISSEKE,43414,MPAPA,KISALALO
SINGIDA,43,MANYONI,434,ISSEKE,43414,SIMBANGURU,UTEMINI
SINGIDA,43,MANYONI,434,ISSEKE,43414,SIMBANGURU,MAHANGALENGA
SINGIDA,43,MANYONI,434,ISSEKE,43414,SIMBANGURU,NKAMBALALA
SINGIDA,43,MANYONI,434,ISSEKE,43414,SIMBANGURU,MAFURUNGU
SINGIDA,43,MANYONI,434,ISSEKE,43414,SIMBANGURU,CHIMWANZI B
SINGIDA,43,MANYONI,434,ISSEKE,43414,SIMBANGURU,CHIMWANZU
SINGIDA,43,MANYONI,434,ISSEKE,43414,MANGOLI,MANGOLI
SINGIDA,43,MANYONI,434,ISSEKE,43414,MANGOLI,IDODOMA
SINGIDA,43,MANYONI,434,ISSEKE,43414,MANGOLI,WALANCHINZA
SINGIDA,43,MANYONI,434,ISSEKE,43414,MANGOLI,CHIDUDU
SINGIDA,43,MANYONI,434,ISSEKE,43414,MANGOLI,NYAMAZA
SINGIDA,43,MANYONI,434,SOLYA,43415,KILIMATINDE,MABWENINI
SINGIDA,43,MANYONI,434,SOLYA,43415,KILIMATINDE,HOSPITALI
SINGIDA,43,MANYONI,434,SOLYA,43415,KILIMATINDE,KIJIWENI
SINGIDA,43,MANYONI,434,SOLYA,43415,KILIMATINDE,BONDENI
SINGIDA,43,MANYONI,434,SOLYA,43415,KILIMATINDE,ILALA
SINGIDA,43,MANYONI,434,SOLYA,43415,SOLYA,KINANGALI
SINGIDA,43,MANYONI,434,SOLYA,43415,SOLYA,USHOLA
SINGIDA,43,MANYONI,434,SOLYA,43415,SOLYA,MABONDENI
SINGIDA,43,MANYONI,434,SOLYA,43415,SOLYA,MSANGALALE
SINGIDA,43,MANYONI,434,SOLYA,43415,SUKAMAHELA,CHIWONDO
SINGIDA,43,MANYONI,434,SOLYA,43415,SUKAMAHELA,MUGABE
SINGIDA,43,MANYONI,434,SOLYA,43415,SUKAMAHELA,USTAWI
SINGIDA,43,MANYONI,434,SOLYA,43415,SUKAMAHELA,HINJILI
SINGIDA,43,MANYONI,434,SOLYA,43415,SUKAMAHELA,JEMBEE
SINGIDA,43,MANYONI,434,SOLYA,43415,SUKAMAHELA,CHIKOLASAMU
SINGIDA,43,MANYONI,434,MAKURU,43416,MSEMEMBO,MSEMEMBO
SINGIDA,43,MANYONI,434,MAKURU,43416,MSEMEMBO,CHANG'OMBE
SINGIDA,43,MANYONI,434,MAKURU,43416,MSEMEMBO,KISEMWA
SINGIDA,43,MANYONI,434,MAKURU,43416,MSEMEMBO,KIUNGE
SINGIDA,43,MANYONI,434,MAKURU,43416,MSEMEMBO,UZOZO
SINGIDA,43,MANYONI,434,MAKURU,43416,MAKURU,OLD MAKURU
SINGIDA,43,MANYONI,434,MAKURU,43416,MAKURU,MPANDEE
SINGIDA,43,MANYONI,434,MAKURU,43416,MAKURU,MKUYUU
SINGIDA,43,MANYONI,434,MAKURU,43416,LONDONI,LONDONI
SINGIDA,43,MANYONI,434,MAKURU,43416,LONDONI,HANGWEDULU A
SINGIDA,43,MANYONI,434,MAKURU,43416,HIKA,HIKA
SINGIDA,43,MANYONI,434,SARANDA,43417,SARANDA,SARANDA
SINGIDA,43,MANYONI,434,SARANDA,43417,SARANDA,ISANJANDUGU
SINGIDA,43,MANYONI,434,SARANDA,43417,SARANDA,CHAMBOGO
SINGIDA,43,MANYONI,434,SARANDA,43417,SARANDA,SEKEULA
SINGIDA,43,MANYONI,434,SARANDA,43417,SARANDA,MKANDA
SINGIDA,43,MANYONI,434,SARANDA,43417,SARANDA,MTAKUJA
SINGIDA,43,MANYONI,434,SARANDA,43417,ILALOO,ILALOO
SINGIDA,43,MANYONI,434,SARANDA,43417,ILALOO,MANKEMBOO
SINGIDA,43,MANYONI,434,SARANDA,43417,ILALOO,JANJUU
SINGIDA,43,MANYONI,434,SARANDA,43417,ILALOO,MHEGAHEGA
SINGIDA,43,MANYONI,434,SARANDA,43417,ILALOO,MLIMANI
SINGIDA,43,MANYONI,434,SARANDA,43417,ILUCHA,ILUCHA
SINGIDA,43,MANYONI,434,MAJIRI,43418,MAJIRI,ISUHULA
SINGIDA,43,MANYONI,434,MAJIRI,43418,MAJIRI,IKOMBO
SINGIDA,43,MANYONI,434,MAJIRI,43418,MAJIRI,HUZI
SINGIDA,43,MANYONI,434,MAJIRI,43418,MAJIRI,ILOLA
SINGIDA,43,MANYONI,434,MAJIRI,43418,KINANGALI,MWEGAMILE
SINGIDA,43,MANYONI,434,MAJIRI,43418,KINANGALI,ILANI
SINGIDA,43,MANYONI,434,MAJIRI,43418,KINANGALI,MISHENI
SINGIDA,43,MANYONI,434,MAJIRI,43418,KINANGALI,KISAMAMBA
SINGIDA,43,MANYONI,434,MAJIRI,43418,KINANGALI,MSHINDI KEMPU
SINGIDA,43,MANYONI,434,MAJIRI,43418,MPANDAGANI,MPANDAGANI
SINGIDA,43,MANYONI,434,MAJIRI,43418,MPANDAGANI,MAFYOLWA
SINGIDA,43,MANYONI,434,MAJIRI,43418,MPANDAGANI,IDAWI
SINGIDA,43,MANYONI,434,MAJIRI,43418,MAHAKA,KISARUSARU
SINGIDA,43,MANYONI,434,MAJIRI,43418,MAHAKA,ILANDAA
SINGIDA,43,MANYONI,434,MAJIRI,43418,MAHAKA,KITUNJA
SINGIDA,43,MANYONI,434,SASAJILA,43419,SASAJILA,CHIWONDO
SINGIDA,43,MANYONI,434,SASAJILA,43419,SASAJILA,WEZA
SINGIDA,43,MANYONI,434,SASAJILA,43419,SASAJILA,CHIKUYU
SINGIDA,43,MANYONI,434,SASAJILA,43419,SASAJILA,WEZABII
SINGIDA,43,MANYONI,434,SASAJILA,43419,SASAJILA,MSECHEE
SINGIDA,43,MANYONI,434,SASAJILA,43419,MAKASUKU,MAYANGA
SINGIDA,43,MANYONI,434,SASAJILA,43419,MAKASUKU,NCHINDI
SINGIDA,43,MANYONI,434,SASAJILA,43419,MAKASUKU,CHISONGO
SINGIDA,43,MANYONI,434,SASAJILA,43419,MAKASUKU,MAKWASA
SINGIDA,43,MANYONI,434,SASAJILA,43419,MAKASUKU,ILALA
SINGIDA,43,MANYONI,434,SASAJILA,43419,MAKASUKU,MTOVINDA
SINGIDA,43,MANYONI,434,SASAJILA,43419,CHIBUMAGWA,MWONGOZO
SINGIDA,43,MANYONI,434,SASAJILA,43419,CHIBUMAGWA,KIGAMBONI
SINGIDA,43,MANYONI,434,SASAJILA,43419,CHIBUMAGWA,CHIKOMBO
SINGIDA,43,MANYONI,434,SASAJILA,43419,CHIBUMAGWA,MSACHILE
SINGIDA,43,MANYONI,434,IDODYANDOLE,43420,IDODYANDOLE,NZEGAMIRA
SINGIDA,43,MANYONI,434,IDODYANDOLE,43420,IDODYANDOLE,NZUGUU
SINGIDA,43,MANYONI,434,IDODYANDOLE,43420,IDODYANDOLE,MADILBILA
SINGIDA,43,MANYONI,434,IDODYANDOLE,43420,IDODYANDOLE,MAPANZI
SINGIDA,43,MANYONI,434,IDODYANDOLE,43420,IDODYANDOLE,MVALANKONDO
SINGIDA,43,MANYONI,434,IDODYANDOLE,43420,IPANGAMASASI,IPANGAMASASI
SINGIDA,43,MANYONI,434,IDODYANDOLE,43420,IPANGAMASASI,ISUGUSUGU
SINGIDA,43,MANYONI,434,IDODYANDOLE,43420,IPANGAMASASI,FUMBUKA
SINGIDA,43,MANYONI,434,IDODYANDOLE,43420,IPANGAMASASI,NTAWILA
SINGIDA,43,MANYONI,434,IDODYANDOLE,43420,KASHANGU,KASHANGU
SINGIDA,43,MANYONI,434,IDODYANDOLE,43420,KASHANGU,IBENAMLUNDI
SINGIDA,43,MANYONI,434,IDODYANDOLE,43420,KASHANGU,MILUMBI
SINGIDA,43,MANYONI,434,IDODYANDOLE,43420,JEJE,JEJE A
SINGIDA,43,MANYONI,434,IDODYANDOLE,43420,JEJE,JEJE B
SINGIDA,43,MANYONI,434,IDODYANDOLE,43420,JEJE,MAKAMBINI
SINGIDA,43,MANYONI,434,IDODYANDOLE,43420,MBUGANI,MBUGANI A
SINGIDA,43,MANYONI,434,IDODYANDOLE,43420,MBUGANI,MBUGANI B
SINGIDA,43,MANYONI,434,IDODYANDOLE,43420,MBUGANI,CHIREJEO
SINGIDA,43,MANYONI,434,IDODYANDOLE,43420,MBUGANI,NAMBA MBILI
SINGIDA,43,MANYONI,434,IDODYANDOLE,43420,MBUGANI,MCHINDOO
SINGIDA,43,MANYONI,434,IDODYANDOLE,43420,MBUGANI,WENZAMTIMA
SINGIDA,43,MANYONI,434,AGHONDI,43421,AGHONDI,AZIMIO
SINGIDA,43,MANYONI,434,AGHONDI,43421,AGHONDI,MAPINDUZI
SINGIDA,43,MANYONI,434,AGHONDI,43421,AGHONDI,MWINJE
SINGIDA,43,MANYONI,434,AGHONDI,43421,AGHONDI,MAPAMBANO
SINGIDA,43,MANYONI,434,AGHONDI,43421,AGHONDI,BARAMAJI
SINGIDA,43,MANYONI,434,AGHONDI,43421,MABONDENI,MSUMBIJI
SINGIDA,43,MANYONI,434,AGHONDI,43421,MABONDENI,SINGIDA
SINGIDA,43,MANYONI,434,AGHONDI,43421,MABONDENI,MRIJEU
SINGIDA,43,MANYONI,434,AGHONDI,43421,MABONDENI,LALATA
SINGIDA,43,MANYONI,434,AGHONDI,43421,MABONDENI,MBUYUNI
SINGIDA,43,MANYONI,434,AGHONDI,43421,KAMENYANGA,MAJIWENI
SINGIDA,43,MANYONI,434,AGHONDI,43421,KAMENYANGA,KAMENYANGA KATI
SINGIDA,43,MANYONI,434,AGHONDI,43421,KAMENYANGA,MIYOMBONI
SINGIDA,43,MANYONI,434,AGHONDI,43421,KAMENYANGA,SONGAMBELE
SINGIDA,43,MANYONI,434,AGHONDI,43421,KAMENYANGA,MBUGANI
SINGIDA,43,MANYONI,434,AGHONDI,43421,NJIRII,BONDENI
SINGIDA,43,MANYONI,434,AGHONDI,43421,NJIRII,MIULANI
SINGIDA,43,MANYONI,434,AGHONDI,43421,NJIRII,CHANG'OMBE
SINGIDA,43,MANYONI,434,AGHONDI,43421,NJIRII,SONGAMBELE
SINGIDA,43,MANYONI,434,AGHONDI,43421,NJIRII,NKHONJEE
SINGIDA,43,MANYONI,434,RUNGWA,43422,RUNGWA,STESHENI
SINGIDA,43,MANYONI,434,RUNGWA,43422,RUNGWA,MAJENGO
SINGIDA,43,MANYONI,434,RUNGWA,43422,RUNGWA,GAME
SINGIDA,43,MANYONI,434,RUNGWA,43422,RUNGWA,MKOLA A
SINGIDA,43,MANYONI,434,RUNGWA,43422,RUNGWA,MKOLA B
SINGIDA,43,MANYONI,434,MWAMAGEMBE,43423,KINTANULA,UJERUMANI
SINGIDA,43,MANYONI,434,MWAMAGEMBE,43423,KINTANULA,MABONDENI
SINGIDA,43,MANYONI,434,MWAMAGEMBE,43423,KINTANULA,MATUMAINI
SINGIDA,43,MANYONI,434,MWAMAGEMBE,43423,KINTANULA,UJERUMANI B
SINGIDA,43,MANYONI,434,MWAMAGEMBE,43423,MWAMAGEMBE,ISINGIWE
SINGIDA,43,MANYONI,434,MWAMAGEMBE,43423,MWAMAGEMBE,MABATINI
SINGIDA,43,MANYONI,434,MWAMAGEMBE,43423,MWAMAGEMBE,GAME
SINGIDA,43,MANYONI,434,MGANDU,43424,KAYUI,UKIMBU
SINGIDA,43,MANYONI,434,MGANDU,43424,KAYUI,KILULUMO
SINGIDA,43,MANYONI,434,MGANDU,43424,KAYUI,NG'ONGOSOLO
SINGIDA,43,MANYONI,434,MGANDU,43424,KAYUI,USWESANONI
SINGIDA,43,MANYONI,434,MGANDU,43424,CHABUTWA,CHABUTWA
SINGIDA,43,MANYONI,434,MGANDU,43424,CHABUTWA,MISOMO
SINGIDA,43,MANYONI,434,MGANDU,43424,CHABUTWA,MISUU
SINGIDA,43,MANYONI,434,MGANDU,43424,CHABUTWA,MATAGATA
SINGIDA,43,MANYONI,434,MGANDU,43424,ITAGATA,UTEMINI
SINGIDA,43,MANYONI,434,MGANDU,43424,ITAGATA,MILEMBE
SINGIDA,43,MANYONI,434,MGANDU,43424,ITAGATA,MAJENGO
SINGIDA,43,MANYONI,434,MGANDU,43424,ITAGATA,MHESI
SINGIDA,43,MANYONI,434,MGANDU,43424,ITAGATA,MWAKITANDA
SINGIDA,43,MANYONI,434,MGANDU,43424,ITAGATA,BATALA
SINGIDA,43,MANYONI,434,MGANDU,43424,LULANGA,LULANGA JUU
SINGIDA,43,MANYONI,434,MGANDU,43424,LULANGA,LULANGA CHINI
SINGIDA,43,MANYONI,434,MGANDU,43424,LULANGA,MIRUMBI
SINGIDA,43,MANYONI,434,MGANDU,43424,LULANGA,BATALA
SINGIDA,43,MANYONI,434,ITIGI MJINI,43425,ITIGI MJINI,MSIKITINI
SINGIDA,43,MANYONI,434,ITIGI MJINI,43425,ITIGI MJINI,SHULENI
SINGIDA,43,MANYONI,434,ITIGI MJINI,43425,ITIGI MJINI,UTEMINI
SINGIDA,43,MANYONI,434,ITIGI MJINI,43425,ITIGI MJINI,SOKONI
SINGIDA,43,MANYONI,434,ITIGI MJINI,43425,ITIGI MJINI,MLONGOJII
SINGIDA,43,MANYONI,434,ITIGI MJINI,43425,MLOWA,MLOWA A
SINGIDA,43,MANYONI,434,ITIGI MJINI,43425,MLOWA,MLOWA B
SINGIDA,43,MANYONI,434,ITIGI MJINI,43425,MLOWA,FURAHA
SINGIDA,43,MANYONI,434,ITIGI MJINI,43425,MLOWA,UPENDO
SINGIDA,43,MANYONI,434,ITIGI MJINI,43425,MLOWA,UKOMBOZI
SINGIDA,43,MANYONI,434,ITIGI MJINI,43425,MLOWA,MAENDELEO
SINGIDA,43,MANYONI,434,KITARAKA,43426,KITARAKA,GALELAA
SINGIDA,43,MANYONI,434,KITARAKA,43426,KITARAKA,SHULENI MASHARIKI
SINGIDA,43,MANYONI,434,KITARAKA,43426,KITARAKA,SHULENI MAGHARIBI
SINGIDA,43,MANYONI,434,KITARAKA,43426,KITARAKA,IBUMBIDA
SINGIDA,43,MANYONI,434,KITARAKA,43426,KAZIKAZI,KABETU
SINGIDA,43,MANYONI,434,KITARAKA,43426,KAZIKAZI,STESHENI
SINGIDA,43,MANYONI,434,KITARAKA,43426,KAZIKAZI,GANG 48
SINGIDA,43,MANYONI,434,KITARAKA,43426,DOROTO,DOROTO
SINGIDA,43,MANYONI,434,KITARAKA,43426,DOROTO,IPUNGULI
SINGIDA,43,MANYONI,434,KITARAKA,43426,DOROTO,DARABETAA
SINGIDA,43,MANYONI,434,KITARAKA,43426,DOROTO,MKWEGI
SINGIDA,43,MANYONI,434,KITARAKA,43426,DOROTO,KAHOMWE
SINGIDA,43,MANYONI,434,KITARAKA,43426,DOROTO,MSISI
SINGIDA,43,MANYONI,434,ITIGI MAJENGO,43427,ZINGINALI,SHULENI
SINGIDA,43,MANYONI,434,ITIGI MAJENGO,43427,ZINGINALI,UWANJA WA NDEGE
SINGIDA,43,MANYONI,434,ITIGI MAJENGO,43427,ZINGINALI,MTI MKAVU
SINGIDA,43,MANYONI,434,ITIGI MAJENGO,43427,ZINGINALI,MLUMBANI
SINGIDA,43,MANYONI,434,ITIGI MAJENGO,43427,MAJENGO,MAJENGO A
SINGIDA,43,MANYONI,434,ITIGI MAJENGO,43427,MAJENGO,MAJENGO B
SINGIDA,43,MANYONI,434,ITIGI MAJENGO,43427,MAJENGO,MAJENGO C
SINGIDA,43,MANYONI,434,ITIGI MAJENGO,43427,MAJENGO,BANGAYEGA
SINGIDA,43,MANYONI,434,IPANDE,43428,IPANDE,IPANDE KATI
SINGIDA,43,MANYONI,434,IPANDE,43428,IPANDE,LALATAA
SINGIDA,43,MANYONI,434,IPANDE,43428,IPANDE,MSANGALALE
SINGIDA,43,MANYONI,434,IPANDE,43428,IPANDE,MSUMBIJI
SINGIDA,43,MANYONI,434,IPANDE,43428,IPANDE,KITULYEE
SINGIDA,43,MANYONI,434,IPANDE,43428,DAMWELU,DAMWELU MAGHARIBI
SINGIDA,43,MANYONI,434,IPANDE,43428,DAMWELU,MAWENI
SINGIDA,43,MANYONI,434,IPANDE,43428,DAMWELU,DAMWELU MASHARIKI
SINGIDA,43,MANYONI,434,IPANDE,43428,DAMWELU,MGAMBOO
SINGIDA,43,MANYONI,434,IPANDE,43428,MUHANGA,MUHANGA
SINGIDA,43,MANYONI,434,IPANDE,43428,MUHANGA,KANAMALENGA
SINGIDA,43,MANYONI,434,IPANDE,43428,MUHANGA,JILIMLI
SINGIDA,43,MANYONI,434,IPANDE,43428,MUHANGA,MKAJENGA
SINGIDA,43,MANYONI,434,IPANDE,43428,MUHANGA,KATUMBA
SINGIDA,43,MANYONI,434,SANJARANDA,43429,SANJARANDA,UTATURUNI
SINGIDA,43,MANYONI,434,SANJARANDA,43429,SANJARANDA,CHANG'OMBE
SINGIDA,43,MANYONI,434,SANJARANDA,43429,SANJARANDA,SAMARIA
SINGIDA,43,MANYONI,434,SANJARANDA,43429,SANJARANDA,IBONOA
SINGIDA,43,MANYONI,434,SANJARANDA,43429,SANJARANDA,MAJENGO
SINGIDA,43,MANYONI,434,SANJARANDA,43429,GURUNGU,MIRUMBI
SINGIDA,43,MANYONI,434,SANJARANDA,43429,GURUNGU,MITUNDURUNI
SINGIDA,43,MANYONI,434,SANJARANDA,43429,GURUNGU,KIBAONI
SINGIDA,43,MANYONI,434,SANJARANDA,43429,GURUNGU,IWELEWELE
SINGIDA,43,MANYONI,434,SANJARANDA,43429,GURUNGU,MURUMIANA
SINGIDA,43,MANYONI,434,SANJARANDA,43429,KITOPENI,KITOPENI A
SINGIDA,43,MANYONI,434,SANJARANDA,43429,KITOPENI,MKOLA A
SINGIDA,43,MANYONI,434,SANJARANDA,43429,KITOPENI,MKOLA B
SINGIDA,43,MANYONI,434,SANJARANDA,43429,KITOPENI,MBUYUNI
SINGIDA,43,MANYONI,434,SANJARANDA,43429,KITOPENI,MISECHEE
SINGIDA,43,MANYONI,434,MITUNDU,43430,IPALALYU,IPALALYU
SINGIDA,43,MANYONI,434,MITUNDU,43430,IPALALYU,KIPERA
SINGIDA,43,MANYONI,434,MITUNDU,43430,IPALALYU,MINWA
SINGIDA,43,MANYONI,434,MITUNDU,43430,MITUNDU,KALEKWA
SINGIDA,43,MANYONI,434,MITUNDU,43430,MITUNDU,MAHINYA
SINGIDA,43,MANYONI,434,MITUNDU,43430,MITUNDU,MANYANYA
SINGIDA,43,MANYONI,434,MITUNDU,43430,MITUNDU,NZINGE
SINGIDA,43,MANYONI,434,MITUNDU,43430,MITUNDU,ISINGIWE
SINGIDA,43,MANYONI,434,MITUNDU,43430,MITUNDU,KIWELE
SINGIDA,43,MANYONI,434,MITUNDU,43430,MITUNDU,MIYUNGUTI
SINGIDA,43,MANYONI,434,MITUNDU,43430,MAKALE,MAKALE
SINGIDA,43,MANYONI,434,MITUNDU,43430,MAKALE,KALOLENI
SINGIDA,43,MANYONI,434,MITUNDU,43430,MAKALE,MAENDELEO
SINGIDA,43,MANYONI,434,MITUNDU,43430,MTAKUJA,MTAKUJA
SINGIDA,43,MANYONI,434,MITUNDU,43430,MTAKUJA,KISESA
SINGIDA,43,MANYONI,434,MITUNDU,43430,MTAKUJA,MAMLAKA
SINGIDA,43,MANYONI,434,MITUNDU,43430,MTAKUJA,MISUU
SINGIDA,43,MANYONI,434,TAMBUKARELI,43431,TAMBUKARELI,KIWANDANI
SINGIDA,43,MANYONI,434,TAMBUKARELI,43431,TAMBUKARELI,MKALAMANI
SINGIDA,43,MANYONI,434,TAMBUKARELI,43431,TAMBUKARELI,MIEMBENI
SINGIDA,43,MANYONI,434,TAMBUKARELI,43431,TAMBUKARELI,OSTABAY
SINGIDA,43,MANYONI,434,TAMBUKARELI,43431,KIHANJU,KIHANJU
SINGIDA,43,MANYONI,434,TAMBUKARELI,43431,KIHANJU,MLUMBANI
SINGIDA,43,MANYONI,434,TAMBUKARELI,43431,KIHANJU,BUMBWAA
SINGIDA,43,MANYONI,434,TAMBUKARELI,43431,KIHANJU,KANUHAA
SINGIDA,43,MANYONI,434,TAMBUKARELI,43431,SONGAMBELE,MJI MPYA
SINGIDA,43,MANYONI,434,TAMBUKARELI,43431,SONGAMBELE,KWA MATARUMA
SINGIDA,43,MANYONI,434,TAMBUKARELI,43431,SONGAMBELE,MKWAJUNI
SINGIDA,43,MANYONI,434,TAMBUKARELI,43431,SONGAMBELE,MAMBOLEO
SINGIDA,43,MANYONI,434,KALANGALI,43432,KALANGALI,KALANGALI
SINGIDA,43,MANYONI,434,KALANGALI,43432,KALANGALI,ITANDAMILOMO
SINGIDA,43,MANYONI,434,KALANGALI,43432,KALANGALI,ITANKI
SINGIDA,43,MANYONI,434,KALANGALI,43432,KALANGALI,BONDENI
SINGIDA,43,MANYONI,434,KALANGALI,43432,KALANGALI,TUKUYU
SINGIDA,43,MANYONI,434,KALANGALI,43432,TULIENI,TULIENI
SINGIDA,43,MANYONI,434,KALANGALI,43432,TULIENI,VUMILIA
SINGIDA,43,MANYONI,434,KALANGALI,43432,TULIENI,MAKUTUPORA
SINGIDA,43,MANYONI,434,KALANGALI,43432,TULIENI,MAHANGA
SINGIDA,43,MANYONI,434,KALANGALI,43432,TULIENI,YEKEYEKE
SINGIDA,43,MANYONI,434,KALANGALI,43432,MNAZI MMOJA,MNAZI MMOJA
SINGIDA,43,MANYONI,434,KALANGALI,43432,MNAZI MMOJA,MBANGA
SINGIDA,43,MANYONI,434,KALANGALI,43432,MNAZI MMOJA,NGWANGWALAJA
SINGIDA,43,MANYONI,434,KALANGALI,43432,MNAZI MMOJA,NYAWA
SINGIDA,43,MKALAMA,435,KINYANGIRI,43501,KINYANGIRI,SHULE
SINGIDA,43,MKALAMA,435,KINYANGIRI,43501,KINYANGIRI,IKALANGA
SINGIDA,43,MKALAMA,435,KINYANGIRI,43501,KINYANGIRI,KIRUMBA
SINGIDA,43,MKALAMA,435,KINYANGIRI,43501,KINYANGIRI,ITIGI
SINGIDA,43,MKALAMA,435,KINYANGIRI,43501,KINYANGIRI,MWENGE
SINGIDA,43,MKALAMA,435,KINYANGIRI,43501,KINYANGIRI,MINENE
SINGIDA,43,MKALAMA,435,KINYANGIRI,43501,KINYANGIRI,MNOLO
SINGIDA,43,MKALAMA,435,KINYANGIRI,43501,YULANSONI,MTUNDUA
SINGIDA,43,MKALAMA,435,KINYANGIRI,43501,YULANSONI,YULANSONI
SINGIDA,43,MKALAMA,435,KINYANGIRI,43501,YULANSONI,NKILAMIGUNGA
SINGIDA,43,MKALAMA,435,KINYANGIRI,43501,YULANSONI,MSIMBATUA
SINGIDA,43,MKALAMA,435,KINYANGIRI,43501,LYELEMBO,LYELEMBO
SINGIDA,43,MKALAMA,435,KINYANGIRI,43501,LYELEMBO,MHANDE
SINGIDA,43,MKALAMA,435,KINYANGIRI,43501,LYELEMBO,MLUMBA A
SINGIDA,43,MKALAMA,435,KINYANGIRI,43501,ISHENGA,PYAGULA
SINGIDA,43,MKALAMA,435,KINYANGIRI,43501,ISHENGA,MAPAGALIKE
SINGIDA,43,MKALAMA,435,KINYANGIRI,43501,ISHENGA,NTULATI
SINGIDA,43,MKALAMA,435,KINYANGIRI,43501,ISHENGA,MASAGALIKA
SINGIDA,43,MKALAMA,435,KINYANGIRI,43501,ISHENGA,MAJENGO
SINGIDA,43,MKALAMA,435,KINYANGIRI,43501,ISHENGA,YONDOA
SINGIDA,43,MKALAMA,435,KINYANGIRI,43501,ISHENGA,NTIGA
SINGIDA,43,MKALAMA,435,KINYANGIRI,43501,ISHENGA,SHALI A
SINGIDA,43,MKALAMA,435,KINYANGIRI,43501,ISHENGA,SHALI B
SINGIDA,43,MKALAMA,435,KINYANGIRI,43501,ISHENGA,MADUKANI
SINGIDA,43,MKALAMA,435,KINYANGIRI,43501,ISHENGA,NTWIGA
SINGIDA,43,MKALAMA,435,KIKHONDA,43502,KIKHONDA,MRUMBA
SINGIDA,43,MKALAMA,435,KIKHONDA,43502,KIKHONDA,MSUMBIJI
SINGIDA,43,MKALAMA,435,KIKHONDA,43502,KIKHONDA,DODOMA
SINGIDA,43,MKALAMA,435,KIKHONDA,43502,KIKHONDA,MNYUGHE
SINGIDA,43,MKALAMA,435,KIKHONDA,43502,KIKHONDA,KIKHONDA
SINGIDA,43,MKALAMA,435,KIKHONDA,43502,KENKE,MISISIRI
SINGIDA,43,MKALAMA,435,KIKHONDA,43502,KENKE,NKOLA
SINGIDA,43,MKALAMA,435,KIKHONDA,43502,MBIGIGI,MISIMAME
SINGIDA,43,MKALAMA,435,KIKHONDA,43502,MBIGIGI,MBIGIGI
SINGIDA,43,MKALAMA,435,KIKHONDA,43502,MBIGIGI,SHULE
SINGIDA,43,MKALAMA,435,KIKHONDA,43502,MBIGIGI,MISUNA
SINGIDA,43,MKALAMA,435,KIKHONDA,43502,MBIGIGI,IRAMA
SINGIDA,43,MKALAMA,435,IGUGUNO,43503,IGUGUNO,IGUGUNO MASHARIKI
SINGIDA,43,MKALAMA,435,IGUGUNO,43503,IGUGUNO,IGUGUNO MAGHARIBI
SINGIDA,43,MKALAMA,435,IGUGUNO,43503,IGUGUNO,IGUGUNO  SHAMBA
SINGIDA,43,MKALAMA,435,IGUGUNO,43503,IGUGUNO,SOPHIA
SINGIDA,43,MKALAMA,435,IGUGUNO,43503,IGUGUNO,MWANANGILA
SINGIDA,43,MKALAMA,435,IGUGUNO,43503,IGUGUNO,MWANDU
SINGIDA,43,MKALAMA,435,IGUGUNO,43503,LUKOMO,MIGHUNGA
SINGIDA,43,MKALAMA,435,IGUGUNO,43503,LUKOMO,MUSOMA
SINGIDA,43,MKALAMA,435,IGUGUNO,43503,LUKOMO,MILANGALI
SINGIDA,43,MKALAMA,435,IGUGUNO,43503,LUKOMO,ITUMBA A
SINGIDA,43,MKALAMA,435,IGUGUNO,43503,LUKOMO,ITUMBA B
SINGIDA,43,MKALAMA,435,IGUGUNO,43503,LUKOMO,NYERI
SINGIDA,43,MKALAMA,435,IGUGUNO,43503,LUKOMO,KISUBIHU
SINGIDA,43,MKALAMA,435,IGUGUNO,43503,LUKOMO,KIGONGO
SINGIDA,43,MKALAMA,435,IGUGUNO,43503,SENENE,SHULENI
SINGIDA,43,MKALAMA,435,IGUGUNO,43503,SENENE,KIBOLOLO
SINGIDA,43,MKALAMA,435,IGUGUNO,43503,SENENE,RELI
SINGIDA,43,MKALAMA,435,IGUGUNO,43503,SENENE,MBUYUNI
SINGIDA,43,MKALAMA,435,MSINGI,43504,ISHINSI,KINANKOLI
SINGIDA,43,MKALAMA,435,MSINGI,43504,ISHINSI,ISHINSI KATI
SINGIDA,43,MKALAMA,435,MSINGI,43504,ISHINSI,TAPA
SINGIDA,43,MKALAMA,435,MSINGI,43504,NDURUMO,NDURUMO
SINGIDA,43,MKALAMA,435,MSINGI,43504,NDURUMO,MINENE
SINGIDA,43,MKALAMA,435,MSINGI,43504,NDURUMO,SONGAMBELE
SINGIDA,43,MKALAMA,435,MSINGI,43504,NDURUMO,NENZE
SINGIDA,43,MKALAMA,435,MSINGI,43504,NDURUMO,MPAKO
SINGIDA,43,MKALAMA,435,MSINGI,43504,MSINGI,MAGOGO
SINGIDA,43,MKALAMA,435,MSINGI,43504,MSINGI,MBULIYAUKA
SINGIDA,43,MKALAMA,435,MSINGI,43504,MSINGI,NUNDULI
SINGIDA,43,MKALAMA,435,MSINGI,43504,NDALA,MBAO
SINGIDA,43,MKALAMA,435,MSINGI,43504,NDALA,ILOLE
SINGIDA,43,MKALAMA,435,MSINGI,43504,NDALA,MSENDE
SINGIDA,43,MKALAMA,435,MSINGI,43504,NDALA,SONGAMBELE
SINGIDA,43,MKALAMA,435,MSINGI,43504,NDALA,NENZE
SINGIDA,43,MKALAMA,435,MSINGI,43504,KIDII,KIDII
SINGIDA,43,MKALAMA,435,MSINGI,43504,KIDII,MADEM
SINGIDA,43,MKALAMA,435,MSINGI,43504,KIDII,KITULAMANDO
SINGIDA,43,MKALAMA,435,MWANGA,43505,MWANGA,UFUNUO
SINGIDA,43,MKALAMA,435,MWANGA,43505,MWANGA,MAJENGO MPYA
SINGIDA,43,MKALAMA,435,MWANGA,43505,MWANGA,SHULENI
SINGIDA,43,MKALAMA,435,MWANGA,43505,MWANGA,SINGIDA
SINGIDA,43,MKALAMA,435,MWANGA,43505,MSIU,UHURU
SINGIDA,43,MKALAMA,435,MWANGA,43505,MSIU,MLANGALI
SINGIDA,43,MKALAMA,435,MWANGA,43505,MSIU,MBELETE
SINGIDA,43,MKALAMA,435,MWANGA,43505,MSIU,KIGONO
SINGIDA,43,MKALAMA,435,MWANGA,43505,KIDARAFA,HALOS A
SINGIDA,43,MKALAMA,435,MWANGA,43505,KIDARAFA,HALOS B
SINGIDA,43,MKALAMA,435,MWANGA,43505,KIDARAFA,MUGUZI A
SINGIDA,43,MKALAMA,435,MWANGA,43505,KIDARAFA,MUGUZI B
SINGIDA,43,MKALAMA,435,MWANGA,43505,MSISAI,MSISAI A
SINGIDA,43,MKALAMA,435,MWANGA,43505,MSISAI,MSISAI B
SINGIDA,43,MKALAMA,435,MWANGA,43505,MSISAI,KIDARAFA A
SINGIDA,43,MKALAMA,435,MWANGA,43505,MSISAI,KIDARAFA B
SINGIDA,43,MKALAMA,435,MWANGA,43505,KIDIGIDA,KIDIGIDA
SINGIDA,43,MKALAMA,435,MWANGA,43505,KIDIGIDA,MPALIGOGO
SINGIDA,43,MKALAMA,435,ILUNDA,43506,NKUNGI,BWAWANI BEACH
SINGIDA,43,MKALAMA,435,ILUNDA,43506,NKUNGI,UWANJA WA NDEGE
SINGIDA,43,MKALAMA,435,ILUNDA,43506,NKUNGI,KIDOGWI
SINGIDA,43,MKALAMA,435,ILUNDA,43506,NKUNGI,MADADA
SINGIDA,43,MKALAMA,435,ILUNDA,43506,NKUNGI,MSAGALA
SINGIDA,43,MKALAMA,435,ILUNDA,43506,NKUNGI,KILILIGA
SINGIDA,43,MKALAMA,435,ILUNDA,43506,ILUNDA,MTUNDUA
SINGIDA,43,MKALAMA,435,ILUNDA,43506,ILUNDA,NKULUSI
SINGIDA,43,MKALAMA,435,ILUNDA,43506,ILUNDA,ILUNDA
SINGIDA,43,MKALAMA,435,ILUNDA,43506,ILUNDA,KINAMAKALA
SINGIDA,43,MKALAMA,435,ILUNDA,43506,ILUNDA,MAGUEYAMBI
SINGIDA,43,MKALAMA,435,ILUNDA,43506,ILUNDA,ZINZILU
SINGIDA,43,MKALAMA,435,ILUNDA,43506,ASANJA,GIDARERI
SINGIDA,43,MKALAMA,435,ILUNDA,43506,ASANJA,MAJENGO MAPYA
SINGIDA,43,MKALAMA,435,ILUNDA,43506,ASANJA,SURURAJI
SINGIDA,43,MKALAMA,435,NDUGUTI,43507,NDUGUTI,NKYEMBO
SINGIDA,43,MKALAMA,435,NDUGUTI,43507,NDUGUTI,KINIGA
SINGIDA,43,MKALAMA,435,NDUGUTI,43507,NDUGUTI,USWAHILINI
SINGIDA,43,MKALAMA,435,NDUGUTI,43507,NDUGUTI,MIZUU
SINGIDA,43,MKALAMA,435,NDUGUTI,43507,NDUGUTI,KITIMA A
SINGIDA,43,MKALAMA,435,NDUGUTI,43507,NDUGUTI,KITIMA B
SINGIDA,43,MKALAMA,435,NDUGUTI,43507,NDUGUTI,KILUNDO
SINGIDA,43,MKALAMA,435,NDUGUTI,43507,NDUGUTI,KISANA
SINGIDA,43,MKALAMA,435,NDUGUTI,43507,NDUGUTI,MONDULI
SINGIDA,43,MKALAMA,435,NDUGUTI,43507,MAZILIGA,MAZILIGA
SINGIDA,43,MKALAMA,435,NDUGUTI,43507,MAZILIGA,MANG'ATA
SINGIDA,43,MKALAMA,435,NDUGUTI,43507,MAZILIGA,KILILI
SINGIDA,43,MKALAMA,435,NDUGUTI,43507,MAZILIGA,MPUMAMBI
SINGIDA,43,MKALAMA,435,NDUGUTI,43507,MAZILIGA,KISENGO
SINGIDA,43,MKALAMA,435,NDUGUTI,43507,MAZILIGA,MWESO
SINGIDA,43,MKALAMA,435,NDUGUTI,43507,MAZILIGA,MIZUU
SINGIDA,43,MKALAMA,435,NDUGUTI,43507,MNG'ANDA,MNG’ANDA
SINGIDA,43,MKALAMA,435,NDUGUTI,43507,MNG'ANDA,KINANKUPI
SINGIDA,43,MKALAMA,435,NDUGUTI,43507,MNG'ANDA,KAWAWA
SINGIDA,43,MKALAMA,435,NDUGUTI,43507,MNG'ANDA,MSIU
SINGIDA,43,MKALAMA,435,NDUGUTI,43507,MNG'ANDA,MAGUEMLANGI
SINGIDA,43,MKALAMA,435,NDUGUTI,43507,MWANDO,MAKULO
SINGIDA,43,MKALAMA,435,NDUGUTI,43507,MWANDO,MSUI
SINGIDA,43,MKALAMA,435,NDUGUTI,43507,MWANDO,TUMBITA
SINGIDA,43,MKALAMA,435,NDUGUTI,43507,MWANDO,KILYUNGU
SINGIDA,43,MKALAMA,435,NDUGUTI,43507,MWANDO,BUTIAMA
SINGIDA,43,MKALAMA,435,NDUGUTI,43507,MWANDO,KANISANI
SINGIDA,43,MKALAMA,435,NDUGUTI,43507,MWANDO,KITULUGULA
SINGIDA,43,MKALAMA,435,NDUGUTI,43507,MWANDO,SOKOINE
SINGIDA,43,MKALAMA,435,NDUGUTI,43507,MWANDO,SALUMU
SINGIDA,43,MKALAMA,435,NDUGUTI,43507,MWANDO,MZIMBA
SINGIDA,43,MKALAMA,435,NDUGUTI,43507,MWANDO,UTILI
SINGIDA,43,MKALAMA,435,GUMANGA,43508,GUMANGA,MADUKANI
SINGIDA,43,MKALAMA,435,GUMANGA,43508,GUMANGA,NGUTI
SINGIDA,43,MKALAMA,435,GUMANGA,43508,GUMANGA,UWOGU
SINGIDA,43,MKALAMA,435,GUMANGA,43508,GUMANGA,TANGANKUNDE
SINGIDA,43,MKALAMA,435,GUMANGA,43508,GUMANGA,MPUMBU
SINGIDA,43,MKALAMA,435,GUMANGA,43508,GUMANGA,YOLANZOGU A
SINGIDA,43,MKALAMA,435,GUMANGA,43508,GUMANGA,YOLANZOGU  B
SINGIDA,43,MKALAMA,435,GUMANGA,43508,GUMANGA,MKOLA A
SINGIDA,43,MKALAMA,435,GUMANGA,43508,GUMANGA,MKOLA B
SINGIDA,43,MKALAMA,435,GUMANGA,43508,MGIMBA,LUGADU
SINGIDA,43,MKALAMA,435,GUMANGA,43508,MGIMBA,MSINSI
SINGIDA,43,MKALAMA,435,GUMANGA,43508,MGIMBA,KALULUMANDO
SINGIDA,43,MKALAMA,435,GUMANGA,43508,MGIMBA,KIGONDO
SINGIDA,43,MKALAMA,435,GUMANGA,43508,KISULUIGA,MAELU
SINGIDA,43,MKALAMA,435,GUMANGA,43508,KISULUIGA,IKYALO
SINGIDA,43,MKALAMA,435,GUMANGA,43508,KISULUIGA,NJUNGANSANGA
SINGIDA,43,MKALAMA,435,GUMANGA,43508,KISULUIGA,NJIAPANDA
SINGIDA,43,MKALAMA,435,GUMANGA,43508,IKUNGU,IKUNGU
SINGIDA,43,MKALAMA,435,GUMANGA,43508,IKUNGU,MKUKUMA
SINGIDA,43,MKALAMA,435,GUMANGA,43508,IKUNGU,MAMBWA
SINGIDA,43,MKALAMA,435,GUMANGA,43508,IKUNGU,MSIKITU A
SINGIDA,43,MKALAMA,435,GUMANGA,43508,IKUNGU,MSIKITU B
SINGIDA,43,MKALAMA,435,GUMANGA,43508,IKUNGU,KIZIGO
SINGIDA,43,MKALAMA,435,GUMANGA,43508,IKUNGU,MIGYALI
SINGIDA,43,MKALAMA,435,GUMANGA,43508,KINANKAMBA,NZWANI
SINGIDA,43,MKALAMA,435,GUMANGA,43508,KINANKAMBA,KIBIGIRI
SINGIDA,43,MKALAMA,435,GUMANGA,43508,KINANKAMBA,LULANG’OMBE
SINGIDA,43,MKALAMA,435,GUMANGA,43508,KINANKAMBA,KINANKAMBA KATI
SINGIDA,43,MKALAMA,435,GUMANGA,43508,KINANKAMBA,MPONGOLO
SINGIDA,43,MKALAMA,435,GUMANGA,43508,KINANKAMBA,KINANKAMBA B
SINGIDA,43,MKALAMA,435,IBAGA,43509,IBAGA,KANISANI
SINGIDA,43,MKALAMA,435,IBAGA,43509,IBAGA,ISANZU
SINGIDA,43,MKALAMA,435,IBAGA,43509,IBAGA,STENDI
SINGIDA,43,MKALAMA,435,IBAGA,43509,IBAGA,TYANDA
SINGIDA,43,MKALAMA,435,IBAGA,43509,IBAGA,KINANKAMBA
SINGIDA,43,MKALAMA,435,IBAGA,43509,IBAGA,MWADUNDU
SINGIDA,43,MKALAMA,435,IBAGA,43509,IBAGA,MUHIMBILI
SINGIDA,43,MKALAMA,435,IBAGA,43509,IBAGA,UTEMINI
SINGIDA,43,MKALAMA,435,IBAGA,43509,IBAGA,MANAMBA
SINGIDA,43,MKALAMA,435,IBAGA,43509,IBAGA,MAGOMENI
SINGIDA,43,MKALAMA,435,IBAGA,43509,IBAGA,MAJENGO MAPYA
SINGIDA,43,MKALAMA,435,IBAGA,43509,IGENGU,NTUNDURU
SINGIDA,43,MKALAMA,435,IBAGA,43509,IGENGU,SHULE
SINGIDA,43,MKALAMA,435,IBAGA,43509,IGENGU,MASHINE
SINGIDA,43,MKALAMA,435,IBAGA,43509,IGENGU,TIANUNDI
SINGIDA,43,MKALAMA,435,IBAGA,43509,IGENGU,NJIA PANDA
SINGIDA,43,MKALAMA,435,IBAGA,43509,IGENGU,MBUYUNI
SINGIDA,43,MKALAMA,435,IBAGA,43509,IGENGU,MISUGIRI
SINGIDA,43,MKALAMA,435,IBAGA,43509,ILONGO,MSIPYA
SINGIDA,43,MKALAMA,435,IBAGA,43509,ILONGO,MIZUZU
SINGIDA,43,MKALAMA,435,IBAGA,43509,ILONGO,MILUNDULI
SINGIDA,43,MKALAMA,435,IBAGA,43509,ILONGO,NYERERE
SINGIDA,43,MKALAMA,435,IBAGA,43509,ILONGO,ILANGIDA
SINGIDA,43,MKALAMA,435,IBAGA,43509,ILONGO,MIZUHU
SINGIDA,43,MKALAMA,435,IBAGA,43509,MKALAMA,MKAILU A
SINGIDA,43,MKALAMA,435,IBAGA,43509,MKALAMA,MBUYUNI A
SINGIDA,43,MKALAMA,435,IBAGA,43509,MKALAMA,MJINI
SINGIDA,43,MKALAMA,435,IBAGA,43509,MKALAMA,UCHINA
SINGIDA,43,MKALAMA,435,IBAGA,43509,MKALAMA,UTEMINI
SINGIDA,43,MKALAMA,435,IBAGA,43509,MKALAMA,MADUKANI
SINGIDA,43,MKALAMA,435,IBAGA,43509,MKALAMA,MTAPWA
SINGIDA,43,MKALAMA,435,IBAGA,43509,MKALAMA,JENGELANGULU
SINGIDA,43,MKALAMA,435,IBAGA,43509,MKALAMA,MSUMBIJI
SINGIDA,43,MKALAMA,435,IBAGA,43509,MKALAMA,KIMEGELE
SINGIDA,43,MKALAMA,435,IBAGA,43509,MKALAMA,NKANGO
SINGIDA,43,MKALAMA,435,IBAGA,43509,MKALAMA,MWONDO
SINGIDA,43,MKALAMA,435,IBAGA,43509,IGONIA,IGONIA
SINGIDA,43,MKALAMA,435,IBAGA,43509,IGONIA,MITOGO MIWILI
SINGIDA,43,MKALAMA,435,IBAGA,43509,IGONIA,MTINDI
SINGIDA,43,MKALAMA,435,IBAGA,43509,IGONIA,MAKOPI
SINGIDA,43,MKALAMA,435,IBAGA,43509,IGONIA,KINSUMPWI
SINGIDA,43,MKALAMA,435,NKINTO,43510,NKINTO,MAKULO
SINGIDA,43,MKALAMA,435,NKINTO,43510,NKINTO,IKULUHI
SINGIDA,43,MKALAMA,435,NKINTO,43510,NKINTO,MIGUNGA
SINGIDA,43,MKALAMA,435,NKINTO,43510,NKINTO,KINYANJUNGU
SINGIDA,43,MKALAMA,435,NKINTO,43510,MNTAMBA,DAREDA
SINGIDA,43,MKALAMA,435,NKINTO,43510,MNTAMBA,KIRUMBE
SINGIDA,43,MKALAMA,435,NKINTO,43510,MNTAMBA,KAGERA
SINGIDA,43,MKALAMA,435,NKINTO,43510,MNTAMBA,MWANGAZA
SINGIDA,43,MKALAMA,435,NKINTO,43510,MNTAMBA,KILAYA
SINGIDA,43,MKALAMA,435,NKINTO,43510,KINYAMBULI,DODOMA A
SINGIDA,43,MKALAMA,435,NKINTO,43510,KINYAMBULI,DODOMA B
SINGIDA,43,MKALAMA,435,NKINTO,43510,KINYAMBULI,MAENDELEO
SINGIDA,43,MKALAMA,435,NKINTO,43510,KINYAMBULI,MBELELE
SINGIDA,43,MKALAMA,435,NKINTO,43510,KINYAMBULI,SONGAMBELE
SINGIDA,43,MKALAMA,435,NKINTO,43510,MAZANGILI,MAZANGILI
SINGIDA,43,MKALAMA,435,NKINTO,43510,MAZANGILI,TUNDUSI
SINGIDA,43,MKALAMA,435,NKINTO,43510,MAZANGILI,MUNGULI
SINGIDA,43,MKALAMA,435,NKINTO,43510,MAZANGILI,MKENKA
SINGIDA,43,MKALAMA,435,NKINTO,43510,MAKULO,MKULO
SINGIDA,43,MKALAMA,435,NKINTO,43510,MAKULO,MGEMBE
SINGIDA,43,MKALAMA,435,NKINTO,43510,MAKULO,MIULA
SINGIDA,43,MKALAMA,435,NKINTO,43510,MAKULO,MULUMBA
SINGIDA,43,MKALAMA,435,MWANGEZA,43511,IKOLO,IKOLO MASHARIKI
SINGIDA,43,MKALAMA,435,MWANGEZA,43511,IKOLO,NSANSI
SINGIDA,43,MKALAMA,435,MWANGEZA,43511,IKOLO,IDABINA
SINGIDA,43,MKALAMA,435,MWANGEZA,43511,IKOLO,ZAIRE
SINGIDA,43,MKALAMA,435,MWANGEZA,43511,IKOLO,MWALAMO
SINGIDA,43,MKALAMA,435,MWANGEZA,43511,IKOLO,ITIANUNDI
SINGIDA,43,MKALAMA,435,MWANGEZA,43511,IKOLO,MILUMBA
SINGIDA,43,MKALAMA,435,MWANGEZA,43511,MWANGEZA,GANGELELI
SINGIDA,43,MKALAMA,435,MWANGEZA,43511,MWANGEZA,DA ES SALAAM
SINGIDA,43,MKALAMA,435,MWANGEZA,43511,MWANGEZA,DUGULAI
SINGIDA,43,MKALAMA,435,MWANGEZA,43511,MWANGEZA,ISENE
SINGIDA,43,MKALAMA,435,MWANGEZA,43511,MWANGEZA,IGAMA
SINGIDA,43,MKALAMA,435,MWANGEZA,43511,MWANGEZA,UTEMINI
SINGIDA,43,MKALAMA,435,MWANGEZA,43511,MWANGEZA,GAMBASIMBOI
SINGIDA,43,MKALAMA,435,MWANGEZA,43511,MWANGEZA,NSUNGWI
SINGIDA,43,MKALAMA,435,MWANGEZA,43511,MWANGEZA,MIGAGAO
SINGIDA,43,MKALAMA,435,MWANGEZA,43511,MWANGEZA,MALAWI
SINGIDA,43,MKALAMA,435,MWANGEZA,43511,DOMINIKI,KIJIWENI
SINGIDA,43,MKALAMA,435,MWANGEZA,43511,DOMINIKI,TANDUSI
SINGIDA,43,MKALAMA,435,MWANGEZA,43511,DOMINIKI,DOMINIKI
SINGIDA,43,MKALAMA,435,MWANGEZA,43511,DOMINIKI,MZANGA
SINGIDA,43,MKALAMA,435,MWANGEZA,43511,DOMINIKI,MATERE
SINGIDA,43,MKALAMA,435,MWANGEZA,43511,DOMINIKI,GAJARODA
SINGIDA,43,MKALAMA,435,MWANGEZA,43511,ENDASIKU,JILOLELI
SINGIDA,43,MKALAMA,435,MWANGEZA,43511,ENDASIKU,MWADUNDU
SINGIDA,43,MKALAMA,435,MWANGEZA,43511,ENDASIKU,MWANYENYEKA
SINGIDA,43,MKALAMA,435,MWANGEZA,43511,ENDASIKU,MWAMAKONA
SINGIDA,43,MKALAMA,435,MWANGEZA,43511,ENDASIKU,MWASULAGI
SINGIDA,43,MKALAMA,435,MWANGEZA,43511,ENDASIKU,MITALA
SINGIDA,43,MKALAMA,435,MWANGEZA,43511,ENDASIKU,ENDASIKU MASHARIKI
SINGIDA,43,MKALAMA,435,MWANGEZA,43511,ENDASIKU,MATANDANI
SINGIDA,43,MKALAMA,435,MWANGEZA,43511,MUNGULI,MWASULAGI
SINGIDA,43,MKALAMA,435,MWANGEZA,43511,MUNGULI,KIKARANGA A
SINGIDA,43,MKALAMA,435,MWANGEZA,43511,MUNGULI,KIKARANGA B
SINGIDA,43,MKALAMA,435,MWANGEZA,43511,MUNGULI,IBALA
SINGIDA,43,MKALAMA,435,MWANGEZA,43511,MUNGULI,MRUNG'UNA B
SINGIDA,43,MKALAMA,435,MWANGEZA,43511,MUNGULI,IDEBE
SINGIDA,43,MKALAMA,435,MWANGEZA,43511,MUNGULI,MBUGANI
SINGIDA,43,MKALAMA,435,MWANGEZA,43511,MUNGULI,MTAKUJA
SINGIDA,43,MKALAMA,435,MWANGEZA,43511,MUNGULI,NAMBA 6
SINGIDA,43,MKALAMA,435,MWANGEZA,43511,MUNGULI,MIDIBWI
SINGIDA,43,MKALAMA,435,MWANGEZA,43511,MUNGULI,KIPAMBA
SINGIDA,43,MKALAMA,435,MWANGEZA,43511,HILAMOTO,SINGIDA
SINGIDA,43,MKALAMA,435,MWANGEZA,43511,HILAMOTO,HILAMOTO
SINGIDA,43,MKALAMA,435,MWANGEZA,43511,HILAMOTO,SONGAMBELE
SINGIDA,43,MKALAMA,435,MWANGEZA,43511,HILAMOTO,MABATINI
SINGIDA,43,MKALAMA,435,MPAMBALA,43512,LUGONGO,MPANGOLO
SINGIDA,43,MKALAMA,435,MPAMBALA,43512,LUGONGO,MGUNGA
SINGIDA,43,MKALAMA,435,MPAMBALA,43512,LUGONGO,MABAMBASI A
SINGIDA,43,MKALAMA,435,MPAMBALA,43512,LUGONGO,MABAMBASI B
SINGIDA,43,MKALAMA,435,MPAMBALA,43512,LUGONGO,MIGINGI
SINGIDA,43,MKALAMA,435,MPAMBALA,43512,NYAHAA,MISINGOMA
SINGIDA,43,MKALAMA,435,MPAMBALA,43512,NYAHAA,ITIANUNDU
SINGIDA,43,MKALAMA,435,MPAMBALA,43512,NYAHAA,ULYANZOBE
SINGIDA,43,MKALAMA,435,MPAMBALA,43512,NYAHAA,MWAMAGILI
SINGIDA,43,MKALAMA,435,MPAMBALA,43512,NYAHAA,MWANDALYA
SINGIDA,43,MKALAMA,435,MPAMBALA,43512,NYAHAA,MALUNJULA
SINGIDA,43,MKALAMA,435,MPAMBALA,43512,NYAHAA,MWAMAKONA
SINGIDA,43,MKALAMA,435,MPAMBALA,43512,NYAHAA,USULWA
SINGIDA,43,MKALAMA,435,MPAMBALA,43512,MKIKO,MWADUNDU
SINGIDA,43,MKALAMA,435,MPAMBALA,43512,MKIKO,MSINGISA
SINGIDA,43,MKALAMA,435,MPAMBALA,43512,MKIKO,MATOFALI
SINGIDA,43,MKALAMA,435,MPAMBALA,43512,MKIKO,TATAZI
SINGIDA,43,MKALAMA,435,MPAMBALA,43512,MKIKO,MABABASI A
SINGIDA,43,MKALAMA,435,MPAMBALA,43512,MKIKO,MABABASI B
SINGIDA,43,MKALAMA,435,MPAMBALA,43512,MKIKO,MAZIMILU
SINGIDA,43,MKALAMA,435,MPAMBALA,43512,MKIKO,MGULUIKE
SINGIDA,43,MKALAMA,435,MPAMBALA,43512,MPAMBALA,CHEMCHEM
SINGIDA,43,MKALAMA,435,MPAMBALA,43512,MPAMBALA,MPAMBALA KATI
SINGIDA,43,MKALAMA,435,MPAMBALA,43512,MPAMBALA,MPAMBALA KUSINI
SINGIDA,43,MKALAMA,435,MPAMBALA,43512,MPAMBALA,MABAMBASI
SINGIDA,43,MKALAMA,435,MPAMBALA,43512,MPAMBALA,MLIMANI
SINGIDA,43,MKALAMA,435,MIGANGA,43513,MIGANGA,MALALA
SINGIDA,43,MKALAMA,435,MIGANGA,43513,MIGANGA,SOLOBEA
SINGIDA,43,MKALAMA,435,MIGANGA,43513,MIGANGA,MNINGA
SINGIDA,43,MKALAMA,435,MIGANGA,43513,MIGANGA,MKESE
SINGIDA,43,MKALAMA,435,MIGANGA,43513,MIGANGA,BARABARANI
SINGIDA,43,MKALAMA,435,MIGANGA,43513,IPULI,MKOLA
SINGIDA,43,MKALAMA,435,MIGANGA,43513,IPULI,KINAMPANDA
SINGIDA,43,MKALAMA,435,MIGANGA,43513,IPULI,MPANDE A
SINGIDA,43,MKALAMA,435,MIGANGA,43513,IPULI,MPANDE B
SINGIDA,43,MKALAMA,435,MIGANGA,43513,IPULI,IPULI A
SINGIDA,43,MKALAMA,435,MIGANGA,43513,IPULI,IPULI B
SINGIDA,43,MKALAMA,435,MIGANGA,43513,IPULI,MAKAKA A
SINGIDA,43,MKALAMA,435,MIGANGA,43513,IPULI,MAKAKA B
SINGIDA,43,MKALAMA,435,MIGANGA,43513,IPULI,JENGALANGULU
SINGIDA,43,MKALAMA,435,MIGANGA,43513,KINANDILI,KINANDILI
SINGIDA,43,MKALAMA,435,MIGANGA,43513,KINANDILI,MWANDO
SINGIDA,43,MKALAMA,435,MIGANGA,43513,KINANDILI,ISHEKESE
SINGIDA,43,MKALAMA,435,MIGANGA,43513,KINANDILI,KINAMJUNGU
SINGIDA,43,MKALAMA,435,MIGANGA,43513,KINANDILI,MSUMBA
SINGIDA,43,MKALAMA,435,MIGANGA,43513,MGOLOMBYO,MGOLOMBYO
SINGIDA,43,MKALAMA,435,MIGANGA,43513,MGOLOMBYO,KISIWANI
SINGIDA,43,MKALAMA,435,MIGANGA,43513,MGOLOMBYO,MGUMO
SINGIDA,43,MKALAMA,435,MIGANGA,43513,MGOLOMBYO,MSUI
SINGIDA,43,MKALAMA,435,MIGANGA,43513,MGOLOMBYO,LUGONGO
SINGIDA,43,MKALAMA,435,MATONGO,43514,MATONGO,MATONGO A
SINGIDA,43,MKALAMA,435,MATONGO,43514,MATONGO,MATONGO B
SINGIDA,43,MKALAMA,435,MATONGO,43514,MATONGO,KIRUMI
SINGIDA,43,MKALAMA,435,MATONGO,43514,MATONGO,HINDAMILI
SINGIDA,43,MKALAMA,435,MATONGO,43514,MATONGO,MPONDELO
SINGIDA,43,MKALAMA,435,MATONGO,43514,ISENE,ISENE
SINGIDA,43,MKALAMA,435,MATONGO,43514,ISENE,KINYAMAPUPU
SINGIDA,43,MKALAMA,435,MATONGO,43514,ISENE,IGWILAMBAO
SINGIDA,43,MKALAMA,435,MATONGO,43514,ISENE,IDEBE
SINGIDA,43,MKALAMA,435,MATONGO,43514,ISENE,KINYAMKUNDE
SINGIDA,43,MKALAMA,435,MATONGO,43514,MANUNG'UNA,MUNUNG’UNA
SINGIDA,43,MKALAMA,435,MATONGO,43514,MANUNG'UNA,MWAMAKIKI
SINGIDA,43,MKALAMA,435,MATONGO,43514,MANUNG'UNA,MABIHA
SINGIDA,43,MKALAMA,435,MATONGO,43514,MANUNG'UNA,MWAMIDU
SINGIDA,43,MKALAMA,435,MATONGO,43514,MAZANGILI,MAZANGILI
SINGIDA,43,MKALAMA,435,MATONGO,43514,MAZANGILI,TANDUSI
SINGIDA,43,MKALAMA,435,MATONGO,43514,MAZANGILI,MUNGULI
SINGIDA,43,MKALAMA,435,MATONGO,43514,MAZANGILI,MKENKA
SINGIDA,43,MKALAMA,435,TUMULI,43515,KITUMBILI,MBUYUNI
SINGIDA,43,MKALAMA,435,TUMULI,43515,KITUMBILI,MLEGEA
SINGIDA,43,MKALAMA,435,TUMULI,43515,KITUMBILI,MPAKO
SINGIDA,43,MKALAMA,435,TUMULI,43515,KITUMBILI,NKUMBO
SINGIDA,43,MKALAMA,435,TUMULI,43515,TUMULI,MJINI
SINGIDA,43,MKALAMA,435,TUMULI,43515,TUMULI,MAJI MALULU
SINGIDA,43,MKALAMA,435,TUMULI,43515,TUMULI,MAKABI YA FISI
SINGIDA,43,MKALAMA,435,TUMULI,43515,TUMULI,MLEGEA
SINGIDA,43,MKALAMA,435,TUMULI,43515,TUMULI,IKUNGU
SINGIDA,43,MKALAMA,435,TUMULI,43515,MILADE,MHUVI
SINGIDA,43,MKALAMA,435,TUMULI,43515,MILADE,MILADE KATI
SINGIDA,43,MKALAMA,435,TUMULI,43515,MILADE,INKUMBA
SINGIDA,43,MKALAMA,435,TUMULI,43515,MILADE,MBUHGA NDOGWE
SINGIDA,43,MKALAMA,435,TUMULI,43515,MILADE,MDUGHUYU
SINGIDA,43,MKALAMA,435,NKALAKALA,43516,MALAJA,NYERERE
SINGIDA,43,MKALAMA,435,NKALAKALA,43516,MALAJA,MWINYI
SINGIDA,43,MKALAMA,435,NKALAKALA,43516,MALAJA,JUMBE
SINGIDA,43,MKALAMA,435,NKALAKALA,43516,MALAJA,SOKOINE
SINGIDA,43,MKALAMA,435,NKALAKALA,43516,MKUNGULU,MWANGAZA
SINGIDA,43,MKALAMA,435,NKALAKALA,43516,MKUNGULU,UFUNGUO
SINGIDA,43,MKALAMA,435,NKALAKALA,43516,MKUNGULU,BWAWANI
SINGIDA,43,MKALAMA,435,NKALAKALA,43516,NKALAKALA,JUMBE
SINGIDA,43,MKALAMA,435,NKALAKALA,43516,NKALAKALA,KAWAWA
SINGIDA,43,MKALAMA,435,NKALAKALA,43516,NKALAKALA,SETHI
SINGIDA,43,MKALAMA,435,NKALAKALA,43516,NKALAKALA,LUMUMBA
SINGIDA,43,MKALAMA,435,NKALAKALA,43516,NKALAKALA,KARUME
SINGIDA,43,MKALAMA,435,NKALAKALA,43516,MARERA,TANGANYIKA
SINGIDA,43,MKALAMA,435,NKALAKALA,43516,MARERA,KAZAMOYO
SINGIDA,43,MKALAMA,435,NKALAKALA,43516,MARERA,MARERA
SINGIDA,43,MKALAMA,435,KINAMPUNDU,43517,SINGA,SONGAMBELE
SINGIDA,43,MKALAMA,435,KINAMPUNDU,43517,SINGA,MUUNGANO
SINGIDA,43,MKALAMA,435,KINAMPUNDU,43517,SINGA,MAJENGO MAPYA
SINGIDA,43,MKALAMA,435,KINAMPUNDU,43517,SINGA,KAGERA
SINGIDA,43,MKALAMA,435,KINAMPUNDU,43517,SINGA,MAPINDUZI
SINGIDA,43,MKALAMA,435,KINAMPUNDU,43517,KINAMPUNDU,MWEMBE
SINGIDA,43,MKALAMA,435,KINAMPUNDU,43517,KINAMPUNDU,KISUTU
SINGIDA,43,MKALAMA,435,KINAMPUNDU,43517,KINAMPUNDU,NJANIMI
SINGIDA,43,MKALAMA,435,KINAMPUNDU,43517,KINAMPUNDU,KITUKUTU
SINGIDA,43,MKALAMA,435,KINAMPUNDU,43517,KINAMPUNDU,MWANIGUE
SINGIDA,43,MKALAMA,435,KINAMPUNDU,43517,KINAMPUNDU,NDURUMO
SINGIDA,43,MKALAMA,435,KINAMPUNDU,43517,MDILIKA,MDILIKA
SINGIDA,43,MKALAMA,435,KINAMPUNDU,43517,MDILIKA,NYERERE ROAD
SINGIDA,43,MKALAMA,435,KINAMPUNDU,43517,MDILIKA,KILIMANJARO
SINGIDA,43,MKALAMA,435,KINAMPUNDU,43517,MDILIKA,MTAKUJA
SINGIDA,43,MKALAMA,435,KINAMPUNDU,43517,IAAMBI,IGAYA
SINGIDA,43,MKALAMA,435,KINAMPUNDU,43517,IAAMBI,KIHAU
SINGIDA,43,MKALAMA,435,KINAMPUNDU,43517,IAAMBI,KIKUNDYA
SINGIDA,43,MKALAMA,435,KINAMPUNDU,43517,IAAMBI,LUGANDI
SINGIDA,43,MKALAMA,435,KINAMPUNDU,43517,IAAMBI,KIPUKUTI
SINGIDA,43,MKALAMA,435,KINAMPUNDU,43517,IAAMBI,IGONGO
SINGIDA,43,IKUNGI,436,IHANJA,43601,IHANJA,MADUKANI
SINGIDA,43,IKUNGI,436,IHANJA,43601,IHANJA,UFANTAMEI
SINGIDA,43,IKUNGI,436,IHANJA,43601,IHANJA,IBEBE
SINGIDA,43,IKUNGI,436,IHANJA,43601,IHANJA,MIGHEGHEA
SINGIDA,43,IKUNGI,436,IHANJA,43601,IHANJA,MNINI “A”
SINGIDA,43,IKUNGI,436,IHANJA,43601,IHANJA,MNINI “B”
SINGIDA,43,IKUNGI,436,IHANJA,43601,IHANJA,LAINI
SINGIDA,43,IKUNGI,436,IHANJA,43601,IHANJA,KIJUMBUI
SINGIDA,43,IKUNGI,436,IHANJA,43601,IHANJA,MAKONYORA
SINGIDA,43,IKUNGI,436,IHANJA,43601,IHANJA,ITUNGUKIA
SINGIDA,43,IKUNGI,436,IHANJA,43601,LAINI CHUNGU,MBURI
SINGIDA,43,IKUNGI,436,IHANJA,43601,LAINI CHUNGU,MKUO
SINGIDA,43,IKUNGI,436,IHANJA,43601,LAINI CHUNGU,MAHAYAGHA
SINGIDA,43,IKUNGI,436,IHANJA,43601,LAINI CHUNGU,NKHANGA A
SINGIDA,43,IKUNGI,436,IHANJA,43601,LAINI CHUNGU,MAKHOJOA
SINGIDA,43,IKUNGI,436,IHANJA,43601,LAINI CHUNGU,IVEVEE
SINGIDA,43,IKUNGI,436,IHANJA,43601,LAINI CHUNGU,SINGANO
SINGIDA,43,IKUNGI,436,IHANJA,43601,LAINI CHUNGU,MGHUMO
SINGIDA,43,IKUNGI,436,IHANJA,43601,LAINI CHUNGU,ITONGO
SINGIDA,43,IKUNGI,436,IHANJA,43601,LAINI CHUNGU,MAKHONGO
SINGIDA,43,IKUNGI,436,IHANJA,43601,LAINI CHUNGU,IHKHANGAA
SINGIDA,43,IKUNGI,436,IHANJA,43601,LAINI CHUNGU,CHUNGU
SINGIDA,43,IKUNGI,436,IHANJA,43601,NDURU,NDURU KATI
SINGIDA,43,IKUNGI,436,IHANJA,43601,NDURU,SIMBO
SINGIDA,43,IKUNGI,436,IHANJA,43601,NDURU,ULYAMPITI
SINGIDA,43,IKUNGI,436,IHANJA,43601,NDURU,MWANDUAMAJI
SINGIDA,43,IKUNGI,436,IHANJA,43601,NDURU,MAMPUNGWA
SINGIDA,43,IKUNGI,436,IHANJA,43601,NDURU,UNYANGWE
SINGIDA,43,IKUNGI,436,ISSEKE,43602,UNYANGWE,INYINGU
SINGIDA,43,IKUNGI,436,ISSEKE,43602,UNYANGWE,UFUU
SINGIDA,43,IKUNGI,436,ISSEKE,43602,UNYANGWE,IGHUMO
SINGIDA,43,IKUNGI,436,ISSEKE,43602,UNYANGWE,LYANGU
SINGIDA,43,IKUNGI,436,ISSEKE,43602,UNYANGWE,MAIKI
SINGIDA,43,IKUNGI,436,ISSEKE,43602,UNYANGWE,IGHUU
SINGIDA,43,IKUNGI,436,ISSEKE,43602,NKHOIREE A,NKHAVA
SINGIDA,43,IKUNGI,436,ISSEKE,43602,NKHOIREE A,SENGASENGA
SINGIDA,43,IKUNGI,436,ISSEKE,43602,NKHOIREE A,MWANGAI
SINGIDA,43,IKUNGI,436,ISSEKE,43602,NKHOIREE A,IGHUMBU
SINGIDA,43,IKUNGI,436,ISSEKE,43602,NKHOIREE A,SUGHUU
SINGIDA,43,IKUNGI,436,ISSEKE,43602,ISSEKE,NKHAMBI
SINGIDA,43,IKUNGI,436,ISSEKE,43602,ISSEKE,ITONGO
SINGIDA,43,IKUNGI,436,ISSEKE,43602,ISSEKE,MFUMBU “A”
SINGIDA,43,IKUNGI,436,ISSEKE,43602,ISSEKE,MFUMBU “B”
SINGIDA,43,IKUNGI,436,ISSEKE,43602,ISSEKE,ISSEKE JUNJUU
SINGIDA,43,IKUNGI,436,MINYUGHE,43603,MINYUGHE,MINYUGHE MADUKANI
SINGIDA,43,IKUNGI,436,MINYUGHE,43603,MINYUGHE,MAGISIU
SINGIDA,43,IKUNGI,436,MINYUGHE,43603,MINYUGHE,MNANG’ANA
SINGIDA,43,IKUNGI,436,MINYUGHE,43603,MINYUGHE,MISINGIA
SINGIDA,43,IKUNGI,436,MINYUGHE,43603,MINYUGHE,MAMAKAA
SINGIDA,43,IKUNGI,436,MINYUGHE,43603,MINYUGHE,KINYARIME
SINGIDA,43,IKUNGI,436,MINYUGHE,43603,MISAKE,MUGHUMO
SINGIDA,43,IKUNGI,436,MINYUGHE,43603,MISAKE,INOO
SINGIDA,43,IKUNGI,436,MINYUGHE,43603,MISAKE,IKHANKHAMO
SINGIDA,43,IKUNGI,436,MINYUGHE,43603,MISAKE,MTEVA
SINGIDA,43,IKUNGI,436,MINYUGHE,43603,MISAKE,KIKHOMANGO
SINGIDA,43,IKUNGI,436,MINYUGHE,43603,MAYAHA,BUNKU
SINGIDA,43,IKUNGI,436,MINYUGHE,43603,MAYAHA,MAWENI
SINGIDA,43,IKUNGI,436,MINYUGHE,43603,MAYAHA,MNANG’ANA
SINGIDA,43,IKUNGI,436,MINYUGHE,43603,MAYAHA,IGONAMBOGO
SINGIDA,43,IKUNGI,436,MINYUGHE,43603,MAYAHA,KINYARIMI ‘A’
SINGIDA,43,IKUNGI,436,MINYUGHE,43603,MAYAHA,KINYARIMI ‘B’
SINGIDA,43,IKUNGI,436,MINYUGHE,43603,MAYAHA,MWANTATURU
SINGIDA,43,IKUNGI,436,PUMA,43604,PUMA,MSATU
SINGIDA,43,IKUNGI,436,PUMA,43604,PUMA,MHONO
SINGIDA,43,IKUNGI,436,PUMA,43604,PUMA,PUMA KUSINI
SINGIDA,43,IKUNGI,436,PUMA,43604,PUMA,PUMA KASKAZINI
SINGIDA,43,IKUNGI,436,PUMA,43604,PUMA,MFUMBU
SINGIDA,43,IKUNGI,436,PUMA,43604,ISALANDA,YUNGA
SINGIDA,43,IKUNGI,436,PUMA,43604,ISALANDA,ISALANDA
SINGIDA,43,IKUNGI,436,PUMA,43604,ISALANDA,BWANGI
SINGIDA,43,IKUNGI,436,PUMA,43604,NKUNINKANA,MAINA
SINGIDA,43,IKUNGI,436,PUMA,43604,NKUNINKANA,MUNGUMAO
SINGIDA,43,IKUNGI,436,PUMA,43604,NKUNINKANA,KHUNGU
SINGIDA,43,IKUNGI,436,PUMA,43604,NKUNINKANA,NKUNINKANA
SINGIDA,43,IKUNGI,436,PUMA,43604,WIBIA,JINGI
SINGIDA,43,IKUNGI,436,PUMA,43604,WIBIA,UNYANYAMAA
SINGIDA,43,IKUNGI,436,PUMA,43604,WIBIA,NTEWA
SINGIDA,43,IKUNGI,436,PUMA,43604,WIBIA,MAMPOTA
SINGIDA,43,IKUNGI,436,PUMA,43604,WIBIA,MAKIWA
SINGIDA,43,IKUNGI,436,PUMA,43604,WIBIA,UNYAMBWA
SINGIDA,43,IKUNGI,436,PUMA,43604,WIBIA,MBAYA
SINGIDA,43,IKUNGI,436,PUMA,43604,WIBIA,WIBIA
SINGIDA,43,IKUNGI,436,KITUNTU,43605,UTAHO B,YUNGI
SINGIDA,43,IKUNGI,436,KITUNTU,43605,UTAHO B,NYONYI
SINGIDA,43,IKUNGI,436,KITUNTU,43605,KITUNTU,KITUNTU
SINGIDA,43,IKUNGI,436,KITUNTU,43605,KITUNTU,UTAHO  “B”
SINGIDA,43,IKUNGI,436,KITUNTU,43605,KITUNTU,MTUNTII
SINGIDA,43,IKUNGI,436,KITUNTU,43605,KITUNTU,NKUMBANDII
SINGIDA,43,IKUNGI,436,KITUNTU,43605,KITUNTU,JIMBO
SINGIDA,43,IKUNGI,436,KITUNTU,43605,KITUNTU,UHONGANJIA
SINGIDA,43,IKUNGI,436,KITUNTU,43605,MUSAMBU,MUSAMBU
SINGIDA,43,IKUNGI,436,KITUNTU,43605,MUSAMBU,SIMBA
SINGIDA,43,IKUNGI,436,KITUNTU,43605,MUSAMBU,NKHAMBI
SINGIDA,43,IKUNGI,436,KITUNTU,43605,MUSAMBU,KIDUNGHWANI
SINGIDA,43,IKUNGI,436,KITUNTU,43605,MATYUKU,BONDENI
SINGIDA,43,IKUNGI,436,KITUNTU,43605,MATYUKU,KILIMAHEWA
SINGIDA,43,IKUNGI,436,KITUNTU,43605,MATYUKU,MISINGIA
SINGIDA,43,IKUNGI,436,KITUNTU,43605,MATYUKU,MSIMIHI
SINGIDA,43,IKUNGI,436,KITUNTU,43605,UTAHO A,UTAHO
SINGIDA,43,IKUNGI,436,KITUNTU,43605,UTAHO A,KINYAGHAGHA
SINGIDA,43,IKUNGI,436,KITUNTU,43605,UTAHO A,MAGUKA
SINGIDA,43,IKUNGI,436,MUHINTIRI,43606,MUHINTIRI,MUHINTIRI
SINGIDA,43,IKUNGI,436,MUHINTIRI,43606,MUHINTIRI,MFUMBU
SINGIDA,43,IKUNGI,436,MUHINTIRI,43606,MUHINTIRI,MTAE
SINGIDA,43,IKUNGI,436,MUHINTIRI,43606,MUHINTIRI,IKHOMBO
SINGIDA,43,IKUNGI,436,MUHINTIRI,43606,MUHINTIRI,UNYAMBUGHA
SINGIDA,43,IKUNGI,436,MUHINTIRI,43606,MUHINTIRI,IYUHI
SINGIDA,43,IKUNGI,436,MUHINTIRI,43606,MPETU,MPETU
SINGIDA,43,IKUNGI,436,MUHINTIRI,43606,MPETU,NKHONA
SINGIDA,43,IKUNGI,436,MUHINTIRI,43606,MPETU,MAJIWENI
SINGIDA,43,IKUNGI,436,MUHINTIRI,43606,MPETU,NKHANDI
SINGIDA,43,IKUNGI,436,MUHINTIRI,43606,MPETU,MAGHUKA
SINGIDA,43,IKUNGI,436,MUHINTIRI,43606,MPETU,MBUGHANTIGHA
SINGIDA,43,IKUNGI,436,MUHINTIRI,43606,MPETU,MFUMBU
SINGIDA,43,IKUNGI,436,MUHINTIRI,43606,KINYAMPEMBEE,KINYAMPEMBEE A
SINGIDA,43,IKUNGI,436,MUHINTIRI,43606,KINYAMPEMBEE,KINYAMPEMBEE B
SINGIDA,43,IKUNGI,436,MUHINTIRI,43606,KINYAMPEMBEE,MPIPITI A
SINGIDA,43,IKUNGI,436,MUHINTIRI,43606,KINYAMPEMBEE,MPIPITI B
SINGIDA,43,IKUNGI,436,MUHINTIRI,43606,KINYAMPEMBEE,KITUNDA
SINGIDA,43,IKUNGI,436,IGLANSONI,43607,IGLANSONI,IGLANSONI
SINGIDA,43,IKUNGI,436,IGLANSONI,43607,IGLANSONI,MAJENGO
SINGIDA,43,IKUNGI,436,IGLANSONI,43607,IGLANSONI,IKOMBA A
SINGIDA,43,IKUNGI,436,IGLANSONI,43607,IGLANSONI,IKOMBA B
SINGIDA,43,IKUNGI,436,IGLANSONI,43607,IGLANSONI,ISHINGISHA
SINGIDA,43,IKUNGI,436,IGLANSONI,43607,IGLANSONI,ISESEKO
SINGIDA,43,IKUNGI,436,IGLANSONI,43607,IGLANSONI,KIZUGU
SINGIDA,43,IKUNGI,436,IGLANSONI,43607,IGLANSONI,ILOLO A
SINGIDA,43,IKUNGI,436,IGLANSONI,43607,MNYANGE,MNYANGE
SINGIDA,43,IKUNGI,436,IGLANSONI,43607,MNYANGE,MKWIRI
SINGIDA,43,IKUNGI,436,IGLANSONI,43607,MNYANGE,NKURUSI
SINGIDA,43,IKUNGI,436,IGLANSONI,43607,MNYANGE,ILOLO A
SINGIDA,43,IKUNGI,436,IGLANSONI,43607,MNYANGE,ILOLO B
SINGIDA,43,IKUNGI,436,SEPUKA,43608,MUSIMI,MUSIMI MADUKANI
SINGIDA,43,IKUNGI,436,SEPUKA,43608,MUSIMI,MUSIMI MAGHARIBI
SINGIDA,43,IKUNGI,436,SEPUKA,43608,MUSIMI,MUSIMI KUSINI
SINGIDA,43,IKUNGI,436,SEPUKA,43608,MUSIMI,MRAMA
SINGIDA,43,IKUNGI,436,SEPUKA,43608,MUSIMI,SENGASENGA
SINGIDA,43,IKUNGI,436,SEPUKA,43608,MUSIMI,ITALALA MAGHARIBI
SINGIDA,43,IKUNGI,436,SEPUKA,43608,MUSIMI,ITALALA MASHARIKI
SINGIDA,43,IKUNGI,436,SEPUKA,43608,MNANG'ANA,MNANG’ANA KATI
SINGIDA,43,IKUNGI,436,SEPUKA,43608,MNANG'ANA,MIMPANDU
SINGIDA,43,IKUNGI,436,SEPUKA,43608,MNANG'ANA,MBUYUNI
SINGIDA,43,IKUNGI,436,SEPUKA,43608,MNANG'ANA,MANTAMKE
SINGIDA,43,IKUNGI,436,SEPUKA,43608,MNANG'ANA,MAYUYUDA
SINGIDA,43,IKUNGI,436,SEPUKA,43608,MNANG'ANA,ITITI
SINGIDA,43,IKUNGI,436,SEPUKA,43608,MSUNGUA,MSUNGUA KATI
SINGIDA,43,IKUNGI,436,SEPUKA,43608,MSUNGUA,IPORYO
SINGIDA,43,IKUNGI,436,SEPUKA,43608,MSUNGUA,MSANJA
SINGIDA,43,IKUNGI,436,SEPUKA,43608,MSUNGUA,MTUMBA
SINGIDA,43,IKUNGI,436,SEPUKA,43608,MSUNGUA,NYEGHEE “A”
SINGIDA,43,IKUNGI,436,SEPUKA,43608,MSUNGUA,NYEGHEE “B”
SINGIDA,43,IKUNGI,436,MTUNDURU,43609,MTUNDURU,MTUNDURU KATI
SINGIDA,43,IKUNGI,436,MTUNDURU,43609,MTUNDURU,MSINGILIMO
SINGIDA,43,IKUNGI,436,MTUNDURU,43609,MTUNDURU,MUNKHONJE
SINGIDA,43,IKUNGI,436,MTUNDURU,43609,MTUNDURU,MTAKUJA
SINGIDA,43,IKUNGI,436,MTUNDURU,43609,MTUNDURU,MWASWEYA MASHARIKI
SINGIDA,43,IKUNGI,436,MTUNDURU,43609,MTUNDURU,MASWEYA MAGHARIBI
SINGIDA,43,IKUNGI,436,MTUNDURU,43609,KIPUNDA,KIPUNDA A
SINGIDA,43,IKUNGI,436,MTUNDURU,43609,KIPUNDA,KIPUNDA B
SINGIDA,43,IKUNGI,436,MTUNDURU,43609,KIPUNDA,KIPUNDA KUSINI
SINGIDA,43,IKUNGI,436,MTUNDURU,43609,KIPUNDA,KIKUNDUFE
SINGIDA,43,IKUNGI,436,MTUNDURU,43609,KIPUNDA,MISULE
SINGIDA,43,IKUNGI,436,MTUNDURU,43609,KIPUNDA,MSONGE
SINGIDA,43,IKUNGI,436,MTUNDURU,43609,KIPUNDA,NKHOKWE
SINGIDA,43,IKUNGI,436,MTUNDURU,43609,KIPUNDA,NKAMBI
SINGIDA,43,IKUNGI,436,MTUNDURU,43609,KIPUNDA,MTAKUJA
SINGIDA,43,IKUNGI,436,MTUNDURU,43609,KIPUNDA,MSWEA
SINGIDA,43,IKUNGI,436,MTUNDURU,43609,KIPUNDA,MAGHARIBI
SINGIDA,43,IKUNGI,436,MTUNDURU,43609,KIPUNDA,MWENGE
SINGIDA,43,IKUNGI,436,MTUNDURU,43609,KIPUNDA,MAUKI
SINGIDA,43,IKUNGI,436,MTUNDURU,43609,KIPUNDA,MSISI
SINGIDA,43,IKUNGI,436,MTUNDURU,43609,KINTANDAA,KINTANDAA KATI
SINGIDA,43,IKUNGI,436,MTUNDURU,43609,KINTANDAA,MISULE
SINGIDA,43,IKUNGI,436,MTUNDURU,43609,KINTANDAA,INDAHIA
SINGIDA,43,IKUNGI,436,MTUNDURU,43609,KINTANDAA,MHANYATI
SINGIDA,43,IKUNGI,436,MTUNDURU,43609,KINTANDAA,MAYUYUDA “B”
SINGIDA,43,IKUNGI,436,MTUNDURU,43609,KINTANDAA,MWASIJA
SINGIDA,43,IKUNGI,436,MTUNDURU,43609,MASWEYA,KIPUMA
SINGIDA,43,IKUNGI,436,MTUNDURU,43609,MASWEYA,BUNKU
SINGIDA,43,IKUNGI,436,MTUNDURU,43609,MASWEYA,MASWEYA KATI
SINGIDA,43,IKUNGI,436,MTUNDURU,43609,MASWEYA,NZILA IRAMBA
SINGIDA,43,IKUNGI,436,MTUNDURU,43609,MASWEYA,SONGANDOGO
SINGIDA,43,IKUNGI,436,MTUNDURU,43609,MASWEYA,MASIMBA
SINGIDA,43,IKUNGI,436,MTUNDURU,43609,MASWEYA,IFYAMAHUMBI
SINGIDA,43,IKUNGI,436,MTUNDURU,43609,MASWEYA,ITAGATA
SINGIDA,43,IKUNGI,436,MTUNDURU,43609,MASWEYA,MISUNGWI
SINGIDA,43,IKUNGI,436,MTUNDURU,43609,MASWEYA,UGUMO
SINGIDA,43,IKUNGI,436,MWARU,43610,MWARU,MAHENGE
SINGIDA,43,IKUNGI,436,MWARU,43610,MWARU,MTAKUJA
SINGIDA,43,IKUNGI,436,MWARU,43610,MWARU,MWARU DARAJANI
SINGIDA,43,IKUNGI,436,MWARU,43610,MWARU,MAGHARIIBI
SINGIDA,43,IKUNGI,436,MWARU,43610,MWARU,MSUI
SINGIDA,43,IKUNGI,436,MWARU,43610,MPUGIZI,MPUGIZI
SINGIDA,43,IKUNGI,436,MWARU,43610,MPUGIZI,KANDAJINGA
SINGIDA,43,IKUNGI,436,MWARU,43610,MPUGIZI,MKONDOGWA
SINGIDA,43,IKUNGI,436,MWARU,43610,MLANDALA,IDODOMA
SINGIDA,43,IKUNGI,436,MWARU,43610,MLANDALA,MNADANI
SINGIDA,43,IKUNGI,436,MWARU,43610,MLANDALA,LUWILU
SINGIDA,43,IKUNGI,436,MWARU,43610,MLANDALA,WINDUWINDU
SINGIDA,43,IKUNGI,436,MWARU,43610,MLANDALA,MWASUSU
SINGIDA,43,IKUNGI,436,MWARU,43610,MDUGHUYU,MDUGHUYU
SINGIDA,43,IKUNGI,436,MWARU,43610,KAUGEURI,KAUGERI
SINGIDA,43,IKUNGI,436,MWARU,43610,KAUGEURI,MWASUSU
SINGIDA,43,IKUNGI,436,IGHOMBWE,43611,MSOSA,MSOSA
SINGIDA,43,IKUNGI,436,IGHOMBWE,43611,MSOSA,MSHUNGULA
SINGIDA,43,IKUNGI,436,IGHOMBWE,43611,IGHOMBWE,SHULENI MGUNGULI
SINGIDA,43,IKUNGI,436,IGHOMBWE,43611,IGHOMBWE,MUGHANGA
SINGIDA,43,IKUNGI,436,IGHOMBWE,43611,IGHOMBWE,MKWAJUNI
SINGIDA,43,IKUNGI,436,IGHOMBWE,43611,IGHOMBWE,LUSESEKO
SINGIDA,43,IKUNGI,436,IGHOMBWE,43611,IGHOMBWE,MAKHONDA
SINGIDA,43,IKUNGI,436,IGHOMBWE,43611,GERMAN,MFUMBUALUMBA
SINGIDA,43,IKUNGI,436,IGHOMBWE,43611,GERMAN,IGUGULI
SINGIDA,43,IKUNGI,436,IGHOMBWE,43611,GERMAN,BUNKU
SINGIDA,43,IKUNGI,436,IGHOMBWE,43611,GERMAN,IGUNGULI
SINGIDA,43,IKUNGI,436,IGHOMBWE,43611,MAKHONDA,MAKHONDA “ A”
SINGIDA,43,IKUNGI,436,IGHOMBWE,43611,MAKHONDA,MAKHONDA  “B”
SINGIDA,43,IKUNGI,436,MGUNGIRA,43612,MGUNGIRA,MGUNGIRA
SINGIDA,43,IKUNGI,436,MGUNGIRA,43612,MGUNGIRA,MAGUNGUMKA
SINGIDA,43,IKUNGI,436,MGUNGIRA,43612,MGUNGIRA,MAKUNGU  “B”
SINGIDA,43,IKUNGI,436,MGUNGIRA,43612,MGUNGIRA,MALINGILA
SINGIDA,43,IKUNGI,436,MGUNGIRA,43612,UFANA,UFANA
SINGIDA,43,IKUNGI,436,MGUNGIRA,43612,UFANA,MWABARABARA
SINGIDA,43,IKUNGI,436,MGUNGIRA,43612,UFANA,MTINJE
SINGIDA,43,IKUNGI,436,MGUNGIRA,43612,MWAHALAJA,MWANKALAJA
SINGIDA,43,IKUNGI,436,MGUNGIRA,43612,MWAHALAJA,MATUMBILI
SINGIDA,43,IKUNGI,436,IYUMBU,43613,IYUMBU,IYUMBU
SINGIDA,43,IKUNGI,436,IYUMBU,43613,IYUMBU,NYAMBI
SINGIDA,43,IKUNGI,436,IYUMBU,43613,IYUMBU,LWAMBALA
SINGIDA,43,IKUNGI,436,IYUMBU,43613,IYUMBU,BOMBA
SINGIDA,43,IKUNGI,436,IYUMBU,43613,IYUMBU,KAPITI
SINGIDA,43,IKUNGI,436,IYUMBU,43613,MKENENE,MKENENE
SINGIDA,43,IKUNGI,436,IYUMBU,43613,MKENENE,ILOWOKO
SINGIDA,43,IKUNGI,436,IYUMBU,43613,MKENENE,ITANDUKA
SINGIDA,43,IKUNGI,436,IYUMBU,43613,MAKUNGU,MAKUNGU  “A”
SINGIDA,43,IKUNGI,436,IYUMBU,43613,MAKUNGU,KISINGIKA
SINGIDA,43,IKUNGI,436,IYUMBU,43613,MAKUNGU,MWAMAWOKU
SINGIDA,43,IKUNGI,436,IRISYA,43614,IRISYA,MUGHONGO
SINGIDA,43,IKUNGI,436,IRISYA,43614,IRISYA,MISUNA
SINGIDA,43,IKUNGI,436,IRISYA,43614,IRISYA,ITIGI
SINGIDA,43,IKUNGI,436,IRISYA,43614,IRISYA,IRISYA KATI
SINGIDA,43,IKUNGI,436,IRISYA,43614,MUNYU,MUHITU
SINGIDA,43,IKUNGI,436,IRISYA,43614,MUNYU,MRUMBA
SINGIDA,43,IKUNGI,436,IRISYA,43614,MUNYU,MGHUNDWE
SINGIDA,43,IKUNGI,436,IRISYA,43614,MWASUTIANGA,MWASUTIANGA MAGHARIBI
SINGIDA,43,IKUNGI,436,IRISYA,43614,MWASUTIANGA,MWASUTIANGA MASHARIKI
SINGIDA,43,IKUNGI,436,IRISYA,43614,MWASUTIANGA,MWASUTIANGA KASKAZINI
SINGIDA,43,IKUNGI,436,IKUNGI,43615,IGHUKA,ITUMBI
SINGIDA,43,IKUNGI,436,IKUNGI,43615,IGHUKA,MAUNGU
SINGIDA,43,IKUNGI,436,IKUNGI,43615,IGHUKA,KIGHWIRA
SINGIDA,43,IKUNGI,436,IKUNGI,43615,IGHUKA,IGHUKA A
SINGIDA,43,IKUNGI,436,IKUNGI,43615,IGHUKA,IGHUKA B
SINGIDA,43,IKUNGI,436,IKUNGI,43615,IGHUKA,MASENKU
SINGIDA,43,IKUNGI,436,IKUNGI,43615,IGHUKA,MBWANJUKI
SINGIDA,43,IKUNGI,436,IKUNGI,43615,IGHUKA,DAGHUSA
SINGIDA,43,IKUNGI,436,IKUNGI,43615,MATONGO,MOSI
SINGIDA,43,IKUNGI,436,IKUNGI,43615,MATONGO,NKUHI
SINGIDA,43,IKUNGI,436,IKUNGI,43615,MATONGO,KIMBIJI
SINGIDA,43,IKUNGI,436,IKUNGI,43615,MATONGO,MAU
SINGIDA,43,IKUNGI,436,IKUNGI,43615,MATONGO,MBUGHANTIGHA
SINGIDA,43,IKUNGI,436,IKUNGI,43615,MATONGO,UNYANKINDA
SINGIDA,43,IKUNGI,436,IKUNGI,43615,IKUNGI,IKUNGI
SINGIDA,43,IKUNGI,436,IKUNGI,43615,IKUNGI,TAMBUKARELI
SINGIDA,43,IKUNGI,436,IKUNGI,43615,IKUNGI,MTAKUJA
SINGIDA,43,IKUNGI,436,IKUNGI,43615,IKUNGI,MISRI
SINGIDA,43,IKUNGI,436,IKUNGI,43615,IKUNGI,GAHILU
SINGIDA,43,IKUNGI,436,IKUNGI,43615,MBWANJIKI,MBWANJIKI
SINGIDA,43,IKUNGI,436,IKUNGI,43615,MBWANJIKI,IKULUME
SINGIDA,43,IKUNGI,436,IKUNGI,43615,MBWANJIKI,MIRI
SINGIDA,43,IKUNGI,436,UNYAHATI,43616,MATARE,MATARE “A”
SINGIDA,43,IKUNGI,436,UNYAHATI,43616,MATARE,MATARE “B”
SINGIDA,43,IKUNGI,436,UNYAHATI,43616,MATARE,NG’AMBO
SINGIDA,43,IKUNGI,436,UNYAHATI,43616,MATARE,MAKAMBI
SINGIDA,43,IKUNGI,436,UNYAHATI,43616,MATARE,KISIWANI
SINGIDA,43,IKUNGI,436,UNYAHATI,43616,MATARE,SINGIDA
SINGIDA,43,IKUNGI,436,UNYAHATI,43616,MATARE,MUMBII
SINGIDA,43,IKUNGI,436,UNYAHATI,43616,MATARE,MGUNGIRA
SINGIDA,43,IKUNGI,436,UNYAHATI,43616,MAHAMBE,MAHAMBE KATI
SINGIDA,43,IKUNGI,436,UNYAHATI,43616,MAHAMBE,DILIHA
SINGIDA,43,IKUNGI,436,UNYAHATI,43616,MAHAMBE,MDAMBUA
SINGIDA,43,IKUNGI,436,UNYAHATI,43616,MAHAMBE,KINYANGAA
SINGIDA,43,IKUNGI,436,UNYAHATI,43616,MAHAMBE,LOAMUAMLAE
SINGIDA,43,IKUNGI,436,UNYAHATI,43616,MAHAMBE,FILI
SINGIDA,43,IKUNGI,436,UNYAHATI,43616,KINYAMWANDYO,KINYAMWANDYO
SINGIDA,43,IKUNGI,436,UNYAHATI,43616,KINYAMWANDYO,MWAMPUMA
SINGIDA,43,IKUNGI,436,UNYAHATI,43616,KINYAMWANDYO,KINYAMTIKI
SINGIDA,43,IKUNGI,436,UNYAHATI,43616,KINYAMWANDYO,MAKUNGUU
SINGIDA,43,IKUNGI,436,UNYAHATI,43616,KINYAMWANDYO,NKUHI
SINGIDA,43,IKUNGI,436,UNYAHATI,43616,KINYAMWANDYO,MTAKUJA
SINGIDA,43,IKUNGI,436,UNYAHATI,43616,MUUNGANO,MATAE
SINGIDA,43,IKUNGI,436,UNYAHATI,43616,MUUNGANO,SAMUMBA
SINGIDA,43,IKUNGI,436,UNYAHATI,43616,MUUNGANO,IKHAMBAMAJI
SINGIDA,43,IKUNGI,436,UNYAHATI,43616,ULYAMPITI,KITUNGULUI
SINGIDA,43,IKUNGI,436,UNYAHATI,43616,ULYAMPITI,MITYUNYO
SINGIDA,43,IKUNGI,436,UNYAHATI,43616,ULYAMPITI,KIRUMA
SINGIDA,43,IKUNGI,436,UNYAHATI,43616,ULYAMPITI,SONGOLOJI
SINGIDA,43,IKUNGI,436,UNYAHATI,43616,ULYAMPITI,KINGIGA
SINGIDA,43,IKUNGI,436,UNYAHATI,43616,ULYAMPITI,MBAGHO
SINGIDA,43,IKUNGI,436,DUNG'UNYI,43617,DUNG'UNYI,DUNG’UNYI
SINGIDA,43,IKUNGI,436,DUNG'UNYI,43617,DUNG'UNYI,NKUNGI
SINGIDA,43,IKUNGI,436,DUNG'UNYI,43617,DUNG'UNYI,MINANG’ANA
SINGIDA,43,IKUNGI,436,DUNG'UNYI,43617,MUNKINYA,NG’ONGOSOA
SINGIDA,43,IKUNGI,436,DUNG'UNYI,43617,MUNKINYA,IKUTU
SINGIDA,43,IKUNGI,436,DUNG'UNYI,43617,MUNKINYA,HUU
SINGIDA,43,IKUNGI,436,DUNG'UNYI,43617,MUNKINYA,MPIPITI
SINGIDA,43,IKUNGI,436,DUNG'UNYI,43617,MUNKINYA,MSUNA
SINGIDA,43,IKUNGI,436,DUNG'UNYI,43617,MUNKINYA,MKHOA
SINGIDA,43,IKUNGI,436,DUNG'UNYI,43617,MUNKINYA,MIYOMBWE
SINGIDA,43,IKUNGI,436,DUNG'UNYI,43617,MUNKINYA,MASEKE
SINGIDA,43,IKUNGI,436,DUNG'UNYI,43617,MUNKINYA,MUHIMBILI
SINGIDA,43,IKUNGI,436,DUNG'UNYI,43617,MUNKINYA,MISATI
SINGIDA,43,IKUNGI,436,DUNG'UNYI,43617,KIPUMBUIKO,PUMBURI
SINGIDA,43,IKUNGI,436,DUNG'UNYI,43617,KIPUMBUIKO,NTUNDUU
SINGIDA,43,IKUNGI,436,DUNG'UNYI,43617,KIPUMBUIKO,NKUHI
SINGIDA,43,IKUNGI,436,DUNG'UNYI,43617,KIPUMBUIKO,KIPUMBUIKO
SINGIDA,43,IKUNGI,436,DUNG'UNYI,43617,KIPUMBUIKO,HURUA A
SINGIDA,43,IKUNGI,436,DUNG'UNYI,43617,KIPUMBUIKO,MUNGUMU
SINGIDA,43,IKUNGI,436,DUNG'UNYI,43617,SAMAKA,MAKIE
SINGIDA,43,IKUNGI,436,DUNG'UNYI,43617,SAMAKA,MINYAA
SINGIDA,43,IKUNGI,436,DUNG'UNYI,43617,SAMAKA,MAMAJA
SINGIDA,43,IKUNGI,436,DUNG'UNYI,43617,SAMAKA,MAMANE
SINGIDA,43,IKUNGI,436,DUNG'UNYI,43617,SAMAKA,DIGIDIGI
SINGIDA,43,IKUNGI,436,DUNG'UNYI,43617,DAMANKIA,MLUNGU
SINGIDA,43,IKUNGI,436,DUNG'UNYI,43617,DAMANKIA,USAGHATA
SINGIDA,43,IKUNGI,436,DUNG'UNYI,43617,DAMANKIA,ITUMBI
SINGIDA,43,IKUNGI,436,DUNG'UNYI,43617,DAMANKIA,MJUA
SINGIDA,43,IKUNGI,436,ISSUNA,43618,ISSUNA A,MURA
SINGIDA,43,IKUNGI,436,ISSUNA,43618,ISSUNA A,INANG’ANA
SINGIDA,43,IKUNGI,436,ISSUNA,43618,ISSUNA A,MITINTIMO
SINGIDA,43,IKUNGI,436,ISSUNA,43618,ISSUNA A,MILADE
SINGIDA,43,IKUNGI,436,ISSUNA,43618,ISSUNA A,MANJARU
SINGIDA,43,IKUNGI,436,ISSUNA,43618,ISSUNA A,ISSUNA JUU
SINGIDA,43,IKUNGI,436,ISSUNA,43618,ISSUNA B,GAUDU
SINGIDA,43,IKUNGI,436,ISSUNA,43618,ISSUNA B,UGINO
SINGIDA,43,IKUNGI,436,ISSUNA,43618,ISSUNA B,UHAMNAYA
SINGIDA,43,IKUNGI,436,ISSUNA,43618,ISSUNA B,IFAMPA
SINGIDA,43,IKUNGI,436,ISSUNA,43618,NKUHI,MTUNDURUNI
SINGIDA,43,IKUNGI,436,ISSUNA,43618,NKUHI,NKUHI KATI
SINGIDA,43,IKUNGI,436,ISSUNA,43618,NKUHI,NKUHI B
SINGIDA,43,IKUNGI,436,ISSUNA,43618,NKUHI,MASINKUNKU
SINGIDA,43,IKUNGI,436,ISSUNA,43618,NKUHI,TAMBUKA RELI
SINGIDA,43,IKUNGI,436,ISSUNA,43618,NKUHI,MWISOKO
SINGIDA,43,IKUNGI,436,ISSUNA,43618,TUMAINI,MSUI
SINGIDA,43,IKUNGI,436,ISSUNA,43618,TUMAINI,KULALA
SINGIDA,43,IKUNGI,436,ISSUNA,43618,TUMAINI,MAFEA
SINGIDA,43,IKUNGI,436,ISSUNA,43618,TUMAINI,AGHIDA
SINGIDA,43,IKUNGI,436,ISSUNA,43618,TUMAINI,MANJARU
SINGIDA,43,IKUNGI,436,ISSUNA,43618,NG'ONGOSORO,NG’ONGOSORO
SINGIDA,43,IKUNGI,436,ISSUNA,43618,NG'ONGOSORO,MBUGANI
SINGIDA,43,IKUNGI,436,ISSUNA,43618,NG'ONGOSORO,MPONDA
SINGIDA,43,IKUNGI,436,MKIWA,43619,MKIWA,UNYAMBWA
SINGIDA,43,IKUNGI,436,MKIWA,43619,MKIWA,NDINDII
SINGIDA,43,IKUNGI,436,MKIWA,43619,MKIWA,MISOGHOO
SINGIDA,43,IKUNGI,436,MKIWA,43619,MKIWA,DAMAIDA
SINGIDA,43,IKUNGI,436,MKIWA,43619,MKIWA,IMIGA
SINGIDA,43,IKUNGI,436,MKIWA,43619,MKIWA,HERUHERU
SINGIDA,43,IKUNGI,436,MKIWA,43619,MKIWA,LINDINI
SINGIDA,43,IKUNGI,436,MKIWA,43619,MKIWA,ZANZIBAR
SINGIDA,43,IKUNGI,436,MKIWA,43619,CHODA,CHODA A
SINGIDA,43,IKUNGI,436,MKIWA,43619,CHODA,NKONGWO
SINGIDA,43,IKUNGI,436,MKIWA,43619,CHODA,CHODA B
SINGIDA,43,IKUNGI,436,MKIWA,43619,CHODA,MIGOMBANI
SINGIDA,43,IKUNGI,436,MKIWA,43619,CHODA,MABATINI
SINGIDA,43,IKUNGI,436,MANG'ONYI,43620,SAMBARU,TARU
SINGIDA,43,IKUNGI,436,MANG'ONYI,43620,SAMBARU,SAMBARU
SINGIDA,43,IKUNGI,436,MANG'ONYI,43620,SAMBARU,KIPOMBO
SINGIDA,43,IKUNGI,436,MANG'ONYI,43620,SAMBARU,NKUNGUU
SINGIDA,43,IKUNGI,436,MANG'ONYI,43620,SAMBARU,MBUGANI
SINGIDA,43,IKUNGI,436,MANG'ONYI,43620,SAMBARU,KINYETO
SINGIDA,43,IKUNGI,436,MANG'ONYI,43620,SAMBARU,ISIMBO
SINGIDA,43,IKUNGI,436,MANG'ONYI,43620,MANG'ONYI,MANG’ONYI STENDI
SINGIDA,43,IKUNGI,436,MANG'ONYI,43620,MANG'ONYI,MIGHUNGA
SINGIDA,43,IKUNGI,436,MANG'ONYI,43620,MANG'ONYI,TARU
SINGIDA,43,IKUNGI,436,MANG'ONYI,43620,MANG'ONYI,NKWAUTA
SINGIDA,43,IKUNGI,436,MANG'ONYI,43620,MANG'ONYI,MJINBUA
SINGIDA,43,IKUNGI,436,MANG'ONYI,43620,MANG'ONYI,MSIMIHI
SINGIDA,43,IKUNGI,436,MANG'ONYI,43620,MWAU,MWAU KATI
SINGIDA,43,IKUNGI,436,MANG'ONYI,43620,MWAU,MWAU KUSINI
SINGIDA,43,IKUNGI,436,MANG'ONYI,43620,MWAU,LINDI
SINGIDA,43,IKUNGI,436,MANG'ONYI,43620,MWAU,HANJE
SINGIDA,43,IKUNGI,436,MANG'ONYI,43620,MWAU,MAPAMBANO
SINGIDA,43,IKUNGI,436,MANG'ONYI,43620,MWAU,MSURI
SINGIDA,43,IKUNGI,436,MANG'ONYI,43620,MWAU,KILOMBERU
SINGIDA,43,IKUNGI,436,MANG'ONYI,43620,MWAU,LUGHE
SINGIDA,43,IKUNGI,436,MANG'ONYI,43620,MLUMBI,MLUMBI KATI
SINGIDA,43,IKUNGI,436,MANG'ONYI,43620,MLUMBI,KAKAMEGA
SINGIDA,43,IKUNGI,436,MANG'ONYI,43620,MLUMBI,KINYAMERU
SINGIDA,43,IKUNGI,436,MANG'ONYI,43620,TUPENDANE,TUPENDANE KATI
SINGIDA,43,IKUNGI,436,MANG'ONYI,43620,TUPENDANE,NKHAMBI
SINGIDA,43,IKUNGI,436,MANG'ONYI,43620,TUPENDANE,MPEMBEE
SINGIDA,43,IKUNGI,436,MANG'ONYI,43620,TUPENDANE,BWAWANI
SINGIDA,43,IKUNGI,436,MANG'ONYI,43620,TUPENDANE,MPANDA
SINGIDA,43,IKUNGI,436,MANG'ONYI,43620,TUPENDANE,IPUTI
SINGIDA,43,IKUNGI,436,MANG'ONYI,43620,TUPENDANE,MBOGHO KATI
SINGIDA,43,IKUNGI,436,MUNGAA,43621,MUNGAA,MUNGAA
SINGIDA,43,IKUNGI,436,MUNGAA,43621,MUNGAA,IKHOMBO
SINGIDA,43,IKUNGI,436,MUNGAA,43621,MUNGAA,SIE
SINGIDA,43,IKUNGI,436,MUNGAA,43621,MUNGAA,MANDIMU “A”
SINGIDA,43,IKUNGI,436,MUNGAA,43621,MUNGAA,MANDIMU “B”
SINGIDA,43,IKUNGI,436,MUNGAA,43621,MUNGAA,MASEKEUDA
SINGIDA,43,IKUNGI,436,MUNGAA,43621,MUNGAA,ITUMBI
SINGIDA,43,IKUNGI,436,MUNGAA,43621,MUNGAA,MASAUYA
SINGIDA,43,IKUNGI,436,MUNGAA,43621,UNYAGHUMPI,UNYAGHUMPI
SINGIDA,43,IKUNGI,436,MUNGAA,43621,UNYAGHUMPI,MAGUNGUI
SINGIDA,43,IKUNGI,436,MUNGAA,43621,UNYAGHUMPI,KINYALIMU
SINGIDA,43,IKUNGI,436,MUNGAA,43621,UNYAGHUMPI,MIKOROSHONI
SINGIDA,43,IKUNGI,436,MUNGAA,43621,UNYAGHUMPI,ITUMBI
SINGIDA,43,IKUNGI,436,MUNGAA,43621,UNYAGHUMPI,NKHAMBI
SINGIDA,43,IKUNGI,436,MUNGAA,43621,UNYAGHUMPI,MAWIYA
SINGIDA,43,IKUNGI,436,MUNGAA,43621,KINKU,KINKU A
SINGIDA,43,IKUNGI,436,MUNGAA,43621,KINKU,KITUNDA
SINGIDA,43,IKUNGI,436,MUNGAA,43621,KINKU,NJUKI
SINGIDA,43,IKUNGI,436,MUNGAA,43621,KINKU,MAKOTEA
SINGIDA,43,IKUNGI,436,MUNGAA,43621,KINKU,KINKU ‘B’
SINGIDA,43,IKUNGI,436,MUNGAA,43621,KINKU,NYEGHEE
SINGIDA,43,IKUNGI,436,MUNGAA,43621,KINKU,MUE
SINGIDA,43,IKUNGI,436,NTUNTU,43622,NTUNTU,WANGAMA
SINGIDA,43,IKUNGI,436,NTUNTU,43622,NTUNTU,MYOMBWE  “A”
SINGIDA,43,IKUNGI,436,NTUNTU,43622,NTUNTU,MYOMBWE  “B”
SINGIDA,43,IKUNGI,436,NTUNTU,43622,NTUNTU,MAJENGO
SINGIDA,43,IKUNGI,436,NTUNTU,43622,NTUNTU,NGAYA
SINGIDA,43,IKUNGI,436,NTUNTU,43622,TARU,TARU  “A”
SINGIDA,43,IKUNGI,436,NTUNTU,43622,TARU,TARU “B”
SINGIDA,43,IKUNGI,436,NTUNTU,43622,TARU,KINYAU
SINGIDA,43,IKUNGI,436,NTUNTU,43622,TARU,MATONGO
SINGIDA,43,IKUNGI,436,NTUNTU,43622,NTEWA A,MWONGOZO
SINGIDA,43,IKUNGI,436,NTUNTU,43622,NTEWA A,MAKUNGUU
SINGIDA,43,IKUNGI,436,NTUNTU,43622,NTEWA A,MAKINGINYA
SINGIDA,43,IKUNGI,436,NTUNTU,43622,NTEWA A,KAPITA
SINGIDA,43,IKUNGI,436,NTUNTU,43622,NTEWA A,UHURU
SINGIDA,43,IKUNGI,436,NTUNTU,43622,NTEWA  B,AZIMIO
SINGIDA,43,IKUNGI,436,NTUNTU,43622,NTEWA  B,KUJITEGEMEA
SINGIDA,43,IKUNGI,436,NTUNTU,43622,NTEWA  B,MPANGWE
SINGIDA,43,IKUNGI,436,NTUNTU,43622,NTEWA  B,MLUMBI
SINGIDA,43,IKUNGI,436,NTUNTU,43622,NTEWA  B,MAGHOGHO
SINGIDA,43,IKUNGI,436,NTUNTU,43622,MAMPANDO,USANDAWI
SINGIDA,43,IKUNGI,436,NTUNTU,43622,MAMPANDO,MAMPANDO  “A”
SINGIDA,43,IKUNGI,436,NTUNTU,43622,MAMPANDO,MAMPANDO  “B”
SINGIDA,43,IKUNGI,436,NTUNTU,43622,MAMPANDO,MAKINGINYA
SINGIDA,43,IKUNGI,436,NTUNTU,43622,MAMPANDO,MAGHUMBU
SINGIDA,43,IKUNGI,436,NTUNTU,43622,MAMPANDO,MUGHUKA
SINGIDA,43,IKUNGI,436,NTUNTU,43622,MAMPANDO,MUSE
SINGIDA,43,IKUNGI,436,NTUNTU,43622,MAMPANDO,IKOKOLA
SINGIDA,43,IKUNGI,436,NTUNTU,43622,MAMPANDO,MZALENDO
SINGIDA,43,IKUNGI,436,LIGHWA,43623,LIGHWA,SANYA
SINGIDA,43,IKUNGI,436,LIGHWA,43623,LIGHWA,MAJENGO
SINGIDA,43,IKUNGI,436,LIGHWA,43623,LIGHWA,TUPENDANE
SINGIDA,43,IKUNGI,436,LIGHWA,43623,LIGHWA,DILAHU
SINGIDA,43,IKUNGI,436,LIGHWA,43623,LIGHWA,KAPITI
SINGIDA,43,IKUNGI,436,LIGHWA,43623,LIGHWA,BWAWANI
SINGIDA,43,IKUNGI,436,LIGHWA,43623,LIGHWA,UPENDO
SINGIDA,43,IKUNGI,436,LIGHWA,43623,LIGHWA,MTUNDURU
SINGIDA,43,IKUNGI,436,LIGHWA,43623,LIGHWA,KANYAMSAGHAA
SINGIDA,43,IKUNGI,436,LIGHWA,43623,MWISI,MWISI
SINGIDA,43,IKUNGI,436,LIGHWA,43623,MWISI,MANJUKI
SINGIDA,43,IKUNGI,436,LIGHWA,43623,MWISI,KINYANGAA
SINGIDA,43,IKUNGI,436,LIGHWA,43623,MWISI,KINYALISI
SINGIDA,43,IKUNGI,436,LIGHWA,43623,MWISI,KAIRO
SINGIDA,43,IKUNGI,436,LIGHWA,43623,MWISI,MFUMBU
SINGIDA,43,IKUNGI,436,LIGHWA,43623,UJAIRE,MFENDO
SINGIDA,43,IKUNGI,436,LIGHWA,43623,UJAIRE,MTOGHOO
SINGIDA,43,IKUNGI,436,LIGHWA,43623,UJAIRE,MNANG’ANA
SINGIDA,43,IKUNGI,436,LIGHWA,43623,UJAIRE,MGANDU
SINGIDA,43,IKUNGI,436,SIUYU,43624,SIUYU,SIUYU
SINGIDA,43,IKUNGI,436,SIUYU,43624,SIUYU,URIMI
SINGIDA,43,IKUNGI,436,SIUYU,43624,SIUYU,NGAGHE
SINGIDA,43,IKUNGI,436,SIUYU,43624,SIUYU,NALI
SINGIDA,43,IKUNGI,436,SIUYU,43624,SIUYU,SIUYU MADUKANI
SINGIDA,43,IKUNGI,436,SIUYU,43624,SIUYU,DADAA
SINGIDA,43,IKUNGI,436,SIUYU,43624,SIUYU,MIGHEGHEA
SINGIDA,43,IKUNGI,436,SIUYU,43624,SIUYU,MAKANKA
SINGIDA,43,IKUNGI,436,SIUYU,43624,MAKOTEA,MAKOTEA
SINGIDA,43,IKUNGI,436,SIUYU,43624,MAKOTEA,MIGHANGA
SINGIDA,43,IKUNGI,436,SIUYU,43624,UNYANKANYA,MAWENI
SINGIDA,43,IKUNGI,436,SIUYU,43624,UNYANKANYA,MUNDABI
SINGIDA,43,IKUNGI,436,SIUYU,43624,UNYANKANYA,MUNINI
SINGIDA,43,IKUNGI,436,SIUYU,43624,UNYANKANYA,MISIMBWA
SINGIDA,43,IKUNGI,436,SIUYU,43624,UNYANKANYA,ITAGHATA
SINGIDA,43,IKUNGI,436,MISUGHAA,43625,SAKAA,MLIMANI
SINGIDA,43,IKUNGI,436,MISUGHAA,43625,SAKAA,SAKAA OFISINI
SINGIDA,43,IKUNGI,436,MISUGHAA,43625,SAKAA,KISTENGERE
SINGIDA,43,IKUNGI,436,MISUGHAA,43625,SAKAA,MRIWA
SINGIDA,43,IKUNGI,436,MISUGHAA,43625,SAKAA,IGUNGA B
SINGIDA,43,IKUNGI,436,MISUGHAA,43625,SAKAA,MADUKANI
SINGIDA,43,IKUNGI,436,MISUGHAA,43625,MSULE,KISIKIA
SINGIDA,43,IKUNGI,436,MISUGHAA,43625,MSULE,MISULE
SINGIDA,43,IKUNGI,436,MISUGHAA,43625,MSULE,SAKIRA
SINGIDA,43,IKUNGI,436,MISUGHAA,43625,MSULE,ISAMACHA
SINGIDA,43,IKUNGI,436,MISUGHAA,43625,MSULE,RIGU
SINGIDA,43,IKUNGI,436,MISUGHAA,43625,MISUGHAA,DARAJANI
SINGIDA,43,IKUNGI,436,MISUGHAA,43625,MISUGHAA,MIGHANGA
SINGIDA,43,IKUNGI,436,MISUGHAA,43625,MISUGHAA,MSUI
SINGIDA,43,IKUNGI,436,MISUGHAA,43625,MISUGHAA,MVAE
SINGIDA,43,IKUNGI,436,MISUGHAA,43625,MISUGHAA,MIDAANI
SINGIDA,43,IKUNGI,436,MISUGHAA,43625,MISUGHAA,IGUNGA A
SINGIDA,43,IKUNGI,436,KIKIO,43626,MKUNGUAKIHENDA,MKUNGUAKIHENDO
SINGIDA,43,IKUNGI,436,KIKIO,43626,MKUNGUAKIHENDA,KIKIO
SINGIDA,43,IKUNGI,436,KIKIO,43626,MKUNGUAKIHENDA,SINBIKWA
SINGIDA,43,IKUNGI,436,KIKIO,43626,MNANE,MDAA
SINGIDA,43,IKUNGI,436,KIKIO,43626,MNANE,MADUME
SINGIDA,43,IKUNGI,436,KIKIO,43626,MNANE,MAGHUMEE
SINGIDA,43,IKUNGI,436,KIKIO,43626,MNANE,NKUHI
SINGIDA,43,IKUNGI,436,KIKIO,43626,MNANE,KITIU
SINGIDA,43,IKUNGI,436,KIKIO,43626,MNANE,MAHUMA
SINGIDA,43,IKUNGI,436,KIKIO,43626,MNANE,KITUNGULUI
SINGIDA,43,IKUNGI,436,KIKIO,43626,MNANE,MANKUMBI
SINGIDA,43,IKUNGI,436,KIKIO,43626,MNANE,MITOGHOO
SINGIDA,43,IKUNGI,436,KIKIO,43626,MNANE,GHOLOTA
SINGIDA,43,IKUNGI,436,KIKIO,43626,MNANE,SIRA
SINGIDA,43,IKUNGI,436,KIKIO,43626,MNANE,MUTUMBU
SINGIDA,43,IKUNGI,436,KIKIO,43626,NKUNDI,AZIMIO
SINGIDA,43,IKUNGI,436,KIKIO,43626,NKUNDI,KAGERA
SINGIDA,43,IKUNGI,436,KIKIO,43626,NKUNDI,DODOMA
SINGIDA,43,IKUNGI,436,KIKIO,43626,NKUNDI,NTUNDURU
SINGIDA,43,IKUNGI,436,KIKIO,43626,NKUNDI,MWITUNI
SINGIDA,43,IKUNGI,436,KIKIO,43626,NKUNDI,ISANJA
SINGIDA,43,IKUNGI,436,MAKILAWA,43627,MAKILAWA,MAKILAWA
SINGIDA,43,IKUNGI,436,MAKILAWA,43627,MAKILAWA,MTAMBA
SINGIDA,43,IKUNGI,436,MAKILAWA,43627,MAKILAWA,DARAJANI
SINGIDA,43,IKUNGI,436,MAKILAWA,43627,MTAVIRA,MTAVIRA
SINGIDA,43,IKUNGI,436,MAKILAWA,43627,MTAVIRA,ITURU
SINGIDA,43,IKUNGI,436,MAKILAWA,43627,MTAVIRA,MAGWEGHANAA
SINGIDA,43,IKUNGI,436,MAKILAWA,43627,MTAVIRA,MPEMBU
SINGIDA,43,IKUNGI,436,MAKILAWA,43627,MTAVIRA,MAGWEGANA ‘B’
SINGIDA,43,IKUNGI,436,MAKILAWA,43627,MTAVIRA,MANYU
SINGIDA,43,IKUNGI,436,MAKILAWA,43627,MTAVIRA,KAZIZI
SINGIDA,43,IKUNGI,436,MAKILAWA,43627,MTEVA,KINYGHENGE
SINGIDA,43,IKUNGI,436,MAKILAWA,43627,MTEVA,KASELA
SINGIDA,43,IKUNGI,436,MAKILAWA,43627,MTEVA,SONGAMBELE
SINGIDA,43,IKUNGI,436,MAKIUNGU,43628,MAKIUNGU,MAKIUNGU
SINGIDA,43,IKUNGI,436,MAKIUNGU,43628,MAKIUNGU,MAWIYA
SINGIDA,43,IKUNGI,436,MAKIUNGU,43628,MAKIUNGU,MSANJA
SINGIDA,43,IKUNGI,436,MAKIUNGU,43628,UNYANG’ONGO,UNYANG’ONGO
SINGIDA,43,IKUNGI,436,MAKIUNGU,43628,UNYANG’ONGO,NGISIU
SINGIDA,43,IKUNGI,436,MAKIUNGU,43628,UNYANG’ONGO,UWANJA WA NDEGE
SINGIDA,43,IKUNGI,436,MAKIUNGU,43628,MINYINGA,MINYINGA
SINGIDA,43,IKUNGI,436,MAKIUNGU,43628,MINYINGA,MPETU
SINGIDA,43,IKUNGI,436,MAKIUNGU,43628,MINYINGA,MIEMBENI ‘A’
SINGIDA,43,IKUNGI,436,MAKIUNGU,43628,MINYINGA,SIMBI
SINGIDA,43,IKUNGI,436,MAKIUNGU,43628,MINYINGA,ITONGO
SINGIDA,43,IKUNGI,436,MAKIUNGU,43628,KIMBWI,UNYANG’ONGO
SINGIDA,43,IKUNGI,436,MAKIUNGU,43628,KIMBWI,WIJOE
SINGIDA,43,IKUNGI,436,MAKIUNGU,43628,KIMBWI,UTATURU
SINGIDA,43,IKUNGI,436,MAKIUNGU,43628,KIMBWI,KIMBWI
SINGIDA,43,IKUNGI,436,MAKIUNGU,43628,KIMBWI,MUYANJI
SINGIDA,43,IKUNGI,436,MAKIUNGU,43628,KIMBWI,BUHU
