REGION,POSTCODE,DISTRICT,POSTCODE,WARD,POSTCODE,STREET,PLACES
SONGWE,54,SONGWE,541,GUA,54101,GUA,GUA  A
SONGWE,54,SONGWE,541,GUA,54101,GUA,GUA   E
SONGWE,54,SONGWE,541,GUA,54101,GUA,GUA   F
SONGWE,54,SONGWE,541,GUA,54101,GUA,KATAVI   A
SONGWE,54,SONGWE,541,GUA,54101,GUA,KATAVI   B
SONGWE,54,SONGWE,541,GUA,54101,GUA,KATAVI   C
SONGWE,54,SONGWE,541,GUA,54101,GUA,KATAVI  D
SONGWE,54,SONGWE,541,GUA,54101,GUA,KAKOMA
SONGWE,54,SONGWE,541,GUA,54101,GUA,SONGAMBELE
SONGWE,54,SONGWE,541,GUA,54101,GUA,MANDA JUU.
SONGWE,54,SONGWE,541,GUA,54101,SOME,SOME   A
SONGWE,54,SONGWE,541,GUA,54101,SOME,SOME   B
SONGWE,54,SONGWE,541,GUA,54101,SOME,SOME   C
SONGWE,54,SONGWE,541,NGWALA,54102,NGWALA,NGWALA KATI  A
SONGWE,54,SONGWE,541,NGWALA,54102,NGWALA,NGWALA KATI  B
SONGWE,54,SONGWE,541,NGWALA,54102,NGWALA,KAMFICHENI
SONGWE,54,SONGWE,541,NGWALA,54102,NGWALA,MAJENGO
SONGWE,54,SONGWE,541,NGWALA,54102,NGWALA,AZIMIO
SONGWE,54,SONGWE,541,NGWALA,54102,NGWALA,NGWALA MAGHARIBI
SONGWE,54,SONGWE,541,NGWALA,54102,NGWALA,MADODOMYA
SONGWE,54,SONGWE,541,NGWALA,54102,ITIZIRO,KIKAMBA
SONGWE,54,SONGWE,541,NGWALA,54102,ITIZIRO,ITIZIRO
SONGWE,54,SONGWE,541,NGWALA,54102,ITIZIRO,KISERUKA
SONGWE,54,SONGWE,541,KAPALALA,54103,KAPALALA,KAPALALA A
SONGWE,54,SONGWE,541,KAPALALA,54103,KAPALALA,KAPALALA B
SONGWE,54,SONGWE,541,KAPALALA,54103,KAPALALA,KAPALALA C
SONGWE,54,SONGWE,541,KAPALALA,54103,KAPALALA,KININGA
SONGWE,54,SONGWE,541,KAPALALA,54103,KAPALALA,MTEKA
SONGWE,54,SONGWE,541,KAPALALA,54103,UDINDE,IBOMA
SONGWE,54,SONGWE,541,KAPALALA,54103,UDINDE,IPONGA
SONGWE,54,SONGWE,541,KAPALALA,54103,UDINDE,MKUMBILI
SONGWE,54,SONGWE,541,KAPALALA,54103,UDINDE,NYERERE
SONGWE,54,SONGWE,541,KAPALALA,54103,UDINDE,ULAYA
SONGWE,54,SONGWE,541,KAPALALA,54103,RUKWA,ITUMBI
SONGWE,54,SONGWE,541,KAPALALA,54103,RUKWA,IZOSHA
SONGWE,54,SONGWE,541,KAPALALA,54103,RUKWA,MBIZYA
SONGWE,54,SONGWE,541,MBANGALA,54104,MBANGALA,MBANGALA  A
SONGWE,54,SONGWE,541,MBANGALA,54104,MBANGALA,MBANGALA  B
SONGWE,54,SONGWE,541,MBANGALA,54104,MBANGALA,MGOMBA
SONGWE,54,SONGWE,541,MBANGALA,54104,MBANGALA,ICHESE
SONGWE,54,SONGWE,541,MBANGALA,54104,MALEZA,LUTUMBI  A
SONGWE,54,SONGWE,541,MBANGALA,54104,MALEZA,LUTUMBI  B
SONGWE,54,SONGWE,541,MBANGALA,54104,MALEZA,MALEZA JUU
SONGWE,54,SONGWE,541,MBANGALA,54104,MALEZA,MTOTO JUU
SONGWE,54,SONGWE,541,MBANGALA,54104,MALEZA,MADIZINI
SONGWE,54,SONGWE,541,MBANGALA,54104,MALEZA,KALANDA
SONGWE,54,SONGWE,541,MBANGALA,54104,MALEZA,SAZA FALLS
SONGWE,54,SONGWE,541,SAZA,54105,SAZA,SAZA KATI
SONGWE,54,SONGWE,541,SAZA,54105,SAZA,MAKAMBINI
SONGWE,54,SONGWE,541,SAZA,54105,SAZA,BWANA MZUNGU
SONGWE,54,SONGWE,541,SAZA,54105,SAZA,KIBAONI
SONGWE,54,SONGWE,541,SAZA,54105,SAZA,BWAWANI
SONGWE,54,SONGWE,541,SAZA,54105,SAZA,MIEMBENI
SONGWE,54,SONGWE,541,SAZA,54105,PATAMELA,MJINI
SONGWE,54,SONGWE,541,SAZA,54105,PATAMELA,MBUGANI
SONGWE,54,SONGWE,541,SAZA,54105,PATAMELA,MAWOWO
SONGWE,54,SONGWE,541,SAZA,54105,PATAMELA,SHULENI
SONGWE,54,SONGWE,541,MKWAJUNI,54106,MKWAJUNI,MKWAJUNI  A
SONGWE,54,SONGWE,541,MKWAJUNI,54106,MKWAJUNI,MKWAJUNI  B
SONGWE,54,SONGWE,541,MKWAJUNI,54106,MKWAJUNI,KAMFICHENI  A
SONGWE,54,SONGWE,541,MKWAJUNI,54106,MKWAJUNI,KAMFICHENI  B
SONGWE,54,SONGWE,541,MKWAJUNI,54106,MKWAJUNI,MNAZIMMOJA.
SONGWE,54,SONGWE,541,MKWAJUNI,54106,MAJENGO,MAJENGO
SONGWE,54,SONGWE,541,MKWAJUNI,54106,MAJENGO,MAGEREZA
SONGWE,54,SONGWE,541,MKWAJUNI,54106,MAJENGO,MBUGANI
SONGWE,54,SONGWE,541,MKWAJUNI,54106,MAJENGO,MORAVIAN
SONGWE,54,SONGWE,541,MKWAJUNI,54106,MAJENGO,KIMBOROKOTO
SONGWE,54,SONGWE,541,MKWAJUNI,54106,CHUDECO,CHUDECO
SONGWE,54,SONGWE,541,MKWAJUNI,54106,CHUDECO,OSTERBAY
SONGWE,54,SONGWE,541,MKWAJUNI,54106,CHUDECO,ITONTERA
SONGWE,54,SONGWE,541,MKWAJUNI,54106,CHUDECO,MAWENI
SONGWE,54,SONGWE,541,MKWAJUNI,54106,CHUDECO,MELERANI
SONGWE,54,SONGWE,541,MKWAJUNI,54106,KALOLENI,KALOLENI
SONGWE,54,SONGWE,541,MKWAJUNI,54106,KALOLENI,KIKUYU
SONGWE,54,SONGWE,541,MKWAJUNI,54106,KALOLENI,KALUNGU
SONGWE,54,SONGWE,541,MKWAJUNI,54106,KALOLENI,ILEPUKA
SONGWE,54,SONGWE,541,MWAMBANI,54107,MWAMBANI,LUTUMBI
SONGWE,54,SONGWE,541,MWAMBANI,54107,MWAMBANI,KALIMA
SONGWE,54,SONGWE,541,MWAMBANI,54107,MWAMBANI,KABONDE
SONGWE,54,SONGWE,541,MWAMBANI,54107,MWAMBANI,CHIZYA
SONGWE,54,SONGWE,541,MWAMBANI,54107,MWAMBANI,MAOMBWE
SONGWE,54,SONGWE,541,MWAMBANI,54107,MBALA,MBALA
SONGWE,54,SONGWE,541,MWAMBANI,54107,MBALA,MIEMBENI
SONGWE,54,SONGWE,541,MWAMBANI,54107,MBALA,MAPOROMOKO
SONGWE,54,SONGWE,541,MWAMBANI,54107,ISECHE,KIKONDO
SONGWE,54,SONGWE,541,MWAMBANI,54107,ISECHE,ISECHE  A
SONGWE,54,SONGWE,541,MWAMBANI,54107,ISECHE,ISECHE  B
SONGWE,54,SONGWE,541,MWAMBANI,54107,ISECHE,ISECHE  C
SONGWE,54,SONGWE,541,TOTOWE,54108,TOTOWE,TOTOWE KUSINI
SONGWE,54,SONGWE,541,TOTOWE,54108,TOTOWE,TOTOWE KATI
SONGWE,54,SONGWE,541,TOTOWE,54108,TOTOWE,HANDENI  A
SONGWE,54,SONGWE,541,TOTOWE,54108,TOTOWE,MBUYUNI
SONGWE,54,SONGWE,541,TOTOWE,54108,TOTOWE,CHEMICHEMI
SONGWE,54,SONGWE,541,TOTOWE,54108,TOTOWE,KAZUNDU
SONGWE,54,SONGWE,541,TOTOWE,54108,NAMAMBO,MWONGOZO
SONGWE,54,SONGWE,541,TOTOWE,54108,NAMAMBO,RUKWA
SONGWE,54,SONGWE,541,TOTOWE,54108,NAMAMBO,MIKOCHENI
SONGWE,54,SONGWE,541,TOTOWE,54108,NAMAMBO,HANDENI  B
SONGWE,54,SONGWE,541,TOTOWE,54108,NAMAMBO,MIEMBENI
SONGWE,54,SONGWE,541,MPONA,54109,MPONA,MPONA
SONGWE,54,SONGWE,541,MPONA,54109,MPONA,NAMALAMA
SONGWE,54,SONGWE,541,MPONA,54109,MPONA,MWAWADIMI  A
SONGWE,54,SONGWE,541,MPONA,54109,MPONA,MALANGALI
SONGWE,54,SONGWE,541,MPONA,54109,MPONA,MWAWADIMI  B.
SONGWE,54,SONGWE,541,MPONA,54109,IYOVYO,IYOVYO MASH.
SONGWE,54,SONGWE,541,MPONA,54109,IYOVYO,IYOVYO MAGH.
SONGWE,54,SONGWE,541,MPONA,54109,IYOVYO,KAZUNDU
SONGWE,54,SONGWE,541,MPONA,54109,IYOVYO,MWAWADIMI
SONGWE,54,SONGWE,541,MPONA,54109,IYOVYO,KAMBIPOTEA.
SONGWE,54,SONGWE,541,NAMKUKWE,54110,NAMKUKWE,NAMKUKWE  A
SONGWE,54,SONGWE,541,NAMKUKWE,54110,NAMKUKWE,NAMKUKWE  B
SONGWE,54,SONGWE,541,NAMKUKWE,54110,NAMKUKWE,NAMKUKWE  C
SONGWE,54,SONGWE,541,NAMKUKWE,54110,NAMKUKWE,MPANGALA
SONGWE,54,SONGWE,541,NAMKUKWE,54110,NAMKUKWE,KISALE
SONGWE,54,SONGWE,541,NAMKUKWE,54110,MUHEZA,MUHEZA  A
SONGWE,54,SONGWE,541,NAMKUKWE,54110,MUHEZA,MUHEZA  B
SONGWE,54,SONGWE,541,NAMKUKWE,54110,MUHEZA,NGUZI
SONGWE,54,SONGWE,541,MANDA,54111,ISANZU,UKOMBOZI
SONGWE,54,SONGWE,541,MANDA,54111,ISANZU,LANDANI
SONGWE,54,SONGWE,541,MANDA,54111,ISANZU,MWAMBANG'OMBE
SONGWE,54,SONGWE,541,MANDA,54111,ISANZU,KWIMBA
SONGWE,54,SONGWE,541,MANDA,54111,MANDA,MANDA A
SONGWE,54,SONGWE,541,MANDA,54111,MANDA,MANDA B
SONGWE,54,SONGWE,541,MANDA,54111,MANDA,MANDA C
SONGWE,54,SONGWE,541,MANDA,54111,MANDA,LUTUMBI
SONGWE,54,SONGWE,541,MANDA,54111,MANDA,KAMBIULIZA
SONGWE,54,SONGWE,541,MAGAMBA,54112,MAGAMBA,MAGAMBA
SONGWE,54,SONGWE,541,MAGAMBA,54112,MAGAMBA,NGAYANGWANDA
SONGWE,54,SONGWE,541,MAGAMBA,54112,MAGAMBA,MBALWE
SONGWE,54,SONGWE,541,MAGAMBA,54112,MAGAMBA,NKOMANO
SONGWE,54,SONGWE,541,MAGAMBA,54112,MAGAMBA,MTAKUJA
SONGWE,54,SONGWE,541,MAGAMBA,54112,KAMBARAGE,SOGA
SONGWE,54,SONGWE,541,MAGAMBA,54112,KAMBARAGE,ILEMBO
SONGWE,54,SONGWE,541,MAGAMBA,54112,HALYONGO,HALYONGO A
SONGWE,54,SONGWE,541,MAGAMBA,54112,HALYONGO,HALYONGO B
SONGWE,54,SONGWE,541,MAGAMBA,54112,HALYONGO,MILE
SONGWE,54,SONGWE,541,MAGAMBA,54112,HALYONGO,MAZINDE
SONGWE,54,SONGWE,541,MAGAMBA,54112,SONGAMBELE,MBUGANI
SONGWE,54,SONGWE,541,MAGAMBA,54112,SONGAMBELE,SHUJILA
SONGWE,54,SONGWE,541,MAGAMBA,54112,SONGAMBELE,LUMWAHA
SONGWE,54,SONGWE,541,GALULA,54113,GALULA,GALULA  A
SONGWE,54,SONGWE,541,GALULA,54113,GALULA,GALULA  B
SONGWE,54,SONGWE,541,GALULA,54113,GALULA,MUHIMBILI
SONGWE,54,SONGWE,541,GALULA,54113,GALULA,GALULA  C
SONGWE,54,SONGWE,541,GALULA,54113,GALULA,ILEMBO
SONGWE,54,SONGWE,541,GALULA,54113,ILASILO,ILASILO  A
SONGWE,54,SONGWE,541,GALULA,54113,ILASILO,ILASILO  B
SONGWE,54,SONGWE,541,GALULA,54113,ILASILO,LUMPAMBA
SONGWE,54,SONGWE,541,GALULA,54113,ILASILO,IWOMBWE
SONGWE,54,SONGWE,541,GALULA,54113,ITINDI,NAMAKUNGU
SONGWE,54,SONGWE,541,GALULA,54113,ITINDI,ITINDI KATI
SONGWE,54,SONGWE,541,GALULA,54113,ITINDI,MTAKUJA
SONGWE,54,SONGWE,541,GALULA,54113,ITINDI,IGUZYA
SONGWE,54,SONGWE,541,MBUYUNI,54114,MBUYUNI,MBUYUNI  A
SONGWE,54,SONGWE,541,MBUYUNI,54114,MBUYUNI,MBUYUNI  B
SONGWE,54,SONGWE,541,MBUYUNI,54114,MBUYUNI,MBUYUNI  C
SONGWE,54,SONGWE,541,MBUYUNI,54114,MBUYUNI,MBUYUNI  D
SONGWE,54,SONGWE,541,MBUYUNI,54114,NDANGA,NDANGA  A
SONGWE,54,SONGWE,541,MBUYUNI,54114,NDANGA,NDANGA  B
SONGWE,54,SONGWE,541,MBUYUNI,54114,NDANGA,MBUYUNI  E
SONGWE,54,SONGWE,541,MBUYUNI,54114,MWAGALA,MWAGALA  A
SONGWE,54,SONGWE,541,MBUYUNI,54114,MWAGALA,MWAGALA  B
SONGWE,54,SONGWE,541,MBUYUNI,54114,MWAGALA,MWAGALA  C
SONGWE,54,SONGWE,541,MBUYUNI,54114,MWAGALA,MWAGALA  D
SONGWE,54,SONGWE,541,CHANG'OMBE,54115,CHANG’OMBE,ISALE
SONGWE,54,SONGWE,541,CHANG'OMBE,54115,CHANG’OMBE,MWAGALA
SONGWE,54,SONGWE,541,CHANG'OMBE,54115,CHANG’OMBE,MTAKUJA
SONGWE,54,SONGWE,541,CHANG'OMBE,54115,CHANG’OMBE,MAGUNGA  A
SONGWE,54,SONGWE,541,CHANG'OMBE,54115,CHANG’OMBE,MAGUNGA  B
SONGWE,54,SONGWE,541,CHANG'OMBE,54115,IFUKO,MAZIZINI
SONGWE,54,SONGWE,541,CHANG'OMBE,54115,IFUKO,MAZIZINI  B
SONGWE,54,SONGWE,541,CHANG'OMBE,54115,IFUKO,MAPOGOLO
SONGWE,54,SONGWE,541,CHANG'OMBE,54115,IFUKO,MTONI
SONGWE,54,SONGWE,541,CHANG'OMBE,54115,IFUKO,MIEMBENI
SONGWE,54,SONGWE,541,CHANG'OMBE,54115,IFUKO,SWELA
SONGWE,54,SONGWE,541,CHANG'OMBE,54115,IFUKO,MABATINI
SONGWE,54,SONGWE,541,CHANG'OMBE,54115,WANZANI,MKOMA
SONGWE,54,SONGWE,541,CHANG'OMBE,54115,WANZANI,USANGU
SONGWE,54,SONGWE,541,CHANG'OMBE,54115,WANZANI,WAFUGAJI
SONGWE,54,SONGWE,541,KANGA,54116,KANGA,KANGA
SONGWE,54,SONGWE,541,KANGA,54116,KANGA,MAGADINI
SONGWE,54,SONGWE,541,KANGA,54116,KANGA,MAZIZINI
SONGWE,54,SONGWE,541,KANGA,54116,KANGA,MIKOCHENI
SONGWE,54,SONGWE,541,KANGA,54116,KANGA,MAJENGO
SONGWE,54,SONGWE,541,KANGA,54116,KANGA,IPALA
SONGWE,54,SONGWE,541,KANGA,54116,KANGA,SAWI
SONGWE,54,SONGWE,541,KANGA,54116,TETE,BWAWANI
SONGWE,54,SONGWE,541,KANGA,54116,TETE,MAJIMOTO
SONGWE,54,SONGWE,541,KANGA,54116,TETE,ILANGA
SONGWE,54,SONGWE,541,KANGA,54116,TETE,TETE KATI
SONGWE,54,SONGWE,541,KANGA,54116,TETE,NAHAGONDO
SONGWE,54,SONGWE,541,KANGA,54116,TETE,CHIKUWA
SONGWE,54,SONGWE,541,KANGA,54116,TETE,MAGADINI
SONGWE,54,SONGWE,541,IFWENKENYA,54117,IFWENKENYA,BWAWANI
SONGWE,54,SONGWE,541,IFWENKENYA,54117,IFWENKENYA,TANKINI
SONGWE,54,SONGWE,541,IFWENKENYA,54117,IFWENKENYA,MLIMANI
SONGWE,54,SONGWE,541,IFWENKENYA,54117,IFWENKENYA,MADIZINI
SONGWE,54,SONGWE,541,IFWENKENYA,54117,IFWENKENYA,MIEMBENI
SONGWE,54,SONGWE,541,IFWENKENYA,54117,IFWENKENYA,IPWIZI
SONGWE,54,SONGWE,541,IFWENKENYA,54117,IFWENKENYA,NZOHA
SONGWE,54,SONGWE,541,IFWENKENYA,54117,IFWENKENYA,IWAMBI.
SONGWE,54,SONGWE,541,IFWENKENYA,54117,ILEYA,ILEYA
SONGWE,54,SONGWE,541,IFWENKENYA,54117,ILEYA,ILEMBO
SONGWE,54,SONGWE,541,IFWENKENYA,54117,ILEYA,KIKAVU
SONGWE,54,SONGWE,541,IFWENKENYA,54117,ILEYA,MULU.
SONGWE,54,MBOZI,542,VWAWA,54201,VWAWA,VWAWA KATI
SONGWE,54,MBOZI,542,VWAWA,54201,VWAWA,SOKONI
SONGWE,54,MBOZI,542,VWAWA,54201,VWAWA,MWENGE
SONGWE,54,MBOZI,542,VWAWA,54201,VWAWA,VWAWA SEKONDARI
SONGWE,54,MBOZI,542,VWAWA,54201,VWAWA,OLD VWAWA
SONGWE,54,MBOZI,542,VWAWA,54201,VWAWA,MAKATANI
SONGWE,54,MBOZI,542,VWAWA,54201,VWAWA,SHIWANDA
SONGWE,54,MBOZI,542,VWAWA,54201,VWAWA,SHIGODE A
SONGWE,54,MBOZI,542,VWAWA,54201,VWAWA,SHIGODE B
SONGWE,54,MBOZI,542,VWAWA,54201,VWAWA,RELINI
SONGWE,54,MBOZI,542,VWAWA,54201,VWAWA,NSENYA
SONGWE,54,MBOZI,542,VWAWA,54201,VWAWA,NAMLEYA
SONGWE,54,MBOZI,542,VWAWA,54201,VWAWA,MAJENGO
SONGWE,54,MBOZI,542,VWAWA,54201,VWAWA,HALOLI
SONGWE,54,MBOZI,542,VWAWA,54201,VWAWA,"MANTENGU ""A"""
SONGWE,54,MBOZI,542,VWAWA,54201,VWAWA,"MANTENGU ""B"""
SONGWE,54,MBOZI,542,VWAWA,54201,VWAWA,UKINGANI
SONGWE,54,MBOZI,542,VWAWA,54201,VWAWA,"KITOVUNI""A"""
SONGWE,54,MBOZI,542,VWAWA,54201,VWAWA,"KITOVUNI ""B"""
SONGWE,54,MBOZI,542,MLOWO,54202,MLOWO,MLOWO
SONGWE,54,MBOZI,542,MLOWO,54202,MLOWO,SHULE
SONGWE,54,MBOZI,542,MLOWO,54202,MLOWO,MABATINI
SONGWE,54,MBOZI,542,MLOWO,54202,MLOWO,MAJENGO
SONGWE,54,MBOZI,542,MLOWO,54202,MLOWO,TAZARA
SONGWE,54,MBOZI,542,MLOWO,54202,MLOWO,MTAKUJA
SONGWE,54,MBOZI,542,MLOWO,54202,MLOWO,KIWANDANI
SONGWE,54,MBOZI,542,MLOWO,54202,MLOWO,ISINIZYA
SONGWE,54,MBOZI,542,MLOWO,54202,MLOWO,MIGOMBANI
SONGWE,54,MBOZI,542,MLOWO,54202,MLOWO,MAKOMBONI
SONGWE,54,MBOZI,542,MLOWO,54202,MLOWO,NSELEWA
SONGWE,54,MBOZI,542,MLOWO,54202,MLOWO,ILEMBO
SONGWE,54,MBOZI,542,MLOWO,54202,MLOWO,NAMBALA
SONGWE,54,MBOZI,542,MLOWO,54202,MLOWO,IZUMU
SONGWE,54,MBOZI,542,MLOWO,54202,MLOWO,MZUNGUKO
SONGWE,54,MBOZI,542,MLOWO,54202,MLOWO,ITENDE
SONGWE,54,MBOZI,542,MLOWO,54202,MLOWO,IGAWANYA
SONGWE,54,MBOZI,542,MLOWO,54202,MLOWO,SEGEREA
SONGWE,54,MBOZI,542,MLOWO,54202,MLOWO,MALENJE
SONGWE,54,MBOZI,542,MLOWO,54202,MLOWO,KALASHA
SONGWE,54,MBOZI,542,MLOWO,54202,MLOWO,IPANGA
SONGWE,54,MBOZI,542,MLOWO,54202,MLOWO,MABATINI
SONGWE,54,MBOZI,542,MLOWO,54202,MLOWO,IZYILA
SONGWE,54,MBOZI,542,MLOWO,54202,MLOWO,SANGANOTI
SONGWE,54,MBOZI,542,IGAMBA,54203,IGAMBA,MSUTO
SONGWE,54,MBOZI,542,IGAMBA,54203,IGAMBA,MZUMANZI
SONGWE,54,MBOZI,542,IGAMBA,54203,IGAMBA,CHAMANI
SONGWE,54,MBOZI,542,IGAMBA,54203,IGAMBA,IGAMBA KATI
SONGWE,54,MBOZI,542,IGAMBA,54203,IGAMBA,ISENTI
SONGWE,54,MBOZI,542,IGAMBA,54203,MSANYILA,NANTEGO
SONGWE,54,MBOZI,542,IGAMBA,54203,MSANYILA,ITINKINYA
SONGWE,54,MBOZI,542,IGAMBA,54203,MSANYILA,KAYEWA
SONGWE,54,MBOZI,542,IGAMBA,54203,MSANYILA,NDOLEZI
SONGWE,54,MBOZI,542,IGAMBA,54203,MWANDA,MWANDA
SONGWE,54,MBOZI,542,IGAMBA,54203,MWANDA,IVULULU
SONGWE,54,MBOZI,542,IGAMBA,54203,MWANDA,IGONDA
SONGWE,54,MBOZI,542,IGAMBA,54203,MBOZI,MATULA A
SONGWE,54,MBOZI,542,IGAMBA,54203,MBOZI,MATUKA B
SONGWE,54,MBOZI,542,IGAMBA,54203,MBOZI,MBOZI KATI
SONGWE,54,MBOZI,542,IGAMBA,54203,MBOZI,IDIMI A
SONGWE,54,MBOZI,542,IGAMBA,54203,MBUGA,MBUGA A
SONGWE,54,MBOZI,542,IGAMBA,54203,MBUGA,MBUGA B
SONGWE,54,MBOZI,542,IGAMBA,54203,MBUGA,IDIMI B
SONGWE,54,MBOZI,542,IGAMBA,54203,ZELEZETA,WASA
SONGWE,54,MBOZI,542,IGAMBA,54203,ZELEZETA,SHULENI
SONGWE,54,MBOZI,542,IGAMBA,54203,ZELEZETA,ISYALAMAGAZI
SONGWE,54,MBOZI,542,IGAMBA,54203,ZELEZETA,RUTINDI
SONGWE,54,MBOZI,542,IGAMBA,54203,ITEPULA,ITEPULA KATI
SONGWE,54,MBOZI,542,IGAMBA,54203,ITEPULA,MWENZO
SONGWE,54,MBOZI,542,IGAMBA,54203,ITEPULA,SHAJI
SONGWE,54,MBOZI,542,IGAMBA,54203,ITEPULA,ITEWE
SONGWE,54,MBOZI,542,IGAMBA,54203,ITEPULA,MWANDA
SONGWE,54,MBOZI,542,IGAMBA,54203,ITEPULA,MPANDA MAINI
SONGWE,54,MBOZI,542,MSIA,54204,MSIA,MSIA
SONGWE,54,MBOZI,542,MSIA,54204,MSIA,HANKALAGWA
SONGWE,54,MBOZI,542,MSIA,54204,MSIA,MGOMBEZI
SONGWE,54,MBOZI,542,MSIA,54204,MSIA,IYUNGA
SONGWE,54,MBOZI,542,MSIA,54204,MSIA,IBANDAWE
SONGWE,54,MBOZI,542,MSIA,54204,MSIA,UZINJE
SONGWE,54,MBOZI,542,MSIA,54204,IBEMBWA,IBEMBWA
SONGWE,54,MBOZI,542,MSIA,54204,IBEMBWA,MAWANGA
SONGWE,54,MBOZI,542,MSIA,54204,IBEMBWA,MPALAMAWE
SONGWE,54,MBOZI,542,MSIA,54204,IBEMBWA,IGUNDA
SONGWE,54,MBOZI,542,MSIA,54204,IGANDUKA,IGANDUKA KATI
SONGWE,54,MBOZI,542,MSIA,54204,IGANDUKA,BAGAMOYO
SONGWE,54,MBOZI,542,MSIA,54204,IGANDUKA,MSUMBI
SONGWE,54,MBOZI,542,MSIA,54204,IGANDUKA,MAGEGE
SONGWE,54,MBOZI,542,MSIA,54204,WELU I,WELU
SONGWE,54,MBOZI,542,MSIA,54204,WELU I,NKANA
SONGWE,54,MBOZI,542,MSIA,54204,WELU I,CHILONGO
SONGWE,54,MBOZI,542,IHANDA,54205,IHANDA,IHANDA
SONGWE,54,MBOZI,542,IHANDA,54205,IHANDA,LWIBA
SONGWE,54,MBOZI,542,IHANDA,54205,IHANDA,MLIMANI
SONGWE,54,MBOZI,542,IHANDA,54205,IHANDA,MTAKUJA
SONGWE,54,MBOZI,542,IHANDA,54205,IHANDA,MPANDE
SONGWE,54,MBOZI,542,IHANDA,54205,MAJENGO,NGUVU KAZI
SONGWE,54,MBOZI,542,IHANDA,54205,MAJENGO,MAENDELEO
SONGWE,54,MBOZI,542,IHANDA,54205,MAJENGO,MPAKANI
SONGWE,54,MBOZI,542,IHANDA,54205,MAJENGO,UPENDO
SONGWE,54,MBOZI,542,IHANDA,54205,MAJENGO,IZYIKA
SONGWE,54,MBOZI,542,IHANDA,54205,SUMBALWELA,MTAKUJA
SONGWE,54,MBOZI,542,IHANDA,54205,SUMBALWELA,SAMBEMBE
SONGWE,54,MBOZI,542,IHANDA,54205,SUMBALWELA,IZYIKA
SONGWE,54,MBOZI,542,IHANDA,54205,SUMBALWELA,NG'AMBA
SONGWE,54,MBOZI,542,IHANDA,54205,SUMBALWELA,MAJI MOTO
SONGWE,54,MBOZI,542,IHANDA,54205,SUMBALWELA,SAWEYA KATI
SONGWE,54,MBOZI,542,IHANDA,54205,HANSEKETWA,AZIMIO
SONGWE,54,MBOZI,542,IHANDA,54205,HANSEKETWA,SONGA MBELE
SONGWE,54,MBOZI,542,IHANDA,54205,HANSEKETWA,KAYAMBE
SONGWE,54,MBOZI,542,IHANDA,54205,HANSEKETWA,IHOZYA
SONGWE,54,MBOZI,542,IHANDA,54205,HANSEKETWA,MWANDAJE
SONGWE,54,MBOZI,542,IHANDA,54205,HANSEKETWA,MAJENGO
SONGWE,54,MBOZI,542,IHANDA,54205,HANSEKETWA,HANSEKETWA KATI
SONGWE,54,MBOZI,542,IHANDA,54205,MALONJI,MALONJI
SONGWE,54,MBOZI,542,IHANDA,54205,MALONJI,NG'AMBA
SONGWE,54,MBOZI,542,IHANDA,54205,MALONJI,MANG'ANZO
SONGWE,54,MBOZI,542,IHANDA,54205,MALONJI,LENGO
SONGWE,54,MBOZI,542,IHANDA,54205,NANYUNYI,NANYUNYI
SONGWE,54,MBOZI,542,IHANDA,54205,NANYUNYI,MLAMBWIZI
SONGWE,54,MBOZI,542,IHANDA,54205,NANYUNYI,MLEMELA
SONGWE,54,MBOZI,542,IHANDA,54205,NANYUNYI,NAMBWAJI
SONGWE,54,MBOZI,542,IHANDA,54205,NANYUNYI,KIBAONI
SONGWE,54,MBOZI,542,IHANDA,54205,SAKAMWELA,LUNGWA
SONGWE,54,MBOZI,542,IHANDA,54205,SAKAMWELA,ISONGOLE
SONGWE,54,MBOZI,542,IHANDA,54205,SAKAMWELA,CHIYANGA
SONGWE,54,MBOZI,542,IHANDA,54205,SAKAMWELA,ICHENJEZYA
SONGWE,54,MBOZI,542,IHANDA,54205,SAKAMWELA,SONGANBELE A
SONGWE,54,MBOZI,542,IHANDA,54205,SAKAMWELA,MABATINI
SONGWE,54,MBOZI,542,IHANDA,54205,SAKAMWELA,SONGAMBELE B
SONGWE,54,MBOZI,542,IHANDA,54205,SHILANGA,SHILANGA
SONGWE,54,MBOZI,542,IHANDA,54205,SHILANGA,NTAZU
SONGWE,54,MBOZI,542,IHANDA,54205,SHILANGA,NAMALEMA
SONGWE,54,MBOZI,542,IHANDA,54205,SHILANGA,KAWE
SONGWE,54,MBOZI,542,IHANDA,54205,SHILANGA,SUPU
SONGWE,54,MBOZI,542,ISANDULA,54206,CHIMBUYA,MAZINGA
SONGWE,54,MBOZI,542,ISANDULA,54206,CHIMBUYA,MLAMBWIZI
SONGWE,54,MBOZI,542,ISANDULA,54206,CHIMBUYA,CHIMBUYA
SONGWE,54,MBOZI,542,ISANDULA,54206,CHIMBUYA,ICHENJEZYA
SONGWE,54,MBOZI,542,ISANDULA,54206,CHIMBUYA,IBOBI
SONGWE,54,MBOZI,542,ISANDULA,54206,LUDEWA,MAPOROMOKO
SONGWE,54,MBOZI,542,ISANDULA,54206,LUDEWA,CHUNYA
SONGWE,54,MBOZI,542,ISANDULA,54206,LUDEWA,IKINGA
SONGWE,54,MBOZI,542,ISANDULA,54206,LUDEWA,MTAKUJA
SONGWE,54,MBOZI,542,ISANDULA,54206,UKWILE,MWEMBE
SONGWE,54,MBOZI,542,ISANDULA,54206,UKWILE,UKWILE
SONGWE,54,MBOZI,542,ISANDULA,54206,UKWILE,SONGAMBELE
SONGWE,54,MBOZI,542,ISANDULA,54206,UKWILE,MWANDAJE
SONGWE,54,MBOZI,542,ISANDULA,54206,CHIZUMBI,MOVA
SONGWE,54,MBOZI,542,ISANDULA,54206,CHIZUMBI,IYALAWE
SONGWE,54,MBOZI,542,ISANDULA,54206,CHIZUMBI,IBABA
SONGWE,54,MBOZI,542,ISANDULA,54206,MPONELA,SONGAMBELE
SONGWE,54,MBOZI,542,ISANDULA,54206,MPONELA,MBUGANI
SONGWE,54,MBOZI,542,ISANDULA,54206,MPONELA,MABATINI
SONGWE,54,MBOZI,542,ISANDULA,54206,MPONELA,NAMASANGU
SONGWE,54,MBOZI,542,NYIMBILI,54207,NYIMBILI,NYIMBILI KATI
SONGWE,54,MBOZI,542,NYIMBILI,54207,NYIMBILI,ILENGO
SONGWE,54,MBOZI,542,NYIMBILI,54207,NYIMBILI,MABULA
SONGWE,54,MBOZI,542,NYIMBILI,54207,NYIMBILI,MLOWO
SONGWE,54,MBOZI,542,NYIMBILI,54207,NYIMBILI,SHIDUNDA
SONGWE,54,MBOZI,542,NYIMBILI,54207,MPANDA,MPANDA KATI
SONGWE,54,MBOZI,542,NYIMBILI,54207,MPANDA,ISEWE
SONGWE,54,MBOZI,542,NYIMBILI,54207,MPANDA,SHITITI
SONGWE,54,MBOZI,542,NYIMBILI,54207,MPANDA,NZOVU
SONGWE,54,MBOZI,542,NYIMBILI,54207,MPANDA,NYANYI
SONGWE,54,MBOZI,542,NYIMBILI,54207,MASANGULA,MSANGULA KATI
SONGWE,54,MBOZI,542,NYIMBILI,54207,MASANGULA,SHINDUSWA
SONGWE,54,MBOZI,542,NYIMBILI,54207,MASANGULA,MAKWELA
SONGWE,54,MBOZI,542,NYIMBILI,54207,MASANGULA,NALAWA
SONGWE,54,MBOZI,542,NYIMBILI,54207,MASANGULA,UDINDE
SONGWE,54,MBOZI,542,NYIMBILI,54207,HANTESYA,HANTESYA KATI
SONGWE,54,MBOZI,542,NYIMBILI,54207,HANTESYA,IYUMBA
SONGWE,54,MBOZI,542,NYIMBILI,54207,HANTESYA,MAKWEMBA
SONGWE,54,MBOZI,542,NYIMBILI,54207,HANTESYA,SHISI
SONGWE,54,MBOZI,542,HALUNGU,54208,HALUNGU,HALUNGU MJINI
SONGWE,54,MBOZI,542,HALUNGU,54208,HALUNGU,NZIJE A
SONGWE,54,MBOZI,542,HALUNGU,54208,HALUNGU,NZIJE B
SONGWE,54,MBOZI,542,HALUNGU,54208,HALUNGU,MAKAMBINI
SONGWE,54,MBOZI,542,HALUNGU,54208,HALAMBO,MBWIGA
SONGWE,54,MBOZI,542,HALUNGU,54208,HALAMBO,MPALWA
SONGWE,54,MBOZI,542,HALUNGU,54208,HALAMBO,HANGAMBA
SONGWE,54,MBOZI,542,HALUNGU,54208,HALAMBO,MAWANGA
SONGWE,54,MBOZI,542,HALUNGU,54208,HALAMBO,NUMBWE
SONGWE,54,MBOZI,542,HALUNGU,54208,HALAMBO,MWANYA
SONGWE,54,MBOZI,542,HALUNGU,54208,HAMPANGALA,MALONGOTI
SONGWE,54,MBOZI,542,HALUNGU,54208,HAMPANGALA,NAMATENDA
SONGWE,54,MBOZI,542,HALUNGU,54208,HAMPANGALA,MSAMVU
SONGWE,54,MBOZI,542,HALUNGU,54208,HAMPANGALA,IHOMA
SONGWE,54,MBOZI,542,HALUNGU,54208,HAMPANGALA,ISINIZYA
SONGWE,54,MBOZI,542,HALUNGU,54208,HAMPANGALA,ILONGA
SONGWE,54,MBOZI,542,HALUNGU,54208,HAMPANGALA,YOWELA
SONGWE,54,MBOZI,542,HALUNGU,54208,LWATI,BAGAMOYO
SONGWE,54,MBOZI,542,HALUNGU,54208,LWATI,SHIKWALE
SONGWE,54,MBOZI,542,HALUNGU,54208,LWATI,LWATI KATI
SONGWE,54,MBOZI,542,HALUNGU,54208,LWATI,IVULULU
SONGWE,54,MBOZI,542,HALUNGU,54208,LWATI,MANDENGA
SONGWE,54,MBOZI,542,HALUNGU,54208,SHASYA,NACHILESYA
SONGWE,54,MBOZI,542,HALUNGU,54208,SHASYA,ITAGO
SONGWE,54,MBOZI,542,HALUNGU,54208,SHASYA,IBUCHILA
SONGWE,54,MBOZI,542,HALUNGU,54208,SHASYA,MANG'ANZO
SONGWE,54,MBOZI,542,HALUNGU,54208,SHASYA,SHASYA KATI
SONGWE,54,MBOZI,542,HALUNGU,54208,SHASYA,NAMKWENDE
SONGWE,54,MBOZI,542,HALUNGU,54208,SASENGA,SASENGA
SONGWE,54,MBOZI,542,HALUNGU,54208,SASENGA,ILANGALI
SONGWE,54,MBOZI,542,HALUNGU,54208,SASENGA,KALISHI
SONGWE,54,MBOZI,542,MLANGALI,54209,MLANGALI,MLANGALI
SONGWE,54,MBOZI,542,MLANGALI,54209,MLANGALI,UNDALI
SONGWE,54,MBOZI,542,MLANGALI,54209,MLANGALI,UVIMBIZYA
SONGWE,54,MBOZI,542,MLANGALI,54209,MLANGALI,UNYALA
SONGWE,54,MBOZI,542,MLANGALI,54209,MLANGALI,MAHENJE
SONGWE,54,MBOZI,542,MLANGALI,54209,NDOLEZI,NDOLEZI A
SONGWE,54,MBOZI,542,MLANGALI,54209,NDOLEZI,NDOLEZI B
SONGWE,54,MBOZI,542,MLANGALI,54209,NDOLEZI,SAGULE
SONGWE,54,MBOZI,542,MLANGALI,54209,NDOLEZI,SIPUKA
SONGWE,54,MBOZI,542,MLANGALI,54209,NDOLEZI,MTAKUJA
SONGWE,54,MBOZI,542,MLANGALI,54209,NDOLEZI,ISELA
SONGWE,54,MBOZI,542,MLANGALI,54209,NDOLEZI,IPOLA
SONGWE,54,MBOZI,542,MLANGALI,54209,MBEWE,IYOMBO
SONGWE,54,MBOZI,542,MLANGALI,54209,MBEWE,ILULA
SONGWE,54,MBOZI,542,MLANGALI,54209,MBEWE,INTESYA
SONGWE,54,MBOZI,542,MLANGALI,54209,MBEWE,IDUVULA
SONGWE,54,MBOZI,542,MLANGALI,54209,MBEWE,MPANGALA
SONGWE,54,MBOZI,542,MLANGALI,54209,LUKULULU,LUKULULU
SONGWE,54,MBOZI,542,MLANGALI,54209,LUKULULU,ITEMBA
SONGWE,54,MBOZI,542,MLANGALI,54209,LUKULULU,SHAMWA
SONGWE,54,MBOZI,542,MLANGALI,54209,LUKULULU,MWANDAJE
SONGWE,54,MBOZI,542,MLANGALI,54209,LUKULULU,ITAWA
SONGWE,54,MBOZI,542,MLANGALI,54209,LUKULULU,VILULUTA
SONGWE,54,MBOZI,542,MLANGALI,54209,SHAJI,SHAJI
SONGWE,54,MBOZI,542,MLANGALI,54209,SHAJI,MASOKO
SONGWE,54,MBOZI,542,MLANGALI,54209,SHAJI,HAWIGA
SONGWE,54,MBOZI,542,MLANGALI,54209,SHAJI,DOGO
SONGWE,54,MBOZI,542,MLANGALI,54209,SHAJI,UTEMBELE
SONGWE,54,MBOZI,542,MLANGALI,54209,SHAJI,SEKEWE
SONGWE,54,MBOZI,542,MLANGALI,54209,SHOMOLA,SHOMOLA
SONGWE,54,MBOZI,542,MLANGALI,54209,SHOMOLA,NSENGA
SONGWE,54,MBOZI,542,MLANGALI,54209,SHOMOLA,IBOYO
SONGWE,54,MBOZI,542,IYULA,54210,IYULA,IYULA A
SONGWE,54,MBOZI,542,IYULA,54210,IYULA,CHAWAMA
SONGWE,54,MBOZI,542,IYULA,54210,IYULA,ILEYA
SONGWE,54,MBOZI,542,IYULA,54210,IYULA,NANYUKI
SONGWE,54,MBOZI,542,IYULA,54210,HATETE,HATETE
SONGWE,54,MBOZI,542,IYULA,54210,HATETE,MKULA
SONGWE,54,MBOZI,542,IYULA,54210,HATETE,IKUKA
SONGWE,54,MBOZI,542,IYULA,54210,HATETE,HASALE
SONGWE,54,MBOZI,542,IYULA,54210,HATETE,SANTANGU
SONGWE,54,MBOZI,542,IYULA,54210,IYULA B,JOSHO
SONGWE,54,MBOZI,542,IYULA,54210,IYULA B,FOREST
SONGWE,54,MBOZI,542,IYULA,54210,IYULA B,ITUMBA
SONGWE,54,MBOZI,542,IYULA,54210,IYULA B,MTAKUJA
SONGWE,54,MBOZI,542,IYULA,54210,IYULA B,MAENDELEO
SONGWE,54,MBOZI,542,IYULA,54210,IPYANA,MAKAO MAKUU
SONGWE,54,MBOZI,542,IYULA,54210,IPYANA,SADAMU
SONGWE,54,MBOZI,542,IYULA,54210,IPYANA,MAJIMOTO
SONGWE,54,MBOZI,542,IYULA,54210,IPYANA,NYEMBE
SONGWE,54,MBOZI,542,IYULA,54210,IPYANA,NSANYA
SONGWE,54,MBOZI,542,IYULA,54210,IGALE,UNYENYEMBE
SONGWE,54,MBOZI,542,IYULA,54210,IGALE,MSIA
SONGWE,54,MBOZI,542,IYULA,54210,IGALE,SHILUNGU
SONGWE,54,MBOZI,542,IYULA,54210,IGALE,LALASIMBA
SONGWE,54,MBOZI,542,IYULA,54210,IGALE,NSWIGA
SONGWE,54,MBOZI,542,IYULA,54210,IGALE,IZIWILA
SONGWE,54,MBOZI,542,MYOVIZI,54211,MAHENJE,HASALE
SONGWE,54,MBOZI,542,MYOVIZI,54211,MAHENJE,SHAMBWE
SONGWE,54,MBOZI,542,MYOVIZI,54211,MAHENJE,SELE
SONGWE,54,MBOZI,542,MYOVIZI,54211,MAHENJE,NJIA PANDA
SONGWE,54,MBOZI,542,MYOVIZI,54211,MAHENJE,ILONGA
SONGWE,54,MBOZI,542,MYOVIZI,54211,ICHESA,ICHESA KATI
SONGWE,54,MBOZI,542,MYOVIZI,54211,ICHESA,HATELELE
SONGWE,54,MBOZI,542,MYOVIZI,54211,ICHESA,UPENDO
SONGWE,54,MBOZI,542,MYOVIZI,54211,ICHESA,MAPOROMOKO
SONGWE,54,MBOZI,542,MYOVIZI,54211,ICHESA,BELU
SONGWE,54,MBOZI,542,MYOVIZI,54211,ICHESA,NANSYANI
SONGWE,54,MBOZI,542,MYOVIZI,54211,MYOVIZI,MYOVIZI KATI
SONGWE,54,MBOZI,542,MYOVIZI,54211,MYOVIZI,MWONGOZO
SONGWE,54,MBOZI,542,MYOVIZI,54211,MYOVIZI,AZIMIO
SONGWE,54,MBOZI,542,MYOVIZI,54211,MYOVIZI,ITEKA
SONGWE,54,MBOZI,542,MYOVIZI,54211,MBULU,MBULU KATI
SONGWE,54,MBOZI,542,MYOVIZI,54211,MBULU,IYALAWE
SONGWE,54,MBOZI,542,MYOVIZI,54211,MBULU,ILINDI
SONGWE,54,MBOZI,542,MYOVIZI,54211,MBULU,ISONGOLE
SONGWE,54,MBOZI,542,MYOVIZI,54211,MBULU,HASALE
SONGWE,54,MBOZI,542,MYOVIZI,54211,MBULU,ILANGALI
SONGWE,54,MBOZI,542,MYOVIZI,54211,IGUNDA,GHALANI
SONGWE,54,MBOZI,542,MYOVIZI,54211,IGUNDA,MJI MWEMA
SONGWE,54,MBOZI,542,MYOVIZI,54211,IGUNDA,NAKUNGURU
SONGWE,54,MBOZI,542,MYOVIZI,54211,IGUNDA,MIANZINI
SONGWE,54,MBOZI,542,MYOVIZI,54211,IGUNDA,NSEKEWE
SONGWE,54,MBOZI,542,MYOVIZI,54211,IVUGULA,SHOGO KATI
SONGWE,54,MBOZI,542,MYOVIZI,54211,IVUGULA,MPEMBE
SONGWE,54,MBOZI,542,MYOVIZI,54211,IVUGULA,HATETE
SONGWE,54,MBOZI,542,MYOVIZI,54211,IVUGULA,MWANDAJE
SONGWE,54,MBOZI,542,MYOVIZI,54211,IVUGULA,IVUGULA JUU
SONGWE,54,MBOZI,542,MYOVIZI,54211,IVUGULA,HALINGA
SONGWE,54,MBOZI,542,RUANDA,54212,LUMBILA,LUMBILA KATI
SONGWE,54,MBOZI,542,RUANDA,54212,LUMBILA,LUDADULA
SONGWE,54,MBOZI,542,RUANDA,54212,LUMBILA,IVWANGWA
SONGWE,54,MBOZI,542,RUANDA,54212,LUMBILA,LUWEMBA
SONGWE,54,MBOZI,542,RUANDA,54212,LUMBILA,NKAHATU
SONGWE,54,MBOZI,542,RUANDA,54212,LUMBILA,ISENTE
SONGWE,54,MBOZI,542,RUANDA,54212,WELU II,WELU KATI
SONGWE,54,MBOZI,542,RUANDA,54212,WELU II,IFINGANO
SONGWE,54,MBOZI,542,RUANDA,54212,WELU II,LUGONYO
SONGWE,54,MBOZI,542,RUANDA,54212,WELU II,IWAWA
SONGWE,54,MBOZI,542,RUANDA,54212,IHOWA,ITEWE
SONGWE,54,MBOZI,542,RUANDA,54212,IHOWA,NJIA PANDA
SONGWE,54,MBOZI,542,RUANDA,54212,IHOWA,SHONDA
SONGWE,54,MBOZI,542,RUANDA,54212,IHOWA,KILABUNI KATI
SONGWE,54,MBOZI,542,RUANDA,54212,IHOWA,SHULENI
SONGWE,54,MBOZI,542,RUANDA,54212,IHOWA,IYANGA
SONGWE,54,MBOZI,542,RUANDA,54212,IHOWA,SHILANGA
SONGWE,54,MBOZI,542,RUANDA,54212,IDIBILA,MAJENGO
SONGWE,54,MBOZI,542,RUANDA,54212,IDIBILA,MABUBA
SONGWE,54,MBOZI,542,RUANDA,54212,IDIBILA,NAMLEA
SONGWE,54,MBOZI,542,RUANDA,54212,IDIBILA,NASHUNGA
SONGWE,54,MBOZI,542,RUANDA,54212,IDIBILA,IVUGULA
SONGWE,54,MBOZI,542,ITAKA,54213,INSANI,IZIMBWE
SONGWE,54,MBOZI,542,ITAKA,54213,INSANI,MCHESE
SONGWE,54,MBOZI,542,ITAKA,54213,INSANI,NAMWAYA
SONGWE,54,MBOZI,542,ITAKA,54213,INSANI,MWANDAJE
SONGWE,54,MBOZI,542,ITAKA,54213,INSANI,UWANISHE
SONGWE,54,MBOZI,542,ITAKA,54213,MBOJE,NKASI
SONGWE,54,MBOZI,542,ITAKA,54213,MBOJE,TOGAMWENDO
SONGWE,54,MBOZI,542,ITAKA,54213,MBOJE,MBOJE
SONGWE,54,MBOZI,542,ITAKA,54213,MBOJE,HAZEMBE
SONGWE,54,MBOZI,542,ITAKA,54213,MBOJE,IBULA
SONGWE,54,MBOZI,542,ITAKA,54213,ITAKA,ITAKA MJINI
SONGWE,54,MBOZI,542,ITAKA,54213,ITAKA,MASEWE
SONGWE,54,MBOZI,542,ITAKA,54213,ITAKA,SHIHANDO
SONGWE,54,MBOZI,542,ITAKA,54213,ITAKA,LUNYEGO
SONGWE,54,MBOZI,542,ITAKA,54213,HAMWELO,MPANTILA
SONGWE,54,MBOZI,542,ITAKA,54213,HAMWELO,NYEMBE
SONGWE,54,MBOZI,542,ITAKA,54213,HAMWELO,MAPOGORO
SONGWE,54,MBOZI,542,ITAKA,54213,HAMWELO,ISUKAMAWELA
SONGWE,54,MBOZI,542,ITAKA,54213,HAMWELO,NZIGE
SONGWE,54,MBOZI,542,ITAKA,54213,HAMWELO,NJOOMUONE
SONGWE,54,MBOZI,542,ITAKA,54213,ISELA,ISELA
SONGWE,54,MBOZI,542,ITAKA,54213,ISELA,IYUNGA
SONGWE,54,MBOZI,542,ITAKA,54213,ISELA,HAROLI
SONGWE,54,MBOZI,542,ITAKA,54213,ISELA,GEZAULOLE
SONGWE,54,MBOZI,542,ITAKA,54213,ITENTULA,STENDI
SONGWE,54,MBOZI,542,ITAKA,54213,ITENTULA,SUMBAWANGA
SONGWE,54,MBOZI,542,ITAKA,54213,ITENTULA,NANKANZA
SONGWE,54,MBOZI,542,ITAKA,54213,ITENTULA,LIWELYAMANGA
SONGWE,54,MBOZI,542,ITAKA,54213,ITEWE,ITEWE
SONGWE,54,MBOZI,542,ITAKA,54213,ITEWE,GEZAULOLE
SONGWE,54,MBOZI,542,ITAKA,54213,ITEWE,MAJENGO
SONGWE,54,MBOZI,542,ITAKA,54213,ITEWE,KALOLENI
SONGWE,54,MBOZI,542,ITAKA,54213,ITEWE,MGANGA
SONGWE,54,MBOZI,542,NAMBINZO,54214,NKANGA,GHALANI
SONGWE,54,MBOZI,542,NAMBINZO,54214,NKANGA,MAKAMBINI
SONGWE,54,MBOZI,542,NAMBINZO,54214,NKANGA,SHILANGA
SONGWE,54,MBOZI,542,NAMBINZO,54214,NKANGA,IPENYA
SONGWE,54,MBOZI,542,NAMBINZO,54214,MWANJELWA,MAJENGO
SONGWE,54,MBOZI,542,NAMBINZO,54214,MWANJELWA,NALUSANYA
SONGWE,54,MBOZI,542,NAMBINZO,54214,MWANJELWA,MWANJELWA
SONGWE,54,MBOZI,542,NAMBINZO,54214,MWANJELWA,SUMBA MAJEMBE
SONGWE,54,MBOZI,542,NAMBINZO,54214,ISENZANYA,UDONDA
SONGWE,54,MBOZI,542,NAMBINZO,54214,ISENZANYA,USUANGALA
SONGWE,54,MBOZI,542,NAMBINZO,54214,ISENZANYA,MKUKWE
SONGWE,54,MBOZI,542,NAMBINZO,54214,ISENZANYA,ISENZANYA KATI
SONGWE,54,MBOZI,542,NAMBINZO,54214,MANYARA,MANYARA KATI
SONGWE,54,MBOZI,542,NAMBINZO,54214,MANYARA,PATAMELA
SONGWE,54,MBOZI,542,NAMBINZO,54214,MANYARA,HAZUMBI
SONGWE,54,MBOZI,542,NAMBINZO,54214,MANYARA,UPENDO
SONGWE,54,MBOZI,542,NAMBINZO,54214,NAMBINZO,NAMBINZO KATI
SONGWE,54,MBOZI,542,NAMBINZO,54214,NAMBINZO,MKUKWE
SONGWE,54,MBOZI,542,NAMBINZO,54214,NAMBINZO,NAMANGA
SONGWE,54,MBOZI,542,NAMBINZO,54214,NAMBINZO,MWALA
SONGWE,54,MBOZI,542,NAMBINZO,54214,NAMBINZO,IWEZYA
SONGWE,54,MBOZI,542,NAMBINZO,54214,UTAMBALILA,HUDUMA
SONGWE,54,MBOZI,542,NAMBINZO,54214,UTAMBALILA,MWANSAPILA
SONGWE,54,MBOZI,542,NAMBINZO,54214,UTAMBALILA,TENDAMEMA
SONGWE,54,MBOZI,542,NAMBINZO,54214,UTAMBALILA,MAGAMBA
SONGWE,54,MBOZI,542,NAMBINZO,54214,UTAMBALILA,ILALANGULU
SONGWE,54,MBOZI,542,NAMBINZO,54214,SHITUNGURU,SHITUNGURU KATI
SONGWE,54,MBOZI,542,NAMBINZO,54214,SHITUNGURU,NANYANYA
SONGWE,54,MBOZI,542,NAMBINZO,54214,SHITUNGURU,SHIHANDO
SONGWE,54,MBOZI,542,NAMBINZO,54214,SHITUNGURU,LUPANGO
SONGWE,54,MBOZI,542,NAMBINZO,54214,IPAPA,NAMPANJI
SONGWE,54,MBOZI,542,NAMBINZO,54214,IPAPA,MBUGANI
SONGWE,54,MBOZI,542,NAMBINZO,54214,IPAPA,MANTIVWANA
SONGWE,54,MBOZI,542,NAMBINZO,54214,IPAPA,IPAPA
SONGWE,54,MBOZI,542,NAMBINZO,54214,IPAPA,HASALE
SONGWE,54,MBOZI,542,NANYALA,54215,NANYALA,NANYALA KATI
SONGWE,54,MBOZI,542,NANYALA,54215,NANYALA,KAWETELE
SONGWE,54,MBOZI,542,NANYALA,54215,NANYALA,MAULA
SONGWE,54,MBOZI,542,NANYALA,54215,NANYALA,IFUFU
SONGWE,54,MBOZI,542,NANYALA,54215,NANYALA,IWANGA
SONGWE,54,MBOZI,542,NANYALA,54215,NANYALA,UDINDE
SONGWE,54,MBOZI,542,NANYALA,54215,NANYALA,MAJI YA MOTO
SONGWE,54,MBOZI,542,NANYALA,54215,SENJELE,NANDAGO
SONGWE,54,MBOZI,542,NANYALA,54215,SENJELE,SHITUNGULU
SONGWE,54,MBOZI,542,NANYALA,54215,SENJELE,SHIKULA
SONGWE,54,MBOZI,542,NANYALA,54215,SENJELE,IDIBILA
SONGWE,54,MBOZI,542,NANYALA,54215,NAMLONGA,IWANGA
SONGWE,54,MBOZI,542,NANYALA,54215,NAMLONGA,IFINGANO
SONGWE,54,MBOZI,542,NANYALA,54215,NAMLONGA,LUGONYO
SONGWE,54,MBOZI,542,NANYALA,54215,NAMLONGA,MALEMA SONGWE
SONGWE,54,MBOZI,542,NANYALA,54215,SONGWE,MPIKA
SONGWE,54,MBOZI,542,NANYALA,54215,SONGWE,MANYALA
SONGWE,54,MBOZI,542,NANYALA,54215,SONGWE,MLANGALI
SONGWE,54,MBOZI,542,NANYALA,54215,SONGWE,MAJENGO
SONGWE,54,MBOZI,542,NANYALA,54215,SONGWE,SOGEA
SONGWE,54,MBOZI,542,NANYALA,54215,LUSUNGO,LONJELA
SONGWE,54,MBOZI,542,NANYALA,54215,LUSUNGO,IHOMBE
SONGWE,54,MBOZI,542,NANYALA,54215,LUSUNGO,LUHOMANO
SONGWE,54,MBOZI,542,NANYALA,54215,LUSUNGO,NTIKA
SONGWE,54,MBOZI,542,IPUNGA,54216,IPUNGA,ISUNKA
SONGWE,54,MBOZI,542,IPUNGA,54216,IPUNGA,NAKONDE
SONGWE,54,MBOZI,542,IPUNGA,54216,IPUNGA,CHILULUMO
SONGWE,54,MBOZI,542,IPUNGA,54216,IPUNGA,NAZARETI
SONGWE,54,MBOZI,542,IPUNGA,54216,IPUNGA,CHIYANGA
SONGWE,54,MBOZI,542,IPUNGA,54216,IPUNGA,MPAKANI
SONGWE,54,MBOZI,542,IPUNGA,54216,IPUNGA,MTAKUJA
SONGWE,54,MBOZI,542,IPUNGA,54216,IPAPA,MAWENI
SONGWE,54,MBOZI,542,IPUNGA,54216,IPAPA,HANSALE
SONGWE,54,MBOZI,542,IPUNGA,54216,IPAPA,IPAPA KATI
SONGWE,54,MBOZI,542,IPUNGA,54216,IPAPA,IWUNJI
SONGWE,54,MBOZI,542,IPUNGA,54216,IPAPA,SAMBANDOLA
SONGWE,54,MBOZI,542,IPUNGA,54216,IPAPA,SHANDAMU
SONGWE,54,MBOZI,542,IPUNGA,54216,IPANZYA,IPANZYA KATI
SONGWE,54,MBOZI,542,IPUNGA,54216,IPANZYA,INYELA
SONGWE,54,MBOZI,542,IPUNGA,54216,IPANZYA,KILIMAMPIMBI
SONGWE,54,MBOZI,542,IPUNGA,54216,IPANZYA,MSULO
SONGWE,54,MBOZI,542,IPUNGA,54216,IPANZYA,TOGAMWENDO
SONGWE,54,MBOZI,542,IPUNGA,54216,MPELA,MPELA
SONGWE,54,MBOZI,542,IPUNGA,54216,MPELA,LEGEZA MWENDO
SONGWE,54,MBOZI,542,IPUNGA,54216,MPELA,MIBULANI
SONGWE,54,MBOZI,542,BARA,54217,BARA,BARA MJINI
SONGWE,54,MBOZI,542,BARA,54217,BARA,CHANG'OMBE
SONGWE,54,MBOZI,542,BARA,54217,BARA,USAFWANI
SONGWE,54,MBOZI,542,BARA,54217,BARA,BARA KATI
SONGWE,54,MBOZI,542,BARA,54217,BARA,ITANDULA
SONGWE,54,MBOZI,542,BARA,54217,MANINGA,MANINGA
SONGWE,54,MBOZI,542,BARA,54217,MANINGA,IGOLOLA
SONGWE,54,MBOZI,542,BARA,54217,MANINGA,NGOMANI
SONGWE,54,MBOZI,542,BARA,54217,TWINZI,NAZWANGA
SONGWE,54,MBOZI,542,BARA,54217,TWINZI,TWINZI
SONGWE,54,MBOZI,542,BARA,54217,TWINZI,MAHOMA
SONGWE,54,MBOZI,542,BARA,54217,TWINZI,MTAKUJA
SONGWE,54,MBOZI,542,BARA,54217,TWINZI,RAHALEO
SONGWE,54,MBOZI,542,BARA,54217,HANGOMBA,HANGOMBA MJINI
SONGWE,54,MBOZI,542,BARA,54217,HANGOMBA,ITANDULA
SONGWE,54,MBOZI,542,BARA,54217,HANGOMBA,ISECHE
SONGWE,54,MBOZI,542,BARA,54217,HANGOMBA,IYULA
SONGWE,54,MBOZI,542,BARA,54217,HANGOMBA,SHAMBWE
SONGWE,54,MBOZI,542,BARA,54217,IKONYA,SHAMNDA
SONGWE,54,MBOZI,542,BARA,54217,IKONYA,IKONYA A
SONGWE,54,MBOZI,542,BARA,54217,IKONYA,LUWEMBA
SONGWE,54,MBOZI,542,BARA,54217,IKONYA,IKONYA B
SONGWE,54,MBOZI,542,BARA,54217,IKONYA,ISANGU
SONGWE,54,MBOZI,542,BARA,54217,IPOROTO,SHAMBWE
SONGWE,54,MBOZI,542,BARA,54217,IPOROTO,IPOLOTO KATI
SONGWE,54,MBOZI,542,BARA,54217,IPOROTO,ILANZI
SONGWE,54,MBOZI,542,BARA,54217,IPOROTO,MALENJE
SONGWE,54,MBOZI,542,ILOLO,54218,ILOLO,IKONONGO
SONGWE,54,MBOZI,542,ILOLO,54218,ILOLO,LAMI
SONGWE,54,MBOZI,542,ILOLO,54218,ILOLO,ILOLO SHULENI
SONGWE,54,MBOZI,542,ILOLO,54218,ILOLO,MIGOMBANI
SONGWE,54,MBOZI,542,ILOLO,54218,ILOLO,MWANGUKU
SONGWE,54,MBOZI,542,ILOLO,54218,ILOLO,KANISANI
SONGWE,54,MBOZI,542,ILOLO,54218,ILOLO,IGWALA
SONGWE,54,MBOZI,542,ICHENJEZYA,54219,ICHENJEZYA,MBUGANI
SONGWE,54,MBOZI,542,ICHENJEZYA,54219,ICHENJEZYA,MPAKANI
SONGWE,54,MBOZI,542,ICHENJEZYA,54219,ICHENJEZYA,ICHENJEZYA SHULENI
SONGWE,54,MBOZI,542,ICHENJEZYA,54219,ICHENJEZYA,IPANGA
SONGWE,54,MBOZI,542,ICHENJEZYA,54219,ICHENJEZYA,MASAKI
SONGWE,54,MBOZI,542,HASANGA,54220,HASANGA,HASANGA
SONGWE,54,MBOZI,542,HASANGA,54220,HASANGA,MAJENGO
SONGWE,54,MBOZI,542,HASANGA,54220,HASANGA,NAMBA WANI
SONGWE,54,MBOZI,542,HASANGA,54220,HASANGA,ICHENJEZYA
SONGWE,54,MBOZI,542,HASANGA,54220,HASANGA,UDINDE
SONGWE,54,MBOZI,542,HASANGA,54220,HASANGA,NANGONDO
SONGWE,54,MBOZI,542,HASANGA,54220,HASANGA,ITAGHA
SONGWE,54,MBOZI,542,HASANGA,54220,HASANGA,MIANZINI
SONGWE,54,MBOZI,542,HASANGA,54220,HASANGA,ISANGU
SONGWE,54,MBOZI,542,HASANGA,54220,HASANGA,IYELA
SONGWE,54,MBOZI,542,HASANGA,54220,HASANGA,LONDONI
SONGWE,54,MBOZI,542,HASANGA,54220,HASANGA,SHANKO
SONGWE,54,MBOZI,542,HASANGA,54220,HASANGA,LUPEMBE
SONGWE,54,MBOZI,542,HASANGA,54220,HASANGA,MTAKUJA
SONGWE,54,MBOZI,542,HASAMBA,54221,HASAMBA,IYENGA
SONGWE,54,MBOZI,542,HASAMBA,54221,HASAMBA,ILYIKA
SONGWE,54,MBOZI,542,HASAMBA,54221,HASAMBA,MIGOMBANI
SONGWE,54,MBOZI,542,HASAMBA,54221,HASAMBA,NSENYA
SONGWE,54,MBOZI,542,HASAMBA,54221,HASAMBA,"HAZERU ""A"""
SONGWE,54,MBOZI,542,HASAMBA,54221,HASAMBA,"HAZERU ""B"""
SONGWE,54,MBOZI,542,HASAMBA,54221,HASAMBA,CHIGOMA
SONGWE,54,MBOZI,542,HASAMBA,54221,HASAMBA,SHINANDALA
SONGWE,54,MBOZI,542,HASAMBA,54221,HASAMBA,KAMFICHENI
SONGWE,54,MBOZI,542,ISANSA,54222,ISANSA,ISANSA KATI
SONGWE,54,MBOZI,542,ISANSA,54222,ISANSA,IWELA
SONGWE,54,MBOZI,542,ISANSA,54222,ISANSA,LUONGA
SONGWE,54,MBOZI,542,ISANSA,54222,ISANSA,ILANGALI
SONGWE,54,MBOZI,542,ISANSA,54222,ISOWEZYA,ISOWEZYA
SONGWE,54,MBOZI,542,ISANSA,54222,ISOWEZYA,MSOWELO
SONGWE,54,MBOZI,542,ISANSA,54222,ISOWEZYA,WANISHE
SONGWE,54,MBOZI,542,ISANSA,54222,ISOWEZYA,ZWALO
SONGWE,54,MBOZI,542,ISANSA,54222,ISOWEZYA,IWINDI
SONGWE,54,MBOZI,542,ISANSA,54222,LUNGWA,HANGOMBA
SONGWE,54,MBOZI,542,ISANSA,54222,LUNGWA,HANSULU
SONGWE,54,MBOZI,542,ISANSA,54222,LUNGWA,LUONGA
SONGWE,54,MBOZI,542,ISANSA,54222,LUNGWA,MALENJE
SONGWE,54,MBOZI,542,ISANSA,54222,NANSAMA,USUNJE
SONGWE,54,MBOZI,542,ISANSA,54222,NANSAMA,ILANZI
SONGWE,54,MBOZI,542,ISANSA,54222,NANSAMA,MWANJELWA
SONGWE,54,MBOZI,542,ISANSA,54222,NANSAMA,NASAMA KATI A
SONGWE,54,MBOZI,542,ISANSA,54222,NANSAMA,MSENSE
SONGWE,54,MBOZI,542,ISANSA,54222,NANSAMA,NANSAMA KATI B
SONGWE,54,MBOZI,542,ISANSA,54222,MPITO,MPITO KATI A
SONGWE,54,MBOZI,542,ISANSA,54222,MPITO,MBWAJI
SONGWE,54,MBOZI,542,ISANSA,54222,MPITO,NSAHALA
SONGWE,54,MBOZI,542,ISANSA,54222,MPITO,SHENJE
SONGWE,54,MBOZI,542,ISANSA,54222,MPITO,MPITO KATI B
SONGWE,54,MBOZI,542,ISANSA,54222,MPITO,MAWE
SONGWE,54,MBOZI,542,SHIWINGA,54223,SHIWINGA,UZYIKA
SONGWE,54,MBOZI,542,SHIWINGA,54223,SHIWINGA,MALENJE
SONGWE,54,MBOZI,542,SHIWINGA,54223,SHIWINGA,MAZIMBO
SONGWE,54,MBOZI,542,SHIWINGA,54223,SHIWINGA,NANKWITWA
SONGWE,54,MBOZI,542,SHIWINGA,54223,SHIWINGA,NTUNGWA
SONGWE,54,MBOZI,542,SHIWINGA,54223,SHIWINGA,UNYANYEMBE
SONGWE,54,MBOZI,542,SHIWINGA,54223,IWEZI,IWEZI KATI
SONGWE,54,MBOZI,542,SHIWINGA,54223,IWEZI,IWILU
SONGWE,54,MBOZI,542,SHIWINGA,54223,IWEZI,NAHANCHALA
SONGWE,54,MBOZI,542,SHIWINGA,54223,IWEZI,NAMSAKELI
SONGWE,54,MBOZI,542,SHIWINGA,54223,IWEZI,MWANTA
SONGWE,54,MBOZI,542,SHIWINGA,54223,HATELELE,NYELYA
SONGWE,54,MBOZI,542,SHIWINGA,54223,HATELELE,ISYALAMAGAZI
SONGWE,54,MBOZI,542,SHIWINGA,54223,HATELELE,MAZIMBO
SONGWE,54,MBOZI,542,SHIWINGA,54223,HATELELE,NAKULA
SONGWE,54,MBOZI,542,SHIWINGA,54223,HATELELE,HATELELE KIJIJINI
SONGWE,54,MBOZI,542,SHIWINGA,54223,MAKUA,MAKUA
SONGWE,54,MBOZI,542,SHIWINGA,54223,MAKUA,ILOLO
SONGWE,54,MBOZI,542,SHIWINGA,54223,MAKUA,IBULA
SONGWE,54,MBOZI,542,ITUMPI,54224,ITUMPI,ITUMPI KATI
SONGWE,54,MBOZI,542,ITUMPI,54224,ITUMPI,IGANDA
SONGWE,54,MBOZI,542,ITUMPI,54224,ITUMPI,IWAGAMOYO
SONGWE,54,MBOZI,542,ITUMPI,54224,ITUMPI,KALENJE
SONGWE,54,MBOZI,542,ITUMPI,54224,ITUMPI,SHILANGA
SONGWE,54,MBOZI,542,ITUMPI,54224,ITUMPI,ISANGU
SONGWE,54,MBOZI,542,ITUMPI,54224,SAMBEWE,SAMBEWE
SONGWE,54,MBOZI,542,ITUMPI,54224,SAMBEWE,IGANYA
SONGWE,54,MBOZI,542,ITUMPI,54224,SAMBEWE,IWENJE
SONGWE,54,MBOZI,542,ITUMPI,54224,SAMBEWE,SILANGA
SONGWE,54,MBOZI,542,ITUMPI,54224,SAMBEWE,MTAKUJA
SONGWE,54,MBOZI,542,ITUMPI,54224,ILEYA,MYOMBONI
SONGWE,54,MBOZI,542,ITUMPI,54224,ILEYA,ULANDA
SONGWE,54,MBOZI,542,ITUMPI,54224,ILEYA,SEJELELA
SONGWE,54,MBOZI,542,ITUMPI,54224,ILEYA,ILEYA KATI
SONGWE,54,MBOZI,542,ITUMPI,54224,ILEYA,MLOWO
SONGWE,54,MBOZI,542,ITUMPI,54224,NSENGA,ITINDI
SONGWE,54,MBOZI,542,ITUMPI,54224,NSENGA,KASAMA
SONGWE,54,MBOZI,542,ITUMPI,54224,NSENGA,KONKWE A
SONGWE,54,MBOZI,542,ITUMPI,54224,NSENGA,KONKWE B
SONGWE,54,MBOZI,542,ITUMPI,54224,NSENGA,NAMANINGA
SONGWE,54,MBOZI,542,ITUMPI,54224,IYENGA,SIJI
SONGWE,54,MBOZI,542,ITUMPI,54224,IYENGA,NDEZI
SONGWE,54,MBOZI,542,ITUMPI,54224,IYENGA,IYENGA KATI
SONGWE,54,MBOZI,542,ITUMPI,54224,IYENGA,RAHA LEO
SONGWE,54,MBOZI,542,KILIMAMPIMBI,54225,IKOMELA,IKOMELA
SONGWE,54,MBOZI,542,KILIMAMPIMBI,54225,IKOMELA,LUPIA
SONGWE,54,MBOZI,542,KILIMAMPIMBI,54225,IKOMELA,MAVULA
SONGWE,54,MBOZI,542,KILIMAMPIMBI,54225,IKOMELA,WAYA
SONGWE,54,MBOZI,542,KILIMAMPIMBI,54225,ISANDULA,ISANDULA A
SONGWE,54,MBOZI,542,KILIMAMPIMBI,54225,ISANDULA,ISANDULA B
SONGWE,54,MBOZI,542,KILIMAMPIMBI,54225,ISANDULA,MBWIGA
SONGWE,54,MBOZI,542,KILIMAMPIMBI,54225,ISANDULA,NYULA
SONGWE,54,MBOZI,542,KILIMAMPIMBI,54225,KILIMAMPIMBI,KANJENJE
SONGWE,54,MBOZI,542,KILIMAMPIMBI,54225,KILIMAMPIMBI,LEKEZONTA
SONGWE,54,MBOZI,542,KILIMAMPIMBI,54225,KILIMAMPIMBI,KILIMAMPIMBI
SONGWE,54,MBOZI,542,KILIMAMPIMBI,54225,KILIMAMPIMBI,MAJENGO
SONGWE,54,MBOZI,542,KILIMAMPIMBI,54225,MSAMBA 1,MSAMBA KATI
SONGWE,54,MBOZI,542,KILIMAMPIMBI,54225,MSAMBA 2,KAWALE
SONGWE,54,MBOZI,542,KILIMAMPIMBI,54225,MSAMBA 3,NJIA PANDA
SONGWE,54,MBOZI,542,WASA,54226,WASA,WASA KATI
SONGWE,54,MBOZI,542,WASA,54226,WASA,MANYALA
SONGWE,54,MBOZI,542,WASA,54226,WASA,NDOLA
SONGWE,54,MBOZI,542,WASA,54226,WASA,ISELA
SONGWE,54,MBOZI,542,WASA,54226,WASA,LUCHECHE
SONGWE,54,MBOZI,542,WASA,54226,WASA,NAMATONTO
SONGWE,54,MBOZI,542,WASA,54226,ISALALO,ISALALO KATI
SONGWE,54,MBOZI,542,WASA,54226,ISALALO,LUPEMBE
SONGWE,54,MBOZI,542,WASA,54226,ISALALO,CHIYANGA
SONGWE,54,MBOZI,542,WASA,54226,ISALALO,TAZARA
SONGWE,54,MBOZI,542,WASA,54226,IZYANICHE,ISAFI
SONGWE,54,MBOZI,542,WASA,54226,IZYANICHE,MWAMBANI
SONGWE,54,MBOZI,542,WASA,54226,IZYANICHE,NAMAULWE
SONGWE,54,MBOZI,542,WASA,54226,IZYANICHE,KESELIA
SONGWE,54,MBOZI,542,WASA,54226,IZYANICHE,IZYANICHE KATI
SONGWE,54,MBOZI,542,WASA,54226,MALOLO,MALOLO
SONGWE,54,MBOZI,542,WASA,54226,MALOLO,IYULA
SONGWE,54,MBOZI,542,WASA,54226,MALOLO,ISEMBUKA
SONGWE,54,MBOZI,542,WASA,54226,MALOLO,ILOMBA
SONGWE,54,MBOZI,542,HEZYA,54227,HEZYA,HEZYA KATI
SONGWE,54,MBOZI,542,HEZYA,54227,HEZYA,SITI
SONGWE,54,MBOZI,542,HEZYA,54227,HEZYA,UYOLE
SONGWE,54,MBOZI,542,HEZYA,54227,HEZYA,SHONGO
SONGWE,54,MBOZI,542,HEZYA,54227,IZUMBI,IZUMBI
SONGWE,54,MBOZI,542,HEZYA,54227,IZUMBI,IDODOMA
SONGWE,54,MBOZI,542,HEZYA,54227,IZUMBI,SHILOTA
SONGWE,54,MBOZI,542,HEZYA,54227,IZUMBI,SONGWE
SONGWE,54,MBOZI,542,HEZYA,54227,NAMWANGWA,SONGWE
SONGWE,54,MBOZI,542,HEZYA,54227,NAMWANGWA,ISENGA
SONGWE,54,MBOZI,542,HEZYA,54227,NAMWANGWA,SONGAMBELE
SONGWE,54,MBOZI,542,HEZYA,54227,HARAKA,KIMEMBE
SONGWE,54,MBOZI,542,HEZYA,54227,HARAKA,MYOMBO
SONGWE,54,MBOZI,542,HEZYA,54227,HARAKA,HARAKA KATI
SONGWE,54,MBOZI,542,HEZYA,54227,HARAKA,IYALAWE
SONGWE,54,MBOZI,542,HEZYA,54227,HARAKA,NGEKE
SONGWE,54,MBOZI,542,HEZYA,54227,HARAKA,NAMWANGULE
SONGWE,54,MBOZI,542,HEZYA,54227,HARAKA,MALINGO
SONGWE,54,MBOZI,542,MAGAMBA,54228,MAGAMBA,MAGAMBA KATI
SONGWE,54,MBOZI,542,MAGAMBA,54228,MAGAMBA,IGANYA
SONGWE,54,MBOZI,542,MAGAMBA,54228,MAGAMBA,HASAMBA
SONGWE,54,MBOZI,542,MAGAMBA,54228,MAGAMBA,SHUNI
SONGWE,54,MBOZI,542,MAGAMBA,54228,MAGAMBA,MTUNDURU
SONGWE,54,MBOZI,542,MAGAMBA,54228,MAGAMBA,ITILIWINDI
SONGWE,54,MBOZI,542,MAGAMBA,54228,IGANYA,HAPONJELE
SONGWE,54,MBOZI,542,MAGAMBA,54228,IGANYA,MALONJI
SONGWE,54,MBOZI,542,MAGAMBA,54228,IGANYA,ITIPULA
SONGWE,54,MBOZI,542,MAGAMBA,54228,IGANYA,IGANYA
SONGWE,54,MBOZI,542,MAGAMBA,54228,IGANYA,SIYA
SONGWE,54,MBOZI,542,MAGAMBA,54228,MTUNDURU,MTUNDURU
SONGWE,54,MBOZI,542,MAGAMBA,54228,MTUNDURU,MASEDA
SONGWE,54,MBOZI,542,MAGAMBA,54228,MTUNDURU,ISOMOLE
SONGWE,54,MBOZI,542,MAGAMBA,54228,MTUNDURU,ITILIWINDI
SONGWE,54,MBOZI,542,MAGAMBA,54228,MTUNDURU,MALENJE
SONGWE,54,MBOZI,542,MAGAMBA,54228,IWALANJE,IWALANJE
SONGWE,54,MBOZI,542,MAGAMBA,54228,IWALANJE,ILEWE
SONGWE,54,MBOZI,542,MAGAMBA,54228,IWALANJE,HAULENGE
SONGWE,54,MBOZI,542,MAGAMBA,54228,IWALANJE,BETHELEHEMU
SONGWE,54,MBOZI,542,MAGAMBA,54228,IWALANJE,ILENDELA
SONGWE,54,MBOZI,542,MAGAMBA,54228,NAULONGO,NAULONGO KATI
SONGWE,54,MBOZI,542,MAGAMBA,54228,NAULONGO,SAMLENDA
SONGWE,54,MBOZI,542,MAGAMBA,54228,NAULONGO,MAJIWE
SONGWE,54,MBOZI,542,MAGAMBA,54228,NAULONGO,NANTONGORO
SONGWE,54,MBOZI,542,MAGAMBA,54228,NAULONGO,HANTUPA
SONGWE,54,MBOZI,542,IDIWILI,54229,IDIWILI,MBALAMUSEJE
SONGWE,54,MBOZI,542,IDIWILI,54229,IDIWILI,IDOGO
SONGWE,54,MBOZI,542,IDIWILI,54229,IDIWILI,NONDE A
SONGWE,54,MBOZI,542,IDIWILI,54229,IDIWILI,NONDE B
SONGWE,54,MBOZI,542,IDIWILI,54229,IDIWILI,ILINDI
SONGWE,54,MBOZI,542,IDIWILI,54229,ULULU,SHITETI
SONGWE,54,MBOZI,542,IDIWILI,54229,ULULU,IHOWA
SONGWE,54,MBOZI,542,IDIWILI,54229,ULULU,ULULU
SONGWE,54,MBOZI,542,IDIWILI,54229,ULULU,NTASYE B
SONGWE,54,MBOZI,542,IDIWILI,54229,ILOMBA,HUDUMA
SONGWE,54,MBOZI,542,IDIWILI,54229,ILOMBA,NTASYE
SONGWE,54,MBOZI,542,IDIWILI,54229,ILOMBA,SHIMANGA
SONGWE,54,MBOZI,542,IDIWILI,54229,ILOMBA,IGWILA
SONGWE,54,MBOZI,542,IDIWILI,54229,ILOMBA,ISALE
SONGWE,54,MBOZI,542,IDIWILI,54229,ILOMBA,NANYONGO
SONGWE,54,MBOZI,542,IDIWILI,54229,MAFUMBO,MATENGA
SONGWE,54,MBOZI,542,IDIWILI,54229,MAFUMBO,MAFUMBO
SONGWE,54,MBOZI,542,IDIWILI,54229,MAFUMBO,NDOLA
SONGWE,54,MBOZI,542,IDIWILI,54229,MAFUMBO,SHENYA
SONGWE,54,MBOZI,542,IDIWILI,54229,IDUNDA,IYALAWE
SONGWE,54,MBOZI,542,IDIWILI,54229,IDUNDA,IWEZYA
SONGWE,54,MBOZI,542,IDIWILI,54229,IDUNDA,NZOVU
SONGWE,54,MBOZI,542,IDIWILI,54229,IDUNDA,MPANZI
SONGWE,54,MBOZI,542,IDIWILI,54229,IDUNDA,IPANGA
SONGWE,54,ILEJE,543,ITUMBA,54301,ITUMBA,RUNGWA A
SONGWE,54,ILEJE,543,ITUMBA,54301,ITUMBA,RUNGWA B
SONGWE,54,ILEJE,543,ITUMBA,54301,ITUMBA,RUNGWA C
SONGWE,54,ILEJE,543,ITUMBA,54301,ITUMBA,BUSWESI
SONGWE,54,ILEJE,543,ITUMBA,54301,ITUMBA,NAMANGONI
SONGWE,54,ILEJE,543,ITUMBA,54301,ITUMBA,CHIBANJE
SONGWE,54,ILEJE,543,ITUMBA,54301,ITUMBA,CHAFWONYA
SONGWE,54,ILEJE,543,ITUMBA,54301,ITUMBA,HARAKA
SONGWE,54,ILEJE,543,ITUMBA,54301,ITUMBA,NKANKA
SONGWE,54,ILEJE,543,ITUMBA,54301,ITUMBA,CHOBWE
SONGWE,54,ILEJE,543,ITUMBA,54301,YENZEBWE,NYINZA
SONGWE,54,ILEJE,543,ITUMBA,54301,YENZEBWE,CHIBANJE
SONGWE,54,ILEJE,543,ITUMBA,54301,YENZEBWE,BULENJE
SONGWE,54,ILEJE,543,ISONGOLE,54302,ISONGOLE,CHUMBAGENI A
SONGWE,54,ILEJE,543,ISONGOLE,54302,ISONGOLE,CHUMBAGENI B
SONGWE,54,ILEJE,543,ISONGOLE,54302,ISONGOLE,NAKALULU
SONGWE,54,ILEJE,543,ISONGOLE,54302,ISONGOLE,IPAPA
SONGWE,54,ILEJE,543,ISONGOLE,54302,ISONGOLE,IGUNDA
SONGWE,54,ILEJE,543,ISONGOLE,54302,ISONGOLE,MBENZU
SONGWE,54,ILEJE,543,ISONGOLE,54302,IZUBA,KABWE
SONGWE,54,ILEJE,543,ISONGOLE,54302,IZUBA,ILESHELA A
SONGWE,54,ILEJE,543,ISONGOLE,54302,IZUBA,ILESHELA B
SONGWE,54,ILEJE,543,ISONGOLE,54302,IZUBA,MANYARA
SONGWE,54,ILEJE,543,ISONGOLE,54302,ILULU,IPUNGA
SONGWE,54,ILEJE,543,ISONGOLE,54302,ILULU,CHITEKA
SONGWE,54,ILEJE,543,ISONGOLE,54302,ILULU,CHIPYA
SONGWE,54,ILEJE,543,ISONGOLE,54302,ILULU,NTEBELA
SONGWE,54,ILEJE,543,ISONGOLE,54302,ILULU,KATI
SONGWE,54,ILEJE,543,NDOLA,54303,NDOLA,KABULU
SONGWE,54,ILEJE,543,NDOLA,54303,NDOLA,NDOLA
SONGWE,54,ILEJE,543,NDOLA,54303,NDOLA,ISANGA
SONGWE,54,ILEJE,543,NDOLA,54303,NDOLA,KALOLENI
SONGWE,54,ILEJE,543,NDOLA,54303,NDOLA,TUNDUMA
SONGWE,54,ILEJE,543,NDOLA,54303,NDOLA,ILEYA
SONGWE,54,ILEJE,543,NDOLA,54303,NDOLA,ISAGAMA
SONGWE,54,ILEJE,543,NDOLA,54303,ISHENTA,MDIBE
SONGWE,54,ILEJE,543,NDOLA,54303,ISHENTA,IBUTUTU
SONGWE,54,ILEJE,543,NDOLA,54303,ISHENTA,ITULA
SONGWE,54,ILEJE,543,NDOLA,54303,ISHENTA,SERENJE
SONGWE,54,ILEJE,543,NDOLA,54303,IGUMILA,MBILU
SONGWE,54,ILEJE,543,NDOLA,54303,IGUMILA,IGUMILA
SONGWE,54,ILEJE,543,NDOLA,54303,IGUMILA,ILEMBO
SONGWE,54,ILEJE,543,NDOLA,54303,IBEZYA,IBEZYA
SONGWE,54,ILEJE,543,NDOLA,54303,IBEZYA,ILULU
SONGWE,54,ILEJE,543,NDOLA,54303,IBEZYA,ULANDA
SONGWE,54,ILEJE,543,BUPIGU,54304,BUPIGU,LUBEMBA
SONGWE,54,ILEJE,543,BUPIGU,54304,BUPIGU,MWATI
SONGWE,54,ILEJE,543,BUPIGU,54304,BUPIGU,ITENJE
SONGWE,54,ILEJE,543,BUPIGU,54304,BUPIGU,ILAMBI
SONGWE,54,ILEJE,543,BUPIGU,54304,BUPIGU,INYALA
SONGWE,54,ILEJE,543,BUPIGU,54304,BUPIGU,ILEMBO
SONGWE,54,ILEJE,543,BUPIGU,54304,BUPIGU,CHONGO
SONGWE,54,ILEJE,543,BUPIGU,54304,IBUNGU,ILEBELO
SONGWE,54,ILEJE,543,BUPIGU,54304,IBUNGU,NJEJE
SONGWE,54,ILEJE,543,BUPIGU,54304,IBUNGU,MBALULA
SONGWE,54,ILEJE,543,BUPIGU,54304,IBUNGU,LUBANDA
SONGWE,54,ILEJE,543,BUPIGU,54304,CHABU,LUPANDO
SONGWE,54,ILEJE,543,BUPIGU,54304,CHABU,IKOMBE
SONGWE,54,ILEJE,543,BUPIGU,54304,CHABU,MANGWINA
SONGWE,54,ILEJE,543,BUPIGU,54304,CHABU,SEKONDARI
SONGWE,54,ILEJE,543,BUPIGU,54304,CHABU,ISIMIKE
SONGWE,54,ILEJE,543,BUPIGU,54304,MABULA,MBANGALA
SONGWE,54,ILEJE,543,BUPIGU,54304,MABULA,CHIPUPWA
SONGWE,54,ILEJE,543,BUPIGU,54304,MABULA,NDIMA
SONGWE,54,ILEJE,543,BUPIGU,54304,MABULA,LULI
SONGWE,54,ILEJE,543,CHITETE,54305,IKUMBILO,LUSUNGO
SONGWE,54,ILEJE,543,CHITETE,54305,IKUMBILO,ITABA
SONGWE,54,ILEJE,543,CHITETE,54305,IKUMBILO,MAGEREZA
SONGWE,54,ILEJE,543,CHITETE,54305,IKUMBILO,IKUMBILO
SONGWE,54,ILEJE,543,CHITETE,54305,IKUMBILO,KAWAMA
SONGWE,54,ILEJE,543,CHITETE,54305,IKUMBILO,NAVILOLO
SONGWE,54,ILEJE,543,CHITETE,54305,CHITETE,MAJENGO
SONGWE,54,ILEJE,543,CHITETE,54305,CHITETE,CHITETE
SONGWE,54,ILEJE,543,CHITETE,54305,CHITETE,IBANA
SONGWE,54,ILEJE,543,CHITETE,54305,CHITETE,BULANGA
SONGWE,54,ILEJE,543,CHITETE,54305,CHITETE,NANGOJI
SONGWE,54,ILEJE,543,CHITETE,54305,CHITETE,LUSUNGOJUU
SONGWE,54,ILEJE,543,CHITETE,54305,MSIA,IZWALANGUO
SONGWE,54,ILEJE,543,CHITETE,54305,MSIA,IYUNGA
SONGWE,54,ILEJE,543,CHITETE,54305,MSIA,IHANDANG'OMBE
SONGWE,54,ILEJE,543,CHITETE,54305,MSIA,ISUNDAMBWA
SONGWE,54,ILEJE,543,CHITETE,54305,NTEMBO,IGALULA
SONGWE,54,ILEJE,543,CHITETE,54305,NTEMBO,LUSENGA
SONGWE,54,ILEJE,543,CHITETE,54305,NTEMBO,MAJENGO
SONGWE,54,ILEJE,543,MBEBE,54306,MBEBE,MBEBE
SONGWE,54,ILEJE,543,MBEBE,54306,MBEBE,NATWAJIMBA
SONGWE,54,ILEJE,543,MBEBE,54306,MBEBE,NGOMOLO
SONGWE,54,ILEJE,543,MBEBE,54306,MBEBE,NAMBIJILI
SONGWE,54,ILEJE,543,MBEBE,54306,MBEBE,ISOKA
SONGWE,54,ILEJE,543,MBEBE,54306,MBEBE,IPANGA
SONGWE,54,ILEJE,543,MBEBE,54306,MBEBE,NALWENDA
SONGWE,54,ILEJE,543,MBEBE,54306,MAPOGORO,NG'ONGO
SONGWE,54,ILEJE,543,MBEBE,54306,MAPOGORO,MAPOGORO
SONGWE,54,ILEJE,543,MBEBE,54306,MAPOGORO,NAMALONGOLA
SONGWE,54,ILEJE,543,MBEBE,54306,MAPOGORO,NAKASALE
SONGWE,54,ILEJE,543,MBEBE,54306,MAPOGORO,NAMBUNDA
SONGWE,54,ILEJE,543,MBEBE,54306,SHINJI,MAJENGO
SONGWE,54,ILEJE,543,MBEBE,54306,SHINJI,SHINJI
SONGWE,54,ILEJE,543,MBEBE,54306,SHINJI,NDENDO
SONGWE,54,ILEJE,543,MBEBE,54306,SHINJI,HASONGWA
SONGWE,54,ILEJE,543,MBEBE,54306,MTIMA,MTIMA
SONGWE,54,ILEJE,543,MBEBE,54306,MTIMA,MSANGA
SONGWE,54,ILEJE,543,ITALE,54307,ITEGA,KAFULE
SONGWE,54,ILEJE,543,ITALE,54307,ITEGA,CHIKOMBOLASI
SONGWE,54,ILEJE,543,ITALE,54307,ITEGA,SAMPEMBE
SONGWE,54,ILEJE,543,ITALE,54307,ITEGA,SHINYA
SONGWE,54,ILEJE,543,ITALE,54307,ITEGA,ISANGA
SONGWE,54,ILEJE,543,ITALE,54307,ITALE,MPANDE A
SONGWE,54,ILEJE,543,ITALE,54307,ITALE,MPANDE B
SONGWE,54,ILEJE,543,ITALE,54307,ITALE,KABWE
SONGWE,54,ILEJE,543,ITALE,54307,ITALE,IJEMBE
SONGWE,54,ILEJE,543,ITALE,54307,ITALE,ILOMBA
SONGWE,54,ILEJE,543,ITALE,54307,ITALE,KATETE
SONGWE,54,ILEJE,543,ITALE,54307,ITALE,WIMI
SONGWE,54,ILEJE,543,ITALE,54307,IWALA,MELA A
SONGWE,54,ILEJE,543,ITALE,54307,IWALA,MELA B
SONGWE,54,ILEJE,543,ITALE,54307,IWALA,IWALA A
SONGWE,54,ILEJE,543,ITALE,54307,IWALA,IWALA B
SONGWE,54,ILEJE,543,ITALE,54307,IWALA,HADUYA
SONGWE,54,ILEJE,543,ITALE,54307,IWALA,META
SONGWE,54,ILEJE,543,ITALE,54307,IWALA,IBUBI
SONGWE,54,ILEJE,543,ITALE,54307,ISHINGA,ISHIMBILA
SONGWE,54,ILEJE,543,ITALE,54307,ISHINGA,MSELEMA
SONGWE,54,ILEJE,543,ITALE,54307,ISHINGA,ITEPULA
SONGWE,54,ILEJE,543,IBABA,54308,SHUBA,ILUFI A
SONGWE,54,ILEJE,543,IBABA,54308,SHUBA,ILUFI B
SONGWE,54,ILEJE,543,IBABA,54308,SHUBA,MWATI
SONGWE,54,ILEJE,543,IBABA,54308,SHUBA,SHUBA A
SONGWE,54,ILEJE,543,IBABA,54308,SHUBA,SHUBA B
SONGWE,54,ILEJE,543,IBABA,54308,SHUBA,ILUMBA
SONGWE,54,ILEJE,543,IBABA,54308,SHEYO,IPOLOTO
SONGWE,54,ILEJE,543,IBABA,54308,SHEYO,SHEYO
SONGWE,54,ILEJE,543,IBABA,54308,SHEYO,SHILIBA
SONGWE,54,ILEJE,543,IBABA,54308,SHEYO,SUMBI
SONGWE,54,ILEJE,543,IBABA,54308,IBABA,KABWE
SONGWE,54,ILEJE,543,IBABA,54308,IBABA,ILOLA
SONGWE,54,ILEJE,543,IBABA,54308,IBABA,IBABA
SONGWE,54,ILEJE,543,IBABA,54308,IBABA,IJIGIMA
SONGWE,54,ILEJE,543,IBABA,54308,LALI,LALI
SONGWE,54,ILEJE,543,IBABA,54308,LALI,MBIJILI
SONGWE,54,ILEJE,543,IBABA,54308,LALI,NDUGWE
SONGWE,54,ILEJE,543,IBABA,54308,LALI,MASOKO
SONGWE,54,ILEJE,543,IBABA,54308,LALI,ITUKUTE
SONGWE,54,ILEJE,543,IBABA,54308,SHIKUNGA,MAPOLE
SONGWE,54,ILEJE,543,IBABA,54308,SHIKUNGA,IYUNGWE
SONGWE,54,ILEJE,543,IBABA,54308,SHIKUNGA,KAWETELE
SONGWE,54,ILEJE,543,IBABA,54308,SHIKUNGA,SENJELE
SONGWE,54,ILEJE,543,IBABA,54308,SHIKUNGA,SHIKUNGA
SONGWE,54,ILEJE,543,IBABA,54308,SHIKUNGA,KALULUSHI
SONGWE,54,ILEJE,543,MALANGALI,54309,MALANGALI,MALANGALI
SONGWE,54,ILEJE,543,MALANGALI,54309,MALANGALI,MLENDA
SONGWE,54,ILEJE,543,MALANGALI,54309,MALANGALI,MTEMA
SONGWE,54,ILEJE,543,MALANGALI,54309,MALANGALI,LUBWE
SONGWE,54,ILEJE,543,MALANGALI,54309,MALANGALI,LWAGE
SONGWE,54,ILEJE,543,MALANGALI,54309,MALANGALI,LUBOGA
SONGWE,54,ILEJE,543,MALANGALI,54309,CHEMBE,CHIKWAMBALALA
SONGWE,54,ILEJE,543,MALANGALI,54309,CHEMBE,CHIBULI
SONGWE,54,ILEJE,543,MALANGALI,54309,CHEMBE,NDONDELA
SONGWE,54,ILEJE,543,MALANGALI,54309,ILONDO,NDEGULA
SONGWE,54,ILEJE,543,MALANGALI,54309,ILONDO,NAMASELE
SONGWE,54,ILEJE,543,MALANGALI,54309,ILONDO,IGOJE
SONGWE,54,ILEJE,543,MALANGALI,54309,ILONDO,MLAMBA
SONGWE,54,ILEJE,543,MALANGALI,54309,ILONDO,ILONDO
SONGWE,54,ILEJE,543,MALANGALI,54309,BULANGA,BULANGA
SONGWE,54,ILEJE,543,MALANGALI,54309,BULANGA,CHUNYA
SONGWE,54,ILEJE,543,MALANGALI,54309,BULANGA,MALANGALI
SONGWE,54,ILEJE,543,KAFULE,54310,KAPELEKESI,KISALALA
SONGWE,54,ILEJE,543,KAFULE,54310,KAPELEKESI,KASEBE
SONGWE,54,ILEJE,543,KAFULE,54310,KAPELEKESI,MKELA
SONGWE,54,ILEJE,543,KAFULE,54310,KAPELEKESI,IBOLE
SONGWE,54,ILEJE,543,KAFULE,54310,KAPELEKESI,KAPELEKESI
SONGWE,54,ILEJE,543,KAFULE,54310,KAPELEKESI,ITEJA
SONGWE,54,ILEJE,543,KAFULE,54310,KAFULE,KAFULE
SONGWE,54,ILEJE,543,KAFULE,54310,KAFULE,ISEGELO
SONGWE,54,ILEJE,543,KAFULE,54310,KAFULE,ILIKWA
SONGWE,54,ILEJE,543,KAFULE,54310,KAFULE,IKUYU
SONGWE,54,ILEJE,543,KAFULE,54310,KAFULE,CHIJA
SONGWE,54,ILEJE,543,KAFULE,54310,BANJI,LUNDO
SONGWE,54,ILEJE,543,KAFULE,54310,BANJI,MSONGWI
SONGWE,54,ILEJE,543,KAFULE,54310,ISOKO,KATETE
SONGWE,54,ILEJE,543,KAFULE,54310,ISOKO,MGOFI
SONGWE,54,ILEJE,543,KAFULE,54310,ISOKO,KALOLA
SONGWE,54,ILEJE,543,KAFULE,54310,ISOKO,LUPEMBE
SONGWE,54,ILEJE,543,IKINGA,54311,IKINGA,IKINGA
SONGWE,54,ILEJE,543,IKINGA,54311,IKINGA,LUPUNGU
SONGWE,54,ILEJE,543,IKINGA,54311,IKINGA,MGESHI
SONGWE,54,ILEJE,543,IKINGA,54311,KIKOTA,KIKOTA
SONGWE,54,ILEJE,543,IKINGA,54311,KIKOTA,KASHETO
SONGWE,54,ILEJE,543,IKINGA,54311,KIKOTA,SOKA
SONGWE,54,ILEJE,543,IKINGA,54311,KIKOTA,KASANGA
SONGWE,54,ILEJE,543,IKINGA,54311,KIKOTA,IBUNGI
SONGWE,54,ILEJE,543,IKINGA,54311,KIKOTA,NDEMBO
SONGWE,54,ILEJE,543,IKINGA,54311,IBETA,IBETA
SONGWE,54,ILEJE,543,IKINGA,54311,IBETA,MINYARA
SONGWE,54,ILEJE,543,IKINGA,54311,IBETA,HALALE
SONGWE,54,ILEJE,543,IKINGA,54311,KAPETA,KAPETA
SONGWE,54,ILEJE,543,IKINGA,54311,KAPETA,IBEMBE
SONGWE,54,ILEJE,543,IKINGA,54311,KAPETA,LANDANI
SONGWE,54,ILEJE,543,IKINGA,54311,MGAYA,MGAYA
SONGWE,54,ILEJE,543,IKINGA,54311,MGAYA,LUBINDU
SONGWE,54,ILEJE,543,IKINGA,54311,MGAYA,NGELE
SONGWE,54,ILEJE,543,IKINGA,54311,MGAYA,KAPANGA
SONGWE,54,ILEJE,543,IKINGA,54311,BWIPA,BWIPA
SONGWE,54,ILEJE,543,IKINGA,54311,BWIPA,BUFWILO
SONGWE,54,ILEJE,543,IKINGA,54311,BWIPA,MWALISI
SONGWE,54,ILEJE,543,IKINGA,54311,BWIPA,MFULU
SONGWE,54,ILEJE,543,SANGE,54312,SANGE,SANGE
SONGWE,54,ILEJE,543,SANGE,54312,SANGE,ITANGA
SONGWE,54,ILEJE,543,SANGE,54312,SANGE,MWALUPASO
SONGWE,54,ILEJE,543,SANGE,54312,SANGE,ZAHANATI
SONGWE,54,ILEJE,543,SANGE,54312,SANGE,MIJUNI
SONGWE,54,ILEJE,543,SANGE,54312,LUSALALA,ITONGO
SONGWE,54,ILEJE,543,SANGE,54312,LUSALALA,MABWE
SONGWE,54,ILEJE,543,SANGE,54312,LUSALALA,ISANGA
SONGWE,54,ILEJE,543,SANGE,54312,LUSALALA,MLANGA
SONGWE,54,ILEJE,543,SANGE,54312,LUSALALA,KALEJA
SONGWE,54,ILEJE,543,SANGE,54312,LUSALALA,MAMBI
SONGWE,54,ILEJE,543,SANGE,54312,MSWIMA,MWAKAJWISHA
SONGWE,54,ILEJE,543,SANGE,54312,MSWIMA,LWIBA
SONGWE,54,ILEJE,543,SANGE,54312,MSWIMA,MAJENGO
SONGWE,54,ILEJE,543,SANGE,54312,MSWIMA,KAIRO
SONGWE,54,ILEJE,543,LUBANDA,54313,MTULA,MTULA
SONGWE,54,ILEJE,543,LUBANDA,54313,MTULA,KABATA
SONGWE,54,ILEJE,543,LUBANDA,54313,MTULA,LUBANDA
SONGWE,54,ILEJE,543,LUBANDA,54313,MTULA,CHITETE
SONGWE,54,ILEJE,543,LUBANDA,54313,MTULA,CHIPWELA
SONGWE,54,ILEJE,543,LUBANDA,54313,BWENDA,BWENDA
SONGWE,54,ILEJE,543,LUBANDA,54313,BWENDA,MTAMBO
SONGWE,54,ILEJE,543,LUBANDA,54313,BWENDA,KALOKANI
SONGWE,54,ILEJE,543,LUBANDA,54313,BWENDA,IGAMBA
SONGWE,54,ILEJE,543,LUBANDA,54313,BWENDA,MBASAGILA
SONGWE,54,ILEJE,543,LUBANDA,54313,BWENDA,IKUYU
SONGWE,54,ILEJE,543,LUBANDA,54313,MBEMBATI,MBEMBATI
SONGWE,54,ILEJE,543,LUBANDA,54313,MBEMBATI,MKWAWA
SONGWE,54,ILEJE,543,LUBANDA,54313,MBEMBATI,IKOMBELA
SONGWE,54,ILEJE,543,LUBANDA,54313,MBEMBATI,MAJENGO
SONGWE,54,ILEJE,543,LUBANDA,54313,MBEMBATI,MATWISA
SONGWE,54,ILEJE,543,LUBANDA,54313,MBEMBATI,ILOLA
SONGWE,54,ILEJE,543,LUBANDA,54313,CHILEMBA,MABATINI
SONGWE,54,ILEJE,543,LUBANDA,54313,CHILEMBA,MLIMANI
SONGWE,54,ILEJE,543,LUBANDA,54313,CHILEMBA,CHILEMBA
SONGWE,54,ILEJE,543,LUBANDA,54313,CHILEMBA,MASEBE
SONGWE,54,ILEJE,543,LUBANDA,54313,CHILEMBA,IBONDE
SONGWE,54,ILEJE,543,LUBANDA,54313,CHILEMBA,MAGAMBA
SONGWE,54,ILEJE,543,LUBANDA,54313,KASANGA,KASANGA
SONGWE,54,ILEJE,543,LUBANDA,54313,KASANGA,CHIGULU
SONGWE,54,ILEJE,543,LUBANDA,54313,KASANGA,ILUNDI
SONGWE,54,ILEJE,543,NGULUGULU,54314,NGULUGULU,IPANGA
SONGWE,54,ILEJE,543,NGULUGULU,54314,NGULUGULU,NGULUGUGU A
SONGWE,54,ILEJE,543,NGULUGULU,54314,NGULUGULU,NGULUGULU B
SONGWE,54,ILEJE,543,NGULUGULU,54314,NGULUGULU,KANYENYE
SONGWE,54,ILEJE,543,NGULUGULU,54314,NGULUGULU,IBUNGU
SONGWE,54,ILEJE,543,NGULUGULU,54314,CHUKUMBULU,IBANGA
SONGWE,54,ILEJE,543,NGULUGULU,54314,CHUKUMBULU,ISHARA A
SONGWE,54,ILEJE,543,NGULUGULU,54314,CHUKUMBULU,ISHARA B
SONGWE,54,ILEJE,543,NGULUGULU,54314,CHUKUMBULU,MWAKALELI
SONGWE,54,ILEJE,543,NGULUGULU,54314,CHUKUMBULU,ITEMBWE
SONGWE,54,ILEJE,543,NGULUGULU,54314,CHUKUMBULU,MTETE
SONGWE,54,ILEJE,543,NGULUGULU,54314,KISYESYE,MAGENGE
SONGWE,54,ILEJE,543,NGULUGULU,54314,KISYESYE,KISYESYE
SONGWE,54,ILEJE,543,NGULUGULU,54314,KISYESYE,MWALUBUNJU
SONGWE,54,ILEJE,543,NGULUGULU,54314,KISYESYE,KISHINGA
SONGWE,54,ILEJE,543,NGULUGULU,54314,KISYESYE,IJONGWE
SONGWE,54,ILEJE,543,NGULUGULU,54314,KISYESYE,KAPUGI A
SONGWE,54,ILEJE,543,NGULUGULU,54314,KISYESYE,KAPUGI B
SONGWE,54,ILEJE,543,NGULUGULU,54314,BUFULA,KINA
SONGWE,54,ILEJE,543,NGULUGULU,54314,BUFULA,BUFULA
SONGWE,54,ILEJE,543,LUSWISI,54315,LUSWISI,LUSWISI
SONGWE,54,ILEJE,543,LUSWISI,54315,LUSWISI,LUTETE
SONGWE,54,ILEJE,543,LUSWISI,54315,LUSWISI,ITAMANDA
SONGWE,54,ILEJE,543,LUSWISI,54315,LUSWISI,SONGWE
SONGWE,54,ILEJE,543,LUSWISI,54315,MAKOGA,MAKOGA
SONGWE,54,ILEJE,543,LUSWISI,54315,MAKOGA,KAFWAFWA
SONGWE,54,ILEJE,543,LUSWISI,54315,MAKOGA,MEGA
SONGWE,54,ILEJE,543,LUSWISI,54315,CHIBILA,CHIBILA
SONGWE,54,ILEJE,543,LUSWISI,54315,CHIBILA,IBAGA
SONGWE,54,ILEJE,543,LUSWISI,54315,CHIBILA,NGUNGUNI
SONGWE,54,ILEJE,543,LUSWISI,54315,IPANDE,IPANDE
SONGWE,54,ILEJE,543,LUSWISI,54315,IPANDE,JIBANDA
SONGWE,54,ILEJE,543,LUSWISI,54315,IPANDE,MLENGE
SONGWE,54,ILEJE,543,NGULILO,54316,NGULILO,NGULILO
SONGWE,54,ILEJE,543,NGULILO,54316,NGULILO,IPESI
SONGWE,54,ILEJE,543,NGULILO,54316,NGULILO,MLIMBA
SONGWE,54,ILEJE,543,NGULILO,54316,NGULILO,IKOMBE
SONGWE,54,ILEJE,543,NGULILO,54316,SHIRINGA,KABALE
SONGWE,54,ILEJE,543,NGULILO,54316,SHIRINGA,CHUNYA
SONGWE,54,ILEJE,543,NGULILO,54316,SHIRINGA,IBUTUTU
SONGWE,54,ILEJE,543,NGULILO,54316,SAPANDA,SAPANDA
SONGWE,54,ILEJE,543,NGULILO,54316,SAPANDA,SAMBOGO
SONGWE,54,ILEJE,543,NGULILO,54316,SAPANDA,MBEPETE
SONGWE,54,ILEJE,543,NGULILO,54316,NDAPWA,IPOJO
SONGWE,54,ILEJE,543,NGULILO,54316,NDAPWA,BUSANGO
SONGWE,54,ILEJE,543,NGULILO,54316,NDAPWA,NDAPWA
SONGWE,54,ILEJE,543,MLALE,54317,MLALE,MPEMBE
SONGWE,54,ILEJE,543,MLALE,54317,MLALE,SHIGOMBOLA
SONGWE,54,ILEJE,543,MLALE,54317,MLALE,ILAGANILO
SONGWE,54,ILEJE,543,MLALE,54317,MLALE,MCHALA
SONGWE,54,ILEJE,543,MLALE,54317,MLALE,MAJENGO
SONGWE,54,ILEJE,543,MLALE,54317,MLALE,SIMBOBE
SONGWE,54,ILEJE,543,MLALE,54317,ILANGA,MBEYA
SONGWE,54,ILEJE,543,MLALE,54317,ILANGA,LUSUNGO
SONGWE,54,ILEJE,543,MLALE,54317,ILANGA,UFIPA
SONGWE,54,ILEJE,543,MLALE,54317,YULI,IKUMBI
SONGWE,54,ILEJE,543,MLALE,54317,YULI,HASALE
SONGWE,54,ILEJE,543,MLALE,54317,YULI,NASHIPASA
SONGWE,54,ILEJE,543,KALEMBO,54318,KALEMBO,IPANDE
SONGWE,54,ILEJE,543,KALEMBO,54318,KALEMBO,VULI
SONGWE,54,ILEJE,543,KALEMBO,54318,KALEMBO,MKUYU
SONGWE,54,ILEJE,543,KALEMBO,54318,KALEMBO,KALEMBO
SONGWE,54,ILEJE,543,KALEMBO,54318,KALEMBO,IPASA
SONGWE,54,ILEJE,543,KALEMBO,54318,KABALE,KABALE A
SONGWE,54,ILEJE,543,KALEMBO,54318,KABALE,KABALE B
SONGWE,54,ILEJE,543,KALEMBO,54318,MBANGALA,MBANGALA A
SONGWE,54,ILEJE,543,KALEMBO,54318,MBANGALA,MBANGALA B
SONGWE,54,ILEJE,543,KALEMBO,54318,MBANGALA,MBAGALA C
SONGWE,54,ILEJE,543,KALEMBO,54318,IBANDI,IBANDI
SONGWE,54,ILEJE,543,KALEMBO,54318,IBANDI,SWEBE
SONGWE,54,MOMBA,544,TUNDUMA,54401,TUKUYU,
SONGWE,54,MOMBA,544,TUNDUMA,54401,SIKANYIKA,
SONGWE,54,MOMBA,544,TUNDUMA,54401,IHANDA,
SONGWE,54,MOMBA,544,TUNDUMA,54401,UNYAMWANGA,
SONGWE,54,MOMBA,544,TUNDUMA,54401,TUNDUMA KATI,
SONGWE,54,MOMBA,544,CHIWEZI,54402,CHIWEZI,
SONGWE,54,MOMBA,544,CHIWEZI,54402,NAMOLE,
SONGWE,54,MOMBA,544,CHIWEZI,54402,NSANZYA,
SONGWE,54,MOMBA,544,CHIWEZI,54402,NIUMBA,
SONGWE,54,MOMBA,544,CHIWEZI,54402,MSAMBA II,
SONGWE,54,MOMBA,544,NKANGAMO,54403,CHIWANDA,CHIWANDA
SONGWE,54,MOMBA,544,NKANGAMO,54403,CHIWANDA,CHIMILA
SONGWE,54,MOMBA,544,NKANGAMO,54403,CHIWANDA,MUKO
SONGWE,54,MOMBA,544,NKANGAMO,54403,CHIWANDA,MLANGALI
SONGWE,54,MOMBA,544,NKANGAMO,54403,CHIWANDA,MPUMPI
SONGWE,54,MOMBA,544,NKANGAMO,54403,NKANGAMO,NKANGAMO
SONGWE,54,MOMBA,544,NKANGAMO,54403,NKANGAMO,NZAZI
SONGWE,54,MOMBA,544,NKANGAMO,54403,NKANGAMO,ILUMA
SONGWE,54,MOMBA,544,NKANGAMO,54403,NKANGAMO,ZANGA
SONGWE,54,MOMBA,544,NKANGAMO,54403,ISANGA,MWAKA
SONGWE,54,MOMBA,544,NKANGAMO,54403,ISANGA,MZUNDU
SONGWE,54,MOMBA,544,NKANGAMO,54403,ISANGA,MAJENGO
SONGWE,54,MOMBA,544,NKANGAMO,54403,ISANGA,NYANGU
SONGWE,54,MOMBA,544,NKANGAMO,54403,ISANGA,KATETE
SONGWE,54,MOMBA,544,NKANGAMO,54403,ISANGA,MPAPA
SONGWE,54,MOMBA,544,NDALAMBO,54404,NDALAMBO,NDALAMBO
SONGWE,54,MOMBA,544,NDALAMBO,54404,NDALAMBO,KAMSUNTE
SONGWE,54,MOMBA,544,NDALAMBO,54404,NDALAMBO,CHALAWIKOZI
SONGWE,54,MOMBA,544,NDALAMBO,54404,NDALAMBO,NANKONJE
SONGWE,54,MOMBA,544,NDALAMBO,54404,NDALAMBO,KAMWANKOKO
SONGWE,54,MOMBA,544,NDALAMBO,54404,MENGO,MENGO
SONGWE,54,MOMBA,544,NDALAMBO,54404,MENGO,KALONGA
SONGWE,54,MOMBA,544,NDALAMBO,54404,MENGO,MTAKUJA
SONGWE,54,MOMBA,544,NDALAMBO,54404,MENGO,MZOMBO
SONGWE,54,MOMBA,544,NDALAMBO,54404,MENGO,CHILOVYA
SONGWE,54,MOMBA,544,NDALAMBO,54404,IPUMPILA,IPUMPILA
SONGWE,54,MOMBA,544,NDALAMBO,54404,IPUMPILA,CHITETE
SONGWE,54,MOMBA,544,NDALAMBO,54404,IPUMPILA,KAYUMBI
SONGWE,54,MOMBA,544,NDALAMBO,54404,KAKOZI,KAKOZI KATI
SONGWE,54,MOMBA,544,NDALAMBO,54404,KAKOZI,MSEKWA
SONGWE,54,MOMBA,544,NDALAMBO,54404,KAKOZI,MASANGATI
SONGWE,54,MOMBA,544,NDALAMBO,54404,KAKOZI,KASEWA
SONGWE,54,MOMBA,544,MSANGANO,54405,MSANGANO,MLANDA “A”
SONGWE,54,MOMBA,544,MSANGANO,54405,MSANGANO,MLANDA “B”
SONGWE,54,MOMBA,544,MSANGANO,54405,MSANGANO,MLANDA “C”
SONGWE,54,MOMBA,544,MSANGANO,54405,MSANGANO,MLANDA “D”
SONGWE,54,MOMBA,544,MSANGANO,54405,MSANGANO,IPENZA
SONGWE,54,MOMBA,544,MSANGANO,54405,MSANGANO,KAWALE
SONGWE,54,MOMBA,544,MSANGANO,54405,MSANGANO,IYELA
SONGWE,54,MOMBA,544,MSANGANO,54405,MSANGANO,RUANDA
SONGWE,54,MOMBA,544,MSANGANO,54405,MSANGANO,MBUYUNI
SONGWE,54,MOMBA,544,MSANGANO,54405,NTINGA,CHANSENAMWA
SONGWE,54,MOMBA,544,MSANGANO,54405,NTINGA,MILEMWA “A”
SONGWE,54,MOMBA,544,MSANGANO,54405,NTINGA,MILEMWA “B”
SONGWE,54,MOMBA,544,MSANGANO,54405,NTINGA,SAYUNI
SONGWE,54,MOMBA,544,MSANGANO,54405,NTINGA,TEMBEZI
SONGWE,54,MOMBA,544,MSANGANO,54405,CHINDI,MPAPA
SONGWE,54,MOMBA,544,MSANGANO,54405,CHINDI,MSIA
SONGWE,54,MOMBA,544,MSANGANO,54405,CHINDI,NDALWE
SONGWE,54,MOMBA,544,MSANGANO,54405,CHINDI,IKONKO
SONGWE,54,MOMBA,544,MSANGANO,54405,CHINDI,CHINDI ‘A’
SONGWE,54,MOMBA,544,MSANGANO,54405,CHINDI,CHINDI ‘B’
SONGWE,54,MOMBA,544,MSANGANO,54405,CHINDI,NANTUMBE
SONGWE,54,MOMBA,544,MSANGANO,54405,CHINDI,MIKUTI
SONGWE,54,MOMBA,544,MSANGANO,54405,CHINDI,MAJENGO
SONGWE,54,MOMBA,544,MSANGANO,54405,MNYUZI,MNYUZI
SONGWE,54,MOMBA,544,MSANGANO,54405,MNYUZI,LWANDA
SONGWE,54,MOMBA,544,MSANGANO,54405,MNYUZI,MTAKUJA
SONGWE,54,MOMBA,544,MSANGANO,54405,MNYUZI,MKOMBA
SONGWE,54,MOMBA,544,MSANGANO,54405,MNYUZI,NANTETE
SONGWE,54,MOMBA,544,MSANGANO,54405,IPATA,KOMBE
SONGWE,54,MOMBA,544,MSANGANO,54405,IPATA,IPATA
SONGWE,54,MOMBA,544,MSANGANO,54405,IPATA,MHEZA
SONGWE,54,MOMBA,544,MSANGANO,54405,IPATA,NAFINGA
SONGWE,54,MOMBA,544,MSANGANO,54405,IPATA,NACHIZINJI
SONGWE,54,MOMBA,544,CHITETE,54406,CHITETE,CHITETE KATI
SONGWE,54,MOMBA,544,CHITETE,54406,CHITETE,MINTAKOMWA
SONGWE,54,MOMBA,544,CHITETE,54406,CHITETE,MSOGEZE
SONGWE,54,MOMBA,544,CHITETE,54406,MLOMBA,IKUNGWE
SONGWE,54,MOMBA,544,CHITETE,54406,MLOMBA,POLILELO
SONGWE,54,MOMBA,544,CHITETE,54406,MLOMBA,MBALWA
SONGWE,54,MOMBA,544,CHITETE,54406,NKALA,CHING’ONY’O
SONGWE,54,MOMBA,544,CHITETE,54406,NKALA,MUWEMBA ‘A’
SONGWE,54,MOMBA,544,CHITETE,54406,NKALA,MUWEMBA ‘B’
SONGWE,54,MOMBA,544,CHITETE,54406,NKALA,CHIKAMBA
SONGWE,54,MOMBA,544,CHITETE,54406,NKALA,HAKAMBA ‘C’
SONGWE,54,MOMBA,544,CHITETE,54406,MAKAMBA,MAKAMBA ‘A’
SONGWE,54,MOMBA,544,CHITETE,54406,MAKAMBA,MAKAMBA ‘B’
SONGWE,54,MOMBA,544,CHITETE,54406,MAKAMBA,LOZI
SONGWE,54,MOMBA,544,CHITETE,54406,NAMING’ONGO,NAMING’ONGO
SONGWE,54,MOMBA,544,CHITETE,54406,NAMING’ONGO,KAWANA
SONGWE,54,MOMBA,544,CHITETE,54406,NAMING’ONGO,NACHISITU
SONGWE,54,MOMBA,544,CHITETE,54406,NAMING’ONGO,NSALA
SONGWE,54,MOMBA,544,CHITETE,54406,NAMING’ONGO,MSWEPA
SONGWE,54,MOMBA,544,CHITETE,54406,YALA,YALA
SONGWE,54,MOMBA,544,CHITETE,54406,YALA,NG’AMBA
SONGWE,54,MOMBA,544,CHITETE,54406,TINDINGOMA,CHIPECHELO
SONGWE,54,MOMBA,544,CHITETE,54406,TINDINGOMA,MOROGORO
SONGWE,54,MOMBA,544,CHITETE,54406,TINDINGOMA,IYUNGA
SONGWE,54,MOMBA,544,IVUNA,54407,IVUNA,KINAMWENE
SONGWE,54,MOMBA,544,IVUNA,54407,IVUNA,MNYUZI
SONGWE,54,MOMBA,544,IVUNA,54407,IVUNA,IKONJE
SONGWE,54,MOMBA,544,IVUNA,54407,IVUNA,MABATINI
SONGWE,54,MOMBA,544,IVUNA,54407,IVUNA,KALOLENI
SONGWE,54,MOMBA,544,IVUNA,54407,ITUMBULA,CHUMVI
SONGWE,54,MOMBA,544,IVUNA,54407,ITUMBULA,MORAVIAN
SONGWE,54,MOMBA,544,IVUNA,54407,ITUMBULA,NAKASANU
SONGWE,54,MOMBA,544,IVUNA,54407,LWATWE,INUNKA
SONGWE,54,MOMBA,544,IVUNA,54407,LWATWE,MTAKUJA “A”
SONGWE,54,MOMBA,544,IVUNA,54407,LWATWE,MBAMBILA
SONGWE,54,MOMBA,544,IVUNA,54407,LWATWE,MSHANSHA
SONGWE,54,MOMBA,544,IVUNA,54407,LWATWE,MTAKUJA “B”
SONGWE,54,MOMBA,544,IVUNA,54407,SAMANG’OMBE,FORODHANI
SONGWE,54,MOMBA,544,IVUNA,54407,SAMANG’OMBE,MSHANSHA
SONGWE,54,MOMBA,544,IVUNA,54407,SAMANG’OMBE,MASUCHE
SONGWE,54,MOMBA,544,IVUNA,54407,SAMANG’OMBE,SAMANG’OMBE “A”
SONGWE,54,MOMBA,544,IVUNA,54407,SAMANG’OMBE,SAMANG’OMBE “B”
SONGWE,54,MOMBA,544,IVUNA,54407,KALUNGU,KALUNGU “A”
SONGWE,54,MOMBA,544,IVUNA,54407,KALUNGU,KANISANI
SONGWE,54,MOMBA,544,IVUNA,54407,KALUNGU,KALUNGU “B”
SONGWE,54,MOMBA,544,IVUNA,54407,KALUNGU,MUBUYUNI
SONGWE,54,MOMBA,544,IVUNA,54407,KALUNGU,NANKANGA
SONGWE,54,MOMBA,544,KAMSAMBA,54408,KAMSAMBA,KAMSAMBA KATI
SONGWE,54,MOMBA,544,KAMSAMBA,54408,KAMSAMBA,MTUI
SONGWE,54,MOMBA,544,KAMSAMBA,54408,KAMSAMBA,MUWEMBA
SONGWE,54,MOMBA,544,KAMSAMBA,54408,KAMSAMBA,MALANGWA
SONGWE,54,MOMBA,544,KAMSAMBA,54408,KAMSAMBA,NTEMBO
SONGWE,54,MOMBA,544,KAMSAMBA,54408,MUUNGANO,MDUNDO
SONGWE,54,MOMBA,544,KAMSAMBA,54408,MUUNGANO,MIYUNGA
SONGWE,54,MOMBA,544,KAMSAMBA,54408,MUUNGANO,CHIMBO
SONGWE,54,MOMBA,544,KAMSAMBA,54408,MUUNGANO,KAPUTA
SONGWE,54,MOMBA,544,KAMSAMBA,54408,MUUYU,MUUYU KATI
SONGWE,54,MOMBA,544,KAMSAMBA,54408,MUUYU,SOGEA
SONGWE,54,MOMBA,544,KAMSAMBA,54408,MUUYU,KAOMBWE
SONGWE,54,MOMBA,544,KAMSAMBA,54408,MKONKO,LAELA
SONGWE,54,MOMBA,544,KAMSAMBA,54408,MKONKO,MKWAJUNI
SONGWE,54,MOMBA,544,KAMSAMBA,54408,MKONKO,MWAMI
SONGWE,54,MOMBA,544,KAMSAMBA,54408,MKONKO,DESSA
SONGWE,54,MOMBA,544,KAMSAMBA,54408,USOCHE,IWETA
SONGWE,54,MOMBA,544,KAMSAMBA,54408,USOCHE,MCHANGANI
SONGWE,54,MOMBA,544,KAMSAMBA,54408,USOCHE,CHANGOMBE
SONGWE,54,MOMBA,544,KAMSAMBA,54408,USOCHE,MIEMBENI
SONGWE,54,MOMBA,544,KAMSAMBA,54408,SENGA,SENGA
SONGWE,54,MOMBA,544,KAMSAMBA,54408,SENGA,CHANG’OMBE
SONGWE,54,MOMBA,544,KAMSAMBA,54408,SENGA,NTELWA
SONGWE,54,MOMBA,544,KAMSAMBA,54408,SENGA,MING’ONGO
SONGWE,54,MOMBA,544,KAMSAMBA,54408,SENGA,MCHANGANI
SONGWE,54,MOMBA,544,CHILULUMO,54409,CHILULUMO,CHILULUMO KATI
SONGWE,54,MOMBA,544,CHILULUMO,54409,CHILULUMO,CHILULUMO JUU
SONGWE,54,MOMBA,544,CHILULUMO,54409,CHILULUMO,MILOMBWA
SONGWE,54,MOMBA,544,CHILULUMO,54409,CHILULUMO,MBUYUNI 'A'
SONGWE,54,MOMBA,544,CHILULUMO,54409,CHILULUMO,MBUYUNI
SONGWE,54,MOMBA,544,CHILULUMO,54409,TONTELA,TONTELA
SONGWE,54,MOMBA,544,CHILULUMO,54409,TONTELA,CHINAMWENE
SONGWE,54,MOMBA,544,CHILULUMO,54409,TONTELA,NAKASANU
SONGWE,54,MOMBA,544,CHILULUMO,54409,TONTELA,KANYALA
SONGWE,54,MOMBA,544,CHILULUMO,54409,TONTELA,MAWIMBA
SONGWE,54,MOMBA,544,CHILULUMO,54409,KAONGA,KAONGA
SONGWE,54,MOMBA,544,CHILULUMO,54409,KAONGA,MISUMBI
SONGWE,54,MOMBA,544,CHILULUMO,54409,KAONGA,NSALA
SONGWE,54,MOMBA,544,CHILULUMO,54409,KAONGA,MWAKA
SONGWE,54,MOMBA,544,CHILULUMO,54409,KAONGA,MASALAWE
SONGWE,54,MOMBA,544,CHILULUMO,54409,NAMSINDE I,SINJILI
SONGWE,54,MOMBA,544,CHILULUMO,54409,NAMSINDE I,SULUTU
SONGWE,54,MOMBA,544,CHILULUMO,54409,NSANZYA,NSANZYA
SONGWE,54,MOMBA,544,CHILULUMO,54409,NSANZYA,MALANDILO
SONGWE,54,MOMBA,544,MYUNGA,54410,MYUNGA,MYUNGA
SONGWE,54,MOMBA,544,MYUNGA,54410,MYUNGA,KAFUTI
SONGWE,54,MOMBA,544,MYUNGA,54410,MPUI,MPUI
SONGWE,54,MOMBA,544,MYUNGA,54410,MPUI,NTEKWE
SONGWE,54,MOMBA,544,MYUNGA,54410,MPUI,MSUNGO
SONGWE,54,MOMBA,544,MYUNGA,54410,MFUTO,MFUTO
SONGWE,54,MOMBA,544,MYUNGA,54410,MFUTO,CHIPOMA
SONGWE,54,MOMBA,544,MYUNGA,54410,MACHINDO,MACHINDO
SONGWE,54,MOMBA,544,MYUNGA,54410,MACHINDO,KALOLENI
SONGWE,54,MOMBA,544,MYUNGA,54410,MACHINDO,SWEPA
SONGWE,54,MOMBA,544,MYUNGA,54410,NAMSINDE II,NAMSINDE
SONGWE,54,MOMBA,544,MYUNGA,54410,NAMSINDE II,MUWANGA
SONGWE,54,MOMBA,544,MYUNGA,54410,ISUNDA,ISUNDA
SONGWE,54,MOMBA,544,MYUNGA,54410,ISUNDA,NTAWA
SONGWE,54,MOMBA,544,MYUNGA,54410,ISUNDA,KAMBA
SONGWE,54,MOMBA,544,MYUNGA,54410,ISUNDA,MITWE
SONGWE,54,MOMBA,544,MYUNGA,54410,ISUNDA,KATETE
SONGWE,54,MOMBA,544,MYUNGA,54410,LWASHO,LWASHO
SONGWE,54,MOMBA,544,MYUNGA,54410,LWASHO,MOMBA
SONGWE,54,MOMBA,544,MYUNGA,54410,LWASHO,CHIPANDIKO
SONGWE,54,MOMBA,544,MYUNGA,54410,LWASHO,KATETE
SONGWE,54,MOMBA,544,MYUNGA,54410,LWASHO,KASAKALANJE
SONGWE,54,MOMBA,544,KAPELE,54411,KAPELE,MSUFINI
SONGWE,54,MOMBA,544,KAPELE,54411,KAPELE,MANZESE
SONGWE,54,MOMBA,544,KAPELE,54411,KAPELE,MBEYA
SONGWE,54,MOMBA,544,KAPELE,54411,KAPELE,ZAIRE
SONGWE,54,MOMBA,544,KAPELE,54411,CHIPUMPU,KAMSAMBA
SONGWE,54,MOMBA,544,KAPELE,54411,CHIPUMPU,MTACHOKA
SONGWE,54,MOMBA,544,KAPELE,54411,CHIPUMPU,MTAKUJA
SONGWE,54,MOMBA,544,KAPELE,54411,CHIPUMPU,MATATIZO
SONGWE,54,MOMBA,544,KAPELE,54411,NAMCHINKA,MLALO
SONGWE,54,MOMBA,544,KAPELE,54411,NAMCHINKA,NAMCHINKA
SONGWE,54,MOMBA,544,KAPELE,54411,NAMCHINKA,MYAKASI
SONGWE,54,MOMBA,544,KAPELE,54411,NAMCHINKA,MAPATANO
SONGWE,54,MOMBA,544,KAPELE,54411,NAMCHINKA,MAJENGO
SONGWE,54,MOMBA,544,KAPELE,54411,NAMCHINKA,NDOLWA
SONGWE,54,MOMBA,544,KAPELE,54411,NAMCHINKA,SADOCK
SONGWE,54,MOMBA,544,KAPELE,54411,IYENDWE,KALWAMBU
SONGWE,54,MOMBA,544,KAPELE,54411,IYENDWE,IPWESHA
SONGWE,54,MOMBA,544,KAPELE,54411,IYENDWE,MSOKOLO
SONGWE,54,MOMBA,544,KAPELE,54411,IYENDWE,MAGWELE
SONGWE,54,MOMBA,544,KAPELE,54411,IYENDWE,IYENDWE
SONGWE,54,MOMBA,544,KAPELE,54411,KASINDE,KAUKAMA
SONGWE,54,MOMBA,544,KAPELE,54411,KASINDE,KASINDE
SONGWE,54,MOMBA,544,KAPELE,54411,MSUNGWE,MSELEMWA
SONGWE,54,MOMBA,544,KAPELE,54411,MSUNGWE,NAMNSALALA
SONGWE,54,MOMBA,544,KAPELE,54411,MSUNGWE,MSUNGWE
SONGWE,54,MOMBA,544,KAPELE,54411,MSUNGWE,MATETE
SONGWE,54,MOMBA,544,KAPELE,54411,CHISITU,CHISITU KATI
SONGWE,54,MOMBA,544,KAPELE,54411,CHISITU,KAMPALA
SONGWE,54,MOMBA,544,KAPELE,54411,CHISITU,KAZI
SONGWE,54,MOMBA,544,KAPELE,54411,CHISITU,CHISITU SHULENI
SONGWE,54,MOMBA,544,KAPELE,54411,CHISITU,ONGELE
SONGWE,54,MOMBA,544,KAPELE,54411,CHAFUMA,CHAFUMA KATI
SONGWE,54,MOMBA,544,KAPELE,54411,CHAFUMA,CHIRASITU
SONGWE,54,MOMBA,544,KAPELE,54411,CHAFUMA,CHINYIKA
SONGWE,54,MOMBA,544,KAPELE,54411,CHAFUMA,NUYAKASI
SONGWE,54,MOMBA,544,KAPELE,54411,CHAFUMA,CHAFUMA
SONGWE,54,MOMBA,544,MKULWE,54412,MKULWE,KINAMWENE
SONGWE,54,MOMBA,544,MKULWE,54412,MKULWE,NDOOLO
SONGWE,54,MOMBA,544,MKULWE,54412,MKULWE,MPATE
SONGWE,54,MOMBA,544,MKULWE,54412,MKULWE,NAMANYONJO
SONGWE,54,MOMBA,544,MKULWE,54412,MKULWE,MKULWE KATI
SONGWE,54,MOMBA,544,MKULWE,54412,ITELEFYA,ITELEFYA
SONGWE,54,MOMBA,544,MKULWE,54412,ITELEFYA,MWANIEMBA
SONGWE,54,MOMBA,544,MKULWE,54412,CHUO,CHUO
SONGWE,54,MOMBA,544,MKULWE,54412,CHUO,NACHISITU
SONGWE,54,MOMBA,544,MKULWE,54412,CHUO,NKATUMBO
SONGWE,54,MOMBA,544,MKULWE,54412,MWENEEMBA,MWENEEMBA
SONGWE,54,MOMBA,544,MKULWE,54412,MWENEEMBA,MAJENGO
SONGWE,54,MOMBA,544,MPAPA,54413,MPAPA,MPAPA KATI
SONGWE,54,MOMBA,544,MPAPA,54413,MPAPA,NAMBINZO
SONGWE,54,MOMBA,544,MPAPA,54413,MPAPA,CHINYIWANDA
SONGWE,54,MOMBA,544,MPAPA,54413,MPAPA,NAMAIMBA
SONGWE,54,MOMBA,544,MPAPA,54413,MPAPA,NAMITOO
SONGWE,54,MOMBA,544,MPAPA,54413,MASANYINTA,MASANYINTA KATI
SONGWE,54,MOMBA,544,MPAPA,54413,MASANYINTA,NAMSINDE
SONGWE,54,MOMBA,544,MPAPA,54413,MASANYINTA,KIPOKA
SONGWE,54,MOMBA,544,MPAPA,54413,MASANYINTA,MZINDE
SONGWE,54,MOMBA,544,MPAPA,54413,MASANYINTA,KILOMBERO
SONGWE,54,MOMBA,544,MPAPA,54413,MASANYINTA,MYAKASI
SONGWE,54,MOMBA,544,MPAPA,54413,KASANU,MWANJILA
SONGWE,54,MOMBA,544,MPAPA,54413,KASANU,MKWAJUNI
SONGWE,54,MOMBA,544,MPAPA,54413,KASANU,MALULU
SONGWE,54,MOMBA,544,MPAPA,54413,KASANU,UCHINDI
SONGWE,54,MOMBA,544,MPAPA,54413,KASANU,CHANG’OMBE
SONGWE,54,MOMBA,544,NZOKA,54414,NZOKA,NZOKA
SONGWE,54,MOMBA,544,NZOKA,54414,NZOKA,KANYIMBO
SONGWE,54,MOMBA,544,NZOKA,54414,NZOKA,MANYOTO
SONGWE,54,MOMBA,544,NZOKA,54414,NZOKA,CHIPANDA
SONGWE,54,MOMBA,544,NZOKA,54414,IPATIKANA,IPATIKANA
SONGWE,54,MOMBA,544,NZOKA,54414,IPATIKANA,MLELENGWA
SONGWE,54,MOMBA,544,NZOKA,54414,MKUTANO,MKUTANO
SONGWE,54,MOMBA,544,NZOKA,54414,MKUTANO,KASECHELA
SONGWE,54,MOMBA,544,NZOKA,54414,MKUTANO,KAMISU
SONGWE,54,MOMBA,544,NZOKA,54414,NAMTAMBALA,NAMTAMBALALA
SONGWE,54,MOMBA,544,NZOKA,54414,NAMTAMBALA,KAKOZI
SONGWE,54,MOMBA,544,NZOKA,54414,NAMTAMBALA,MENGO
SONGWE,54,MOMBA,544,NZOKA,54414,NAMTAMBALA,NG’ONGO
SONGWE,54,MOMBA,544,NZOKA,54414,CHILANGU,CHILANGU
SONGWE,54,MOMBA,544,NZOKA,54414,CHILANGU,MALINGA
SONGWE,54,MOMBA,544,NZOKA,54414,ITUMBA,ITUMBA
SONGWE,54,MOMBA,544,NZOKA,54414,ITUMBA,NZWALO
SONGWE,54,MOMBA,544,NZOKA,54414,ITUMBA,MPULU
SONGWE,54,MOMBA,544,NZOKA,54414,ITUMBA,LALAUNDA
SONGWE,54,MOMBA,544,NZOKA,54414,ITUMBA,CHITUMBI
SONGWE,54,MOMBA,544,IKANA,54415,IKANA,IKANA
SONGWE,54,MOMBA,544,IKANA,54415,IKANA,CHIPWA
SONGWE,54,MOMBA,544,IKANA,54415,IKANA,MTAKUJA
SONGWE,54,MOMBA,544,IKANA,54415,NAKAWALE,NAKAWALE KATI
SONGWE,54,MOMBA,544,IKANA,54415,NAKAWALE,NAKAWALE (B)
SONGWE,54,MOMBA,544,IKANA,54415,NAKAWALE,MAJENGO
SONGWE,54,MOMBA,544,IKANA,54415,NAKAWALE,MAELA
SONGWE,54,MOMBA,544,IKANA,54415,IPANGA,CHITOWA
SONGWE,54,MOMBA,544,IKANA,54415,IPANGA,MLILANONDO
SONGWE,54,MOMBA,544,IKANA,54415,IPANGA,KALOLI
SONGWE,54,MOMBA,544,IKANA,54415,IPANGA,SAMBA
SONGWE,54,MOMBA,544,IKANA,54415,IPANGA,IPANGA KATI.
SONGWE,54,MOMBA,544,IKANA,54415,NYENJELE,NYENJELE KATI
SONGWE,54,MOMBA,544,IKANA,54415,NYENJELE,NYENJELE (B)
SONGWE,54,MOMBA,544,IKANA,54415,NYENJELE,KAPATI
SONGWE,54,MOMBA,544,MKOMBA,54416,MKOMBA,ILENGO
SONGWE,54,MOMBA,544,MKOMBA,54416,MKOMBA,MKOMBA “A”
SONGWE,54,MOMBA,544,MKOMBA,54416,MKOMBA,MKOMBA “B”
SONGWE,54,MOMBA,544,MKOMBA,54416,MKOMBA,MKOMBA KATI
SONGWE,54,MOMBA,544,MKOMBA,54416,MKOMBA,CHAMSOKA
SONGWE,54,MOMBA,544,MKOMBA,54416,SILIWITI,SILIWITI 'A'
SONGWE,54,MOMBA,544,MKOMBA,54416,SILIWITI,SILIWITI 'B'
SONGWE,54,MOMBA,544,MKOMBA,54416,SILIWITI,FORODHANI
SONGWE,54,MOMBA,544,MKOMBA,54416,SILIWITI,MKUYUNI
SONGWE,54,MOMBA,544,MKOMBA,54416,SILIWITI,MPAKANI
SONGWE,54,MOMBA,544,MKOMBA,54416,CHOLE,CHOLE
SONGWE,54,MOMBA,544,MKOMBA,54416,CHOLE,MAONWA
SONGWE,54,MOMBA,544,MKOMBA,54416,CHOLE,CHANG’OMBE
SONGWE,54,MOMBA,544,MKOMBA,54416,CHOLE,MAJENGO
SONGWE,54,MOMBA,544,MKOMBA,54416,CHOLE,MTAKUJA
SONGWE,54,MOMBA,544,MKOMBA,54416,SANTE,SANTE KATI
SONGWE,54,MOMBA,544,MKOMBA,54416,SANTE,NAMING’ONGO
SONGWE,54,MOMBA,544,MKOMBA,54416,SANTE,TUNKO
SONGWE,54,MOMBA,544,MKOMBA,54416,SANTE,MUWANGU
SONGWE,54,MOMBA,544,MKOMBA,54416,SANTE,KAWENGA
SONGWE,54,MOMBA,544,MKOMBA,54416,NTUNGWA,CHIULA
SONGWE,54,MOMBA,544,MKOMBA,54416,NTUNGWA,CHANG’OMBE
SONGWE,54,MOMBA,544,MKOMBA,54416,NTUNGWA,MAJENGO
SONGWE,54,MOMBA,544,MKOMBA,54416,NTUNGWA,NTUNGWA KATI
SONGWE,54,MOMBA,544,MKOMBA,54416,NTUNGWA,MBAO
SONGWE,54,MOMBA,544,MAJENGO,54417,MAJENGO ‘A’,
SONGWE,54,MOMBA,544,MAJENGO,54417,MAJENGO ‘B’,
SONGWE,54,MOMBA,544,MAJENGO,54417,MAJENGO ‘C’,
SONGWE,54,MOMBA,544,MAJENGO,54417,MAJENGO MAPYA.,
SONGWE,54,MOMBA,544,MPANDE,54418,MPANDE KATI,
SONGWE,54,MOMBA,544,MPANDE,54418,MACHINJIONI,
SONGWE,54,MOMBA,544,MPANDE,54418,IPITO,
SONGWE,54,MOMBA,544,MPANDE,54418,MJI MWEMA,
SONGWE,54,MOMBA,544,MPANDE,54418,TAZARA,
SONGWE,54,MOMBA,544,CHAPWA,54419,CHAPWA,
SONGWE,54,MOMBA,544,CHAPWA,54419,IGAWA,
SONGWE,54,MOMBA,544,CHAPWA,54419,ISANZO,
SONGWE,54,MOMBA,544,CHAPWA,54419,MSAMPANIA,
SONGWE,54,MOMBA,544,CHAPWA,54419,KESELIA,
SONGWE,54,MOMBA,544,MAPOROMOKO,54420,SHULENI,
SONGWE,54,MOMBA,544,MAPOROMOKO,54420,MAGEUZI,
SONGWE,54,MOMBA,544,MAPOROMOKO,54420,MLIMANI,
SONGWE,54,MOMBA,544,MAPOROMOKO,54420,MAPOROMOKO,
SONGWE,54,MOMBA,544,KALOLENI,54421,NELLO,
SONGWE,54,MOMBA,544,KALOLENI,54421,KALOLENI,
SONGWE,54,MOMBA,544,KALOLENI,54421,DANIDA,
SONGWE,54,MOMBA,544,KALOLENI,54421,CUSTOM,
SONGWE,54,MOMBA,544,KALOLENI,54421,MIGOMBANI,
SONGWE,54,MOMBA,544,SOGEA,54422,SOGEA,
SONGWE,54,MOMBA,544,SOGEA,54422,JAKAYA,
SONGWE,54,MOMBA,544,SOGEA,54422,IKULU,
SONGWE,54,MOMBA,544,SOGEA,54422,HALF LONDON,
SONGWE,54,MOMBA,544,MAKAMBINI,54423,MAKAMBINI,
SONGWE,54,MOMBA,544,MAKAMBINI,54423,SOWETO,
SONGWE,54,MOMBA,544,MAKAMBINI,54423,KANANI,
SONGWE,54,MOMBA,544,MAKAMBINI,54423,TOKYO,
SONGWE,54,MOMBA,544,KATETE,54424,KATETE,
SONGWE,54,MOMBA,544,KATETE,54424,MLENDA,
SONGWE,54,MOMBA,544,KATETE,54424,NAMAZYANZYA,
SONGWE,54,MOMBA,544,KATETE,54424,NAKAUMBA,
SONGWE,54,MOMBA,544,KATETE,54424,FURA,
SONGWE,54,MOMBA,544,MPEMBA,54425,MPEMBA,
SONGWE,54,MOMBA,544,MPEMBA,54425,SEFU,
SONGWE,54,MOMBA,544,MPEMBA,54425,NANSELE,
SONGWE,54,MOMBA,544,MPEMBA,54425,KATENJELE,
SONGWE,54,MOMBA,544,MPEMBA,54425,KOKOTO,
SONGWE,54,MOMBA,544,MPEMBA,54425,NANDANGA,
SONGWE,54,MOMBA,544,MPEMBA,54425,MSINDE,
SONGWE,54,MOMBA,544,MUUNGANO,54426,MUUNGANO,
SONGWE,54,MOMBA,544,MUUNGANO,54426,SAYUNI,
SONGWE,54,MOMBA,544,MUUNGANO,54426,NAZARETI,
SONGWE,54,MOMBA,544,MUUNGANO,54426,MKOMBOZI,
SONGWE,54,MOMBA,544,MUUNGANO,54426,KISANGANI,
SONGWE,54,MOMBA,544,MWAKAKATI,54427,MWAKAKATI,
SONGWE,54,MOMBA,544,MWAKAKATI,54427,MALELANI,
SONGWE,54,MOMBA,544,MWAKAKATI,54427,SONGAMBELE,
SONGWE,54,MOMBA,544,MWAKAKATI,54427,GOROFANI,
SONGWE,54,MOMBA,544,CHIPAKA,54428,ZYAGWILA,
SONGWE,54,MOMBA,544,CHIPAKA,54428,MWL. NYERERE,
SONGWE,54,MOMBA,544,CHIPAKA,54428,KATETE,
SONGWE,54,MOMBA,544,CHIPAKA,54428,MSONGWA,
SONGWE,54,MOMBA,544,CHIPAKA,54428,CHIPAKA,
SONGWE,54,MOMBA,544,UWANJANI,54429,KILIMA HEWA,
SONGWE,54,MOMBA,544,UWANJANI,54429,MSASANI,
SONGWE,54,MOMBA,544,UWANJANI,54429,MBAGALA,
SONGWE,54,MOMBA,544,UWANJANI,54429,UWANJANI,
